0245763930999992008010100004+25733-100300FM-12+051599999V0201001N001012200019N0060001N1+02461+00331101441ADDAY141061AY241061GF102991001001999999001011IA1019KA1120M+02921KA2180N+00981MA1999999095781MD1210111+0021MW1051REMSYN124AAXX  01001 76393 31956 21001 10246 20033 39578 40144 52011 70544 80001 92355 333 10292 20098 30/// 50341 56005 58002 70000;
0199763930999992008010103004+25733-100300FM-12+051599999V0200901N001012200019N0030001N1+02061+00961101741ADDAY141031AY221031GA1001+999999999GF100991001001999999001001IA1019MA1999999096111MD1210341+0261MW1051REMSYN088AAXX  01031 76393 31930 00901 10206 20096 39611 40174 52034 70542 90250 333 30/// 58026;
0251763930999992008010106004+25733-100300FM-12+051599999V0209999C000012200019N0020001N1+01701+00731102151ADDAY141061AY221061GA1001+999999999GF100991001001999999001001GJ105229IA1019KA1240M+02921KA2240N+00981MA1999999096481MD1210371+0581MW1051REMSYN106AAXX  01061 76393 31920 00000 10170 20073 39648 40215 52037 70542 90550 333 10292 20098 30/// 55087 58058;
0217763930999992008010109004+25733-100300FM-12+051599999V0202501N002010090019N0020001N1+01481+00561102721ADDAY141031AY271031GA1081+009001061GF108991081051008001999999IA1019MA1999999096971MD1210471+1091MW1051REMSYN106AAXX  01091 76393 31520 82502 10148 20056 39697 40272 52047 70547 885// 90850 333 30/// 565// 58109 88630;
0272763930999992008010112004+25733-100300FM-12+051599999V0203601N003010066019N0040001N1+01141-00471103331ADDAA124000091AY141061AY271061GA1081+006601061GF108991081051008001999999IA1019KA1240M+02921KA2120N+01101MA1999999097471MD1210501+1611MW1051REMSYN124AAXX  01121 76393 31540 83603 10114 21047 39747 40333 52050 70547 885// 91150 333 10292 20110 30098 567// 58161 70000 88622;
0189763930999992008010115004+25733-100300FM-12+051599999V0200701N001010009019N0200001N1+01021-00941103751ADDGA1081+000901061GF108991081051000751999999IA1019MA1999999097821MD1210351+1831REMSYN100AAXX  01151 76393 32170 80701 10102 21094 39782 40375 52035 885// 91455 333 30/// 56399 58183 88603;
0227763930999992008010118004+25733-100300FM-12+051599999V0203501N001010075019N0200001N1+01121-00371103931ADDGA1081+007501061GF108991081051008001999999IA1019KA1120M+01721KA2240N+00981MA1999999097961MD1210141+2021REMSYN112AAXX  01181 76393 32570 83501 10112 21037 39796 40393 52014 885// 91755 333 10172 20098 30/// 56399 58202 88625;
0189763930999992008010121004+25733-100300FM-12+051599999V0200701N001010054019N0200001N1+01201-00661103691ADDGA1081+005401061GF108991081051004501999999IA1019MA1999999097701MD1710191+2031REMSYN100AAXX  01211 76393 32470 80701 10120 21066 39770 40369 57019 885// 92055 333 30/// 56399 58203 88618;
0234763930999992008010200004+25733-100300FM-12+051599999V0203001N001010021019N0200001N1+01161-00921103761ADDAA124000091GF108991081051002501999999IA1019KA1120M+01721KA2180N+00981MA1999999097771MD1610071+1991REMSYN124AAXX  02001 76393 32370 83001 10116 21092 39777 40376 56007 885// 92355 333 10172 20098 30/// 50441 56399 58199 70000 88608;
0223763930999992008010203004+25733-100300FM-12+051599999V0200901N003010048019N0040001N1+01101-00611103961ADDAY141031AY241031GA1071+004801061GF108991071051004501041999IA1019MA1999999097961MD1210131+1851MW1051REMSYN112AAXX  02031 76393 31440 80903 10110 21061 39796 40396 52013 70544 8754/ 90250 333 30/// 5635/ 58185 87616 81356;
0253763930999992008010206004+25733-100300FM-12+051599999V0201101N001019999999N0040001N1+01041-00311104081ADDAY141061AY241061GF107991071001999999051999GJ100009IA1019KA1240M+01721KA2240N+01071MA1999999098071MD1110111+1591MW1051REMSYN124AAXX  02061 76393 31940 71101 10104 21031 39807 40408 51011 70544 8705/ 90550 333 10172 20107 30/// 55000 5605/ 58159 87357;
0217763930999992008010209004+25733-100300FM-12+051599999V0200801N001010210019N0050001N1+00981-00521104091ADDAY141031AY241031GA1061+021001031GF106991061001999999031999IA1019MA1999999098071MD1010001+1101MW1051REMSYN106AAXX  02091 76393 31950 60801 10098 21052 39807 40409 50000 70544 8603/ 90850 333 30/// 5605/ 58110 86357;
0244763930999992008010212004+25733-100300FM-12+051599999V0201001N001012200019N0050001N1+00781-00721104161ADDAA124000091GA1011+021001031GF101991011001999999041001IA1019KA1240M+01721KA2120N+00761MA1999999098121MD1210151+0651REMSYN118AAXX  02121 76393 32950 11001 10078 21072 39812 40416 52015 81040 91150 333 10172 20076 30055 56050 58065 70000 81357;
0167763930999992008010215004+25733-100300FM-12+051599999V0200901N004012200019N0200001N1+00861-00621104521ADDGF101991001001999999001011IA1019MA1999999098441MD1210321+0621REMSYN094AAXX  02151 76393 32970 10904 10086 21062 39844 40452 52032 80001 91455 333 30/// 56005 58062;
0205763930999992008010218004+25733-100300FM-12+051599999V0201001N004012200019N0200001N1+01161-00701104481ADDGF101991001001999999001011IA1019KA1120M+01251KA2240N+00701MA1999999098401MD1710041+0511REMSYN106AAXX  02181 76393 32970 11004 10116 21070 39840 40448 57004 80001 91755 333 10125 20070 30/// 56005 58051;
0167763930999992008010221004+25733-100300FM-12+051599999V0200901N003012200019N0200001N1+01321-00751104051ADDGF101991001001999999001011IA1019MA1999999098011MD1710391+0311REMSYN094AAXX  02211 76393 32970 10903 10132 21075 39801 40405 57039 80001 92055 333 30/// 56005 58031;
0217763930999992008010300004+25733-100300FM-12+051599999V0201201N002012200019N0200001N1+01141-00411103921ADDGF102991011001022501031011IA1019KA1120M+01421KA2180N+00701MA1999999097921MD1710091+0151REMSYN118AAXX  03001 76393 32870 21202 10114 21041 39792 40392 57009 81031 92355 333 10142 20070 30/// 50521 56035 58015 70000;
0171763930999992008010315004+25733-100300FM-12+051599999V0209999C000012200019N0100001N1+00481-00351103921ADDGA1001+999999999GF100991001001999999001001IA1019MA1999999097801MD1410001-0641REMSYN082AAXX  03151 76393 32960 00000 10048 21035 39780 40392 54002 91455 333 30/// 59064;
0209763930999992008010318004+25733-100300FM-12+051599999V0200801N003012200019N0140001N1+01001-00121103751ADDGA1001+999999999GF100991001001999999001001IA1019KA1120M+01151KA2240N+00201MA1999999097641MD1610161-0761REMSYN094AAXX  03181 76393 32964 00803 10100 21012 39764 40375 56016 91755 333 10115 20020 30/// 59076;
0171763930999992008010321004+25733-100300FM-12+051599999V0200801N002012200019N0200001N1+01321+00011103271ADDGA1001+999999999GF100991001001999999001001IA1019MA1999999097221MD1710421-0791REMSYN082AAXX  03211 76393 32970 00802 10132 20001 39722 40327 57042 92055 333 30/// 59079;
0241763930999992008010400004+25733-100300FM-12+051599999V0201201N003012200019N0200001N1+01321-00371103021ADDAA124000091GF101991001001999999001041KA1120M+01501KA2180N+00201MA1999999097041MD1710181-0881REMSYN118AAXX  04001 76393 32970 11203 10132 21037 39704 40302 57018 81004 92355 333 10150 20020 50261 56005 59088 70000 81074;EQDQ01+000012SCOTLC
0199763930999992008010403004+25733-100300FM-12+051599999V0202601N001012200019N0030001N1+01121+00091102991ADDAY141031AY241031GA1001+999999999GF100991001001999999001001IA1019MA1999999097061MD1010021+0001MW1051REMSYN088AAXX  04031 76393 31930 02601 10112 20009 39706 40299 50002 70544 90250 333 30/// 58000;
0251763930999992008010406004+25733-100300FM-12+051599999V0200901N001012200019N0030001N1+00921+00091102871ADDAY101061AY201061GA1001+999999999GF100991001001999999001001GJ105409IA1019KA1240M+01421KA2240N+00951MA1999999096941MD1710121+0001MW1051REMSYN106AAXX  04061 76393 31930 00901 10092 20009 39694 40287 57012 70500 90550 333 10142 20095 30/// 55090 58000;
0199763930999992008010409004+25733-100300FM-12+051599999V0209999C000012200019N0030001N1+00721+00151102731ADDAY101031AY201031GA1001+999999999GF100991001001999999001001IA1019MA1999999096791MD1710151+0001MW1051REMSYN088AAXX  04091 76393 31930 00000 10072 20015 39679 40273 57015 70500 90850 333 30/// 58000;
0285763930999992008010412004+25733-100300FM-12+051599999V0209999C000012200019N0030001N1+00581-00021102681ADDAA124000091AY101061AY201061GA1001+999999999GF100991001001999999001001IA1019IA2999+00259KA1240M+01501KA2120N+00551MA1999999096701MD1710091+0001MW1051REMSYN106AAXX  04121 76393 31930 00000 10058 21002 39670 40268 57009 70500 91150 333 10150 20055 30025 58000 70000;EQDQ01  00002PRCP24
0199763930999992008010503004+25733-100300FM-12+051599999V0209999C000012200019N0030001N1+01641+00671102141ADDAY141031AY241031GA1001+999999999GF100991001001999999001001IA1019MA1999999096361MD1610021-0701MW1051REMSYN088AAXX  05031 76393 31930 00000 10164 20067 39636 40214 56002 70544 90250 333 30/// 59070;
0251763930999992008010506004+25733-100300FM-12+051599999V0209999C000012200019N0030001N1+01401+00741102171ADDAY141061AY241061GA1001+999999999GF100991001001999999001001GJ105349IA1019KA1240M+02321KA2240N+00551MA1999999096371MD1210011-0571MW1051REMSYN106AAXX  05061 76393 31930 00000 10140 20074 39637 40217 52001 70544 90550 333 10232 20055 30/// 55089 59057;
0199763930999992008010509004+25733-100300FM-12+051599999V0209999C000012200019N0030001N1+01141+00651102031ADDAY141031AY241031GA1001+999999999GF100991001001999999001001IA1019MA1999999096211MD1710161-0581MW1051REMSYN088AAXX  05091 76393 31930 00000 10114 20065 39621 40203 57016 70544 90850 333 30/// 59058;
0272763930999992008010512004+25733-100300FM-12+051599999V0209999C000012200019N0030001N1+01041+00621101971ADDAA124000091AY141061AY241061GA1011+060001001GF101991001001999999001011IA1019KA1240M+02321KA2120N+00941MA1999999096131MD1610081-0571MW1051REMSYN124AAXX  05121 76393 31930 10000 10104 20062 39613 40197 56008 70544 80001 91150 333 10232 20094 30062 56007 59057 70000 81070;
0180763930999992008010515004+25733-100300FM-12+051599999V0201901N001019999999N0040001N1+01421+00411999999ADDAY141031AY211031GF106991999999999999999999MD1410001+9999MW1051REMSYN106AAXX  05151 76393 31940 61901 10142 20041 54000 70541 70541 86004 86004 91455 333 30/// 56005 59059 86074;
0246763930999992008010518004+25733-100300FM-12+051599999V0200901N001012200019N0150001N1+02161+00411101941ADDGA1011+072001001GF101991001001999999001041IA1019KA1120M+02451KA2240N+00941MA1999999096111MD1410001-0311REMSYN112AAXX  05181 76393 32965 10901 10216 20041 39611 40194 54002 81004 91755 333 10245 20094 30/// 56005 59031 81074;EQDQ01+000012SCOTLC
0236763930999992008010521004+25733-100300FM-12+051599999V0201101N003012200019N0040001N1+02601+00751101481ADDAY141031AY201031GA1011+072001001GF101991001001999999001041IA1019MA1999999095731MD1710381-0711MW1051REMSYN106AAXX  05211 76393 31940 11103 10260 20075 39573 40148 57038 70540 81004 92055 333 30/// 56005 59071 81074;EQDQ01+000012SCOTLC
0253763930999992008010600004+25733-100300FM-12+051599999V0200901N001012200019N0180001N1+02401+00691101401ADDAA124000091GF101991001001999999001041IA1019KA1120M+02751KA2180N+00941MA1999999095731MD1410001-0631REMSYN124AAXX  06001 76393 32968 10901 10240 20069 39573 40140 54000 81004 92355 333 10275 20094 30/// 50241 56005 59063 70000 81074;EQDQ01+000012SCOTLC
0171763930999992008010603004+25733-100300FM-12+051599999V0209999C000012200019N0150001N1+01941+00821101491ADDGA1001+999999999GF100991001001999999001001IA1019MA1999999095851MD1210121-0511REMSYN082AAXX  06031 76393 32965 00000 10194 20082 39585 40149 52012 90250 333 30/// 59051;
0223763930999992008010606004+25733-100300FM-12+051599999V0209999C000012200019N0150001N1+01641+00861101521ADDGA1001+999999999GF100991001001999999001001GJ105049IA1019KA1240M+02751KA2240N+00941MA1999999095861MD1310011-0511REMSYN100AAXX  06061 76393 32965 00000 10164 20086 39586 40152 53001 90550 333 10275 20094 30/// 55084 59051;
0171763930999992008010609004+25733-100300FM-12+051599999V0209999C000012200019N0150001N1+01281+00851101481ADDGA1001+999999999GF100991001001999999001001IA1019MA1999999095771MD1710091-0441REMSYN082AAXX  06091 76393 32965 00000 10128 20085 39577 40148 57009 90850 333 30/// 59044;
0245763930999992008010612004+25733-100300FM-12+051599999V0209999C000012200019N0150001N1+01161+00871101421ADDAA124000091GA1001+999999999GF100991001001999999001001IA1019KA1240M+02751KA2120N+01021MA1999999095651MD1710121-0481REMSYN100AAXX  06121 76393 32965 00000 10116 20087 39565 40142 57012 91150 333 10275 20102 30080 59048 70000;EQDQ01  00002PRCP24
0199763930999992008010615004+25733-100300FM-12+051599999V0209999C000012200019N0030001N1+01461+00751101611ADDAY141031AY241031GA1001+999999999GF100991001001999999001001IA1019MA1999999095791MD1210141-0341MW1041REMSYN088AAXX  06151 76393 31930 00000 10146 20075 39579 40161 52014 70444 91455 333 30/// 59034;
0233763930999992008010618004+25733-100300FM-12+051599999V0201101N001012200019N0040001N1+02171+00931101521ADDAY141061AY241061GF101991001001999999001011IA1019KA1120M+02301KA2240N+01021MA1999999095721MD1710071-0391MW1041REMSYN112AAXX  06181 76393 31940 11101 10217 20093 39572 40152 57007 70444 80001 91755 333 10230 20102 30/// 56003 59039;
0195763930999992008010621004+25733-100300FM-12+051599999V0201001N002012200019N0080001N1+02721+00931101131ADDAY141031AY241031GF101991001001999999001011IA1019MA1999999095411MD1710311-0321MW1051REMSYN100AAXX  06211 76393 31958 11002 10272 20093 39541 40113 57031 70544 80001 92055 333 30/// 56003 59032;
0245763930999992008010700004+25733-100300FM-12+051599999V0209999C000012200019N0120001N1+02521+00891101011ADDAY141061AY241061GF101991001001999999001011IA1019KA1120M+02821KA2180N+01021MA1999999095361MD1710051-0371MW1051REMSYN124AAXX  07001 76393 31962 10000 10252 20089 39536 40101 57005 70544 80001 92355 333 10282 20102 30/// 50231 56005 59037 70000;
0202763930999992008010703004+25733-100300FM-12+051599999V0202901N001012200019N0050001N1+02021+01061101091ADDAA109999999AY141031AY221031GA1001+999999999GF100991001001999999001001MD1210121+0371MW1051REMSYN082AAXX  07031 76393 31950 02901 10202 20106 40109 52012 69548 70542 90250 333 58037;EQDQ01  95402PRCP09
0251763930999992008010706004+25733-100300FM-12+051599999V0209999C000012200019N0030001N1+01861+01171101101ADDAY141061AY241061GA1001+999999999GF100991001001999999001001GJ105049IA1019KA1240M+02821KA2240N+01021MA1999999095491MD1110011-0371MW1051REMSYN106AAXX  07061 76393 31930 00000 10186 20117 39549 40110 51001 70544 90550 333 10282 20102 30/// 55084 59037;
0199763930999992008010709004+25733-100300FM-12+051599999V0209999C000012200019N0030001N1+01441+01171101071ADDAY141031AY241031GA1001+999999999GF100991001001999999001001IA1019MA1999999095421MD1710071-0351MW1051REMSYN088AAXX  07091 76393 31930 00000 10144 20117 39542 40107 57007 70544 90850 333 30/// 59035;
0273763930999992008010712004+25733-100300FM-12+051599999V0202801N001012200019N0030001N1+01321+01121101101ADDAA124000091AY141061AY241061GA1001+999999999GF100991001001999999001001IA1019KA1240M+02821KA2120N+01241MA1999999095381MD1710041-0271MW1051REMSYN106AAXX  07121 76393 31930 02801 10132 20112 39538 40110 57004 70544 91150 333 10282 20124 30092 59027 70000;EQDQ01  00002PRCP24
0232763930999992008010715004+25733-100300FM-12+051599999V0202501N001012200019N0020001N1+01721+00881101291ADDAA118955092AY141031AY201031GA1021+072001001GF102991001001999999001041IA1019MD1310151-0261MW1051REMSYN106AAXX  07151 76393 31920 22501 10172 20088 40129 53015 69553 70540 82004 91455 333 30/// 56005 59026 82074;EQDQ01+000022SCOTLC
0274763930999992008010718004+25733-100300FM-12+051599999V0200901N001012200019N0040001N1+02381+01191101241ADDAY141061AY201061GA1021+072001001GF102991001001999999001041IA1019KA1120M+02451KA2240N+01241MA1999999095491MD1410001-0231MW1051REMSYN118AAXX  07181 76393 31940 20901 10238 20119 39549 40124 54004 70540 82004 91755 333 10245 20124 30/// 56005 59023 82074;EQDQ01+000022SCOTLC
0208763930999992008010721004+25733-100300FM-12+051599999V0200401N002010720019N0100001N1+02921+01051100771ADDGA1061+072001001GF106991001001999999001041IA1019MA1999999095111MD1710381-0301REMSYN100AAXX  07211 76393 32960 60402 10292 20105 39511 40077 57038 86004 92055 333 30/// 56005 59030 86074;EQDQ01+000062SCOTLC
0256763930999992008010800004+25733-100300FM-12+051599999V0200601N002010900019N0180001N1+02701+01081100651ADDAA124000091GA1031+024001031GF106991031001022501041031IA1019KA1120M+03081KA2180N+01241MA1999999095071MD1410001-0291REMSYN130AAXX  08001 76393 32868 60602 10270 20108 39507 40065 54004 83043 92355 333 10308 20124 30/// 50301 56055 59029 70000 83358 83074;
0199763930999992008010803004+25733-100300FM-12+051599999V0202801N001012200019N0030001N1+02301+01041100771ADDAY101031AY201031GA1001+999999999GF100991001001999999001001IA1019MA1999999095221MD1210151-0261MW1051REMSYN088AAXX  08031 76393 31930 02801 10230 20104 39522 40077 52015 70500 90250 333 30/// 59026;
0251763930999992008010806004+25733-100300FM-12+051599999V0209999C000012200019N0030001N1+01881+01041100821ADDAY101061AY201061GA1001+999999999GF100991001001999999001001GJ105169IA1019KA1240M+03081KA2240N+01241MA1999999095261MD1110041-0231MW1051REMSYN106AAXX  08061 76393 31930 00000 10188 20104 39526 40082 51004 70500 90550 333 10308 20124 30/// 55086 59023;
0199763930999992008010809004+25733-100300FM-12+051599999V0209999C000012200019N0030001N1+01661+00971100881ADDAY101031AY201031GA1001+999999999GF100991001001999999001001IA1019MA1999999095271MD1210011-0151MW1051REMSYN088AAXX  08091 76393 31930 00000 10166 20097 39527 40088 52001 70500 90850 333 30/// 59015;
0273763930999992008010812004+25733-100300FM-12+051599999V0209999C000012200019N0030001N1+01481+00881100981ADDAA124000091AY101061AY201061GA1001+999999999GF100991001001999999001001IA1019KA1240M+03081KA2120N+01481MA1999999095301MD1210031-0081MW1051REMSYN106AAXX  08121 76393 31930 00000 10148 20088 39530 40098 52003 70500 91150 333 10308 20148 30103 59008 70000;EQDQ01  00002PRCP24
0195763930999992008010815004+25733-100300FM-12+051599999V0201701N001012200019N0040001N1+02341+00041101321ADDAY141031AY241031GF101991001001999999001011IA1019MA1999999095601MD1210301+0071MW1051REMSYN100AAXX  08151 76393 31940 11701 10234 20004 39560 40132 52030 70544 80001 91455 333 30/// 56005 58007;
0233763930999992008010818004+25733-100300FM-12+051599999V0203601N002012200019N0060001N1+02891+00151101431ADDAY141061AY241061GF101991001001999999001011IA1019KA1120M+03061KA2240N+01481MA1999999095751MD1210151+0261MW1051REMSYN112AAXX  08181 76393 31956 13602 10289 20015 39575 40143 52015 70544 80001 91755 333 10306 20148 30/// 56005 58026;
0195763930999992008010821004+25733-100300FM-12+051599999V0203601N002012200019N0100001N1+02811+00631101301ADDAY141031AY241031GF102991001001999999001011IA1019MA1999999095681MD1710071+0571MW1051REMSYN100AAXX  08211 76393 31960 23602 10281 20063 39568 40130 57007 70544 80001 92055 333 30/// 56005 58057;
0217763930999992008010900004+25733-100300FM-12+051599999V0203601N001012200019N0140001N1+02481+00331101471ADDGF102991001001999999001011IA1019KA1120M+03071KA2180N+01481MA1999999095881MD1210201+0811REMSYN118AAXX  09001 76393 32964 23601 10248 20033 39588 40147 52020 80001 92355 333 10307 20148 30/// 50511 56005 58081 70000;
0199763930999992008010903004+25733-100300FM-12+051599999V0209999C000012200019N0030001N1+02161+00571101751ADDAY141031AY221031GA1001+999999999GF100991001001999999001001IA1019MA1999999096131MD1210281+0941MW1051REMSYN088AAXX  09031 76393 31930 00000 10216 20057 39613 40175 52028 70542 90250 333 30/// 58094;
0263763930999992008010906004+25733-100300FM-12+051599999V0209999C000012200019N0030001N1+01941+00471101871ADDAY141061AY241061GA1011+060001001GF101991001001999999001011GJ105229IA1019KA1240M+03071KA2240N+01481MA1999999096231MD1010071+0971MW1051REMSYN118AAXX  09061 76393 31930 10000 10194 20047 39623 40187 50007 70544 80001 90550 333 10307 20148 30/// 55087 58097 81070;
0199763930999992008010909004+25733-100300FM-12+051599999V0209999C000012200019N0030001N1+01741+00301101861ADDAY141031AY241031GA1001+999999999GF100991001001999999001001IA1019MA1999999096171MD1810061-0101MW1051REMSYN088AAXX  09091 76393 31930 00000 10174 20030 39617 40186 58006 70544 90850 333 30/// 59010;
0272763930999992008010912004+25733-100300FM-12+051599999V0201601N001012200019N0030001N1+01621+00621101881ADDAA124000091AY141061AY241061GA1011+009901061GF101991011041012501001001IA1019KA1240M+02331KA2120N+01461MA1999999096151MD1510021+0851MW1051REMSYN124AAXX  09121 76393 31630 11601 10162 20062 39615 40188 55002 70544 81400 91150 333 10233 20146 30114 56500 58085 70000 81633;
0220763930999992008010915004+25733-100300FM-12+051599999V0209999C000010600019N0060001N1+01661+00531101881ADDGA1061+060001001GF106991001001999999001021IA1019MA1999999096121MD1010031+0521MW1051REMSYN106AAXX  09151 76393 31956 60000 10166 20053 39612 40188 50003 705// 86002 91450 333 30/// 56005 58052 86070;EQDQ01+000062SCOTLC
0245763930999992008010918004+25733-100300FM-12+051599999V0202101N001012200019N0160001N1+01921+00941101771ADDGA1011+021001031GF103991031001999999031041IA1019KA1120M+03071KA2240N+01481MA1999999096011MD1710111+0261MW1051REMSYN124AAXX  09181 76393 31966 32101 10192 20094 39601 40177 57011 705// 83034 91750 333 10307 20148 30/// 56055 58026 81357 82070;
0195763930999992008010921004+25733-100300FM-12+051599999V0201201N001019999999N0070001N1+02181+00571101261ADDGA1021+018001031GF107991071001999999051041IA1019MA1999999095541MD1710471-0141REMSYN106AAXX  09211 76393 31957 71201 10218 20057 39554 40126 57047 87054 92050 333 30/// 56055 59014 82356 85070;
0253763930999992008011000004+25733-100300FM-12+051599999V0200901N001019999999N0070001N1+02061+00671101111ADDAA124000091GF107991001001999999001041IA1019KA1120M+02351KA2180N+01461MA1999999095421MD1710121-0461REMSYN124AAXX  10001 76393 32957 70901 10206 20067 39542 40111 57012 87004 92350 333 10235 20146 30/// 50355 56005 59046 70000 87070;EQDQ01+000072SCOTLC
0208763930999992008011003004+25733-100300FM-12+051599999V0203301N002010720019N0180001N1+01781+00461101121ADDGA1061+072001001GF106991001001999999001041IA1019MA1999999095451MD1410001-1611REMSYN100AAXX  10031 76393 32968 63302 10178 20046 39545 40112 54003 86004 90255 333 30/// 56005 59161 86074;EQDQ01+000062SCOTLC
0244763930999992008011006004+25733-100300FM-12+051599999V0200801N001019999999N0150001N1+01701+00561101111ADDGF105991001001999999001041GJ104389IA1019KA1240M+02351KA2240N+01461MA1999999095431MD1410001-0801REMSYN118AAXX  10061 76393 32965 50801 10170 20056 39543 40111 54002 85004 90555 333 10235 20146 30/// 55073 56005 59080 85074;EQDQ01+000052SCOTLC
0208763930999992008011009004+25733-100300FM-12+051599999V0202901N001010720019N0130001N1+01541+00561100991ADDGA1051+072001001GF105991001001999999001041IA1019MA1999999095291MD1610141-0881REMSYN100AAXX  10091 76393 32963 52901 10154 20056 39529 40099 56014 85004 90855 333 30/// 56005 59088 85074;EQDQ01+000052SCOTLC
0263763930999992008011012004+25733-100300FM-12+051599999V0202601N002012200019N0120001N1+01501+00561101051ADDAA124000091GA1041+072001001GF104991001001999999001041IA1019KA1240M+02351KA2120N+01421MA1999999095321MD1410001-0831REMSYN118AAXX  10121 76393 32962 42602 10150 20056 39532 40105 54003 84004 91155 333 10235 20142 30105 56005 59083 70000 84074;EQDQ01+000042SCOTLC
0223763930999992008011015004+25733-100300FM-12+051599999V0201201N001019999999N0100001N1+02081+00191101171ADDAY141031AY241031GA1031+060001001GF107991001001999999001091IA1019MA1999999095431MD1210111-0691MW1051REMSYN112AAXX  10151 76393 31960 71201 10208 20019 39543 40117 52011 70544 80009 91455 333 30/// 56005 59069 83070 84170;
0255763930999992008011018004+25733-100300FM-12+051599999V0203601N002010180019N0050001N1+02411+00181101331ADDAY141061AY241061GA1051+018001031GF107991051001022501031021IA1019KA1120M+02701KA2240N+01421MA1999999095611MD1110181-0401MW1051REMSYN118AAXX  10181 76393 31850 73602 10241 20018 39561 40133 51018 70544 85032 91755 333 10270 20142 30/// 56055 59040 85356;
0223763930999992008011021004+25733-100300FM-12+051599999V0200701N00201036001CN0100001N1+02371+00071101171ADDAY141031AY241031GA1021+018001061GF107991021051017501031011IA1019MA1999999095501MD1510111-0041MW1051REMSYN112AAXX  10211 76393 31760 70702 10237 20007 39550 40117 55011 70544 82531 92050 333 30/// 56555 59004 82656 84359;
0234763930999992008011100004+25733-100300FM-12+051599999V0209999C000019999999N0160001N1+02101+00071101171ADDAA124000091GF105991001001999999001061IA1019KA1120M+02601KA2180N+01421MA1999999095531MD1210031+0111REMSYN124AAXX  11001 76393 32966 50000 10210 20007 39553 40117 52003 80006 92355 333 10260 20142 30/// 50501 56005 58011 70000 85070;
0217763930999992008011103004+25733-100300FM-12+051599999V0201601N001012200019N0050001N1+01901+00431101341ADDAY141031AY221031GA1011+060001001GF102991001001999999001011IA1019MA1999999095691MD1210151+0241MW1051REMSYN106AAXX  11031 76393 31950 21601 10190 20043 39569 40134 52015 70542 80001 90250 333 30/// 56005 58024 81070;
0251763930999992008011106004+25733-100300FM-12+051599999V0209999C000012200019N0030001N1+01641+00361101481ADDAY141061AY241061GA1001+999999999GF100991001001999999001001GJ101509IA1019KA1240M+02601KA2240N+01421MA1999999095801MD1210111+0371MW1051REMSYN106AAXX  11061 76393 31930 00000 10164 20036 39580 40148 52011 70544 90550 333 10260 20142 30/// 55025 58037;
0199763930999992008011109004+25733-100300FM-12+051599999V0209999C000012200019N0030001N1+01201+00451101451ADDAY141031AY241031GA1001+999999999GF100991001001999999001001IA1019MA1999999095721MD1710081+0431MW1051REMSYN088AAXX  11091 76393 31930 00000 10120 20045 39572 40145 57008 70544 90850 333 30/// 58043;
0273763930999992008011112004+25733-100300FM-12+051599999V0201101N001012200019N0030001N1+01341+00081101461ADDAA124000091AY141061AY241061GA1001+999999999GF100991001001999999001001IA1019KA1240M+01981KA2120N+01151MA1999999095691MD1010031+0371MW1051REMSYN106AAXX  11121 76393 31930 01101 10134 20008 39569 40146 50003 70544 91150 333 10198 20115 30087 58037 70000;EQDQ01  00002PRCP24
0224763930999992008011115004+25733-100300FM-12+051599999V0209999C000012200019N0180001N1+01541+00771101551ADDGA1011+060001001GF199999001001999999001999IA1019MA1999999095741MD1010051+0311REMSYN100AAXX  11151 76393 32968 00000 10154 20077 39574 40155 50005 81004 91450 333 30/// 56005 58031 81070;EQDQ01+000002SCOTCVQ02+000002SCOHCG
0239763930999992008011118004+25733-100300FM-12+051599999V0200501N001012200019N0180001N1+02001+00631101451ADDGA1021+021001031GF102991021001999999031001IA1019KA1120M+02181KA2240N+01151MA1999999095661MD1210081+0051MW1051REMSYN118AAXX  11181 76393 31968 20501 10200 20063 39566 40145 52008 705// 82030 91750 333 10218 20115 30/// 56050 58005 82357;
0183763930999992008011121004+25733-100300FM-12+051599999V0201001N002012200019N0180001N1+02281+00201100911ADDGA1001+999999999GF100991001001999999001001IA1019MA1999999095201MD1710461-0301MW1051REMSYN088AAXX  11211 76393 31968 01002 10228 20020 39520 40091 57046 705// 92050 333 30/// 59030;
0279763930999992008011200004+25733-100300FM-12+051599999V0209999C000012200019N0160001N1+02161+00051100851ADDAA124000091AY101061AY201061GA1001+999999999GF100991001001999999001001IA1019KA1120M+02501KA2180N+01151MA1999999095191MD1010011-0341MW1051REMSYN112AAXX  12001 76393 31966 00000 10216 20005 39519 40085 50001 70500 92350 333 10250 20115 30/// 50307 59034 70000;EQDQ01  00002PRCP24
0199763930999992008011203004+25733-100300FM-12+051599999V0202801N001012200019N0060001N1+01841+00451100921ADDAY141031AY201031GA1001+999999999GF100991001001999999001001IA1019MA1999999095271MD1210081-0421MW1051REMSYN088AAXX  12031 76393 31956 02801 10184 20045 39527 40092 52008 70540 90250 333 30/// 59042;
0251763930999992008011206004+25733-100300FM-12+051599999V0209999C000012200019N0080001N1+01501+00561101031ADDAY141061AY201061GA1001+999999999GF100991001001999999001001GJ105529IA1019KA1240M+02501KA2240N+01151MA1999999095371MD1210101-0431MW1051REMSYN106AAXX  12061 76393 31958 00000 10150 20056 39537 40103 52010 70540 90550 333 10250 20115 30/// 55092 59043;
0199763930999992008011209004+25733-100300FM-12+051599999V0209999C000012200019N0080001N1+01301+00531101061ADDAY141031AY201031GA1001+999999999GF100991001001999999001001IA1019MA1999999095351MD1510021-0371MW1051REMSYN088AAXX  12091 76393 31958 00000 10130 20053 39535 40106 55002 70540 90855 333 30/// 59037;
0273763930999992008011212004+25733-100300FM-12+051599999V0209999C000012200019N0080001N1+01181+00521101161ADDAA124000091AY141061AY201061GA1001+999999999GF100991001001999999001001IA1019KA1240M+02501KA2120N+01001MA1999999095391MD1210041-0301MW1051REMSYN106AAXX  12121 76393 31958 00000 10118 20052 39539 40116 52004 70540 91150 333 10250 20100 30085 59030 70000;EQDQ01  00002PRCP24
0199763930999992008011215004+25733-100300FM-12+051599999V0202601N002012200019N0050001N1+01621+00421101301ADDAY141031AY241031GA1001+999999999GF100991001001999999001001IA1019MA1999999095501MD1210111-0241MW1041REMSYN088AAXX  12151 76393 31950 02602 10162 20042 39550 40130 52011 70444 91455 333 30/// 59024;
0237763930999992008011218004+25733-100300FM-12+051599999V0200901N002012200019N0040001N1+02441+00001101381ADDAY141061AY241061GA1001+999999999GF100991001001999999001001IA1019KA1120M+02501KA2240N+01001MA1999999095601MD1210101-0061MW1041REMSYN100AAXX  12181 76393 31940 00902 10244 20000 39560 40138 52010 70444 91755 333 10250 20100 30/// 59006;
0199763930999992008011221004+25733-100300FM-12+051599999V0203601N002012200019N0120001N1+02571-00181101141ADDAY141031AY241031GA1001+999999999GF100991001001999999001001IA1019MA1999999095441MD1710161+0241MW1041REMSYN088AAXX  12211 76393 31962 03602 10257 21018 39544 40114 57016 70444 92055 333 30/// 58024;
0279763930999992008011300004+25733-100300FM-12+051599999V0203401N001012200019N0120001N1+02301-00401101271ADDAA124000091AY141061AY241061GA1001+999999999GF100991001001999999001001IA1019KA1120M+02741KA2180N+01001MA1999999095621MD1210181-0171MW1041REMSYN112AAXX  13001 76393 31962 03401 10230 21040 39562 40127 52018 70444 92355 333 10274 20100 30/// 50461 59017 70000;EQDQ01  00002PRCP24
0199763930999992008011303004+25733-100300FM-12+051599999V0203501N001012200019N0030001N1+01941+00691101631ADDAY141031AY221031GA1001+999999999GF100991001001999999001001IA1019MA1999999095991MD1210371+0721MW1051REMSYN088AAXX  13031 76393 31930 03501 10194 20069 39599 40163 52037 70542 90250 333 30/// 58072;
0251763930999992008011306004+25733-100300FM-12+051599999V0209999C000012200019N0030001N1+01501-00412101891ADDAY141061AY241061GA1001+999999999GF100991001001999999001001GJ105589IA1019KA1240M+02601KA2240N+01201MA1999999096211MD1210221+0841MW1051REMSYN106AAXX  13061 76393 31930 00000 10150 21041 39621 40189 52022 70544 90550 333 10260 20120 30/// 55093 58084;
0144763930999992008011309004+25733-100300FM-12+051599999V0202801N002012200019N0030001N1+01421-00271999999ADDGA1001+999999999GF100991001001999999001001REMSYN090AAXX  13091 76393 31930 02802 10142 21027 3 39622 40196 55001 70544 90850 333 30/// 58087;
0171763930999992008011315004+25733-100300FM-12+051599999V0202201N001012200019N0150001N1+01241-00181102281ADDGA1001+999999999GF100991001001999999001001IA1019MA1999999096421MD1310091+0921REMSYN082AAXX  13151 76393 32965 02201 10124 21018 39642 40228 53009 91455 333 30/// 58092;
0209763930999992008011318004+25733-100300FM-12+051599999V0201001N002012200019N0200001N1+01661-00321102271ADDGA1001+999999999GF100991001001999999001001IA1019KA1120M+01801KA2240N+00981MA1999999096401MD1410001+0801REMSYN094AAXX  13181 76393 32970 01002 10166 21032 39640 40227 54002 91755 333 10180 20098 30/// 58080;
0240763930999992008011321004+25733-100300FM-12+051599999V0200901N003012200019N0200001N1+01921-00251101542ADDGA1011+072001001GF101991001001999999001041IA1019MA1999999095742MD1710661+0301REMSYN100AAXX  13211 76393 32970 10903 10192 21025 39574 40154 57066 81004 92055 333 30/// 56005 58030 81074;EQDQ01+000012SCOTLCQ02+095743APOSP Q03+101543APOSLP
0253763930999992008011400004+25733-100300FM-12+051599999V0200901N002012200019N0200001N1+01701-00321101811ADDAA124000091GF102991001001999999001041IA1019KA1120M+02051KA2180N+00981MA1999999096021MD1210281+0401REMSYN124AAXX  14001 76393 32970 20902 10170 21032 39602 40181 52028 82004 92355 333 10205 20098 30/// 50541 56005 58040 70000 82074;EQDQ01+000022SCOTLC
0171763930999992008011403004+25733-100300FM-12+051599999V0201201N001012200019N0150001N1+01541-00021102041ADDGA1001+999999999GF100991001001999999001001IA1019MA1999999096251MD1210231+0261REMSYN082AAXX  14031 76393 32965 01201 10154 21002 39625 40204 52023 90250 333 30/// 58026;
0225763930999992008011406004+25733-100300FM-12+051599999V0201101N002019999999N0150001N1+01201+00501102151ADDGF105991051001999999051001GJ105469IA1019KA1240M+02051KA2240N+00981MA1999999096351MD1210101+0141REMSYN118AAXX  14061 76393 32965 51102 10120 20050 39635 40215 52010 85050 90550 333 10205 20098 30/// 55091 56050 58014 85359;
0217763930999992008011409004+25733-100300FM-12+051599999V0200901N001010051019N0100001N1+01081+00581102201ADDAY141031AY221031GA1071+005101061GF107991071051004501999999IA1019MA1999999096361MD1810011+0141MW1051REMSYN106AAXX  14091 76393 31460 70901 10108 20058 39636 40220 58001 70542 875// 90850 333 30/// 56399 58014 87617;
0272763930999992008011412004+25733-100300FM-12+051599999V0200901N002012200019N0080001N1+01021+00761102291ADDAA124000091AY141061AY221061GA1041+002701061GF104991041051002501001001IA1019KA1240M+02051KA2120N+00901MA1999999096411MD1210051+0081MW1051REMSYN124AAXX  14121 76393 31358 40902 10102 20076 39641 40229 52005 70542 84500 91150 333 10205 20090 30080 56300 58008 70000 84609;
0189763930999992008011415004+25733-100300FM-12+051599999V0203001N001010033019N0140001N1+01061+00681102511ADDGA1051+003301061GF107991051051004501001021IA1019MA1999999096591MD1210181+0171REMSYN100AAXX  14151 76393 32464 73001 10106 20068 39659 40251 52018 85502 91455 333 30/// 56305 58017 85611;
0172763930999992008011418004+25733-100300FM-12+051599999V0200901N002019999999N0060001N1+01181+00911102511ADDAA106000021AY141061AY241061GF108991999999002501999999MA1999999096581MD1710011+9999MW1501REMSYN072AAXX  14181 76393 01356 80902 10118 20091 39658 40251 57001 69901 75044;
0189763930999992008011421004+25733-100300FM-12+051599999V0201001N002010018019N0060001N1+01141+00961102211ADDGA1081+001801061GF108991081051001501999999IA1019MA1999999096311MD1710271+0571REMSYN100AAXX  14211 76393 31256 81002 10114 20096 39631 40221 57027 885// 92055 333 30/// 563// 58057 88606;
0172763930999992008011500004+25733-100300FM-12+051599999V0200901N002019999999N0030001N1+01111+01021102221ADDAA106000021AY141061AY241061GF108991999999000751999999MA1999999096311MD1410001+9999MW1501REMSYN072AAXX  15001 76393 01130 80902 10111 20102 39631 40222 54000 69901 75044;
0228763930999992008011503004+25733-100300FM-12+051599999V0200701N002010009019N0030001N1+01071+00981102241ADDAA103000991AY141031AY251031GA1081+000901071GF108991081061000751999999IA1099MA1999999096331MD1110021+0081MW1051REMSYN106AAXX  15031 76393 21130 80702 10107 20098 39633 40224 51002 70545 886// 90250 333 31/// 58008 69997 88703;
0172763930999992008011506004+25733-100300FM-12+051599999V0201101N002019999999N0030001N1+01121+01051102221ADDAA106001091AY141061AY251061GF108991999999000751999999MA1999999096311MD1710021+9999MW1501REMSYN072AAXX  15061 76393 01130 81102 10112 20105 39631 40222 57002 69991 75045;
0234763930999992008011509004+25733-100300FM-12+051599999V0200601N002010006019N0020001N1+01121+01051102131ADDAA103002091AY151031AY251031GA1081+000601071GF108991081061000751999999IA1119MA1999999096231MD1710081-0131MW1501REMSYN112AAXX  15091 76393 21120 80602 10112 20105 39623 40213 57008 75055 886// 90850 333 32/// 563// 59013 60027 88702;
0172763930999992008011512004+25733-100300FM-12+051599999V0203601N001019999999N0020001N1+01001+00961102101ADDAA106007991AY161061AY261061GF108991999999000251999999MA1999999096201MD1310031+9999MW1521REMSYN072AAXX  15121 76393 01020 83601 10100 20096 39620 40210 53003 60081 75266;
0172763930999992008011518004+25733-100300FM-12+051599999V0200301N001019999999N0010001N1+01021+00951102181ADDAA118008991AY151061AY221061GF108991999999000751999999MA1999999096261MD1410001+9999MW1501REMSYN072AAXX  15181 76393 11110 80301 10102 20095 39626 40218 54003 60093 75052;
0172763930999992008011600004+25733-100300FM-12+051599999V0200901N002019999999N0010001N1+01081+01041101521ADDAA106007191AY151061AY221061GF108991999999000251999999MA1999999095631MD1410001+9999MW1501REMSYN072AAXX  16001 76393 01010 80902 10108 20104 39563 40152 54005 60071 75052;
0234763930999992008011603004+25733-100300FM-12+051599999V0202701N001010003019N0010001N1+00921+00881101641ADDAA103001091AY151031AY221031GA1081+000301071GF108991081061000251999999IA1099MA1999999095751MD1210121-0581MW1501REMSYN112AAXX  16031 76393 21010 82701 10092 20088 39575 40164 52012 75052 886// 90250 333 31/// 56399 59058 60017 88701;
0172763930999992008011606004+25733-100300FM-12+051599999V0202301N001019999999N0020001N1+00981+00941101551ADDAA106004191AY151061AY221061GF108991999999000751999999MA1999999095661MD1710111+9999MW1501REMSYN072AAXX  16061 76393 11120 82301 10098 20094 39566 40155 57011 60041 75052;
0217763930999992008011609004+25733-100300FM-12+051599999V0203601N001012200019N0030001N1+00921+00811101331ADDAY141031AY201031GA1021+010801061GF102991021051012501001001IA1099MA1999999095451MD1710211-0781MW1051REMSYN106AAXX  16091 76393 31630 23601 10092 20081 39545 40133 57021 70540 82500 90850 333 31/// 56300 59078 82636;
0272763930999992008011612004+25733-100300FM-12+051599999V0209999C000012200019N0040001N1+00821+00701101331ADDAA124018191AY141061AY201061GA1031+001201071GF103991031071001501001001IA1019KA1240M+01161KA2120N+00701MA1999999095441MD1510011-0761MW1051REMSYN124AAXX  16121 76393 31240 30000 10082 20070 39544 40133 55001 70540 83700 91150 333 10116 20070 30060 56300 59076 70181 83704;
0199763930999992008011615004+25733-100300FM-12+051599999V0201701N001012200019N0030001N1+01061+00911101491ADDAY141031AY241031GA1001+999999999GF100991001001999999001001IA1099MA1999999095591MD1210151-0701MW1051REMSYN088AAXX  16151 76393 31930 01701 10106 20091 39559 40149 52015 70544 91455 333 31/// 59070;
0255763930999992008011618004+25733-100300FM-12+051599999V0200901N002012200019N0050001N1+01601+01051101471ADDAY141061AY241061GA1011+005401081GF102991011011004501001011IA1099KA1120M+01751KA2240N+00701MA1999999095591MD1410001-0671MW1041REMSYN118AAXX  16181 76393 31450 20902 10160 20105 39559 40147 54000 70444 81101 91755 333 10175 20070 31/// 56404 59067 81818;
0195763930999992008011621004+25733-100300FM-12+051599999V0200901N003012200019N0060001N1+02071+00971100981ADDAY141031AY241031GF101991001001999999001011IA1099MA1999999095811MD1710411-0501MW1051REMSYN100AAXX  16211 76393 31956 10903 10207 20097 39581 40098 57041 70544 80001 92055 333 31/// 56005 59050;
0262763930999992008011700004+25733-100300FM-12+051599999V0201101N001019999999N0120001N1+01841+00911101021ADDAA124003691AY141061AY241061GF105991001001999999001061IA1099KA1120M+02181KA2180N+00701MA1999999095281MD1210101-0351MW1051REMSYN130AAXX  17001 76393 31962 51101 10184 20091 39528 40102 52010 70544 80006 92355 333 10218 20070 31/// 50201 56005 59035 70036 85070;
0220763930999992008011703004+25733-100300FM-12+051599999V0200101N001012200019N0030001N1+01521+00881101151ADDGA1041+060001001GF104991001001999999001051IA1019MA1999999095431MD1210151-0341MW1051REMSYN106AAXX  17031 76393 31930 40101 10152 20088 39543 40115 52015 705// 84005 90250 333 30/// 56005 59034 84070;EQDQ01+000042SCOTLC
0256763930999992008011706004+25733-100300FM-12+051599999V0200601N001019999999N0030001N1+01201+00911101191ADDGF107991001001999999001051GJ104869IA1019KA1240M+02181KA2240N+00701MA1999999095461MD1110031-0201MW1051REMSYN124AAXX  17061 76393 31930 70601 10120 20091 39546 40119 51003 705// 87005 90550 333 10218 20070 30/// 55081 56005 59020 87070;EQDQ01+000072SCOTLC
0220763930999992008011709004+25733-100300FM-12+051599999V0209999C000012200019N0030001N1+01001+00851101251ADDGA1031+060001001GF103991001001999999001011IA1019MA1999999095471MD1110011+0021MW1051REMSYN106AAXX  17091 76393 31930 30000 10100 20085 39547 40125 51001 705// 83001 90850 333 30/// 56005 58002 83070;EQDQ01+000032SCOTLC
0272763930999992008011712004+25733-100300FM-12+051599999V0209999C000010102019N0010001N1+01041+01001101361ADDAA124000091AY141061AY241061GA1081+010201071GF108991081061008001999999IA1019KA1240M+02181KA2120N+00761MA1999999095531MD1210061+0091MW1051REMSYN124AAXX  17121 76393 31510 80000 10104 20100 39553 40136 52006 70544 886// 91150 333 10218 20076 30075 563// 58009 70000 88734;
0217763930999992008011715004+25733-100300FM-12+051599999V0202601N001010015019N0010001N1+01201+01061101661ADDAY141031AY221031GA1081+001501061GF108991081061001501999999IA1019MA1999999095801MD1210271+0211MW1051REMSYN106AAXX  17151 76393 31210 82601 10120 20106 39580 40166 52027 70542 886// 91455 333 30/// 56399 58021 88605;
0272763930999992008011718004+25733-100300FM-12+051599999V0203601N001010015019N0010001N1+00881+00721101851ADDAA103000991AY151061AY221061GA1081+001501071GF108991081061001501999999IA1099KA1120M+01261KA2240N+00761MA1999999095951MD1210151+0361MW1501REMSYN124AAXX  17181 76393 21210 83601 10088 20072 39595 40185 52015 75052 886// 91755 333 10126 20076 31/// 56399 58036 69997 88705;
0251763930999992008011721004+25733-100300FM-12+051599999V0200301N001010018019N0010001N1+00661+00491101701ADDAA103002092AA206001092AY151031AY221031GA1081+001801071GF108991081061001501999999IA1119MA1999999095791MD1010261+0611MW1501REMSYN118AAXX  17211 76393 11210 80301 10066 20049 39579 40170 50026 60011 75052 886// 92055 333 32/// 56399 58061 60027 88706;
0172763930999992008011800004+25733-100300FM-12+051599999V0203601N001019999999N0010001N1+00541+00411101771ADDAA106003091AY151061AY221061GF108991999999001501999999MA1999999095841MD1610051+9999MW1501REMSYN072AAXX  18001 76393 01210 83601 10054 20041 39584 40177 56005 60031 75052;
0234763930999992008011803004+25733-100300FM-12+051599999V0203601N001010006019N0006001N1+00461+00421101981ADDAA103000491AY151031AY221031GA1081+000601071GF108991081061000751999999IA1099MA1999999096001MD1210161+0571MW1501REMSYN112AAXX  18031 76393 21106 83601 10046 20042 39600 40198 52016 75052 886// 90250 333 31/// 56399 58057 69947 88702;
0172763930999992008011806004+25733-100300FM-12+051599999V0203601N001019999999N0005001N1+00421+00381102021ADDAA106001091AY151061AY221061GF108991999999000251999999MA1999999096011MD1010011+9999MW1501REMSYN072AAXX  18061 76393 01005 83601 10042 20038 39601 40202 50001 60011 75052;
0234763930999992008011809004+25733-100300FM-12+051599999V0200301N001010012019N0005001N1+00501+00371101921ADDAA103001091AY151031AY221031GA1081+001201071GF108991081061001501999999IA1099MA1999999095911MD1710101+0441MW1501REMSYN112AAXX  18091 76393 21205 80301 10050 20037 39591 40192 57010 75052 886// 90850 333 31/// 56399 58044 60017 88704;
0172763930999992008011812004+25733-100300FM-12+051599999V0203401N001019999999N0005001N1+00401+00311101871ADDAA106001091AY151061AY221061GF108991999999000751999999MA1999999095841MD1510071+9999MW1501REMSYN072AAXX  18121 76393 01105 83401 10040 20031 39584 40187 55007 60011 75052;
0234763930999992008011815004+25733-100300FM-12+051599999V0200401N001010060019N0006001N1+00401+00311101971ADDAA103000991AY151031AY251031GA1081+006001071GF108991081071000751999999IA1099MA1999999095941MD1210101+0141MW1501REMSYN112AAXX  18151 76393 21106 80401 10040 20031 39594 40197 52010 75055 887// 91450 333 31/// 563// 58014 69997 88720;
0172763930999992008011818004+25733-100300FM-12+051599999V0200401N001019999999N0010001N1+00621+00451101961ADDAA106001091AY141061AY241061GF108991999999001501999999MA1999999095941MD1010001+9999MW1051REMSYN072AAXX  18181 76393 01210 80401 10062 20045 39594 40196 50000 69991 70544;
0217763930999992008011821004+25733-100300FM-12+051599999V0200601N001010048019N0030001N1+00801+00321101571ADDAY141031AY241031GA1081+004801071GF108991081071004501999999IA1019MA1999999095521MD1710421-0271MW1051REMSYN106AAXX  18211 76393 31430 80601 10080 20032 39552 40157 57042 70544 887// 92050 333 30/// 563// 59027 88716;
0279763930999992008011900004+25733-100300FM-12+051599999V0200301N001010021019N0020001N1+00721+00481101571ADDAA103000991AA224999929AY151061AY251061GF108991081071002501999999IA1019KA1120M+00951KA2180N+00341MA1999999095601MD1210081-0241MW1051REMSYN136AAXX  19001 76393 21320 80301 10072 20048 39560 40157 52008 70555 887// 92350 333 10095 20034 30/// 50304 563// 59024 69997 79999 88708;
0234763930999992008011903004+25733-100300FM-12+051599999V0200301N001010006019N0020001N1+00701+00621101981ADDAA103000991AY151031AY201031GA1081+000601071GF108991081061000751999999IA1099MA1999999096001MD1210401+0001MW1051REMSYN112AAXX  19031 76393 21120 80301 10070 20062 39600 40198 52040 70550 886// 90250 333 31/// 563// 58000 69997 88702;
0172763930999992008011906004+25733-100300FM-12+051599999V0209999C000012200019N0030001N1+00761+00391102181ADDAA106001091AY141061AY221061GF102991999999004501999999MA1999999096211MD1210211+9999MW1051REMSYN072AAXX  19061 76393 11430 20000 10076 20039 39621 40218 52021 69991 70542;
0266763930999992008011912004+25733-100300FM-12+051599999V0209999C000012200019N0030001N1+00581+00411102361ADDAA124000021AY141061AY221061GA1001+999999999GF100991001001999999001001IA1019IA2999+00309KA1240M+00761KA2120N+00481MA1999999096361MD1210171+0521MW1051REMSYN106AAXX  19121 76393 31930 00000 10058 20041 39636 40236 52017 70542 91150 333 10076 20048 30030 58052 79999;
0236763930999992008011915004+25733-100300FM-12+051599999V0201101N001012200019N0030001N1+00801+00291102741ADDAY141031AY201031GA1011+072001001GF101991001001999999001041IA1019MA1999999096711MD1210351+0771MW1051REMSYN106AAXX  19151 76393 31930 11101 10080 20029 39671 40274 52035 70540 81004 91455 333 30/// 56005 58077 81074;EQDQ01+000012SCOTLC
0255763930999992008011918004+25733-100300FM-12+051599999V0203501N002012200019N0040001N1+01221+00181102951ADDAY141061AY201061GA1011+024001031GF101991011001022501041001IA1019KA1120M+01321KA2240N+00481MA1999999096931MD1210221+0991MW1051REMSYN118AAXX  19181 76393 31840 13502 10122 20018 39693 40295 52022 70540 81040 91755 333 10132 20048 30/// 56050 58099 81358;
0189763930999992008011921004+25733-100300FM-12+051599999V0200401N001012200019N0200001N1+01461+00201102681ADDGA1031+012601061GF103991031041012501001001IA1019MA1999999096721MD1710211+1201REMSYN100AAXX  19211 76393 32670 30401 10146 20020 39672 40268 57021 83400 92055 333 30/// 56300 58120 83642;
0253763930999992008012000004+25733-100300FM-12+051599999V0200901N002012200019N0170001N1+01281+00461102601ADDAA124999999GF104991041041008001001001IA1019KA1120M+01601KA2180N+00481MA1999999096681MD1610041+1081REMSYN124AAXX  20001 76393 32567 40902 10128 20046 39668 40260 56004 84400 92355 333 10160 20048 30/// 50131 56300 58108 79999 84627;EQDQ01  99992PRCP24
0183763930999992008012003004+25733-100300FM-12+051599999V0201301N002010066019N0150001N1+01021+99999102781ADDGA1071+006601061GF108991071051008001999999IA1019MA1999999096861MD1210181+0861REMSYN094AAXX  20031 76393 32565 81302 10102 39686 40278 52018 875// 90250 333 30/// 56399 58086 87622;
0235763930999992008012006004+25733-100300FM-12+051599999V0201201N001010045019N0150001N1+00841+00391102831ADDGA1081+004501061GF108991081051004501999999GJ104629IA1019KA1240M+01601KA2240N+00481MA1999999096911MD1110051+0701REMSYN112AAXX  20061 76393 32465 81201 10084 20039 39691 40283 51005 885// 90550 333 10160 20048 30/// 55077 58070 88615;
0189763930999992008012009004+25733-100300FM-12+051599999V0200601N001010045019N0150001N1+00841+00391102751ADDGA1081+004501061GF108991081051004501999999IA1019MA1999999096801MD1710111+0611REMSYN100AAXX  20091 76393 32465 80601 10084 20039 39680 40275 57011 885// 90850 333 30/// 56399 58061 88615;
0284763930999992008012012004+25733-100300FM-12+051599999V0200901N001010030019N0100001N1+00601+00301102781ADDAA124000091AY141061AY221061GA1061+003001061GF106991061051004501001001IA1019IA2999+00389KA1240M+01601KA2120N+00481MA1999999096801MD1410001+0441MW1051REMSYN124AAXX  20121 76393 31460 60901 10060 20030 39680 40278 54000 70542 86500 91145 333 10160 20048 30038 56300 58044 70000 86610;
0217763930999992008012015004+25733-100300FM-12+051599999V0201001N003010060019N0100001N1+00721+00121102901ADDAY141031AY241031GA1051+006001061GF106991051051008001001011IA1099MA1999999096881MD1210081+0171MW1051REMSYN106AAXX  20151 76393 31560 61003 10072 20012 39688 40290 52008 70544 85501 91455 333 31/// 56405 58017 85620;
0255763930999992008012018004+25733-100300FM-12+051599999V0201001N002010057019N0120001N1+00821+00241102821ADDAY141061AY241061GA1081+005701061GF108991081051004501999999IA1099KA1120M+00901KA2240N+00481MA1999999096831MD1710031-0101MW1051REMSYN118AAXX  20181 76393 31462 81002 10082 20024 39683 40282 57003 70544 885// 91755 333 10090 20048 31/// 564// 59010 88619;
0217763930999992008012021004+25733-100300FM-12+051599999V0201001N002010087019N0120001N1+01151+00271102501ADDAY141031AY241031GA1071+008701061GF107991071051008001999999IA1099MA1999999096501MD1710351-0221MW1051REMSYN106AAXX  20211 76393 31562 71002 10115 20027 39650 40250 57035 70544 875// 92055 333 31/// 564// 59022 87629;
0256763930999992008012100004+25733-100300FM-12+051599999V0201101N002010120019N0140001N1+01181+00381102391ADDAA124000091GA1011+007801081GF107991071081008001999999IA1099KA1120M+01251KA2180N+00481MA1999999096431MD1710071-0251REMSYN130AAXX  21001 76393 32564 71102 10118 20038 39643 40239 57007 878// 92355 333 10125 20048 31/// 50251 564// 59025 70000 81826 86636;
0217763930999992008012103004+25733-100300FM-12+051599999V0201001N003012200019N0080001N1+01161+00501102351ADDAY141031AY221031GA1021+006601061GF102991021041008001001001IA1019MA1999999096421MD1610011-0441MW1051REMSYN106AAXX  21031 76393 31558 21003 10116 20050 39642 40235 56001 70542 82400 90250 333 30/// 56499 59044 82622;
0251763930999992008012106004+25733-100300FM-12+051599999V0201001N002012200019N0050001N1+00981+00671102261ADDAY141061AY221061GA1001+999999999GF100991001001999999001001GJ101449IA1019KA1240M+01251KA2240N+00481MA1999999096351MD1710071-0561MW1051REMSYN106AAXX  21061 76393 31950 01002 10098 20067 39635 40226 57007 70542 90550 333 10125 20048 30/// 55024 59056;
0196763930999992008012109004+25733-100300FM-12+051599999V0209999C000012200019N0030001N1+00761+00681102131ADDAY141031AY261031GA1031+000601071GF103991031061000751001001IA1019MD1710131-0581MW1051REMSYN100AAXX  21091 76393 31130 30000 10076 20068 40213 57013 70546 83600 90850 333 30/// 563// 59058 83702;
0285763930999992008012112004+25733-100300FM-12+051599999V0202601N001012200019N0030001N1+00641+00471102061ADDAA124000091AY141061AY221061GA1001+999999999GF100991001001999999001001IA1019IA2999+00409KA1240M+01181KA2120N+00621MA1999999096121MD1610101-0681MW1051REMSYN106AAXX  21121 76393 31930 02601 10064 20047 39612 40206 56010 70542 91150 333 10118 20062 30040 59068 70000;EQDQ01  00002PRCP24
0199763930999992008012115004+25733-100300FM-12+051599999V0202901N001012200019N0020001N1+00921+00481102241ADDAY141031AY201031GA1001+999999999GF100991001001999999001001IA1019MA1999999096271MD1310151-0611MW1051REMSYN088AAXX  21151 76393 31920 02901 10092 20048 39627 40224 53015 70540 91455 333 30/// 59061;
0227763930999992008012118004+25733-100300FM-12+051599999V0202801N001012200019N0080001N1+01561+00681102171ADDGA1011+072001001GF101991001001999999001041IA1019KA1120M+01701KA2240N+00621MA1999999096241MD1410001-0611REMSYN112AAXX  21181 76393 32958 12801 10156 20068 39624 40217 54003 81004 91755 333 10170 20062 30/// 56005 59061 81074;
0236763930999992008012121004+25733-100300FM-12+051599999V0201401N001012200019N0030001N1+02121+00711101701ADDAY141031AY201031GA1011+072001001GF101991001001999999001041IA1019MA1999999095861MD1710381-0641MW1051REMSYN106AAXX  21211 76393 31930 11401 10212 20071 39586 40170 57038 70540 81004 92055 333 30/// 56005 59064 81074;EQDQ01+000012SCOTLC
0253763930999992008012200004+25733-100300FM-12+051599999V0201201N001012200019N0180001N1+02121+00751101551ADDAA124000091GF101991001001999999001041IA1019KA1120M+02301KA2180N+00621MA1999999095791MD1610061-0641REMSYN124AAXX  22001 76393 32968 11201 10212 20075 39579 40155 56006 81004 92355 333 10230 20062 30/// 50161 56005 59064 70000 81074;EQDQ01+000012SCOTLC
0189763930999992008012203004+25733-100300FM-12+051599999V0209999C000010600019N0180001N1+01741+01021101701ADDGA1061+060001001GF106991001001999999001041IA1019MA1999999095981MD1210191-0441REMSYN100AAXX  22031 76393 32968 60000 10174 20102 39598 40170 52019 80004 90245 333 30/// 56005 59044 86070;
0275763930999992008012206004+25733-100300FM-12+051599999V0209999C00001027001CN0100001N1+01481+01031101801ADDAY141061AY221061GA1061+027001031GF107991061001999999051041GJ105529IA1019KA1240M+02301KA2240N+00621MA1999999096061MD1210081-0291MW1051REMSYN130AAXX  22061 76393 31960 70000 10148 20103 39606 40180 52008 70542 86054 90550 333 10230 20062 30/// 55092 56055 59029 86359 81070;
0199763930999992008012209004+25733-100300FM-12+051599999V0209999C000012200019N0100001N1+01201+00911101741ADDAY141031AY211031GA1001+999999999GF100991001001999999001001IA1019MA1999999095961MD1710101-0261MW1051REMSYN088AAXX  22091 76393 32960 00000 10120 20091 39596 40174 57010 70541 90850 333 30/// 59026;
0278763930999992008012212004+25733-100300FM-12+051599999V0202701N001012200019N0080001N1+01141+00731101411ADDAA124000091AY141061AY211061GA1021+014101031GF104991021001022501051041IA1019KA1240M+02301KA2120N+01001MA1999999095921MD1710041-0201MW1051REMSYN130AAXX  22121 76393 31858 42701 10114 20073 39592 40141 57004 70541 82054 91150 333 10230 20100 30090 56055 59020 70000 82347 82070;
0217763930999992008012215004+25733-100300FM-12+051599999V0202701N001010600019N0040001N1+01461+00751101861ADDAY141031AY241031GA1051+060001001GF105991001001999999001061IA1019MA1999999096011MD1210091-0261MW1051REMSYN106AAXX  22151 76393 31940 52701 10146 20075 39601 40186 52009 70544 80006 91455 333 30/// 56005 59026 85070;
0255763930999992008012218004+25733-100300FM-12+051599999V0203601N001010600019N0040001N1+02221+00901101911ADDAY141061AY241061GA1061+060001001GF107991011001022501031061IA1019KA1120M+02321KA2240N+01001MA1999999096081MD1210071-0161MW1051REMSYN118AAXX  22181 76393 31840 73601 10222 20090 39608 40191 52007 70544 81036 91755 333 10232 20100 30/// 56055 59016 86070;
0217763930999992008012221004+25733-100300FM-12+051599999V0200901N002010600019N0060001N1+02501+01061101571ADDAY141031AY241031GA1051+060001001GF106991011001022501031061IA1019MA1999999095811MD1710271-0051MW1041REMSYN106AAXX  22211 76393 31856 60902 10250 20106 39581 40157 57027 70444 81036 92055 333 30/// 56055 59005 85070;
0262763930999992008012300004+25733-100300FM-12+051599999V0201001N001010900019N0080001N1+02321+01051101561ADDAA124000091AY141061AY241061GF107991011001022501031061IA1019KA1120M+02651KA2180N+01001MA1999999095871MD1210061+9999MW1041REMSYN130AAXX  23001 76393 31858 71001 10232 20105 39587 40156 52006 70444 81036 92355 333 10265 20100 30/// 50231 56055 56008 70000 86070;
0242763930999992008012303004+25733-100300FM-12+051599999V0203501N001019999999N0050001N1+01981+01191101871ADDAY141031AY221031GA1021+018001031GF105991999001999999031021IA1019MA1999999096201MD1210331+0221MW1051REMSYN112AAXX  23031 76393 31950 53501 10198 20119 39620 40187 52033 70542 80032 90250 333 30/// 56055 58022 82356 83070;EQDQ01+000002SCOTLC
0272763930999992008012306004+25733-100300FM-12+051599999V0209999C000012200019N0050001N1+01741+01251101901ADDAY141061AY261061GF104991999001999999031001GJ104689IA1019KA1240M+02651KA2240N+01001MA1999999096211MD1010011+0151MW1051REMSYN124AAXX  23061 76393 31950 40000 10174 20125 39621 40190 50001 70546 80030 90550 333 10265 20100 30/// 55078 56050 58015 84356;EQDQ01+000002SCOTLC
0217763930999992008012309004+25733-100300FM-12+051599999V0209999C000010051019N0050001N1+01621+01111101781ADDAY141031AY251031GA1081+005101061GF108991081051004501999999IA1019MA1999999096071MD1710141+0111MW1051REMSYN106AAXX  23091 76393 31450 80000 10162 20111 39607 40178 57014 70545 885// 90850 333 30/// 565// 58011 88617;
0278763930999992008012312004+25733-100300FM-12+051599999V0209999C000012200019N0050001N1+01471+01181101651ADDAA124000091AY141061AY221061GA1011+002701061GF102991011041002501011001IA1019KA1240M+02651KA2120N+01381MA1999999095961MD1610111+0041MW1051REMSYN130AAXX  23121 76393 31350 20000 10147 20118 39596 40165 56011 70542 81410 91150 333 10265 20138 30125 56559 58004 70000 81609 81356;
0217763930999992008012315004+25733-100300FM-12+051599999V0200401N001012200019N0030001N1+01541+01171101881ADDAY141031AY201031GA1011+024001031GF101991011001022501031001IA1019MA1999999096091MD1310131+0081MW1051REMSYN106AAXX  23151 76393 31830 10401 10154 20117 39609 40188 53013 70540 81030 91455 333 30/// 56050 58008 81358;
0274763930999992008012318004+25733-100300FM-12+051599999V0201201N002012200019N0060001N1+02101+01261101651ADDAY141061AY241061GA1011+072001001GF101991001001999999001041IA1019KA1120M+02201KA2240N+01381MA1999999095971MD1610121-0111MW1051REMSYN118AAXX  23181 76393 31956 11202 10210 20126 39597 40165 56012 70544 81004 91755 333 10220 20138 30/// 56005 59011 81074;EQDQ01+000012SCOTLC
0189763930999992008012321004+25733-100300FM-12+051599999V0200901N003012200019N0100001N1+02221+01371101381ADDGA1011+008401061GF101991011041008001001001IA1019MA1999999095651MD1710321-0161REMSYN100AAXX  23211 76393 32560 10903 10222 20137 39565 40138 57032 81400 92055 333 30/// 56300 59016 81628;
0256763930999992008012400004+25733-100300FM-12+051599999V0200901N004012200019N0120001N1+02021+01351101301ADDAA124000091GA1011+024001031GF104991011001022501031041IA1019KA1120M+02341KA2180N+01381MA1999999095601MD1410001-0271REMSYN130AAXX  24001 76393 32862 40904 10202 20135 39560 40130 54005 81034 92355 333 10234 20138 30/// 50301 56055 59027 70000 81358 83074;
0201763930999992008012403004+25733-100300FM-12+051599999V0200901N001010270019N0030001N1+01461+01301101491ADDGA1071+027001031GF107991071001999999051999IA1019MA1999999095781MD1210181-0421MW1051REMSYN106AAXX  24031 76393 31930 70901 10146 20130 39578 40149 52018 705// 8705/ 90250 333 30/// 5605/ 59042 87359;
0237763930999992008012406004+25733-100300FM-12+051599999V0200901N001010021019N0020001N1+01421+01191101671ADDGF108991081061002501999999GJ105289IA1019KA1240M+02341KA2240N+01381MA1999999095931MD1210151-0181MW1051REMSYN124AAXX  24061 76393 31320 80901 10142 20119 39593 40167 52015 705// 886// 90555 333 10234 20138 30/// 55088 563// 59018 88708;
0150763930999992008012409004+25733-100300FM-12+051599999V0200901N001019999999N0008001N1+01281+01251999999ADDGF108991999999000251999999REMSYN112AAXX  24091 76393 21008 80901 10128 20125 0850 39593 40172 5000 70543 887// 9 333 30/// 563// 59014 69997 88701;
0172763930999992008012412004+25733-100300FM-12+051599999V0209999C000019999999N0008001N1+01161+01061101881ADDAA106001091AY141061AY231061GF108991999999001501999999MA1999999096041MD1210111+9999MW1051REMSYN072AAXX  24121 76393 01208 80000 10116 20106 39604 40188 52011 69991 70543;
0234763930999992008012415004+25733-100300FM-12+051599999V0203601N001010018019N0020001N1+01151+00951102261ADDAA103000491AY151031AY251031GA1081+001801061GF108991081051002501999999IA1099MA1999999096381MD1210341+0291MW1501REMSYN112AAXX  24151 76393 21320 83601 10115 20095 39638 40226 52034 75055 885// 91458 333 31/// 568// 58029 69947 88606;
0172763930999992008012418004+25733-100300FM-12+051599999V0203301N001019999999N0020001N1+01061+00911102361ADDAA106000591AY151061AY251061GF108991999999001501999999MA1999999096471MD1010091+9999MW1501REMSYN072AAXX  24181 76393 01220 83301 10106 20091 39647 40236 50009 69941 75055;
0234763930999992008012421004+25733-100300FM-12+051599999V0203301N001010018019N0020001N1+01081+00901102201ADDAA103000021AY151031AY251031GA1081+001801061GF108991081051001501999999IA1099MA1999999096301MD1710171+0751MW1051REMSYN112AAXX  24211 76393 21220 83301 10108 20090 39630 40220 57017 70555 885// 92055 333 31/// 568// 58075 69907 88606;
0172763930999992008012500004+25733-100300FM-12+051599999V0200901N001019999999N0040001N1+01101+00821102251ADDAA106000021AY141061AY241061GF108991999999002501999999MA1999999096341MD1210041+9999MW1051REMSYN072AAXX  25001 76393 11340 80901 10110 20082 39634 40225 52004 69901 70544;
0234763930999992008012503004+25733-100300FM-12+051599999V0200901N001010003019N0020001N1+00901+00901102461ADDAA103000391AY151031AY261031GA1081+000301071GF108991081071000251999999IA1099MA1999999096531MD1210191+0751MW1051REMSYN112AAXX  25031 76393 21020 80901 10090 20090 39653 40246 52019 70556 887// 90250 333 31/// 568// 58075 69937 88701;
0172763930999992008012506004+25733-100300FM-12+051599999V0203301N001019999999N0020001N1+00781+00741102561ADDAA106002091AY151061AY251061GF108991999999000251999999MA1999999096611MD1210081+9999MW1501REMSYN072AAXX  25061 76393 01020 83301 10078 20074 39661 40256 52008 60021 75055;
0234763930999992008012509004+25733-100300FM-12+051599999V0200701N001010003019N0020001N1+00741+00701102411ADDAA103002091AY151031AY251031GA1081+000301071GF108991081071000251999999IA1119MA1999999096451MD1710161+0421MW1501REMSYN112AAXX  25091 76393 21020 80701 10074 20070 39645 40241 57016 75055 887// 90850 333 32/// 568// 58042 60027 88701;
0172763930999992008012512004+25733-100300FM-12+051599999V0203401N001019999999N0020001N1+00681+00561102511ADDAA106003091AY151061AY251061GF108991999999001501999999MA1999999096521MD1210071+9999MW1501REMSYN072AAXX  25121 76393 01220 83401 10068 20056 39652 40251 52007 60031 75055;
0234763930999992008012515004+25733-100300FM-12+051599999V0209999C000010009019N0000001N1+00741+00661102531ADDAA103000191AY141031AY241031GA1081+000901071GF108991081071000751999999IA1099MA1999999096531MD1010011+0151MW1051REMSYN112AAXX  25151 76393 11100 80000 10074 20066 39653 40253 50001 70544 887// 91450 333 31/// 563// 58015 69917 88703;
0180763930999992008012518004+25733-100300FM-12+051599999V0200801N001019999999N0008001N1+01101+00851102501ADDAY141061AY241061GF108991999999002501999999MA1999999096511MD1010021+9999MW1051REMSYN072AAXX  25181 76393 11308 80801 10110 20085 39651 40250 50002 69911 70544;EQDQ01  00002PRCP06
0223763930999992008012521004+25733-100300FM-12+051599999V0200501N001010051019N0010001N1+01401+00901102191ADDAY141031AY241031GA1051+005101061GF107991051041004501001021IA1019MA1999999096251MD1710261-0051MW1051REMSYN112AAXX  25211 76393 31410 70501 10140 20090 39625 40219 57026 70544 85402 92050 333 30/// 56503 59005 85617 82070;
0306763930999992008012600004+25733-100300FM-12+051599999V0200901N001010360019N0030001N1+01261+00861102221ADDAA124000191AY141061AY241061GA1031+003901071GA2011+021001031GF108991031061004501031021IA1019KA1120M+01521KA2180N+00541MA1999999096311MD1010061-0031MW1051REMSYN142AAXX  26001 76393 31430 80901 10126 20086 39631 40222 50006 70544 83632 92350 333 10152 20054 30/// 50238 56853 59003 70001 83713 81357 84070;
0217763930999992008012603004+25733-100300FM-12+051599999V0200901N001010018019N0040001N1+01021+00871102451ADDAY141031AY221031GA1071+001801061GF107991071061001501999999IA1019MA1999999096551MD1210241+0021MW1051REMSYN106AAXX  26031 76393 31240 70901 10102 20087 39655 40245 52024 70542 876// 90250 333 30/// 56399 58002 87606;
0253763930999992008012606004+25733-100300FM-12+051599999V0200801N001010012019N0050001N1+01021+00841102501ADDAY141061AY221061GF108991081051001501999999GJ100309IA1019KA1240M+01521KA2240N+00541MA1999999096591MD1210041-0021MW1051REMSYN124AAXX  26061 76393 31250 80801 10102 20084 39659 40250 52004 70542 885// 90550 333 10152 20054 30/// 55005 56399 59002 88606;
0217763930999992008012609004+25733-100300FM-12+051599999V0209999C000010018019N0050001N1+01001+00851102441ADDAY141031AY221031GA1081+001801061GF108991081051001501999999IA1019MA1999999096521MD1710071+0071MW1051REMSYN106AAXX  26091 76393 31250 80000 10100 20085 39652 40244 57007 70542 885// 90850 333 30/// 56399 58007 88606;
0272763930999992008012612004+25733-100300FM-12+051599999V0209999C000010015019N0030001N1+00921+00761102521ADDAA124000191AY141061AY221061GA1081+001501061GF108991081051001501999999IA1019KA1240M+01521KA2120N+00801MA1999999096571MD1210051+0051MW1051REMSYN124AAXX  26121 76393 31230 80000 10092 20076 39657 40252 52005 70542 885// 91145 333 10152 20080 30070 56399 58005 70001 88605;
0217763930999992008012615004+25733-100300FM-12+051599999V0209999C000012200019N0020001N1+01081+00841102681ADDAY141031AY241031GA1041+060001001GF104991001001999999001061IA1099MA1999999096721MD1210081+0191MW1051REMSYN106AAXX  26151 76393 31920 40000 10108 20084 39672 40268 52008 70544 80006 91455 333 31/// 56005 58019 84070;
0255763930999992008012618004+25733-100300FM-12+051599999V0200901N001010600019N0020001N1+01821+01041102591ADDAY141061AY241061GA1061+060001001GF107991011001022501031061IA1099KA1120M+01971KA2240N+00801MA1999999096671MD1710051+0161MW1041REMSYN118AAXX  26181 76393 31820 70901 10182 20104 39667 40259 57005 70444 81036 91755 333 10197 20080 31/// 56055 58016 86070;
0223763930999992008012621004+25733-100300FM-12+051599999V0200901N00101220001CN0050001N1+02181+00901102181ADDAY141031AY241031GA1031+018001031GF106991031001022501031061IA1099MA1999999096341MD1710331+0091MW1051REMSYN112AAXX  26211 76393 31850 60901 10218 20090 39634 40218 57033 70544 83036 92055 333 31/// 56055 58009 83356 83070;
0262763930999992008012700004+25733-100300FM-12+051599999V0201101N002010210019N0070001N1+01901+00981102271ADDAA124000091AY141061AY241061GF107991051001022501071011IA1019KA1120M+02401KA2180N+00801MA1999999096471MD1210131+0161MW1051REMSYN130AAXX  27001 76393 31857 71102 10190 20098 39647 40227 52013 70544 85071 92355 333 10240 20080 30/// 50171 56055 58016 70000 85356;
0236763930999992008012703004+25733-100300FM-12+051599999V0200301N001012200019N0050001N1+01741+01061102411ADDAY141031AY221031GA1041+018001031GF104991999001999999041999IA1019MA1999999096641MD1210171+0091MW1051REMSYN106AAXX  27031 76393 31950 40301 10174 20106 39664 40241 52017 70542 8004/ 90250 333 30/// 56050 58009 84356;EQDQ01+000002SCOTLC
0259763930999992008012706004+25733-100300FM-12+051599999V0200501N001019999999N0030001N1+01481+01071102431ADDAY141061AY261061GF106991001001999999041999GJ103969IA1019KA1240M+02401KA2240N+00801MA1999999096661MD1210021+0071MW1051REMSYN130AAXX  27061 76393 31930 60501 10148 20107 39666 40243 52002 70546 8004/ 90550 333 10240 20080 30/// 55066 5605/ 58007 52356 84456;
0236763930999992008012709004+25733-100300FM-12+051599999V0209999C000012200019N0030001N1+01281+01041102411ADDAY141031AY221031GA1011+018001041GF101991999001999999011001IA1019MA1999999096601MD1710061+0081MW1051REMSYN106AAXX  27091 76393 31930 10000 10128 20104 39660 40241 57006 70542 80010 90850 333 30/// 56059 58008 81456;EQDQ01+000002SCOTLC
0289763930999992008012712004+25733-100300FM-12+051599999V0209999C000012200019N0030001N1+01201+00951102451ADDAA124000091AY141061AY221061GA1001+999999999GF100991001001999999001001IA1019KA1240M+01781KA2120N+01081MA1999999096601MD1310041+0031MW1051REMSYN106AAXX  27121 76393 31930 00000 10120 20095 39660 40245 53000 70542 91150 333 10178 20108 30088 58003 70000;EQDQ01+000002APC3  Q02  00002PRCP24
0236763930999992008012715004+25733-100300FM-12+051599999V0202201N001010720019N0020001N1+01461+00971102501ADDAY141031AY201031GA1061+072001001GF106991001001999999001041IA1019MA1999999096631MD1410001-0031MW1051REMSYN106AAXX  27151 76393 31920 62201 10146 20097 39663 40250 54003 70540 86004 91455 333 30/// 56005 59003 86074;EQDQ01+000062SCOTLC
0274763930999992008012718004+25733-100300FM-12+051599999V0200501N002012200019N0040001N1+02041+00911102451ADDAY141061AY211061GA1041+072001001GF104991001001999999001041IA1019KA1120M+02201KA2240N+01081MA1999999096601MD1410001-0071MW1051REMSYN118AAXX  27181 76393 31940 40502 10204 20091 39660 40245 54003 70541 84004 91755 333 10220 20108 30/// 56005 59007 84074;EQDQ01+000042SCOTLC
0208763930999992008012721004+25733-100300FM-12+051599999V0200901N002012200019N0160001N1+02241+00881102021ADDGA1041+072001001GF104991001001999999001041IA1019MA1999999096241MD1710361-0101REMSYN100AAXX  27211 76393 32966 40902 10224 20088 39624 40202 57036 84004 92055 333 30/// 56005 59010 84074;EQDQ01+000042SCOTLC
0253763930999992008012800004+25733-100300FM-12+051599999V0200701N002019999999N0200001N1+02001+00941101891ADDAA124000091GF106991001001999999001041IA1019KA1120M+02401KA2180N+01081MA1999999096161MD1710081-0311REMSYN124AAXX  28001 76393 32970 60702 10200 20094 39616 40189 57008 86004 92355 333 10240 20108 30/// 50311 56005 59031 70000 86074;EQDQ01+000062SCOTLC
0189763930999992008012803004+25733-100300FM-12+051599999V0200701N002012200019N0150001N1+01701+01201102021ADDGA1041+060001001GF104991001001999999001041IA1019MA1999999096301MD1210141-0341REMSYN100AAXX  28031 76393 32965 40702 10170 20120 39630 40202 52014 80004 90250 333 30/// 56005 59034 84070;
0225763930999992008012806004+25733-100300FM-12+051599999V0203601N001012200019N0150001N1+01401+01201101961ADDGF102991001001999999001041GJ104929IA1019KA1240M+02401KA2240N+01081MA1999999096231MD1710071-0431REMSYN118AAXX  28061 76393 32965 23601 10140 20120 39623 40196 57007 80004 90550 333 10240 20108 30/// 55082 56005 59043 82070;
0223763930999992008012809004+25733-100300FM-12+051599999V0209999C000012200019N0050001N1+01261+01191101771ADDAY141031AY201031GA1021+027001041GF104991021001999999011041IA1019MA1999999096001MD1710231-0601MW1051REMSYN112AAXX  28091 76393 31950 40000 10126 20119 39600 40177 57023 70540 82014 90850 333 30/// 56055 59060 82459 82070;
0300763930999992008012812004+25733-100300FM-12+051599999V0202101N00101090001CN0010001N1+01221+01151101641ADDAA124000091AY141061AY221061GA1021+000901071GA2021+027001041GF106991021061000751021041IA1019KA1240M+02401KA2120N+01121MA1999999095831MD1710171-0771MW1051REMSYN136AAXX  28121 76393 31110 62101 10122 20115 39583 40164 57017 70542 82624 91150 333 10240 20112 30100 56355 59077 70000 82703 82459 82070;
0217763930999992008012815004+25733-100300FM-12+051599999V0202701N001010009019N0006001N1+01261+01161101731ADDAY141031AY241031GA1081+000901071GF108991081071001501999999IA1019MA1999999095891MD1210061-0741MW1101REMSYN106AAXX  28151 76393 31206 82701 10126 20116 39589 40173 52006 71044 887// 91455 333 30/// 563// 59074 88703;
0261763930999992008012818004+25733-100300FM-12+051599999V0200901N00101090001CN0020001N1+01701+01171101491ADDAY141061AY241061GA1011+005101061GF107991011051004501001061IA1019KA1120M+01821KA2240N+01121MA1999999095671MD1710221-0931MW1101REMSYN124AAXX  28181 76393 31420 70901 10170 20117 39567 40149 57022 71044 81506 91755 333 10182 20112 30/// 56305 59093 81617 85270;
0217763930999992008012821004+25733-100300FM-12+051599999V0201001N001010600019N0040001N1+02441+01181101021ADDAY141031AY241031GA1061+060001001GF106991001001999999001061IA1019MA1999999095271MD1710401-0971MW1051REMSYN106AAXX  28211 76393 31940 61001 10244 20118 39527 40102 57040 70544 80006 92055 333 30/// 56005 59097 86070;
0262763930999992008012900004+25733-100300FM-12+051599999V0201001N002012200019N0040001N1+02481+01261100891ADDAA124000091AY141061AY241061GF106991011001022501031061IA1019KA1120M+02721KA2180N+01121MA1999999095211MD1510061-0951MW1051REMSYN130AAXX  29001 76393 31840 61002 10248 20126 39521 40089 55006 70544 81036 92355 333 10272 20112 30/// 50241 56055 59095 70000 85070;
0199763930999992008012903004+25733-100300FM-12+051599999V0202101N001012200019N0040001N1+02161+01331100921ADDAY141031AY221031GA1001+999999999GF100991001001999999001001IA1019MA1999999095291MD1210081+1011MW1051REMSYN088AAXX  29031 76393 31940 02101 10216 20133 39529 40092 52008 70542 90250 333 30/// 58101;
0251763930999992008012906004+25733-100300FM-12+051599999V0209999C000012200019N0030001N1+01841+01251100851ADDAY141061AY221061GA1001+999999999GF100991001001999999001001GJ103789IA1019KA1240M+02621KA2240N+01121MA1999999095231MD1810061-1001MW1051REMSYN106AAXX  29061 76393 31930 00000 10184 20125 39523 40085 58006 70542 90550 333 10262 20112 30/// 55063 59100;
0199763930999992008012909004+25733-100300FM-12+051599999V0202301N001012200019N0030001N1+01661+01191100801ADDAY141031AY221031GA1001+999999999GF100991001001999999001001IA1019MA1999999095161MD1710071-0841MW1051REMSYN088AAXX  29091 76393 31930 02301 10166 20119 39516 40080 57007 70542 90850 333 30/// 59084;
0272763930999992008012912004+25733-100300FM-12+051599999V0202801N001012200019N0040001N1+01721+00961100841ADDAA124000091AY141061AY261061GA1011+007501061GF101991011041008001001001IA1019KA1240M+02281KA2120N+01561MA1999999095161MD1410001-0671MW1051REMSYN124AAXX  29121 76393 31540 12801 10172 20096 39516 40084 54000 70546 81400 91150 333 10228 20156 30138 56300 59067 70000 81625;
0223763930999992008012915004+25733-100300FM-12+051599999V0209999C000019999999N0140001N1+02081+00881100991ADDAY141031AY241031GA1041+021001031GF105991041001999999041011IA1019MA1999999095291MD1210131-0601MW1051REMSYN112AAXX  29151 76393 31964 50000 10208 20088 39529 40099 52013 70544 84041 91450 333 30/// 56055 59060 84357 81070;
0264763930999992008012918004+25733-100300FM-12+051599999V0203601N999992200019N0140001N1+03121+00741100901ADDGA1021+024001031GF104991041001999999041001IA1019KA1120M+03241KA2240N+01561MA1999999095251MD1010041-0421MW1051REMSYN124AAXX  29181 76393 31964 43661 10312 20074 39525 40090 50004 705// 84040 91750 333 10324 20156 30/// 56050 59042 82358 82457;EQDQ01+006103WOSPD 
0207763930999992008012921004+25733-100300FM-12+051599999V0203601N00301036001CN0160001N1+03261+00611100551ADDGA1021+021001081GF106991021021022501051999IA1019MA1999999094981MD1710271-0291MW1051REMSYN112AAXX  29211 76393 31866 63603 10326 20061 39498 40055 57027 705// 8225/ 92050 333 30/// 5635/ 59029 82857 84359;
0278763930999992008013000004+25733-100300FM-12+051599999V0202501N00101030001CN0140001N1+02981+00241100631ADDAA124000091GA1031+024001061GA2041+030001031GF108991031051022501051041IA1019KA1120M+03361KA2180N+01561MA1999999095121MD1210141-0091REMSYN136AAXX  30001 76393 32864 82501 10298 20024 39512 40063 52014 83554 92350 333 10336 20156 30/// 50375 56355 59009 70000 83658 84360 81070;
0242763930999992008013003004+25733-100300FM-12+051599999V0201001N00201036001CN0040001N1+02561+00881101161ADDAY141031AY221031GA1031+015001061GF105991031051017501031001IA1019MA1999999095661MD1210542+0371MW1051REMSYN112AAXX  30031 76393 31740 51002 10256 20088 39566 40116 52054 70542 83530 90250 333 30/// 56350 58037 83650 82360;EQDQ01+000542APC3  
0272763930999992008013006004+25733-100300FM-12+051599999V0200701N003019999999N0100001N1+02141+01081101521ADDAY141061AY221061GF106991999051000751001001GJ104209IA1019KA1240M+03361KA2240N+01561MA1999999095981MD1210321+0751MW1051REMSYN124AAXX  30061 76393 31160 60703 10214 20108 39598 40152 52032 70542 87500 90555 333 10336 20156 30/// 55070 56300 58075 87633;EQDQ01+000072SCOTLC
0217763930999992008013009004+25733-100300FM-12+051599999V0201201N002010069019N0060001N1+01621+00921101551ADDAY141031AY221031GA1081+006901061GF108991081051008001999999IA1019MA1999999095941MD1710041+0761MW1051REMSYN106AAXX  30091 76393 31556 81202 10162 20092 39594 40155 57004 70542 885// 90850 333 30/// 56399 58076 88623;
0278763930999992008013012004+25733-100300FM-12+051599999V0200901N00201036001CN0040001N1+01221+00821101661ADDAA124000091AY141061AY221061GA1031+003901061GF107991031051004501051999IA1019KA1240M+03361KA2120N+01101MA1999999095961MD1010021+0801MW1051REMSYN130AAXX  30121 76393 31440 70902 10122 20082 39596 40166 50002 70542 8355/ 91150 333 10336 20110 30095 5639/ 58080 70000 83613 84360;
0189763930999992008013015004+25733-100300FM-12+051599999V0203601N001010075019N0120001N1+01381+00631101741ADDGA1071+007501061GF107991071051008001999999IA1019MA1999999095981MD1210021+0691REMSYN100AAXX  30151 76393 32562 73601 10138 20063 39598 40174 52002 875// 91455 333 30/// 564// 58069 87625;
0255763930999992008013018004+25733-100300FM-12+051599999V0200901N002010075019N0100001N1+01561+00811101651ADDAY141061AY241061GA1071+007501061GF107991071051008001999999IA1019KA1120M+01981KA2240N+01101MA1999999095851MD1710131+0601MW1051REMSYN118AAXX  30181 76393 31560 70902 10156 20081 39585 40165 57013 70544 875// 91755 333 10198 20110 30/// 564// 58060 87625;
0217763930999992008013021004+25733-100300FM-12+051599999V0200901N003012200019N0100001N1+01741+00761101181ADDAY141031AY241031GA1021+009601061GF102991021051008001001001IA1019MA1999999095401MD1710451+0001MW1051REMSYN106AAXX  30211 76393 32560 20903 10174 20076 39540 40118 57045 70544 82500 92055 333 30/// 56400 58000 82632;
0262763930999992008013100004+25733-100300FM-12+051599999V0200901N002012200019N0100001N1+01551+00881101031ADDAA124000091AY141061AY241061GF101991011051008001001001IA1019KA1120M+01881KA2180N+01101MA1999999095281MD1710121+0161MW1051REMSYN130AAXX  31001 76393 31560 10902 10155 20088 39528 40103 57012 70544 81500 92355 333 10188 20110 30/// 50631 56400 58016 70000 81622;
0217763930999992008013103004+25733-100300FM-12+051599999V0200701N002012200019N0080001N1+01481+01111101101ADDAY141031AY201031GA1031+003601061GF103991031051004501001001IA1019MA1999999095351MD1210071-0311MW1051REMSYN106AAXX  31031 76393 31458 30702 10148 20111 39535 40110 52007 70540 83500 90245 333 30/// 56400 59031 83612;
0253763930999992008013106004+25733-100300FM-12+051599999V0202201N001010042019N0050001N1+01461+01151101031ADDAY141061AY221061GF105991051051004501001001GJ103129IA1019KA1240M+01881KA2240N+01101MA1999999095291MD1710061-0691MW1051REMSYN124AAXX  31061 76393 31450 52201 10146 20115 39529 40103 57006 70542 85500 90550 333 10188 20110 30/// 55052 56400 59069 85610;
0217763930999992008013109004+25733-100300FM-12+051599999V0202701N001012200019N0050001N1+01301+01021100941ADDAY141031AY201031GA1021+002701061GF102991021051002501001001IA1019MA1999999095081MD1710111-0761MW1051REMSYN106AAXX  31091 76393 31350 22701 10130 20102 39508 40094 57011 70540 82500 90845 333 30/// 56300 59076 82609;
0290763930999992008013112004+25733-100300FM-12+051599999V0202501N001012200019N0040001N1+01301+00981100931ADDAA124000091AY141061AY201061GA1021+003301061GF103991021051004501031001IA1019IA2999+00109KA1240M+01881KA2120N+01141MA1999999095151MD1610031-0811MW1051REMSYN130AAXX  31121 76393 31440 32501 10130 20098 39515 40093 56003 70540 82530 91150 333 10188 20114 30010 56350 59081 70000 82611 81359;
0183763930999992008013115004+25733-100300FM-12+051599999V0200301N001012200019N0120001N1+01541+00651101471ADDGA1001+999999999GF100991001001999999001001IA1019MA1999999095671MD1210521-0311MW1051REMSYN088AAXX  31151 76393 31962 00301 10154 20065 39567 40147 52052 705// 91450 333 30/// 59031;
0221763930999992008013118004+25733-100300FM-12+051599999V0200901N001012200019N0100001N1+01921+00131101661ADDGA1001+999999999GF100991001001999999001001IA1019KA1120M+02081KA2240N+01141MA1999999095871MD1210201+0021MW1051REMSYN100AAXX  31181 76393 31960 00901 10192 20013 39587 40166 52020 705// 91750 333 10208 20114 30/// 58002;
0183763930999992008013121004+25733-100300FM-12+051599999V0203601N001012200019N0100001N1+02101-00121101571ADDGA1001+999999999GF100991001001999999001001IA1019MA1999999095821MD1710051+0421MW1051REMSYN088AAXX  31211 76393 31960 03601 10210 21012 39582 40157 57005 705// 92050 333 30/// 58042;
0263763930999992008020100004+25733-100300FM-12+051599999V0203501N001012200019N0100001N1+01941-00031101731ADDAA124000091GA1001+999999999GF100991001001999999001001IA1019KA1120M+02251KA2180N+01141MA1999999096011MD1210191+0731MW1051REMSYN112AAXX  01001 76393 31960 03501 10194 21003 39601 40173 52019 705// 92350 333 10225 20114 30/// 50295 58073 70000;EQDQ01  00002PRCP24
0199763930999992008020103004+25733-100300FM-12+051599999V0203601N001012200019N0060001N1+01401-00441102291ADDAY141031AY201031GA1001+999999999GF100991001001999999001001IA1019MA1999999096531MD1210521+1181MW1051REMSYN088AAXX  01031 76393 31956 03601 10140 21044 39653 40229 52052 70540 90245 333 30/// 58118;
0251763930999992008020106004+25733-100300FM-12+051599999V0203601N001012200019N0080001N1+01161-00181102571ADDAY141061AY201061GA1001+999999999GF100991001001999999001001GJ105769IA1019KA1240M+02251KA2240N+01141MA1999999096771MD1210241+1481MW1051REMSYN106AAXX  01061 76393 31958 03601 10116 21018 39677 40257 52024 70540 90550 333 10225 20114 30/// 55096 58148;
0199763930999992008020109004+25733-100300FM-12+051599999V0209999C000012200019N0100001N1+01041-00431102591ADDAY141031AY201031GA1001+999999999GF100991001001999999001001IA1019MA1999999096731MD1610041+1551MW1051REMSYN088AAXX  01091 76393 31960 00000 10104 21043 39673 40259 56004 70540 90850 333 30/// 58155;
0273763930999992008020112004+25733-100300FM-12+051599999V0202701N001012200019N0100001N1+00941-00261102551ADDAA124000091AY141061AY201061GA1001+999999999GF100991001001999999001001IA1019KA1240M+02251KA2120N+00721MA1999999096631MD1710101+1481MW1051REMSYN106AAXX  01121 76393 31960 02701 10094 21026 39663 40255 57010 70540 91145 333 10225 20072 30064 58148 70000;EQDQ01  00002PRCP24
0171763930999992008020115004+25733-100300FM-12+051599999V0202901N001012200019N0200001N1+01141-00371102751ADDGA1001+999999999GF100991001001999999001001IA1019MA1999999096791MD1010161+1121REMSYN082AAXX  01151 76393 32970 02901 10114 21037 39679 40275 50016 91450 333 30/// 58112;
0209763930999992008020118004+25733-100300FM-12+051599999V0200801N003012200019N0180001N1+01641-00361102561ADDGA1001+999999999GF100991001001999999001001IA1019KA1120M+02251KA2240N+00901MA1999999096631MD1710161+0761REMSYN094AAXX  01181 76393 32968 00803 10164 21036 39663 40256 57016 91750 333 10225 20090 30/// 58076;
0171763930999992008020121004+25733-100300FM-12+051599999V0201101N003012200019N0180001N1+01941+00201102071ADDGA1001+999999999GF100991001001999999001001IA1019MA1999999096211MD1710421+0391REMSYN082AAXX  01211 76393 32968 01103 10194 20020 39621 40207 57042 92050 333 30/// 58039;
0234763930999992008020200004+25733-100300FM-12+051599999V0201201N002010150019N0180001N1+01941-00161101881ADDAA124000091GF105991051041017501001001IA1019KA1120M+02121KA2180N+00721MA1999999096051MD1610161+0041REMSYN124AAXX  02001 76393 32768 51202 10194 21016 39605 40188 56016 85400 92350 333 10212 20072 30/// 50541 56300 58004 70000 85656;
0201763930999992008020215004+25733-100300FM-12+051599999V0209999C000012200019N0100001N1+01461+00311101591ADDGA1011+024001031GF101991011001999999041001IA1019MA1999999095741MD1010011+0001MW1051REMSYN106AAXX  02151 76393 31960 10000 10146 20031 39574 40159 50001 705// 81040 91450 333 30/// 56050 59000 81358;
0239763930999992008020218004+25733-100300FM-12+051599999V0201501N001012200019N0120001N1+02321+00341101591ADDGA1021+024001031GF102991021001999999051001IA1019KA1120M+02351KA2240N+00881MA1999999095771MD1010031-0861MW1051REMSYN118AAXX  02181 76393 31962 21501 10232 20034 39577 40159 50003 705// 82050 91750 333 10235 20088 30/// 56050 59086 82358;
0207763930999992008020221004+25733-100300FM-12+051599999V0200901N004012200019N0120001N1+02921+00551101141ADDGA1011+021001081GF102991011021022501041001IA1019MA1999999095421MD1710351-0791MW1051REMSYN112AAXX  02211 76393 31862 20904 10292 20055 39542 40114 57035 705// 81240 92050 333 30/// 56350 59079 81857 81359;
0251763930999992008020300004+25733-100300FM-12+051599999V0201001N002012200019N0140001N1+02461+00521101111ADDAA124000091GA1001+999999999GF100991001001999999001001IA1019KA1120M+02981KA2180N+00881MA1999999095481MD1210061-0571REMSYN106AAXX  03001 76393 32964 01002 10246 20052 39548 40111 52006 92350 333 10298 20088 30/// 50397 59057 70000;EQDQ01  00002PRCP24
0199763930999992008020303004+25733-100300FM-12+051599999V0201401N001012200019N0100001N1+02161+00721101371ADDAY141031AY201031GA1001+999999999GF100991001001999999001001IA1019MA1999999095761MD1210281+9999MW1051REMSYN088AAXX  03031 76393 31960 01401 10216 20072 39576 40137 52028 70540 90550 333 30/// 58///;
0251763930999992008020306004+25733-100300FM-12+051599999V0209999C000012200019N0080001N1+01741+00861101371ADDAY141061AY201061GA1001+999999999GF100991001001999999001001GJ105709IA1019KA1240M+02981KA2240N+00881MA1999999095761MD1410001+9999MW1051REMSYN106AAXX  03061 76393 31958 00000 10174 20086 39576 40137 54000 70540 90545 333 10298 20088 30/// 55095 58///;
0199763930999992008020309004+25733-100300FM-12+051599999V0209999C000012200019N0060001N1+01561+00811101381ADDAY141031AY201031GA1001+999999999GF100991001001999999001001IA1019MA1999999095701MD1710061+9999MW1051REMSYN088AAXX  03091 76393 31956 00000 10156 20081 39570 40138 57006 70540 90845 333 30/// 58///;
0273763930999992008020312004+25733-100300FM-12+051599999V0202501N001012200019N0050001N1+01501+00781101391ADDAA124000091AY141061AY201061GA1001+999999999GF100991001001999999001001IA1019KA1240M+02981KA2120N+01381MA1999999095671MD1710031+9999MW1051REMSYN106AAXX  03121 76393 31950 02501 10150 20078 39567 40139 57003 70540 91150 333 10298 20138 30120 58/// 70000;EQDQ01  00002PRCP24
0217763930999992008020315004+25733-100300FM-12+051599999V0202401N001012200019N0040001N1+01881+00601101501ADDAY141031AY241031GA1031+060001001GF103991001001999999001041IA1019MA1999999095741MD1210071+0001MW1051REMSYN106AAXX  03151 76393 31940 32401 10188 20060 39574 40150 52007 70544 80004 91455 333 30/// 56005 58000 83070;
0233763930999992008020318004+25733-100300FM-12+051599999V0200901N002012200019N0050001N1+02791+00781101361ADDAY141061AY241061GF101991001001999999001011IA1019KA1120M+02921KA2240N+01381MA1999999095641MD1710101-0131MW1041REMSYN112AAXX  03181 76393 31950 10902 10279 20078 39564 40136 57010 70444 80001 91755 333 10292 20138 30/// 56005 59013;
0194763930999992008020321004+25733-100300FM-12+051599999V0201001N002012200019N0100001N1+03271+00601100991ADDAY141031AY241031GF103991999999999999999999MA1999999095261MD1710381-0161MW1051REMSYN105AAXX  03211 76393 31960 31002 10327 20060 39526 40099 57038 70544 8004 92055 333 30/// 56005 59016 83070;
0227763930999992008020400004+25733-100300FM-12+051599999V0200901N002019999999N0180001N1+02951+00631100721ADDAA124000091GF106991999999999999999999KA1120M+03351KA2180N+01381MA1999999095181MD1710081-0301REMSYN123AAXX  04001 76393 32968 60902 10295 20063 39518 40072 57008 8004 92355 333 10335 20138 30/// 50581 56005 59030 70000 86070;
0171763930999992008020403004+25733-100300FM-12+051599999V0203001N001012200019N0050001N1+02561+01001100761ADDGA1001+999999999GF100991001001999999001001IA1019MA1999999095271MD1110091-0491REMSYN082AAXX  04031 76393 32950 03001 10256 20100 39527 40076 51009 90250 333 30/// 59049;
0223763930999992008020406004+25733-100300FM-12+051599999V0209999C000012200019N0050001N1+02221+01221100751ADDGA1001+999999999GF100991001001999999001001GJ105289IA1019KA1240M+03351KA2240N+01381MA1999999095251MD1610021-0511REMSYN100AAXX  04061 76393 32950 00000 10222 20122 39525 40075 56002 90550 333 10335 20138 30/// 55088 59051;
0171763930999992008020409004+25733-100300FM-12+051599999V0209999C000012200019N0030001N1+01821+01411100801ADDGA1001+999999999GF100991001001999999001001IA1019MA1999999095241MD1610011+0461REMSYN082AAXX  04091 76393 32930 00000 10182 20141 39524 40080 56001 90850 333 30/// 58046;
0245763930999992008020412004+25733-100300FM-12+051599999V0209999C000012200019N0030001N1+01681+01321100791ADDAA124000091GA1001+999999999GF100991001001999999001001IA1019KA1240M+03351KA2120N+01621MA1999999095171MD1510071-0501REMSYN100AAXX  04121 76393 32930 00000 10168 20132 39517 40079 55007 91150 333 10335 20162 30135 59050 70000;EQDQ01  00002PRCP24
0189763930999992008020415004+25733-100300FM-12+051599999V0209999C000012200019N0160001N1+02301+00731100891ADDGA1041+027001031GF104991041001999999051001IA1019MA1999999095241MD1010071-0501REMSYN100AAXX  04151 76393 32966 40000 10230 20073 39524 40089 50007 84050 91450 333 30/// 56050 59050 84359;
0239763930999992008020418004+25733-100300FM-12+051599999V0200901N003012200019N0140001N1+02941+00891100801ADDGA1031+027001031GF103991031001999999051001IA1019KA1120M+03351KA2240N+01621MA1999999095171MD1710071-0471MW1051REMSYN118AAXX  04181 76393 31964 30903 10294 20089 39517 40080 57007 705// 83050 91750 333 10335 20162 30/// 56050 59047 83359;
0189763930999992008020421004+25733-100300FM-12+051599999V0201101N003012200019N0160001N1+03461+00261100311ADDGA1041+030001031GF104991041001999999051001IA1019MA1999999094761MD1710411-0501REMSYN100AAXX  04211 76393 32966 41103 10346 20026 39476 40031 57041 84050 92050 333 30/// 56050 59050 84360;
0246763930999992008020500004+25733-100300FM-12+051599999V0200901N001012200019N0160001N1+03161+01051100141ADDAA124000091GF103991031001999999051001IA1019KA1120M+03561KA2180N+01621MA1999999094681MD1710081-0501MW1051REMSYN130AAXX  05001 76393 31966 30901 10316 20105 39468 40014 57008 705// 83050 92350 333 10356 20162 30/// 50392 56050 59050 70000 83360;
0199763930999992008020503004+25733-100300FM-12+051599999V0200701N001012200019N0080001N1+02681+01261100281ADDAY141031AY201031GA1001+999999999GF100991001001999999001001IA1019MA1999999094841MD1210161-0431MW1051REMSYN088AAXX  05031 76393 31958 00701 10268 20126 39484 40028 52016 70540 90245 333 30/// 59043;
0251763930999992008020506004+25733-100300FM-12+051599999V0203601N001012200019N0060001N1+02201+01341100421ADDAY141061AY201061GA1001+999999999GF100991001001999999001001GJ104869IA1019KA1240M+03561KA2240N+01721MA1999999094971MD1210131-0281MW1051REMSYN106AAXX  05061 76393 31956 03601 10220 20134 39497 40042 52013 70540 90550 333 10356 20172 30/// 55081 59028;
0217763930999992008020509004+25733-100300FM-12+051599999V0203501N001012200019N0040001N1+01941+01361100421ADDAY141031AY201031GA1031+005701061GF103991031051004501001001IA1019MA1999999094901MD1710071-0341MW1051REMSYN106AAXX  05091 76393 31440 33501 10194 20136 39490 40042 57007 70540 83500 90850 333 30/// 56300 59034 83619;
0272763930999992008020512004+25733-100300FM-12+051599999V0201301N001010057019N0050001N1+02021+01451100401ADDAA124000091AY141061AY211061GA1051+005701061GF105991051051004501001001IA1019KA1240M+03561KA2120N+01821MA1999999094821MD1710081-0351MW1051REMSYN124AAXX  05121 76393 31450 51301 10202 20145 39482 40040 57008 70541 85500 91150 333 10356 20182 30170 56300 59035 70000 85619;
0217763930999992008020515004+25733-100300FM-12+051599999V0203301N001012200019N0080001N1+02201+00371100531ADDAY141031AY241031GA1031+018001031GF105991031001022501031011IA1019MA1999999094921MD1210101-0321MW1041REMSYN106AAXX  05151 76393 32858 53301 10220 20037 39492 40053 52010 70444 83031 91455 333 30/// 56055 59032 83356;
0239763930999992008020518004+25733-100300FM-12+051599999V0201001N002012200019N0100001N1+03351+00521100421ADDAY141061AY241061GF101991011001022501031001IA1019KA1120M+03451KA2240N+01821MA1999999094851MD1710071+9999MW1051REMSYN118AAXX  05181 76393 31860 11002 10335 20052 39485 40042 57007 70544 81030 91755 333 10345 20182 30/// 54306 56050 59092;
0199763930999992008020521004+25733-100300FM-12+051599999V0203001N001012200019N0120001N1+03711-00231100031ADDAY141031AY241031GA1001+999999999GF100991001001999999001001IA1019MA1999999094551MD1710301-0211MW1051REMSYN088AAXX  05211 76393 31962 03001 10371 21023 39455 40003 57030 70544 92055 333 30/// 59021;
0258763930999992008020600004+25733-100300FM-12+051599999V0202701N001012200019N0160001N1+03481-00061100041ADDAA124000091GA1001+999999999GF100991001001999999001001IA1019KA1120M+03851KA2180N+01821MA1999999094631MD1210081-0051REMSYN113AAXX  06001 76393 32966 02701 10348 21006 39463 40004 52008 92355 333 10385 20182 30/// 50691 59005 70000/ 76675;EQDQ01  00002PRCP24
0224763930999992008020603004+25733-100300FM-12+051599999V0200601N001012200019N0050001N1+02061+00411100831ADDAY141031AY221031GA1001+999999999GF100991001001999999001001IA1019MA1999999095371MD1210742+0531MW1051REMSYN094AAXX  06031 76393 32950 00601 10206 20041 39537 40083 52074 70542 90250 333 30/// 54311 58053;EQDQ01+000742APC3  
0251763930999992008020606004+25733-100300FM-12+051599999V0203001N001012200019N0050001N1+01861+00151101421ADDAY141061AY221061GA1001+999999999GF100991001001999999001001GJ105709IA1019KA1240M+03751KA2240N+01861MA1999999095871MD1210501+0901MW1051REMSYN106AAXX  06061 76393 31950 03001 10186 20015 39587 40142 52050 70542 90550 333 10375 20186 30/// 55095 58090;
0199763930999992008020609004+25733-100300FM-12+051599999V0201001N001012200019N0050001N1+01541-00331101771ADDAY141031AY221031GA1001+999999999GF100991001001999999001001IA1019MA1999999096101MD1210231+1201MW1051REMSYN088AAXX  06091 76393 31950 01001 10154 21033 39610 40177 52023 70542 90850 333 30/// 58120;
0273763930999992008020612004+25733-100300FM-12+051599999V0209999C000012200019N0050001N1+01321-00181102021ADDAA124000091AY141061AY221061GA1001+999999999GF100991001001999999001001IA1019KA1240M+03851KA2120N+01261MA1999999096251MD1210151+1431MW1051REMSYN106AAXX  06121 76393 31950 00000 10132 21018 39625 40202 52015 70542 91150 333 10385 20126 30102 58143 70000;EQDQ01  00002PRCP24
0183763930999992008020615004+25733-100300FM-12+051599999V0203501N001012200019N0140001N1+01481-00601102111ADDGA1001+999999999GF100991001001999999001001IA1019MA1999999096311MD1010061-1391MW1051REMSYN088AAXX  06151 76393 31964 03501 10148 21060 39631 40211 50006 705// 91450 333 30/// 59139;
0221763930999992008020618004+25733-100300FM-12+051599999V0201201N001012200019N0140001N1+01941-00151102121ADDGA1001+999999999GF100991001001999999001001IA1019KA1120M+02101KA2240N+01261MA1999999096301MD1010011+1451MW1051REMSYN100AAXX  06181 76393 31964 01201 10194 21015 39630 40212 50001 705// 91750 333 10210 20126 30/// 58145;
0183763930999992008020621004+25733-100300FM-12+051599999V0201101N003012200019N0140001N1+02161-00271101601ADDGA1001+999999999GF100991001001999999001001IA1019MA1999999095841MD1710461+1291MW1051REMSYN088AAXX  06211 76393 31964 01103 10216 21027 39584 40160 57046 705// 92050 333 30/// 58129;
0251763930999992008020700004+25733-100300FM-12+051599999V0201801N002012200019N0160001N1+01941-00431101501ADDAA124000091GA1001+999999999GF100991001001999999001001IA1019KA1120M+02321KA2180N+01261MA1999999095781MD1710061+1151REMSYN106AAXX  07001 76393 32966 01802 10194 21043 39578 40150 57006 92350 333 10232 20126 30/// 50665 58115 70000;EQDQ01  00002PRCP24
0199763930999992008020703004+25733-100300FM-12+051599999V0200201N001012200019N0120001N1+01621-00071101561ADDAY141031AY201031GA1001+999999999GF100991001001999999001001IA1019MA1999999095851MD1210071+0481MW1051REMSYN088AAXX  07031 76393 31962 00201 10162 21007 39585 40156 52007 70540 90250 333 30/// 58048;
0251763930999992008020706004+25733-100300FM-12+051599999V0209999C000012200019N0100001N1+01461+00081101551ADDAY141061AY201061GA1001+999999999GF100991001001999999001001GJ105829IA1019KA1240M+02321KA2240N+01261MA1999999095821MD1610061-0051MW1051REMSYN106AAXX  07061 76393 31960 00000 10146 20008 39582 40155 56006 70540 90550 333 10232 20126 30/// 55097 59005;
0199763930999992008020709004+25733-100300FM-12+051599999V0209999C000012200019N0080001N1+01041+00151101591ADDAY141031AY201031GA1001+999999999GF100991001001999999001001IA1019MA1999999095821MD1410001-0281MW1051REMSYN088AAXX  07091 76393 31958 00000 10104 20015 39582 40159 54000 70540 90850 333 30/// 59028;
0273763930999992008020712004+25733-100300FM-12+051599999V0209999C000012200019N0060001N1+00941+00221101601ADDAA124000091AY141061AY201061GA1001+999999999GF100991001001999999001001IA1019KA1240M+02321KA2120N+00821MA1999999095771MD1710051-0481MW1051REMSYN106AAXX  07121 76393 31956 00000 10094 20022 39577 40160 57005 70540 91150 333 10232 20082 30070 59048 70000;EQDQ01  00002PRCP24
0217763930999992008020715004+25733-100300FM-12+051599999V0209999C000012200019N0080001N1+01371-00081101861ADDAY141031AY241031GA1041+060001001GF105991011001022501031041IA1019MA1999999096001MD1210231-0311MW1051REMSYN106AAXX  07151 76393 31858 50000 10137 21008 39600 40186 52023 70544 81034 91455 333 30/// 56055 59031 84070;
0233763930999992008020718004+25733-100300FM-12+051599999V0201501N001012200019N0060001N1+02421-00101101791ADDAY141061AY241061GF101991011001022501031001IA1019KA1120M+02571KA2240N+00821MA1999999095961MD1710041-0341MW1051REMSYN112AAXX  07181 76393 31856 11501 10242 21010 39596 40179 57004 70544 81030 91755 333 10257 20082 30/// 56050 59034;
0195763930999992008020721004+25733-100300FM-12+051599999V0201001N00101220001CN0140001N1+03031-00111101371ADDGA1031+018001031GF106991031001022501051011IA1019MA1999999095651MD1710311-0191REMSYN106AAXX  07211 76393 32864 61001 10303 21011 39565 40137 57031 83051 92055 333 30/// 56055 59019 83356 83070;
0234763930999992008020800004+25733-100300FM-12+051599999V0201201N003019999999N0160001N1+02531+00011101341ADDAA124000091GF106991001001999999001041IA1019KA1120M+03151KA2180N+00821MA1999999095711MD1210061-0071REMSYN124AAXX  08001 76393 32966 61203 10253 20001 39571 40134 52006 80004 92355 333 10315 20082 30/// 50471 56005 59007 70000 87070;
0199763930999992008020803004+25733-100300FM-12+051599999V0200901N002012200019N0050001N1+02101+00071101511ADDAY141031AY221031GA1001+999999999GF100991001001999999001001IA1019MA1999999095911MD1210211+0061MW1051REMSYN088AAXX  08031 76393 31950 00902 10210 20007 39591 40151 52021 70542 90250 333 30/// 58006;
0251763930999992008020806004+25733-100300FM-12+051599999V0202201N001012200019N0050001N1+01841+00111101521ADDAY141061AY221061GA1001+999999999GF100991001001999999001001GJ105409IA1019KA1240M+03031KA2240N+00941MA1999999095911MD1410001+0091MW1051REMSYN106AAXX  08061 76393 31950 02201 10184 20011 39591 40152 54000 70542 90550 333 10303 20094 30/// 55090 58009;
0217763930999992008020809004+25733-100300FM-12+051599999V0202701N001012200019N0050001N1+01561+00401101451ADDAY141031AY251031GA1021+011401061GF102991021041012501001001IA1019MA1999999095791MD1710121-0031MW1051REMSYN106AAXX  08091 76393 31650 22701 10156 20040 39579 40145 57012 70545 82400 90850 333 30/// 56500 59003 82638;
0273763930999992008020812004+25733-100300FM-12+051599999V0209999C000012200019N0050001N1+01421+00251101451ADDAA124000091AY141061AY221061GA1001+999999999GF100991001001999999001001IA1019KA1240M+03031KA2120N+01321MA1999999095721MD1510071-0051MW1051REMSYN106AAXX  08121 76393 31950 00000 10142 20025 39572 40145 55007 70542 91150 333 10303 20132 30095 59005 70000;EQDQ01  00002PRCP24
0195763930999992008020815004+25733-100300FM-12+051599999V0202101N001012200019N0100001N1+01811+00061101531ADDAY141031AY241031GF102991011001022501031011IA1019MA1999999095761MD1210041-0241MW1051REMSYN100AAXX  08151 76393 32860 22101 10181 20006 39576 40153 52004 70544 81031 91455 333 30/// 56055 59024;
0233763930999992008020818004+25733-100300FM-12+051599999V0200901N001012200019N0100001N1+02601+00021101431ADDAY141061AY241061GF102991011001022501031031IA1019KA1120M+02711KA2240N+01321MA1999999095691MD1710071-0271MW1051REMSYN112AAXX  08181 76393 31860 20901 10260 20002 39569 40143 57007 70544 81033 91755 333 10271 20132 30/// 56055 59027;
0189763930999992008020821004+25733-100300FM-12+051599999V0200901N002010600019N0120001N1+03001+00111100951ADDGA1051+060001001GF106991011001022501031041IA1019MA1999999095301MD1710391-0351REMSYN100AAXX  08211 76393 32862 60902 10300 20011 39530 40095 57039 81034 92055 333 30/// 56055 59035 85070;
0234763930999992008020900004+25733-100300FM-12+051599999V0201001N002010210019N0120001N1+02961+00201100871ADDAA124000091GF107991061001022501071011IA1019KA1120M+03201KA2180N+01321MA1999999095301MD1410001-0411REMSYN124AAXX  09001 76393 32862 71002 10296 20020 39530 40087 54000 86071 92355 333 10320 20132 30/// 50561 56055 59041 70000 86456;
0183763930999992008020903004+25733-100300FM-12+051599999V0202701N001012200019N0200001N1+02341+00541101031ADDGA1031+060001001GF103991001001999999001011IA1019MA1999999095491MD1210191-0421REMSYN094AAXX  09031 76393 32970 32701 10234 20054 39549 40103 52019 80001 90250 333 30/// 59042 83070;
0223763930999992008020906004+25733-100300FM-12+051599999V0209999C000012200019N0150001N1+02001+00371101121ADDGA1001+999999999GF100991001001999999001001GJ104929IA1019KA1240M+03201KA2240N+01321MA1999999095561MD1210071-0051REMSYN100AAXX  09061 76393 32965 00000 10200 20037 39556 40112 52007 90545 333 10320 20132 30/// 55082 59005;
0199763930999992008020909004+25733-100300FM-12+051599999V0209999C000012200019N0120001N1+01661+00491101081ADDAY141031AY201031GA1001+999999999GF100991001001999999001001IA1019MA1999999095471MD1710091-0321MW1051REMSYN088AAXX  09091 76393 31962 00000 10166 20049 39547 40108 57009 70540 90850 333 30/// 59032;
0195763930999992008020915004+25733-100300FM-12+051599999V0202501N001012200019N0050001N1+02101-00091101581ADDAY141031AY241031GF101991001001999999001011IA1019MA1999999095851MD1210281+0091MW1051REMSYN100AAXX  09151 76393 31950 12501 10210 21009 39585 40158 52028 70544 80001 91455 333 30/// 56005 58009;
0237763930999992008020918004+25733-100300FM-12+051599999V0200901N001012200019N0080001N1+02711+00231101671ADDAY141061AY241061GA1001+999999999GF100991001001999999001001IA1019KA1120M+02881KA2240N+01321MA1999999095451MD1010401-0241MW1051REMSYN100AAXX  09181 76393 31958 00901 10271 20023 39545 40167 50040 70544 91755 333 10288 20132 30/// 59024;
0167763930999992008020921004+25733-100300FM-12+051599999V0201001N003012200019N0120001N1+03041+00501101371ADDGF102991011001022501031011IA1019MA1999999095731MD1710221+0431REMSYN094AAXX  09211 76393 32862 21003 10304 20050 39573 40137 57022 81031 92055 333 30/// 56055 58043;
0234763930999992008021000004+25733-100300FM-12+051599999V0201001N003012200019N0200001N1+02641+00911101431ADDAA124000091GF106991011001022501031041IA1019KA1120M+03201KA2180N+01321MA1999999095841MD1210111+0541REMSYN124AAXX  10001 76393 32870 61003 10264 20091 39584 40143 52011 81034 92355 333 10320 20132 30/// 50571 56055 58054 70000 85070;
0253763930999992008021006004+25733-100300FM-12+051599999V0201201N001012200019N0050001N1+02121+01391101811ADDAY141061AY261061GF102991021041008001001001GJ105589IA1019KA1240M+03201KA2240N+01541MA1999999096211MD1210071+0651MW1051REMSYN124AAXX  10061 76393 31550 21201 10212 20139 39621 40181 52007 70546 82400 90550 333 10320 20154 30/// 55093 56500 58065 82625;
0201763930999992008021009004+25733-100300FM-12+051599999V0200901N001010012019N0030001N1+01801+01621101871ADDAY141031AY261031GF106991061041001501999999IA1019MA1999999096221MD1110011+0751MW1051REMSYN106AAXX  10091 76393 31230 60901 10180 20162 39622 40187 51001 70546 864// 90850 333 30/// 96599 58075 86706;
0272763930999992008021012004+25733-100300FM-12+051599999V0201401N001010018019N0030001N1+01841+01661101961ADDAA124000091AY141061AY201061GA1081+001801071GF108991081061001501999999IA1019KA1240M+03111KA2120N+01781MA1999999096261MD1210041+0691MW1051REMSYN124AAXX  10121 76393 31230 81401 10184 20166 39626 40196 52004 70547 886// 91150 333 10311 20178 30169 565// 58069 70000 88706;
0245763930999992008021018004+25733-100300FM-12+051599999V0201001N00301090001CN0080001N1+02041+01611102191ADDGA1041+004501061GF108991041041004501001051IA1019KA1120M+02161KA2240N+01781MA1999999096431MD1010041+0481MW1051REMSYN124AAXX  10181 76393 31458 81003 10204 20161 39643 40219 50004 705// 84405 91750 333 10216 20178 30/// 56305 58048 84615 84070;
0275763930999992008021100004+25733-100300FM-12+051599999V0201201N00101008101CN0070001N1+02301+01501101721ADDAA124999999GA1071+008101081GF108991071021008001001051IA1019KA1120M+02421KA2180N+01781MA1999999096021MD1010191+0181REMSYN130AAXX  11001 76393 32557 81201 10230 20150 39602 40172 50019 87205 92350 333 10242 20178 30/// 50269 56305 58018 79999 87827 81070;EQDQ01  99992PRCP24
0217763930999992008021103004+25733-100300FM-12+051599999V0201001N002010045019N0050001N1+02141+01691101881ADDAY141031AY221031GA1061+004501081GF106991061041004501001001IA1019MA1999999096201MD1210181+0061MW1051REMSYN106AAXX  11031 76393 31450 61002 10214 20169 39620 40188 52018 70542 86400 90250 333 30/// 56300 58006 86815;
0253763930999992008021106004+25733-100300FM-12+051599999V0200901N003010021019N0050001N1+01961+01661101941ADDAY141061AY221061GF107991071051002501999999GJ101329IA1019KA1240M+03201KA2240N+01781MA1999999096251MD1210051+0041MW1051REMSYN124AAXX  11061 76393 31350 70903 10196 20166 39625 40194 52005 70542 875// 90550 333 10320 20178 30/// 55022 56399 58004 87610;
0217763930999992008021109004+25733-100300FM-12+051599999V0200901N002010048019N0040001N1+01821+01631101711ADDAY141031AY221031GA1051+004801061GF105991051051004501001001IA1019MA1999999096021MD1710231-0201MW1051REMSYN106AAXX  11091 76393 31440 50902 10182 20163 39602 40171 57023 70542 85500 90850 333 30/// 56300 59020 85616;
0278763930999992008021112004+25733-100300FM-12+051599999V0200901N00201036001CN0040001N1+01761+01631101511ADDAA124000091AY141061AY221061GA1031+003601061GF106991031051004501011001IA1019KA1240M+03201KA2120N+01621MA1999999095811MD1710211-0451MW1051REMSYN130AAXX  11121 76393 31440 60902 10176 20163 39581 40151 57021 70542 83510 91150 333 10320 20162 30150 56350 59045 70000 83612 83360;
0217763930999992008021115004+25733-100300FM-12+051599999V0209999C000010030019N0050001N1+01851+01571101691ADDAY141031AY221031GA1081+003001061GF108991081051002501999999IA1019MA1999999095961MD1210151-0431MW1051REMSYN106AAXX  11151 76393 31350 80000 10185 20157 39596 40169 52015 70542 885// 91455 333 30/// 563// 59043 88610;
0255763930999992008021118004+25733-100300FM-12+051599999V0201001N001012200019N0030001N1+02461+01551101571ADDAY141061AY241061GA1011+009001081GF101991011021008001001001IA1019KA1120M+02551KA2240N+01621MA1999999095861MD1710101-0571MW1041REMSYN118AAXX  11181 76393 31530 11001 10246 20155 39586 40157 57010 70444 81200 91755 333 10255 20162 30/// 56500 59057 81830;
0223763930999992008021121004+25733-100300FM-12+051599999V0201001N002012200019N0060001N1+02801+01421101101ADDAY141031AY241031GA1011+013801081GF102991021021012501001001IA1019MA1999999095461MD1710401-0751MW1051REMSYN112AAXX  11211 76393 31656 21002 10280 20142 39546 40110 57040 70544 82200 92055 333 30/// 56500 59075 81846 81646;
0256763930999992008021200004+25733-100300FM-12+051599999V0201301N001010900019N0140001N1+02681+01141100871ADDAA124000091GA1011+015001081GF106991011011012501031041IA1019KA1120M+02951KA2180N+01621MA1999999095291MD1710171-0731REMSYN130AAXX  12001 76393 32664 61301 10268 20114 39529 40087 57017 81134 92355 333 10295 20162 30/// 50351 56555 59073 70000 81850 84070;
0217763930999992008021203004+25733-100300FM-12+051599999V0209999C000012200019N0050001N1+02261+01191100881ADDAY141031AY221031GA1021+060001001GF102991001001999999001041IA1019MA1999999095321MD1010031-0881MW1051REMSYN106AAXX  12031 76393 31950 20000 10226 20119 39532 40088 50003 70542 80004 90250 333 30/// 56005 59088 82070;
0251763930999992008021206004+25733-100300FM-12+051599999V0209999C000012200019N0030001N1+01981+01341100911ADDAY141061AY241061GA1001+999999999GF100991001001999999001001GJ104809IA1019KA1240M+02851KA2240N+01761MA1999999095341MD1510021-0911MW1051REMSYN106AAXX  12061 76393 31930 00000 10198 20134 39534 40091 55002 70544 90550 333 10285 20176 30/// 55080 59091;
0240763930999992008021209004+25733-100300FM-12+051599999V0200901N002010063019N0030001N1+01981+01341100791ADDAA103000991AY141031AY261031GA1051+006301061GF107991051041008001011001IA1019MA1999999095201MD1710141-0821MW1051REMSYN118AAXX  12091 76393 21530 70902 10198 20134 39520 40079 57014 70546 85410 90850 333 30/// 5655/ 59082 69997 85621 82456;
0313763930999992008021212004+25733-100300FM-12+051599999V0209999C00001001201CN0050001N1+01661+01631100891ADDAA124000091AY141061AY261061GA1011+001801071GF105991051061001501999999IA1019KA1240M+02851KA2120N+99999MA1999999095241MD1210041-0571MW1051REMSYN130AAXX  12121 76393 31250 50000 10166 20163 39524 40089 52004 70546 856// 91150 333 10285 20174 30162 565// 59057 79999 81706 84608;EQDQ01  00002PRCP24Q02 +01742ATMN  
0239763930999992008021215004+25733-100300FM-12+051599999V0209999C00001027001CN0160001N1+02141+00961100881ADDGA1021+011401061GA2021+011701081GA3011+027001031GF108991041041012501031051IA1019MA1999999095221MD1010021-0741REMSYN118AAXX  12151 76393 32666 80000 10214 20096 39522 40088 50002 84435 91450 333 30/// 56355 59074 82839 82638 81359 83070;
0233763930999992008021218004+25733-100300FM-12+051599999V0209999C000010180019N0140001N1+02821+00851100871ADDGA1051+018001081GF108991051021017501001051IA1019KA1120M+02921KA2240N+01741MA1999999095231MD1010011-0531REMSYN118AAXX  12181 76393 32764 80000 10282 20085 39523 40087 50001 85205 91750 333 10292 20174 30/// 56305 59053 85856 83070;
0207763930999992008021221004+25733-100300FM-12+051599999V0200201N00301090001CN0120001N1+02801+00921100701ADDGA1041+024001081GF105991041021017501001051IA1019MA1999999095111MD1710121-0351MW1041REMSYN112AAXX  12211 76393 31762 50203 10280 20092 39511 40070 57012 704// 84205 92050 333 30/// 56305 59035 84858 81070;
0268763930999992008021300004+25733-100300FM-12+051599999V0200601N001012200019N0120001N1+02281+00651100891ADDAA124000091GA1031+015001081GF103991021021017501001051IA1019KA1120M+03101KA2180N+01741MA1999999095331MD1210221+0041MW1051REMSYN136AAXX  13001 76393 32762 30601 10228 20065 39533 40089 52022 705// 82205 92350 333 10310 20174 30/// 50455 56305 58004 70000 83850 81070;
0218763930999992008021303004+25733-100300FM-12+051599999V0200301N001012200019N0050001N1+01961+00521101491ADDAY141031AY221031GA1001+999999999GF100991001001999999001001IA1019MA1999999095891MD1210562+0571MW1051REMSYN088AAXX  13031 76393 31950 00301 10196 20052 39589 40149 52056 70542 90250 333 30/// 58057;EQDQ01+000562APC3  
0253763930999992008021306004+25733-100300FM-12+051599999V0200301N001010120019N0050001N1+01841+00341101831ADDAY141061AY261061GF107991071041012501999999GJ103729IA1019KA1240M+03101KA2240N+01841MA1999999096171MD1210281+0831MW1051REMSYN124AAXX  13061 76393 31650 70301 10184 20034 39617 40183 52028 70546 874// 90550 333 10310 20184 30/// 55062 563// 58083 87650;
0217763930999992008021309004+25733-100300FM-12+051599999V0200301N001012200019N0050001N1+01581+00951101961ADDAY141031AY221031GA1041+006301061GF104991041041008001999999IA1019MA1999999096251MD1310081+1051MW1051REMSYN106AAXX  13091 76393 31550 40301 10158 20095 39625 40196 53008 70542 844// 90850 333 30/// 563// 58105 84621;
0272763930999992008021312004+25733-100300FM-12+051599999V0203501N001010066019N0050001N1+01361+00691102081ADDAA124000091AY141061AY261061GA1061+006601061GF106991061041008001999999IA1019KA1240M+02941KA2120N+01301MA1999999096301MD1110051+1101MW1051REMSYN124AAXX  13121 76393 31550 63501 10136 20069 39630 40208 51005 70546 864// 91150 333 10294 20130 30122 563// 58110 70000 86622;
0195763930999992008021315004+25733-100300FM-12+051599999V0201001N001012200019N0120001N1+01461+00201102191ADDAY141031AY241031GF101991001001999999001011IA1019MA1999999096381MD1210081+1161MW1051REMSYN100AAXX  13151 76393 31962 11001 10146 20020 39638 40219 52008 70544 80001 91459 333 30/// 56005 58116;
0205763930999992008021318004+25733-100300FM-12+051599999V0201001N003012200019N0160001N1+01941+00221102061ADDGF101991001001999999001011IA1019KA1120M+02061KA2240N+01301MA1999999096261MD1710121+1031REMSYN106AAXX  13181 76393 32966 11003 10194 20022 39626 40206 57012 80001 91755 333 10206 20130 30/// 56004 58103;
0189763930999992008021321004+25733-100300FM-12+051599999V0201101N003012200019N0200001N1+02201+00101101621ADDGA1011+018001081GF101991011011017501001001IA1019MA1999999095861MD1710401+0151REMSYN100AAXX  13211 76393 32770 11103 10220 20010 39586 40162 57040 81100 92055 333 30/// 56400 58015 81856;
0234763930999992008021400004+25733-100300FM-12+051599999V0201201N003012200019N0200001N1+02081+00161101431ADDAA124000091GF101991011011017501001001IA1019KA1120M+02321KA2180N+01301MA1999999095711MD1710151+0381REMSYN124AAXX  14001 76393 32770 11203 10208 20016 39571 40143 57015 81100 92355 333 10232 20130 30/// 50601 56400 58038 70000 81856;
0207763930999992008021415004+25733-100300FM-12+051599999V0209999C000019999999N0140001N1+01481+00531101421ADDGA1011+027001031GF105991011001999999041021IA1019MA1999999095571MD1210191-0811MW1051REMSYN112AAXX  14151 76393 31964 50000 10148 20053 39557 40142 52019 705// 81042 91450 333 30/// 56055 59081 81359 84070;
0245763930999992008021418004+25733-100300FM-12+051599999V0209999C000019999999N0100001N1+02201+00731101341ADDGA1021+027001031GF108991021001999999041021IA1019KA1120M+02401KA2240N+01151MA1999999095521MD1710051-0741MW1051REMSYN124AAXX  14181 76393 31960 80000 10220 20073 39552 40134 57005 705// 82042 91750 333 10240 20115 30/// 56055 59074 82359 86070;
0201763930999992008021421004+25733-100300FM-12+051599999V0201001N003010600019N0100001N1+02801+00771100991ADDGA1071+060001001GF107991001001999999001021IA1019MA1999999095241MD1710281-0621MW1051REMSYN106AAXX  14211 76393 31960 71003 10280 20077 39524 40099 57028 705// 80002 92050 333 30/// 56005 59062 87070;
0246763930999992008021500004+25733-100300FM-12+051599999V0200901N001019999999N0140001N1+02721+00471100881ADDAA124000091GF106991001001999999001021IA1019KA1120M+03001KA2180N+01301MA1999999095251MD1010011-0461MW1051REMSYN130AAXX  15001 76393 31964 60901 10272 20047 39525 40088 50001 705// 80002 92350 333 10300 20130 30/// 50475 56005 59046 70000 86070;
0167763930999992008021503004+25733-100300FM-12+051599999V0209999C000012200019N0120001N1+02201+00731101111ADDGF101991001001999999001011IA1019MA1999999095521MD1210271+9999REMSYN094AAXX  15031 76393 32962 10000 10220 20073 39552 40111 52027 80001 90255 333 30/// 56005 58///;
0219763930999992008021506004+25733-100300FM-12+051599999V0209999C000012200019N0100001N1+01911+00851101191ADDGF101991001001999999001011GJ105049IA1019KA1240M+03001KA2240N+01151MA1999999095601MD1210081+9999REMSYN112AAXX  15061 76393 32960 10000 10191 20085 39560 40119 52008 80001 90555 333 10300 20115 30/// 55084 56005 58///;
0171763930999992008021509004+25733-100300FM-12+051599999V0209999C000012200019N0080001N1+01641+01161101261ADDGA1001+999999999GF100991001001999999001001IA1019MA1999999095621MD1210021+9999REMSYN082AAXX  15091 76393 32958 00000 10164 20116 39562 40126 52002 90850 333 30/// 58///;
0196763930999992008021512004+25733-100300FM-12+051599999V0209999C000012200019N0080001N1+01501+00981101311ADDGA1001+999999999GF100991001001999999001001KA1240M+03001MA1999999095611MD1710011+9999REMSYN100AAXX  15121 76393 32958 00000 10150 20098 39561 40131 57001 91155 333 10300 10140 30120 58/// 70000;
0207763930999992008021515004+25733-100300FM-12+051599999V0209999C000012200019N0120001N1+01621+00961101431ADDGA1031+030001031GF104991031001999999041021IA1019MA1999999095691MD1210081+0121MW1051REMSYN112AAXX  15151 76393 31962 40000 10162 20096 39569 40143 52008 705// 83042 91450 333 30/// 56055 58012 83360 81070;
0199763930999992008021521004+25733-100300FM-12+051599999V0200801N001012200019N0060001N1+02881+01041100921ADDAY141031AY221031GA1001+999999999GF100991001001999999001001IA1019MA1999999095271MD1710341+0031MW1051REMSYN088AAXX  15211 76393 31956 00801 10288 20104 39527 40092 57034 70542 92050 333 30/// 58003;
0262763930999992008021600004+25733-100300FM-12+051599999V0201101N001012200019N0080001N1+02981+01181100751ADDAA124000091AY141061AY221061GF101991011001999999031001IA1019KA1120M+03151KA2180N+01401MA1999999095181MD1010091-0071MW1051REMSYN130AAXX  16001 76393 31958 11101 10298 20118 39518 40075 50009 70542 81030 92350 333 10315 20140 30/// 50377 56050 59007 70000 81360;
0199763930999992008021603004+25733-100300FM-12+051599999V0201001N001012200019N0100001N1+02641+01511100901ADDAY141031AY201031GA1001+999999999GF100991001001999999001001IA1019MA1999999095371MD1210191-0151MW1051REMSYN088AAXX  16031 76393 31960 01001 10264 20151 39537 40090 52019 70540 90250 333 30/// 59015;
0253763930999992008021606004+25733-100300FM-12+051599999V0200801N001010021019N0080001N1+02201+01941100991ADDAY141061AY221061GF106991061051002501001001GJ105289IA1019KA1240M+03151KA2240N+01401MA1999999095451MD1210081-0151MW1051REMSYN124AAXX  16061 76393 31358 60801 10220 20194 39545 40099 52008 70542 86500 90550 333 10315 20140 30/// 55088 56300 59015 86609;
0217763930999992008021609004+25733-100300FM-12+051599999V0200901N001010018019N0020001N1+02041+01891100821ADDAY141031AY221031GA1071+001801061GF107991071051001501999999IA1019MA1999999095261MD1710191-0361MW1051REMSYN106AAXX  16091 76393 31220 70901 10204 20189 39526 40082 57019 70542 875// 90850 333 30/// 56399 59036 87606;
0272763930999992008021612004+25733-100300FM-12+051599999V0200801N001010024019N0020001N1+02081+01841100791ADDAA124000091AY141061AY221061GA1081+002401061GF108991081051002501999999IA1019KA1240M+03151KA2120N+01901MA1999999095201MD1710061-0411MW1051REMSYN124AAXX  16121 76393 31320 80801 10208 20184 39520 40079 57006 70542 885// 91150 333 10315 20190 30175 56399 59041 70000 88608;
0217763930999992008021615004+25733-100300FM-12+051599999V0200901N001010027019N0020001N1+02041+01771100771ADDAY141031AY241031GA1081+002701071GF108991081061017501999999IA1019MA1999999095141MD1710061-0451MW1051REMSYN106AAXX  16151 76393 31720 80901 10204 20177 39514 40077 57006 70544 886// 91450 333 30/// 563// 59045 88709;
0261763930999992008021618004+25733-100300FM-12+051599999V0201201N00101090001CN0030001N1+02641+01731100561ADDAY141061AY221061GA1021+009001071GF105991021061008001001021IA1019KA1120M+02751KA2240N+01901MA1999999094951MD1710191-0661MW1051REMSYN124AAXX  16181 76393 31530 51201 10264 20173 39495 40056 57019 70542 82602 91750 333 10275 20190 30/// 56305 59066 82730 83070;
0217763930999992008021621004+25733-100300FM-12+051599999V0200201N003012200019N0050001N1+03041+01581100031ADDAY141031AY221031GA1021+014701081GF102991021021012501001001IA1019MA1999999094481MD1710471-0791MW1051REMSYN106AAXX  16211 76393 31650 20203 10304 20158 39448 40003 57047 70542 82200 92050 333 30/// 56300 59079 82849;
0281763930999992008021700004+25733-100300FM-12+051599999V0203601N001012200019N0080001N1+01942+00991100121ADDAA124000091AY141061AY221061GF101991011021008001001001IA1019KA1120M+03241KA2180N+01901MA1999999094581MD1510101-0601MW1051REMSYN130AAXX  17001 76393 31558 13601 10194 20099 39458 40012 55010 70542 81200 92350 333 10324 20190 30/// 50408 56300 59060 70000 81832;EQDQ01+001943ATOT  
0218763930999992008021703004+25733-100300FM-12+051599999V0209999C000012200019N0040001N1+01901+01211100741ADDAY141031AY201031GA1001+999999999GF100991001001999999001001IA1019MA1999999095161MD1210582-0211MW1051REMSYN088AAXX  17031 76393 31940 00000 10190 20121 39516 40074 52058 70540 90250 333 30/// 59021;EQDQ01+000582APC3  
0251763930999992008021706004+25733-100300FM-12+051599999V0209999C000012200019N0040001N1+01681+01111100971ADDAY141061AY201061GA1001+999999999GF100991001001999999001001GJ104509IA1019KA1240M+03241KA2240N+01601MA1999999095341MD1210181-0111MW1051REMSYN106AAXX  17061 76393 31940 00000 10168 20111 39534 40097 52018 70540 90550 333 10324 20160 30/// 55075 59011;
0199763930999992008021709004+25733-100300FM-12+051599999V0201901N001012200019N0050001N1+01541+01061100921ADDAY141031AY241031GA1001+999999999GF100991001001999999001001IA1019MA1999999095241MD1710101-0021MW1051REMSYN088AAXX  17091 76393 31950 01901 10154 20106 39524 40092 57010 70544 90850 333 30/// 59002;
0273763930999992008021712004+25733-100300FM-12+051599999V0209999C000012200019N0060001N1+01461+01011100981ADDAA124000091AY141061AY201061GA1001+999999999GF100991001001999999001001IA1019KA1240M+03241KA2120N+01301MA1999999095261MD1210021+0061MW1051REMSYN106AAXX  17121 76393 31956 00000 10146 20101 39526 40098 52002 70540 91150 333 10324 20130 30124 58006 70000;EQDQ01  00002PRCP24
0199763930999992008021715004+25733-100300FM-12+051599999V0209999C000012200019N0050001N1+01801+01081101111ADDAY141031AY241031GA1001+999999999GF100991001001999999001001IA1019MA1999999095431MD1210171+0291MW1051REMSYN088AAXX  17151 76393 31950 00000 10180 20108 39543 40111 52017 70544 91455 333 30/// 58029;
0237763930999992008021718004+25733-100300FM-12+051599999V0200901N001012200019N0060001N1+02581+00671101121ADDAY141061AY241061GA1001+999999999GF100991001001999999001001IA1019KA1120M+02701KA2240N+01301MA1999999095401MD1710031+0451MW1051REMSYN100AAXX  17181 76393 31956 00901 10258 20067 39540 40112 57003 70544 91755 333 10270 20130 30/// 58045;
0199763930999992008021721004+25733-100300FM-12+051599999V0200901N001012200019N0100001N1+02971-00131100661ADDAY141031AY241031GA1001+999999999GF100991001001999999001001IA1019MA1999999095031MD1710371+0451MW1051REMSYN088AAXX  17211 76393 31960 00901 10297 21013 39503 40066 57037 70544 92055 333 30/// 58045;
0279763930999992008021800004+25733-100300FM-12+051599999V0201101N001012200019N0120001N1+02881+00541100541ADDAA124000091AY141061AY241061GA1001+999999999GF100991001001999999001001IA1019KA1120M+03251KA2180N+01301MA1999999094991MD1710041+0411MW1051REMSYN112AAXX  18001 76393 32962 01101 10288 20054 39499 40054 57004 70544 92355 333 10325 20130 30/// 50561 58041 70000;EQDQ01  00002PRCP24
0199763930999992008021803004+25733-100300FM-12+051599999V0201101N003012200019N0050001N1+02501+00301100771ADDAY141031AY241031GA1001+999999999GF100991001001999999001001IA1019MA1999999095251MD1210271+0091MW1051REMSYN088AAXX  18031 76393 31950 01103 10250 20030 39525 40077 52027 70544 90250 333 30/// 58009;
0251763930999992008021806004+25733-100300FM-12+051599999V0201201N002012200019N0050001N1+02201+00821100891ADDAY141061AY241061GA1001+999999999GF100991001001999999001001GJ106009IA1019KA1240M+03251KA2240N+01401MA1999999095351MD1110101+0011MW1051REMSYN106AAXX  18061 76393 31950 01202 10220 20082 39535 40089 51010 70544 90550 333 10325 20140 30/// 55100 58001;
0199763930999992008021809004+25733-100300FM-12+051599999V0209999C000012200019N0050001N1+01701+01201101181ADDAY141031AY241031GA1001+999999999GF100991001001999999001001IA1019MA1999999095581MD1210231+0341MW1051REMSYN088AAXX  18091 76393 31950 00000 10170 20120 39558 40118 52023 70544 90850 333 30/// 58034;
0273763930999992008021812004+25733-100300FM-12+051599999V0209999C000012200019N0050001N1+01621+01261101451ADDAA124000091AY141061AY241061GA1001+999999999GF100991001001999999001001IA1019KA1240M+03151KA2120N+01501MA1999999095771MD1210191+0511MW1051REMSYN106AAXX  18121 76393 31950 00000 10162 20126 39577 40145 52019 70544 91150 333 10315 20150 30125 58051 70000;EQDQ01  00002PRCP24
0217763930999992008021815004+25733-100300FM-12+051599999V0201201N003010054019N0050001N1+01441+00911101841ADDAY141031AY221031GA1081+005401061GF108991081041004501999999IA1019MA1999999096091MD1210321+0661MW1051REMSYN106AAXX  18151 76393 31450 81203 10144 20091 39609 40184 52032 70542 884// 91450 333 30/// 563// 58066 88618;
0272763930999992008021818004+25733-100300FM-12+051599999V0200801N002010075019N0030001N1+01481+00721102031ADDAA103000991AY141061AY221061GA1081+007501061GF108991081041008001999999IA1019KA1120M+01601KA2240N+01461MA1999999096231MD1010141+0831MW1051REMSYN124AAXX  18181 76393 21530 80802 10148 20072 39623 40203 50014 70542 884// 91700 333 10160 20146 30/// 563// 58083 69997 88625;
0217763930999992008021821004+25733-100300FM-12+051599999V0201001N003010048019N0020001N1+01601+01131101841ADDAY141031AY221031GA1081+004801071GF108991081071004501999999IA1019MA1999999096031MD1710201+1001MW1051REMSYN106AAXX  18211 76393 31420 81003 10160 20113 39603 40184 57020 70542 887// 92050 333 30/// 563// 58100 88716;
0303763930999992008021900004+25733-100300FM-12+051599999V0201001N001010042019N0050001N1+01601+01091101801ADDAA124999999AY141061AY241061GA1041+005101061GF107991071041004501999999IA1019KA1120M+01721KA2180N+01461MA1999999096001MD1010031+1011MW1051REMSYN136AAXX  19001 76393 31450 71001 10160 20109 39600 40180 50003 70544 874// 92350 333 10172 20146 30/// 50352 563// 58101 79999 84617 83818;EQDQ01  99992PRCP24
0217763930999992008021903004+25733-100300FM-12+051599999V0200501N001010054019N0050001N1+01601+01051102011ADDAY141031AY221031GA1081+005401061GF108991081051004501999999IA1019MA1999999096201MD1210201+0951MW1051REMSYN106AAXX  19031 76393 31450 80501 10160 20105 39620 40201 52020 70542 885// 90250 333 30/// 56399 58095 88618;
0253763930999992008021906004+25733-100300FM-12+051599999V0203601N001010021019N0040001N1+01401+01161102071ADDAY141061AY221061GF108991081051002501999999GJ100009IA1019KA1240M+01721KA2240N+01381MA1999999096261MD1210061+0911MW1051REMSYN124AAXX  19061 76393 31340 83601 10140 20116 39626 40207 52006 70542 885// 90550 333 10172 20138 30/// 55000 56399 58091 88608;
0234763930999992008021909004+25733-100300FM-12+051599999V0201101N001010009019N0020001N1+01361+01261102011ADDAA103000491AY151031AY251031GA1081+000901071GF108991081071000751999999IA1099MA1999999096201MD1710061+0621MW1501REMSYN112AAXX  19091 76393 21120 81101 10136 20126 39620 40201 57006 75055 887// 90850 333 31/// 56399 58062 69947 88703;
0172763930999992008021912004+25733-100300FM-12+051599999V0200901N002019999999N0010001N1+01301+01271102041ADDAA106001091AY151061AY251061GF108991999999000251999999MA1999999096211MD1010011+9999MW1501REMSYN072AAXX  19121 76393 01010 80902 10130 20127 39621 40204 50001 60011 75055;
0218763930999992008021915004+25733-100300FM-12+051599999V0200901N001010006019N0020001N1+01311+01221102211ADDAA103000391AY151031AY251031GF108991081071000751999999IA1099MA1999999096351MD1210141+0261MW1501REMSYN112AAXX  19151 76393 21120 80901 10131 20122 39635 40221 52014 75055 887// 91455 333 31/// 563// 69937 58026 88703;
0172763930999992008021918004+25733-100300FM-12+051599999V0201001N001019999999N0020001N1+01381+01241102321ADDAA106000391AY151061AY251061GF108991999999001501999999MA1999999096451MD1210101+9999MW1501REMSYN072AAXX  19181 76393 01220 81001 10138 20124 39645 40232 52010 69931 75055;
0234763930999992008021921004+25733-100300FM-12+051599999V0200901N001010015019N0010001N1+01511+01361101991ADDAA103000021AY151031AY251031GA1081+001501061GF108991081051001501999999IA1099MA1999999096151MD1710301+0121MW1501REMSYN112AAXX  19211 76393 21210 80901 10151 20136 39615 40199 57030 75055 885// 92055 333 31/// 563// 58012 69907 88605;
0262763930999992008022000004+25733-100300FM-12+051599999V0201001N002010021019N0050001N1+01551+01301101881ADDAA124001391AY141061AY241061GF108991081051002501999999IA1099KA1120M+01601KA2180N+01221MA1999999096061MD1710091+0061MW1051REMSYN130AAXX  20001 76393 31350 81002 10155 20130 39606 40188 57009 70544 885// 92355 333 10160 20122 31/// 50051 563// 58006 70013 88608;
0253763930999992008022006004+25733-100300FM-12+051599999V0209999C000010012019N0030001N1+01501+01341101831ADDAY141061AY251061GF108991081071001501999999GJ100009IA1019KA1240M+01601KA2240N+01281MA1999999096021MD1010071-0191MW1051REMSYN124AAXX  20061 76393 31230 80000 10150 20134 39602 40183 50007 70545 887// 90550 333 10160 20128 30/// 55000 563// 59019 88705;
0236763930999992008022009004+25733-100300FM-12+051599999V0209999C000010012019N0020001N1+01521+01391101721ADDAY141031AY251031GA1081+001201071GF108991999071001501091091IA1019MA1999999095921MD1710151-0281MW1041REMSYN106AAXX  20091 76393 31220 80000 10152 20139 39592 40172 57015 70445 88799 90850 333 30/// 56399 59028 88704;EQDQ01+000082SCOTLC
0278763930999992008022012004+25733-100300FM-12+051599999V0209999C000010030019N0020001N1+01621+01301101541ADDAA124000391AY141061AY251061GA1061+003001061GF108991061051004501021091IA1019KA1240M+01601KA2120N+01401MA1999999095751MD1710121-0461MW1051REMSYN130AAXX  20121 76393 31420 80000 10162 20130 39575 40154 57012 70545 86529 91150 333 10160 20140 30136 56359 59046 70003 86610 82456;
0217763930999992008022015004+25733-100300FM-12+051599999V0201601N001010051019N0020001N1+01841+01331101521ADDAY141031AY231031GA1081+005101071GF108991081061004501999999IA1019MA1999999095741MD1010011-0611MW1051REMSYN106AAXX  20151 76393 31420 81601 10184 20133 39574 40152 50001 70543 886// 91450 333 30/// 563// 59061 88717;
0261763930999992008022018004+25733-100300FM-12+051599999V0201801N001010084019N0030001N1+02221+01371101461ADDAY141061AY241061GA1071+008401061GF108991071061008001001041IA1019KA1120M+02341KA2240N+01401MA1999999095761MD1710021-0731MW1051REMSYN124AAXX  20181 76393 31530 81801 10222 20137 39576 40146 57002 70544 87604 91750 333 10234 20140 30/// 56305 59073 87628 81070;
0223763930999992008022021004+25733-100300FM-12+051599999V0201101N00201090001CN0030001N1+02561+01491100971ADDAY141031AY221031GA1021+010801071GF108991021061012501001051IA1019MA1999999095291MD1710431-0861MW1051REMSYN112AAXX  20211 76393 31630 81102 10256 20149 39529 40097 57043 70542 82605 92050 333 30/// 56305 59086 82736 86070;
0262763930999992008022100004+25733-100300FM-12+051599999V0200901N004019999999N0060001N1+02421+01531100841ADDAA124000091AY141061AY241061GF107991001001999999001051IA1019KA1120M+02681KA2180N+01401MA1999999095221MD1010071-0841MW1051REMSYN130AAXX  21001 76393 31956 70904 10242 20153 39522 40084 50007 70544 80005 92350 333 10268 20140 30/// 50131 56005 59084 70000 87070;
0217763930999992008022103004+25733-100300FM-12+051599999V0201001N001012200019N0030001N1+01961+01621100941ADDAY141031AY211031GA1021+060001001GF102991001001999999001051IA1019MA1999999095331MD1210111-0761MW1051REMSYN106AAXX  21031 76393 31930 21001 10196 20162 39533 40094 52011 70541 80005 90250 333 30/// 56005 59076 82070;
0237763930999992008022106004+25733-100300FM-12+051599999V0209999C000012200019N0020001N1+01741+01651100941ADDAY141061AY201061GA1001+999999999GF100991001001999999001001IA1019KA1240M+02681KA2240N+01401MA1999999095321MD1510011-0701MW1051REMSYN100AAXX  21061 76393 31920 00000 10174 20165 39532 40094 55001 70540 90550 333 10268 20140 30/// 59070;
0217763930999992008022109004+25733-100300FM-12+051599999V0209999C000010015019N0005001N1+01761+01601100851ADDAY141031AY221031GA1081+001501071GF108991081061001501999999IA1019MA1999999095201MD1710121-0671MW1101REMSYN106AAXX  21091 76393 31205 80000 10176 20160 39520 40085 57012 71042 886// 90850 333 30/// 56399 59067 88705;
0272763930999992008022112004+25733-100300FM-12+051599999V0209999C000010012019N0003001N1+01601+01501100811ADDAA124000091AY141061AY221061GA1081+001201071GF108991081061001501999999IA1019KA1240M+02681KA2120N+01501MA1999999095121MD1710081-0631MW1101REMSYN124AAXX  21121 76393 31203 80000 10160 20150 39512 40081 57008 71042 886// 91150 333 10268 20150 30134 56399 59063 70000 88704;
0217763930999992008022115004+25733-100300FM-12+051599999V0209999C000010600019N0030001N1+01931+01251100921ADDAY141031AY241031GA1051+060001001GF105991001001999999001041IA1099MA1999999095201MD1210081-0541MW1051REMSYN106AAXX  21151 76393 31930 50000 10193 20125 39520 40092 52008 70544 80004 91455 333 31/// 56004 59054 85070;
0245763930999992008022118004+25733-100300FM-12+051599999V0201001N001019999999N0060001N1+03001+00891100871ADDAY141061AY241061GF106991001001999999001041IA1019KA1120M+03131KA2240N+01501MA1999999095201MD1410001-0521MW1041REMSYN124AAXX  21181 76393 31956 61001 10300 20089 39520 40087 54000 70444 80004 91755 333 10313 20150 30/// 54206 56005 59052 86070;
0217763930999992008022121004+25733-100300FM-12+051599999V0201201N002010600019N0120001N1+03121+01171100481ADDAY141031AY241031GA1071+060001021GF107991001001999999001071IA1019MA1999999094901MD1710301-0391MW1041REMSYN106AAXX  21211 76393 31962 71202 10312 20117 39490 40048 57030 70444 80007 92055 333 30/// 56005 59039 87270;
0262763930999992008022200004+25733-100300FM-12+051599999V0201101N003012200019N0120001N1+02861+01281100341ADDAA124000091AY141061AY241061GF105991041001022501031011IA1019KA1120M+03351KA2180N+01501MA1999999094821MD1710081-0401MW1041REMSYN130AAXX  22001 76393 31862 51103 10286 20128 39482 40034 57008 70444 84031 92355 333 10335 20150 30/// 50411 56055 59040 70000 84356;
0236763930999992008022203004+25733-100300FM-12+051599999V0202701N001012200019N0050001N1+02481+01391100511ADDAY141031AY221031GA1021+018001031GF102991999001999999041001IA1019MA1999999095031MD1210211-0301MW1051REMSYN106AAXX  22031 76393 31950 22701 10248 20139 39503 40051 52021 70542 80040 90250 333 30/// 56050 59030 82356;EQDQ01+000002SCOTLC
0251763930999992008022206004+25733-100300FM-12+051599999V0202601N001012200019N0080001N1+02141+01381100671ADDAY141061AY221061GA1001+999999999GF100991001001999999001001GJ103969IA1019KA1240M+03351KA2240N+01561MA1999999095161MD1210131-0161MW1051REMSYN106AAXX  22061 76393 31958 02601 10214 20138 39516 40067 52013 70542 90550 333 10335 20156 30/// 55066 59016;
0199763930999992008022209004+25733-100300FM-12+051599999V0202801N001012200019N0050001N1+01941+01151100781ADDAY141031AY221031GA1001+999999999GF100991001001999999001001IA1019MA1999999095201MD1110041+0001MW1051REMSYN088AAXX  22091 76393 31950 02801 10194 20115 39520 40078 51004 70542 90850 333 30/// 58000;
0273763930999992008022212004+25733-100300FM-12+051599999V0202601N001012200019N0030001N1+01881+00831100961ADDAA124000091AY141061AY241061GA1001+999999999GF100991001001999999001001IA1019KA1240M+03351KA2120N+01701MA1999999095281MD1210081+0161MW1051REMSYN106AAXX  22121 76393 31930 02601 10188 20083 39528 40096 52008 70544 91150 333 10335 20170 30142 58016 70000;EQDQ01  00002PRCP24
0199763930999992008022215004+25733-100300FM-12+051599999V0209999C000012200019N0060001N1+02201+00131101201ADDAY141031AY241031GA1001+999999999GF100991001001999999001001IA1019MA1999999095611MD1210331+0411MW1041REMSYN088AAXX  22151 76393 31956 00000 10220 20013 39561 40120 52033 70444 91455 333 30/// 58041;
0237763930999992008022218004+25733-100300FM-12+051599999V0200901N002012200019N0120001N1+02791+00211101301ADDAY141061AY241061GA1001+999999999GF100991001001999999001001IA1019KA1120M+02901KA2240N+01701MA1999999095651MD1010041+0451MW1041REMSYN100AAXX  22181 76393 31962 00902 10279 20021 39565 40130 50004 70444 91755 333 10290 20170 30/// 58045;
0171763930999992008022221004+25733-100300FM-12+051599999V0201201N001012200019N0180001N1+03131+00041100961ADDGA1001+999999999GF100991001001999999001001IA1019MA1999999095381MD1710271+0481REMSYN082AAXX  22211 76393 32968 01201 10313 20004 39538 40096 57027 92055 333 30/// 58048;
0217763930999992008022300004+25733-100300FM-12+051599999V0200901N003012200019N0180001N1+02781+00521100941ADDGF101991001001999999001011IA1019KA1120M+03281KA2180N+01701MA1999999095401MD1210021+0581REMSYN118AAXX  23001 76393 32968 10903 10278 20052 39540 40094 52002 80001 92355 333 10328 20170 30/// 50631 56005 58058 70000;
0171763930999992008022303004+25733-100300FM-12+051599999V0200701N002012200019N0180001N1+02421+00951101231ADDGA1001+999999999GF100991001001999999001001IA1019MA1999999095691MD1210291+0661REMSYN082AAXX  23031 76393 32968 00702 10242 20095 39569 40123 52029 90255 333 30/// 58066;
0223763930999992008022306004+25733-100300FM-12+051599999V0201201N002012200019N0150001N1+02101+00991101281ADDGA1001+999999999GF100991001001999999001001GJ106129IA1019KA1240M+03281KA2240N+01701MA1999999095721MD1210031+0911REMSYN100AAXX  23061 76393 32965 01202 10210 20099 39572 40128 52003 90550 333 10328 20170 30/// 55102 58091;
0171763930999992008022309004+25733-100300FM-12+051599999V0203601N001012200019N0150001N1+01821+01121101291ADDGA1001+999999999GF100991001001999999001001IA1019MA1999999095681MD1710041+0481REMSYN082AAXX  23091 76393 32965 03601 10182 20112 39568 40129 57004 90850 333 30/// 58048;
0199763930999992008022315004+25733-100300FM-12+051599999V0200901N001012200019N0030001N1+01751+01131101491ADDAY141031AY241031GA1001+999999999GF100991001001999999001001IA1019MA1999999095771MD1999999+0161MW1041REMSYN088AAXX  23151 76393 31930 00901 10175 20113 39577 40149 5//// 70444 91455 333 30/// 58016;
0237763930999992008022318004+25733-100300FM-12+051599999V0200901N001012200019N0030001N1+02371+01331101401ADDAY141061AY241061GA1001+999999999GF100991001001999999001001IA1019KA1120M+02531KA2240N+01501MA1999999095691MD1710081+0041MW1051REMSYN100AAXX  23181 76393 31930 00901 10237 20133 39569 40140 57008 70544 91755 333 10253 20150 30/// 58004;
0217763930999992008022321004+25733-100300FM-12+051599999V0200901N002012200019N0080001N1+03201+01241100991ADDAY141031AY241031GA1011+018001081GF101991011011017501001001IA1019MA1999999095351MD1710341-0031MW1051REMSYN106AAXX  23211 76393 31758 10902 10320 20124 39535 40099 57034 70544 81100 92055 333 30/// 56005 59003 81856;
0234763930999992008022400004+25733-100300FM-12+051599999V0200901N002012200019N0180001N1+03121+01041100921ADDAA124000091GF101991011011017501001001IA1019KA1120M+03321KA2180N+01501MA1999999095351MD1410001-0051REMSYN124AAXX  24001 76393 32768 10902 10312 20104 39535 40092 54000 81100 92355 333 10332 20150 30/// 50571 56005 59005 70000 81856;
0171763930999992008022403004+25733-100300FM-12+051599999V0209999C000012200019N0080001N1+02681+01461101071ADDGA1001+999999999GF100991001001999999001001IA1019MA1999999095551MD1210211-0141REMSYN082AAXX  24031 76393 32958 00000 10268 20146 39555 40107 52021 90250 333 30/// 59014;
0251763930999992008022406004+25733-100300FM-12+051599999V0200501N001012200019N0050001N1+02181+01531101201ADDAY141061AY241061GA1001+999999999GF100991001001999999001001GJ106129IA1019KA1240M+03321KA2240N+01501MA1999999095671MD1210121-0051MW1051REMSYN106AAXX  24061 76393 31950 00501 10218 20153 39567 40120 52012 70544 90550 333 10332 20150 30/// 55102 59005;
0142763930999992008022409004+25733-100300FM-12+051599999V0209999C000012200019N0050001N1+01941+01541999999ADDGA1001+999999999GF100991001001999999001001REMSYN088AAXX  24091 76393 31950 00000 10194 20154 20009 39576 40133 70544 90850 333 30/// 58018;
0273763930999992008022412004+25733-100300FM-12+051599999V0202801N001012200019N0030001N1+01881+01441101611ADDAA124000091AY141061AY241061GA1001+999999999GF100991001001999999001001IA1019KA1240M+03321KA2120N+01801MA1999999095951MD1210191+9999MW1051REMSYN106AAXX  24121 76393 31930 02801 10188 20144 39595 40161 52019 70544 91150 333 10332 20180 30152 58/// 70000;EQDQ01  00002PRCP24
0199763930999992008022415004+25733-100300FM-12+051599999V0201701N001012200019N0100001N1+02401+00961101871ADDAY141031AY241031GA1001+999999999GF100991001001999999001001IA1019MA1999999096171MD1210221-0401MW1051REMSYN088AAXX  24151 76393 31960 01701 10240 20096 39617 40187 52022 70544 91450 333 30/// 59040;
0237763930999992008022418004+25733-100300FM-12+051599999V0203601N001012200019N0080001N1+02821+01041101951ADDAY141061AY241061GA1001+999999999GF100991001001999999001001IA1019KA1120M+02941KA2240N+01801MA1999999096271MD1010101+0581MW1051REMSYN100AAXX  24181 76393 31958 03601 10282 20104 39627 40195 50010 70544 92050 333 10294 20180 30/// 58058;
0199763930999992008022421004+25733-100300FM-12+051599999V0203201N001012200019N0080001N1+02961+01111101731ADDAY141031AY241031GA1001+999999999GF100991001001999999001001IA1019MA1999999096101MD1710171+0781MW1051REMSYN088AAXX  24211 76393 31958 03201 10296 20111 39610 40173 57017 70544 92050 333 30/// 58078;
0279763930999992008022500004+25733-100300FM-12+051599999V0200901N002012200019N0060001N1+02781+01471101581ADDAA124000091AY141061AY241061GA1001+999999999GF100991001001999999001001IA1019KA1120M+03251KA2180N+01801MA1999999096011MD1010091+0661MW1051REMSYN112AAXX  25001 76393 31956 00902 10278 20147 39601 40158 50009 70544 92350 333 10325 20180 30/// 50503 58066 70000;EQDQ01  00002PRCP24
0199763930999992008022503004+25733-100300FM-12+051599999V0200701N001012200019N0050001N1+02481+01541101681ADDAY141031AY201031GA1001+999999999GF100991001001999999001001IA1019MA1999999096121MD1210111+0571MW1051REMSYN088AAXX  25031 76393 31950 00701 10248 20154 39612 40168 52011 70540 90248 333 30/// 58057;
0251763930999992008022506004+25733-100300FM-12+051599999V0202701N001012200019N0060001N1+02241+01531101621ADDAY141061AY201061GA1001+999999999GF100991001001999999001001GJ106069IA1019KA1240M+03251KA2240N+01801MA1999999096051MD1710071+0381MW1051REMSYN106AAXX  25061 76393 31956 02701 10224 20153 39605 40162 57007 70540 90550 333 10325 20180 30/// 55101 58038;
0199763930999992008022509004+25733-100300FM-12+051599999V0209999C000012200019N0080001N1+02041+01551101471ADDAY141031AY201031GA1001+999999999GF100991001001999999001001IA1019MA1999999095871MD1710181+0111MW1051REMSYN088AAXX  25091 76393 31958 00000 10204 20155 39587 40147 57018 70540 90850 333 30/// 58011;
0273763930999992008022512004+25733-100300FM-12+051599999V0209999C000012200019N0060001N1+01821+01511101401ADDAA124000091AY141061AY201061GA1001+999999999GF100991001001999999001001IA1019KA1240M+03251KA2120N+01681MA1999999095751MD1710121-0201MW1051REMSYN106AAXX  25121 76393 31956 00000 10182 20151 39575 40140 57012 70540 91150 333 10325 20168 30150 59020 70000;EQDQ01  00002PRCP24
0199763930999992008022515004+25733-100300FM-12+051599999V0202401N001012200019N0040001N1+02291+01231101431ADDAY141031AY241031GA1001+999999999GF100991001001999999001001IA1019MA1999999095751MD1410001-0421MW1051REMSYN088AAXX  25151 76393 31940 02401 10229 20123 39575 40143 54000 70544 91455 333 30/// 59042;
0237763930999992008022518004+25733-100300FM-12+051599999V0201001N002012200019N0040001N1+03001+01411101171ADDAY141061AY241061GA1001+999999999GF100991001001999999001001IA1019KA1120M+03161KA2240N+01681MA1999999095541MD1710211-0731MW1051REMSYN100AAXX  25181 76393 31940 01002 10300 20141 39554 40117 57021 70544 91755 333 10316 20168 30/// 59073;
0217763930999992008022521004+25733-100300FM-12+051599999V0201001N001012200019N0060001N1+03531+01351100711ADDAY141031AY241031GA1011+018001081GF101991011011017501001001IA1019MA1999999095151MD1710391-0951MW1051REMSYN106AAXX  25211 76393 31756 11001 10353 20135 39515 40071 57039 70544 81100 92055 333 30/// 56500 59095 81856;
0217763930999992008022600004+25733-100300FM-12+051599999V0209999C000012200019N0140001N1+03401+01101100461ADDGF101991001001999999001011IA1019KA1120M+03701KA2180N+01681MA1999999094991MD1710161-1021REMSYN118AAXX  26001 76393 32964 10000 10340 20110 39499 40046 57016 80001 92355 333 10370 20168 30/// 50611 56005 59102 70000;
0199763930999992008022603004+25733-100300FM-12+051599999V0201601N001012200019N0050001N1+02921+01221100501ADDAY141031AY241031GA1001+999999999GF100991001001999999001001IA1019MA1999999095081MD1210091-1041MW1051REMSYN088AAXX  26031 76393 31950 01601 10292 20122 39508 40050 52009 70544 90250 333 30/// 59104;
0251763930999992008022606004+25733-100300FM-12+051599999V0209999C000012200019N0050001N1+02441+01161100521ADDAY141061AY241061GA1001+999999999GF100991001001999999001001GJ106189IA1019KA1240M+03701KA2240N+01801MA1999999095081MD1010001-0971MW1051REMSYN106AAXX  26061 76393 31950 00000 10244 20116 39508 40052 50000 70544 90550 333 10370 20180 30/// 55103 59097;
0199763930999992008022609004+25733-100300FM-12+051599999V0203301N004012200019N0050001N1+02521+00771100841ADDAY141031AY241031GA1001+999999999GF100991001001999999001001IA1019MA1999999095351MD1210271-0521MW1051REMSYN088AAXX  26091 76393 31950 03304 10252 20077 39535 40084 52027 70544 90850 333 30/// 59052;
0273763930999992008022612004+25733-100300FM-12+051599999V0203601N002012200019N0030001N1+02221-00151101431ADDAA124000091AY141061AY241061GA1001+999999999GF100991001001999999001001IA1019KA1240M+03621KA2120N+02151MA1999999095851MD1210501+0101MW1051REMSYN106AAXX  26121 76393 31930 03602 10222 21015 39585 40143 52050 70544 91150 333 10362 20215 30182 58010 70000;EQDQ01  00002PRCP24
0236763930999992008022615004+25733-100300FM-12+051599999V0200501N001012200019N0050001N1+01901+00151101901ADDAY141031AY211031GA1041+072001001GF104991001001999999001021IA1019MA1999999096241MD1210391+0491MW1051REMSYN106AAXX  26151 76393 31950 40501 10190 20015 39624 40190 52039 70541 84002 91455 333 30/// 56005 58049 84074;EQDQ01+000042SCOTLC
0246763930999992008022618004+25733-100300FM-12+051599999V0200101N001012200019N0120001N1+02221+00041102131ADDGA1041+072001001GF104991001001999999001021IA1019KA1120M+02521KA2240N+01901MA1999999096441MD1210201+0901REMSYN112AAXX  26181 76393 32962 40101 10222 20004 39644 40213 52020 84002 91755 333 10252 20190 30/// 56005 58090 84074;EQDQ01+000042SCOTLC
0208763930999992008022621004+25733-100300FM-12+051599999V0200101N003012200019N0180001N1+02221-00301101981ADDGA1021+072001001GF102991001001999999001041IA1019MA1999999096281MD1710161+1131REMSYN100AAXX  26211 76393 32968 20103 10222 21030 39628 40198 57016 82004 92055 333 30/// 56005 58113 82074;EQDQ01+000022SCOTLC
0253763930999992008022700004+25733-100300FM-12+051599999V0200101N002012200019N0200001N1+02081-00441102081ADDAA124000091GF102991001001999999001041IA1019KA1120M+02541KA2180N+01901MA1999999096371MD1610091+1381REMSYN124AAXX  27001 76393 32970 20102 10208 21044 39637 40208 56009 82004 92355 333 10254 20190 30/// 50871 56005 58138 70000 82074;EQDQ01+000022SCOTLC
0171763930999992008022703004+25733-100300FM-12+051599999V0203601N001012200019N0160001N1+01821-00171102531ADDGA1001+999999999GF100991001001999999001001IA1019MA1999999096791MD1210421+1711REMSYN082AAXX  27031 76393 32966 03601 10182 21017 39679 40253 52042 90850 333 30/// 58171;
0223763930999992008022706004+25733-100300FM-12+051599999V0209999C000012200019N0150001N1+01561+00131102611ADDGA1001+999999999GF100991001001999999001001GJ106009IA1019KA1240M+02541KA2240N+01521MA1999999096841MD1210051+1761REMSYN100AAXX  27061 76393 32965 00000 10156 20013 39684 40261 52005 90550 333 10254 20152 30/// 55100 58176;
0273763930999992008022712004+25733-100300FM-12+051599999V0200901N002012200019N0120001N1+01101-00271102731ADDAA124000091AY141061AY201061GA1001+999999999GF100991001001999999001001IA1019KA1240M+02541KA2120N+00981MA1999999096881MD1710031+1031MW1051REMSYN106AAXX  27121 76393 31962 00902 10110 21027 39688 40273 57003 70540 91150 333 10254 20098 30084 58103 70000;EQDQ01  00002PRCP24
0171763930999992008022715004+25733-100300FM-12+051599999V0209999C000012200019N0180001N1+01301-00131102891ADDGA1001+999999999GF100991001001999999001001IA1019MA1999999097001MD1210121+0761REMSYN082AAXX  27151 76393 32968 00000 10130 21013 39700 40289 52012 91455 333 30/// 58076;
0209763930999992008022718004+25733-100300FM-12+051599999V0200901N002012200019N0180001N1+01781-00171102781ADDGA1001+999999999GF100991001001999999001001IA1019KA1120M+01901KA2240N+00981MA1999999096901MD1710101+0461REMSYN094AAXX  27181 76393 32968 00902 10178 21017 39690 40278 57010 91755 333 10190 20098 30/// 58046;
0171763930999992008022721004+25733-100300FM-12+051599999V0200901N003012200019N0180001N1+02051-00021102341ADDGA1001+999999999GF100991001001999999001001IA1019MA1999999096501MD1710401+0221REMSYN082AAXX  27211 76393 32968 00903 10205 21002 39650 40234 57040 92055 333 30/// 58022;
0251763930999992008022800004+25733-100300FM-12+051599999V0200901N003012200019N0180001N1+01961-00111102141ADDAA124000091GA1001+999999999GF100991001001999999001001IA1019KA1120M+02201KA2180N+00981MA1999999096361MD1710141-0011REMSYN106AAXX  28001 76393 32968 00903 10196 21011 39636 40214 57014 92355 333 10220 20098 30/// 50601 59001 70000;EQDQ01  00002PRCP24
0171763930999992008022803004+25733-100300FM-12+051599999V0200901N001012200019N0030001N1+01661-00131102061ADDGA1001+999999999GF100991001001999999001001IA1019MA1999999096301MD1710061-0491REMSYN082AAXX  28031 76393 32930 00901 10166 21013 39630 40206 57006 90250 333 30/// 59049;
0223763930999992008022806004+25733-100300FM-12+051599999V0200901N003012200019N0030001N1+01341-00211102051ADDGA1001+999999999GF100991001001999999001001GJ106069IA1019KA1240M+01801KA2240N+00981MA1999999096291MD1610011-0551REMSYN100AAXX  28061 76393 32930 00903 10134 21021 39629 40205 56001 90550 333 10180 20098 30/// 55101 59055;
0171763930999992008022809004+25733-100300FM-12+051599999V0209999C000012200019N0030001N1+01041-00021102031ADDGA1001+999999999GF100991001001999999001001IA1019MA1999999096221MD1710071-0691REMSYN082AAXX  28091 76393 32930 00000 10104 21002 39622 40203 57007 90850 333 30/// 59069;
0245763930999992008022812004+25733-100300FM-12+051599999V0209999C000012200019N0030001N1+00921+00091101961ADDAA124000091GA1001+999999999GF100991001001999999001001IA1019KA1240M+02201KA2120N+00921MA1999999096111MD1710111-0771REMSYN100AAXX  28121 76393 32930 00000 10092 20009 39611 40196 57011 91150 333 10220 20092 30/// 59077 70000;EQDQ01  00002PRCP24
0236763930999992008022815004+25733-100300FM-12+051599999V0203501N001012200019N0030001N1+01161+00041102011ADDAY141031AY201031GA1011+072001001GF101991001001999999001041IA1019MA1999999096121MD1410001-0881MW1051REMSYN106AAXX  28151 76393 31930 13501 10116 20004 39612 40201 54001 70540 81004 91455 333 30/// 56005 59088 81074;EQDQ01+000012SCOTLC
0274763930999992008022818004+25733-100300FM-12+051599999V0200801N002012200019N0030001N1+01741+00291101911ADDAY141061AY201061GA1021+072001001GF102991001001999999001041IA1019KA1120M+02101KA2240N+00901MA1999999096041MD1410001-0861MW1051REMSYN118AAXX  28181 76393 31930 20802 10174 20029 39604 40191 54008 70540 82004 91755 333 10210 20090 30/// 56005 59086 82074;EQDQ01+000022SCOTLC
0208763930999992008022821004+25733-100300FM-12+051599999V0200801N004012200019N0150001N1+02601+00381101371ADDGA1041+072001001GF104991001001999999001041IA1019MA1999999095601MD1710441-0901REMSYN100AAXX  28211 76393 32965 40804 10260 20038 39560 40137 57044 84004 92055 333 30/// 56005 59090 84074;EQDQ01+000042SCOTLC
0253763930999992008022900004+25733-100300FM-12+051599999V0201101N002019999999N0190001N1+02541+00381101181ADDAA124000091GF106991001001999999001041IA1019KA1120M+02801KA2180N+00901MA1999999095501MD1110101-0861REMSYN124AAXX  29001 76393 32969 61102 10254 20038 39550 40118 51010 86004 92355 333 10280 20090 30/// 50551 56005 59086 70000 84074;EQDQ01+000062SCOTLC
0189763930999992008022903004+25733-100300FM-12+051599999V0200901N001012200019N0180001N1+02201+00911101281ADDGA1041+075001001GF104991001001999999001041IA1019MA1999999095651MD1210151-0651REMSYN100AAXX  29031 76393 32968 40901 10220 20091 39565 40128 52015 80004 90250 333 30/// 56005 59065 84075;
0225763930999992008022906004+25733-100300FM-12+051599999V0200801N002012200019N0150001N1+01841+00951101351ADDGF103991001001999999001041GJ105649IA1019KA1240M+02801KA2240N+00901MA1999999095721MD1210071-0571REMSYN118AAXX  29061 76393 32965 30802 10184 20095 39572 40135 52007 80004 90550 333 10280 20090 30/// 55094 56005 59057 83075;
0189763930999992008022909004+25733-100300FM-12+051599999V0209999C000012200019N0150001N1+01541+01061101281ADDGA1021+027001031GF102991021001999999031001IA1019MA1999999095621MD1710101-0601REMSYN100AAXX  29091 76393 32965 20000 10154 20106 39562 40128 57010 82030 90850 333 30/// 56050 59060 82359;
0278763930999992008022912004+25733-100300FM-12+051599999V0209999C000012200019N0080001N1+01441+01021101401ADDAA124000091AY101061AY201061GA1021+027001031GF103991021001999999031041IA1019KA1240M+02801KA2120N+01301MA1999999095681MD1210061-0431MW1051REMSYN130AAXX  29121 76393 31958 30000 10144 20102 39568 40140 52006 70500 82034 91150 333 10280 20130 30112 56055 59043 70000 82359 81070;
0211763930999992008022915004+25733-100300FM-12+051599999V0202701N001012200019N0080001N1+01821+01191101541ADDAY141031AY241031GA1021+060001001GF102991999999999999999999IA1019MA1999999095781MD1210101-0341MW1051REMSYN100AAXX  29151 76393 31958 22701 10182 20119 39578 40154 52010 70544 92030 333 30/// 56050 59034 82070;
0261763930999992008022918004+25733-100300FM-12+051599999V0200701N001012200019N0080001N1+02541+01031101591ADDAY141061AY241061GA1011+015001081GF104991011021017501001011IA1019KA1120M+02661KA2240N+01301MA1999999095851MD1010071-0191MW1051REMSYN124AAXX  29181 76393 31758 40701 10254 20103 39585 40159 50007 70544 81201 91750 333 10266 20130 30/// 56305 59019 81850 83070;
0223763930999992008022921004+25733-100300FM-12+051599999V0200901N00301090001CN0070001N1+02941+01171101391ADDAY141031AY241031GA1011+018001081GF107991011021017501001021IA1019MA1999999095721MD1710131+0121MW1051REMSYN112AAXX  29211 76393 31757 70903 10294 20117 39572 40139 57013 70544 81202 92050 333 30/// 56305 58012 81856 86070;
0262763930999992008030100004+25733-100300FM-12+051599999V0201001N003019999999N0080001N1+02721+01231101411ADDAA124000091AY141061AY241061GF107991001001999999001021IA1019KA1120M+03051KA2180N+01301MA1999999095791MD1010071+0291MW1051REMSYN130AAXX  01001 76393 31958 71003 10272 20123 39579 40141 50007 70544 80002 92350 333 10305 20130 30/// 50446 56005 58029 70000 87070;
0199763930999992008030103004+25733-100300FM-12+051599999V0201301N001012200019N0050001N1+02501+01261101741ADDAY141031AY221031GA1001+999999999GF100991001001999999001001IA1019MA1999999096151MD1210361+0501MW1051REMSYN088AAXX  01031 76393 31950 01301 10250 20126 39615 40174 52036 70542 90250 333 30/// 58050;
0275763930999992008030106004+25733-100300FM-12+051599999V0200901N003010360019N0030001N1+02021+01621101991ADDAY141061AY261061GA1031+003901061GF106991031041004501041999GJ106009IA1019KA1240M+03051KA2240N+01421MA1999999096381MD1210231+0661MW1051REMSYN130AAXX  01061 76393 31430 60903 10202 20162 39638 40199 52023 70546 8344/ 90550 333 10305 20142 30/// 55100 5635/ 58066 83613 83356;
0223763930999992008030109004+25733-100300FM-12+051599999V0201001N00101036001CN0030001N1+01921+01681101991ADDAY141031AY261031GA1041+002401061GF106991041041002501041999IA1019MA1999999096341MD1710031+0721MW1051REMSYN112AAXX  01091 76393 31330 61001 10192 20168 39634 40199 57003 70546 8444/ 90850 333 30/// 5635/ 58072 84608 82356;
0278763930999992008030112004+25733-100300FM-12+051599999V0203601N00101036001CN0030001N1+01861+01611102011ADDAA124000091AY141061AY261061GA1011+002401061GF107991011041002501021999IA1019KA1240M+02941KA2120N+01801MA1999999096321MD1310021+0641MW1051REMSYN130AAXX  01121 76393 31330 73601 10186 20161 39632 40201 53002 70546 8142/ 91150 333 10294 20180 30175 5635/ 58064 70000 81608 86456;
0218763930999992008030115004+25733-100300FM-12+051599999V0200901N001010042019N0030001N1+01961+01561102171ADDAY141031AY221031GA1081+004201061GF108991081051004501999999IA1019MA1999999096431MD1310111+0651MW1051REMSYN107AAXX  01151 76393 31430 80901 10196 20156 39643 40217 53011 70542 885// 91455 333 30/// 56399 58065 886140;
0272763930999992008030118004+25733-100300FM-12+051599999V0201001N002010030019N0020001N1+01981+01681102231ADDAA103000991AY141061AY221061GA1081+003001061GF108991081051004501999999IA1019KA1120M+02051KA2240N+01801MA1999999096481MD1410001+0631MW1051REMSYN124AAXX  01181 76393 21420 81002 10198 20168 39648 40223 54003 70542 885// 91755 333 10205 20180 30/// 56399 58063 69997 88610;
0234763930999992008030121004+25733-100300FM-12+051599999V0200901N004010063019N0050001N1+02261+01551101851ADDAA106001091AY141031AY221031GA1081+006301061GF108991081051008001999999IA1019MA1999999096141MD1710341+0421MW1051REMSYN112AAXX  01211 76393 11550 80904 10226 20155 39614 40185 57034 69991 70542 885// 92055 333 30/// 56399 58042 88621;
0281763930999992008030200004+25733-100300FM-12+051599999V0201101N004010075019N0050001N1+02261+01521101631ADDAA124999999AY141061AY221061GF107991071051008001999999IA1019KA1120M+02441KA2180N+01801MA1999999095951MD1610191+0161MW1051REMSYN130AAXX  02001 76393 31550 71104 10226 20152 39595 40163 56019 70542 875// 92355 333 10244 20180 30/// 50311 56399 58016 79999 87625;EQDQ01  99992PRCP24
0217763930999992008030203004+25733-100300FM-12+051599999V0201301N001010054019N0050001N1+02121+01601101571ADDAY141031AY221031GA1081+005401061GF108991081051004501999999IA1019MA1999999095901MD1710051-0251MW1051REMSYN106AAXX  02031 76393 31450 81301 10212 20160 39590 40157 57005 70542 885// 90250 333 30/// 56399 59025 88618;
0253763930999992008030206004+25733-100300FM-12+051599999V0201001N001010021019N0040001N1+01961+01751101451ADDAY141061AY221061GF107991071051002501999999GJ100009IA1019KA1240M+02441KA2240N+01801MA1999999095791MD1710111-0591MW1051REMSYN124AAXX  02061 76393 31340 71001 10196 20175 39579 40145 57011 70542 875// 90555 333 10244 20180 30/// 55000 56399 59059 87607;
0272763930999992008030212004+25733-100300FM-12+051599999V0200601N001010012019N0040001N1+01781+01661101041ADDAA124000091AY141061AY221061GA1071+001201071GF107991071061001501999999IA1019KA1240M+02441KA2120N+01641MA1999999096361MD1710141-0961MW1051REMSYN124AAXX  02121 76393 31240 70601 10178 20166 39636 40104 57014 70542 876// 91150 333 10244 20164 30152 56399 59096 70000 87704;
0217763930999992008030215004+25733-100300FM-12+051599999V0200701N001010024019N0080001N1+01921+01681100951ADDAY141031AY241031GA1081+002401081GF108991081041002501999999IA1019MA1999999095271MD1210091-1161MW1051REMSYN106AAXX  02151 76393 31358 80701 10192 20168 39527 40095 52009 70544 884// 91450 333 30/// 563// 59116 88808;
0261763930999992008030218004+25733-100300FM-12+051599999V0200701N00301036001CN0080001N1+02421+01601100731ADDAY141061AY241061GA1011+008401061GF107991011021008001031999IA1019KA1120M+02561KA2240N+01641MA1999999095061MD1710251-1421MW1051REMSYN124AAXX  02181 76393 31558 70703 10242 20160 39506 40073 57025 70544 8123/ 91750 333 10256 20164 30/// 5635/ 59142 81628 86360;
0245763930999992008030221004+25733-100300FM-12+051599999V0200901N00301090001CN0080001N1+03041+01651100211ADDAY141031AY241031GA1011+012601081GA2011+030001031GF105991011021012501031021IA1019MA1999999094621MD1710441-1521MW1051REMSYN118AAXX  02211 76393 31658 50903 10304 20165 39462 40021 57044 70544 81232 92050 333 30/// 56355 59152 81842 81360 83070;
0234763930999992008030300004+25733-100300FM-12+051599999V0201101N001012200019N0100001N1+02961+01401100011ADDAA124000091GF101991011021017501001001IA1019KA1120M+03301KA2180N+01641MA1999999094491MD1710131-1461REMSYN124AAXX  03001 76393 32760 11101 10296 20140 39449 40001 57013 81200 92350 333 10330 20164 30/// 50361 56300 59146 70000 81850;
0199763930999992008030303004+25733-100300FM-12+051599999V0201201N001012200019N0050001N1+02681+01561100141ADDAY141031AY221031GA1001+999999999GF100991001001999999001001IA1019MA1999999094651MD1210161-1251MW1051REMSYN088AAXX  03031 76393 31950 01201 10268 20156 39465 40014 52016 70542 90250 333 30/// 59125;
0232763930999992008030306004+25733-100300FM-12+051599999V0200901N001012200019N0030001N1+02281+01681100181ADDAY141061AY221061GA1001+999999999GF100991001001999999001001GJ103789IA1019KA1240M+03301MA1999999094691MD1510041-1101MW1051REMSYN100AAXX  03061 76393 31930 00901 10228 20168 39469 40018 55004 70542 90550 333 10330 30/// 55063 59110;
0199763930999992008030309004+25733-100300FM-12+051599999V0202901N001012200019N0030001N1+01961+01661100161ADDAY141031AY221031GA1001+999999999GF100991001001999999001001IA1019MA1999999094641MD1710051-0861MW1051REMSYN088AAXX  03091 76393 31930 02901 10196 20166 39464 40016 57005 70542 90850 333 30/// 59086;
0273763930999992008030312004+25733-100300FM-12+051599999V0200401N001012200019N0030001N1+01961+01101100231ADDAA124000091AY141061AY221061GA1001+999999999GF100991001001999999001001IA1019KA1240M+03121KA2120N+01821MA1999999094661MD1210021-0701MW1051REMSYN106AAXX  03121 76393 31930 00401 10196 20110 39466 40023 52002 70542 91150 333 10312 20182 30156 59070 70000;EQDQ01  00002PRCP24
0235763930999992008030315004+25733-100300FM-12+051599999V0202701N002012200019N0060001N1+02781-00192999999ADDAY141031AY201031GA1001+999999999GF100991001001999999001001IA1019MD1211492+0881MW1051REMSYN088AAXX  03151 76393 31956 02702 10278 21019 39615 40182 52149 70540 91455 333 30/// 58088;EQDQ01+096153APOSP Q02+101823APOSLPQ03+001492APC3  
0241763930999992008030318004+25733-100300FM-12+051599999V0200701N003012200019N0020001N1+02301+00251100791ADDAY141061AY201061GA1001+999999999GF100991001001999999001001IA1019KA1120M+02501KA2240N+01821MD1110121+0111MW1051REMSYN100AAXX  03181 76393 31920 00703 10230 20025 37517 40079 51012 70540 91755 333 10250 20182 30/// 58011;EQDQ01+075173APOSP 
0199763930999992008030321004+25733-100300FM-12+051599999V0203601N003012200019N0020001N1+02261+00051100901ADDAY141031AY201031GA1001+999999999GF100991001001999999001001IA1019MA1999999095291MD1210121+0671MW1051REMSYN088AAXX  03211 76393 31920 03603 10226 20005 39529 40090 52012 70540 92055 333 30/// 58067;
0251763930999992008030400004+25733-100300FM-12+051599999V0203401N002012200019N0060001N1+01841-00131101261ADDAA124000091GA1001+999999999GF100991001001999999001001IA1019KA1120M+02501KA2180N+01821MA1999999095631MD1210341+1141REMSYN106AAXX  04001 76393 31956 03402 10184 21013 39563 40126 52034 92355 333 10250 20182 30/// 50521 58114 70000;EQDQ01  00002PRCP24
0218763930999992008030403004+25733-100300FM-12+051599999V0203601N002012200019N0070001N1+01301-00271102031ADDAY141031AY201031GA1001+999999999GF100991001001999999001001IA1019MA1999999096311MD1210682+1661MW1051REMSYN088AAXX  04031 76393 31957 03602 10130 21027 39631 40203 52068 70540 90250 333 30/// 58166;EQDQ01+000682APC3  
0251763930999992008030406004+25733-100300FM-12+051599999V0203601N001012200019N0050001N1+01001-00421102331ADDAY141061AY201061GA1001+999999999GF100991001001999999001001GJ105829IA1019KA1240M+02501KA2240N+00961MA1999999096531MD1210221+1841MW1051REMSYN106AAXX  04061 76393 31950 03601 10100 21042 39653 40233 52022 70540 90550 333 10250 20096 30/// 55097 58184;
0199763930999992008030409004+25733-100300FM-12+051599999V0200701N001012200019N0050001N1+00881-00351102351ADDAY141031AY201031GA1001+999999999GF100991001001999999001001IA1019MA1999999096481MD1710051+1841MW1051REMSYN088AAXX  04091 76393 31950 00701 10088 21035 39648 40235 57005 70540 90850 333 30/// 58184;
0274763930999992008030412004+25733-100300FM-12+051599999V0209999C000012200019N0050001N1+00821-00321102341ADDAA124000091AY141061AY201061GA1001+999999999GF100991001001999999001001IA1019KA1240M+02501KA2120N+00701MD1710071+1751MW1051REMSYN106AAXX  04121 76393 31950 00000 10082 21032 39541 40234 57007 70540 91150 333 10250 20070 30064 58175 70000;EQDQ01+095413APOSP Q02  00002PRCP24
0171763930999992008030415004+25733-100300FM-12+051599999V0209999C000012200019N0140001N1+01241-00311102391ADDGA1001+999999999GF100991001001999999001001IA1019MA1999999096441MD1010031-1491REMSYN082AAXX  04151 76393 32964 00000 10124 21031 39644 40239 50003 91450 333 30/// 59149;
0251763930999992008030506004+25733-100300FM-12+051599999V0200901N001012200019N0030001N1+01421+00201101281ADDAY141061AY221061GA1001+999999999GF100991001001999999001001GJ106309IA1019KA1240M+02301KA2240N+00821MA1999999095571MD1810031-0961MW1051REMSYN106AAXX  05061 76393 31930 00901 10142 20020 39557 40128 58003 70542 90550 333 10230 20082 30/// 55105 59096;
0273763930999992008030512004+25733-100300FM-12+051599999V0209999C000012200019N0050001N1+01001+00091101101ADDAA124000091AY141061AY221061GA1001+999999999GF100991001001999999001001IA1019KA1240M+02301KA2120N+00951MA1999999095321MD1610131-1091MW1051REMSYN106AAXX  05121 76393 31950 00000 10100 20009 39532 40110 56013 70542 91150 333 10230 20095 30065 59109 70000;EQDQ01  00002PRCP24
0199763930999992008030515004+25733-100300FM-12+051599999V0201701N001012200019N0030001N1+01641-00041101201ADDAY141031AY201031GA1001+999999999GF100991001001999999001001IA1019MA1999999095391MD1410001-1051MW1051REMSYN088AAXX  05151 76393 31930 01701 10164 21004 39539 40120 54007 70540 91455 333 30/// 59105;
0209763930999992008030518004+25733-100300FM-12+051599999V0200701N001012200019N0030001N1+02661+00041101121ADDGA1001+999999999GF100991001001999999001001IA1019KA1120M+02801KA2240N+00951MA1999999095351MD1410001-0731REMSYN094AAXX  05181 76393 31930 00701 10266 20004 39535 40112 54004 91755 333 10280 20095 30/// 59073;
0171763930999992008030521004+25733-100300FM-12+051599999V0201301N002012200019N0080001N1+02961+00131100661ADDGA1001+999999999GF100991001001999999001001IA1019MA1999999095011MD1710341-0701REMSYN082AAXX  05211 76393 31958 01302 10296 20013 39501 40066 57034 92055 333 30/// 59070;
0251763930999992008030600004+25733-100300FM-12+051599999V0200701N004012200019N0100001N1+02741+00081100531ADDAA124000091GA1001+999999999GF100991001001999999001001IA1019KA1120M+03241KA2180N+00951MA1999999094971MD1410001-0611REMSYN106AAXX  06001 76393 32960 00704 10274 20008 39497 40053 54004 92355 333 10324 20095 30/// 50561 59061 70000;EQDQ01  00002PRCP24
0199763930999992008030603004+25733-100300FM-12+051599999V0201101N001012200019N0050001N1+02421+00571100681ADDAY141031AY221031GA1001+999999999GF100991001001999999001001IA1019MA1999999095151MD1110181-0451MW1051REMSYN088AAXX  06031 76393 31950 01101 10242 20057 39515 40068 51018 70542 90250 333 30/// 59045;
0251763930999992008030606004+25733-100300FM-12+051599999V0200901N001012200019N0050001N1+02061+00521100681ADDAY141061AY221061GA1001+999999999GF100991001001999999001001GJ106189IA1019KA1240M+03241KA2240N+00951MA1999999095141MD1810011-0431MW1051REMSYN106AAXX  06061 76393 31950 00901 10206 20052 39514 40068 58001 70542 90550 333 10324 20095 30/// 55103 59043;
0199763930999992008030609004+25733-100300FM-12+051599999V0209999C000012200019N0050001N1+01641+00711100631ADDAY141031AY221031GA1001+999999999GF100991001001999999001001IA1019MA1999999095041MD1710101-0411MW1051REMSYN088AAXX  06091 76393 31950 00000 10164 20071 39504 40063 57010 70542 90850 333 30/// 59041;
0273763930999992008030612004+25733-100300FM-12+051599999V0209999C000012200019N0050001N1+01421+00641100651ADDAA124000091AY141061AY221061GA1001+999999999GF100991001001999999001001IA1019KA1240M+03241KA2120N+01321MA1999999094991MD1210051-0331MW1051REMSYN106AAXX  06121 76393 31950 00000 10142 20064 39499 40065 52005 70542 91150 333 10324 20132 30104 59033 70000;EQDQ01  00002PRCP24
0183763930999992008030615004+25733-100300FM-12+051599999V0200801N001012200019N0160001N1+02061+00671100701ADDGA1001+999999999GF100991001001999999001001IA1019MA1999999095011MD1010021-0381MW1051REMSYN088AAXX  06151 76393 31966 00801 10206 20067 39501 40070 50002 705// 91450 333 30/// 59038;
0237763930999992008030618004+25733-100300FM-12+051599999V0202301N001012200019N0100001N1+03141-00121100491ADDAY141061AY241061GA1001+999999999GF100991001001999999001001IA1019KA1120M+03281KA2240N+01321MA1999999094851MD1710161-0351MW1051REMSYN100AAXX  06181 76393 31960 02301 10314 21012 39485 40049 57016 70544 91750 333 10328 20132 30/// 59035;
0217763930999992008030621004+25733-100300FM-12+051599999V0203601N001012200019N0080001N1+03161-00681100051ADDAY141031AY241031GA1031+027001081GF103991031021022501001001IA1019MA1999999094501MD1710351-0511MW1051REMSYN106AAXX  06211 76393 31858 33601 10316 21068 39450 40005 57035 70544 83200 92050 333 30/// 56300 59051 83859;
0281763930999992008030700004+25733-100300FM-12+051599999V0203601N003010150019N0060001N1+02461+00582100241ADDAA124000091AY141061AY241061GF107991071021017501999999IA1019KA1120M+03361KA2180N+01321MA1999999094741MD1210241-0231MW1051REMSYN130AAXX  07001 76393 31756 73603 10246 20058 39474 40024 52024 70544 872// 92350 333 10336 20132 30/// 50781 563// 59023 70000 87858;EQDQ01+000583ATOD  
0236763930999992008030703004+25733-100300FM-12+051599999V0203601N001012200019N0030001N1+01601+00451101111ADDAY101031AY201031GA1021+011401081GF102991021041012501001001IA1019MA1999999095561MD1210822+0411MW1041REMSYN106AAXX  07031 76393 31630 23601 10160 20045 39556 40111 52082 70400 82400 90250 333 30/// 56300 58041 82838;EQDQ01+000822APC3  
0253763930999992008030706004+25733-100300FM-12+051599999V0203601N001010120019N0050001N1+01141+00011101741ADDAY141061AY211061GF107991071051012501999999GJ105409IA1019KA1240M+03361KA2240N+01101MA1999999096071MD1210511+0931MW1051REMSYN124AAXX  07061 76393 31650 73601 10114 20001 39607 40174 52051 70541 875// 90550 333 10336 20110 30/// 55090 56399 58093 87634;
0217763930999992008030709004+25733-100300FM-12+051599999V0200101N001010081019N0050001N1+00901-00091101901ADDAY141031AY211031GA1061+008101061GF106991061051008001001001IA1019MA1999999096131MD1210061+1091MW1051REMSYN106AAXX  07091 76393 31550 60101 10090 21009 39613 40190 52006 70541 86500 90850 333 30/// 56300 58109 86627;
0273763930999992008030712004+25733-100300FM-12+051599999V0203601N001012200019N0050001N1+00701-00081102031ADDAA124000091AY141061AY201061GA1001+999999999GF100991001001999999001001IA1019KA1240M+03361KA2120N+00621MA1999999096151MD1210021+1161MW1051REMSYN106AAXX  07121 76393 31950 03601 10070 21008 39615 40203 52002 70540 91150 333 10336 20062 30054 58116 70000;EQDQ01  00002PRCP24
0171763930999992008030715004+25733-100300FM-12+051599999V0203201N003012200019N0100001N1+00441-00261102261ADDGA1001+999999999GF100991001001999999001001IA1019MA1999999096321MD1310171+1311REMSYN082AAXX  07151 76393 32960 03203 10044 21026 39632 40226 53017 91455 333 30/// 58131;
0209763930999992008030718004+25733-100300FM-12+051599999V0200501N003012200019N0100001N1+01441-00371102321ADDGA1001+999999999GF100991001001999999001001IA1019KA1120M+01601KA2240N+00621MA1999999096391MD1110071+1541REMSYN094AAXX  07181 76393 32960 00503 10144 21037 39639 40232 51007 91755 333 10160 20062 30/// 58154;
0171763930999992008030721004+25733-100300FM-12+051599999V0200301N002012200019N0180001N1+01781-00381102091ADDGA1001+999999999GF100991001001999999001001IA1019MA1999999096201MD1010191+1701REMSYN082AAXX  07211 76393 31968 00302 10178 21038 39620 40209 50019 92055 333 30/// 58170;
0251763930999992008030800004+25733-100300FM-12+051599999V0200601N002012200019N0200001N1+01741-00621102051ADDAA124000091GA1001+999999999GF100991001001999999001001IA1019KA1120M+01981KA2180N+00621MA1999999096211MD1410001+1471REMSYN106AAXX  08001 76393 32970 00602 10174 21062 39621 40205 54001 92355 333 10198 20062 30/// 50731 58147 70000;EQDQ01  00002PRCP24
0171763930999992008030803004+25733-100300FM-12+051599999V0200801N001012200019N0180001N1+01401-00511102381ADDGA1001+999999999GF100991001001999999001001IA1019MA1999999096551MD1210341+0991REMSYN082AAXX  08031 76393 32968 00801 10140 21051 39655 40238 52034 90250 333 30/// 58099;
0223763930999992008030806004+25733-100300FM-12+051599999V0201801N001012200019N0180001N1+01241-00441102411ADDGA1001+999999999GF100991001001999999001001GJ106309IA1019KA1240M+01981KA2240N+00621MA1999999096581MD1210031+0511REMSYN100AAXX  08061 76393 32968 01801 10124 21044 39658 40241 52003 90550 333 10198 20062 30/// 55105 58051;
0171763930999992008030809004+25733-100300FM-12+051599999V0209999C000012200019N0150001N1+00961-00361102361ADDGA1001+999999999GF100991001001999999001001IA1019MA1999999096501MD1710081+0371REMSYN082AAXX  08091 76393 32965 00000 10096 21036 39650 40236 57008 90850 333 30/// 58037;
0245763930999992008030812004+25733-100300FM-12+051599999V0202501N001012200019N0150001N1+00901-00321102381ADDAA124000091GA1001+999999999GF100991001001999999001001IA1019KA1240M+01981KA2120N+00781MA1999999096471MD1710031+0321REMSYN100AAXX  08121 76393 32965 02501 10090 21032 39647 40238 57003 91150 333 10198 20078 30065 58032 70000;EQDQ01  00002PRCP24
0171763930999992008030815004+25733-100300FM-12+051599999V0201601N001012200019N0180001N1+01521-00521102421ADDGA1001+999999999GF100991001001999999001001IA1019MA1999999096511MD1010041+0191REMSYN082AAXX  08151 76393 32968 01601 10152 21052 39651 40242 50004 91450 333 30/// 58019;
0221763930999992008030818004+25733-100300FM-12+051599999V0201401N001012200019N0160001N1+01961-00721102141ADDGA1001+999999999GF100991001001999999001001IA1019KA1120M+02151KA2240N+00781MA1999999096271MD1710241-0121MW1051REMSYN100AAXX  08181 76393 31966 01401 10196 21072 39627 40214 57024 705// 91750 333 10215 20078 30/// 59012;
0183763930999992008030821004+25733-100300FM-12+051599999V0209999C000012200019N0140001N1+02461-00161101581ADDGA1001+999999999GF100991001001999999001001IA1019MA1999999095801MD1710471-0411MW1051REMSYN088AAXX  08211 76393 31964 00000 10246 21016 39580 40158 57047 705// 92050 333 30/// 59041;
0268763930999992008030900004+25733-100300FM-12+051599999V0201401N003012200019N0140001N1+02201-00191101391ADDAA124000091GA1011+030001031GF104991011001999999041041IA1019KA1120M+02481KA2180N+00781MA1999999095691MD1710111-0521MW1051REMSYN136AAXX  09001 76393 31964 41403 10220 21019 39569 40139 57011 705// 81044 92350 333 10248 20078 30/// 50541 56055 59052 70000 81360 83070;
0155763930999992008030903004+25733-100300FM-12+051599999V0201401N002012200019N0180001N1+02001+00081101931ADDGF101991999999999999999999IA1019MA1999999095661MD1410001-0891REMSYN082AAXX  09031 76393 32968 11402 10200 20008 39566 40193 54003 90255 333 30/// 59089;
0223763930999992008030906004+25733-100300FM-12+051599999V0201101N001012200019N0180001N1+01541+00371101421ADDGA1001+999999999GF100991001001999999001001GJ106369IA1019KA1240M+02481KA2240N+00781MA1999999095741MD1310081-0841REMSYN100AAXX  09061 76393 32968 01101 10154 20037 39574 40142 53008 90555 333 10248 20078 30/// 55106 59084;
0171763930999992008030909004+25733-100300FM-12+051599999V0200901N003012200019N0180001N1+01261+00611101291ADDGA1001+999999999GF100991001001999999001001IA1019MA1999999095571MD1610171-0931REMSYN082AAXX  09091 76393 32968 00903 10126 20061 39557 40129 56017 90855 333 30/// 59093;
0245763930999992008030912004+25733-100300FM-12+051599999V0202501N001012200019N0190001N1+01081+00621101291ADDAA124000091GA1001+999999999GF100991001001999999001001IA1019KA1240M+02481KA2120N+00991MA1999999095521MD1410001-0951REMSYN100AAXX  09121 76393 32969 02501 10108 20062 39552 40129 54005 91155 333 10248 20099 30088 59095 70000;EQDQ01  00002PRCP24
0199763930999992008030915004+25733-100300FM-12+051599999V0209999C000012200019N0060001N1+01421+00761101491ADDAY141031AY241031GA1001+999999999GF100991001001999999001001IA1019MA1999999095671MD1210151-0841MW1051REMSYN088AAXX  09151 76393 31956 00000 10142 20076 39567 40149 52015 70544 91450 333 30/// 59084;
0221763930999992008030918004+25733-100300FM-12+051599999V0200401N001012200019N0060001N1+02221+00661101491ADDGA1001+999999999GF100991001001999999001001IA1019KA1120M+02361KA2240N+00991MA1999999095691MD1010021-0581MW1051REMSYN100AAXX  09181 76393 31956 00401 10222 20066 39569 40149 50002 705// 91750 333 10236 20099 30/// 59058;
0199763930999992008030921004+25733-100300FM-12+051599999V0200801N003012200019N0080001N1+02861+00661101051ADDAY141031AY241031GA1001+999999999GF100991001001999999001001IA1019MA1999999095341MD1710351-0461MW1051REMSYN088AAXX  09211 76393 31958 00803 10286 20066 39534 40105 57035 70544 92050 333 30/// 59046;
0279763930999992008031000004+25733-100300FM-12+051599999V0200901N001012200019N0100001N1+02741+00561100931ADDAA124000091AY141061AY241061GA1001+999999999GF100991001001999999001001IA1019KA1120M+03001KA2180N+00991MA1999999095301MD1010041-0391MW1051REMSYN112AAXX  10001 76393 31960 00901 10274 20056 39530 40093 50004 70544 92350 333 10300 20099 30/// 50551 59039 70000;EQDQ01  00002PRCP24
0199763930999992008031003004+25733-100300FM-12+051599999V0200901N002012200019N0040001N1+02241+01391101171ADDAY141031AY201031GA1001+999999999GF100991001001999999001001IA1019MA1999999095581MD1210281-0081MW1051REMSYN088AAXX  10031 76393 31940 00902 10224 20139 39558 40117 52028 70540 90250 333 30/// 59008;
0251763930999992008031006004+25733-100300FM-12+051599999V0200901N002012200019N0030001N1+01841+01431101381ADDAY141061AY201061GA1001+999999999GF100991001001999999001001GJ106249IA1019KA1240M+03001KA2240N+00991MA1999999095781MD1210201+0041MW1051REMSYN106AAXX  10061 76393 31930 00902 10184 20143 39578 40138 52020 70540 90550 333 10300 20099 30/// 55104 58004;
0171763930999992008031009004+25733-100300FM-12+051599999V0209999C000012200019N0030001N1+01621+01361101501ADDGA1001+999999999GF100991001001999999001001IA1019MA1999999095851MD1210071+0281REMSYN082AAXX  10091 76393 31930 00000 10162 20136 39585 40150 52007 90850 333 30/// 58028;
0272763930999992008031012004+25733-100300FM-12+051599999V0209999C000010024019N0030001N1+01641+01421101691ADDAA124000091AY141061AY221061GA1071+002401061GF107991071051002501999999IA1019KA1240M+03001KA2120N+01501MA1999999095971MD1210121+0451MW1051REMSYN124AAXX  10121 76393 31330 70000 10164 20142 39597 40169 52012 70542 875// 91140 333 10300 20150 30142 56399 58045 70000 87608;
0217763930999992008031015004+25733-100300FM-12+051599999V0202901N001010051019N0040001N1+01861+01351101961ADDAY141031AY241031GA1061+005101061GF106991061051004501999999IA1019MA1999999096191MD1210221+0521MW1051REMSYN106AAXX  10151 76393 31440 62901 10186 20135 39619 40196 52022 70544 865// 91450 333 30/// 563// 58052 86617;
0255763930999992008031018004+25733-100300FM-12+051599999V0209999C000012200019N0060001N1+02601+01111101991ADDAY141061AY241061GA1011+015001081GF101991011051012501999999IA1019KA1120M+02681KA2240N+01501MA1999999096241MD1710051+0551MW1051REMSYN118AAXX  10181 76393 31656 10000 10260 20111 39624 40199 57005 70544 815// 91750 333 10268 20150 30/// 563// 58055 81850;
0217763930999992008031021004+25733-100300FM-12+051599999V0203601N003010150019N0080001N1+02641+01131101821ADDAY141031AY241031GA1061+015001081GF106991061021017501999999IA1019MA1999999096121MD1710121+0781MW1051REMSYN106AAXX  10211 76393 31758 63603 10264 20113 39612 40182 57012 70544 862// 92050 333 30/// 563// 58078 86850;
0262763930999992008031100004+25733-100300FM-12+051599999V0200101N001010075019N0060001N1+01941+00951102051ADDAA124000091AY141061AY221061GF108991081041008001999999IA1019KA1120M+02861KA2180N+01501MA1999999096361MD1210241+1061MW1051REMSYN130AAXX  11001 76393 31556 80101 10194 20095 39636 40205 52024 70542 884// 92350 333 10286 20150 30/// 50581 563// 58106 70000 88633;
0234763930999992008031115004+25733-100300FM-12+051599999V0200901N003012200019N0100001N1+01641+00951102551ADDGA1011+006901061GF199999999999999999001001IA1019MA1999999096631MD1210441+0531REMSYN094AAXX  11151 76393 32960 00903 10164 20095 39663 40255 52044 91455 333 30/// 58053 81623 81074;EQDQ01+000002SCOTCVQ02+000002SCOTLCQ03+000002SCOLCG
0227763930999992008031118004+25733-100300FM-12+051599999V0200501N002012200019N0200001N1+02201+00991102361ADDGA1011+012001061GF101991011021012501001001IA1019KA1120M+02301KA2240N+01401MA1999999096591MD1410001+0351REMSYN112AAXX  11181 76393 32670 10502 10220 20099 39659 40236 54004 81200 91755 333 10230 20140 30/// 56300 58035 81640;
0189763930999992008031121004+25733-100300FM-12+051599999V0200701N003012200019N0200001N1+02481-00031101881ADDGA1011+014101061GF101991011031999999001001IA1019MA1999999096151MD1610441+0031REMSYN100AAXX  11211 76393 32970 10703 10248 21003 39615 40188 56044 81300 91155 333 30/// 56399 58003 81647;
0234763930999992008031200004+25733-100300FM-12+051599999V0200901N001012200019N0200001N1+02341+00881101651ADDAA124000091GF101991011001022501031001IA1019KA1120M+02601KA2180N+01401MA1999999095981MD1610171-0381REMSYN124AAXX  12001 76393 32870 10901 10234 20088 39598 40165 56017 81030 92355 333 10260 20140 30/// 50521 56050 59038 70000 81358;
0217763930999992008031215004+25733-100300FM-12+051599999V0200801N001012200019N0050001N1+01521+01151101881ADDAY141031AY241031GA1021+002401081GF102991021021002501001001IA1019MA1999999096071MD1010001-0551MW1051REMSYN106AAXX  12151 76393 31350 20801 10152 20115 39607 40188 50000 70544 82200 91450 333 30/// 56300 59055 82808;
0255763930999992008031218004+25733-100300FM-12+051599999V0200901N002010600019N0050001N1+02301+01001101821ADDAY141061AY241061GA1061+060001001GF106991001001999999001021IA1019KA1120M+02401KA2240N+01201MA1999999096021MD1710051-0571MW1051REMSYN118AAXX  12181 76393 31950 60902 10230 20100 39602 40182 57005 70544 80002 91750 333 10240 20120 30/// 56005 59057 86070;
0223763930999992008031221004+25733-100300FM-12+051599999V0201401N00401220001CN0080001N1+02741+01301101261ADDAY141031AY241031GA1011+015001081GF107991011021012501001011IA1019MA1999999095551MD1710471-0601MW1051REMSYN112AAXX  12211 76393 31658 71404 10274 20130 39555 40126 57047 70544 81201 92050 333 30/// 56305 59060 81850 86070;
0284763930999992008031300004+25733-100300FM-12+051599999V0200701N003010900019N0080001N1+02661+01201101001ADDAA124000091AY141061AY241061GA1011+014701081GF107991011021012501001021IA1019KA1120M+02861KA2180N+01201MA1999999095371MD1610181-0611MW1051REMSYN136AAXX  13001 76393 31658 70703 10266 20120 39537 40100 56018 70544 81202 92350 333 10286 20120 30/// 50521 56305 59061 70000 81849 86070;
0244763930999992008031306004+25733-100300FM-12+051599999V0200901N002012200019N0180001N1+01801+01351101011ADDGF102991001001999999001041GJ105109IA1019KA1240M+02861KA2240N+01201MA1999999095411MD1410001-0691REMSYN118AAXX  13061 76393 32968 20902 10180 20135 39541 40101 54005 82004 90555 333 10286 20120 30/// 55085 56005 59069 82074;EQDQ01+000022SCOTLC
0189763930999992008031309004+25733-100300FM-12+051599999V0200301N001012200019N0170001N1+01681+01391100911ADDGA1031+003001061GF103991031051004501001001IA1019MA1999999095281MD1610131-0641REMSYN100AAXX  13091 76393 32467 30301 10168 20139 39528 40091 56013 83500 90855 333 30/// 56300 59064 83610;
0284763930999992008031312004+25733-100300FM-12+051599999V0209999C000012200019N0030001N1+01621+01401100841ADDAA124000091AY141061AY201061GA1031+002101061GF103991031051004501001001IA1019IA2999+00149KA1240M+02861KA2120N+01501MA1999999095161MD1710341-0821MW1051REMSYN124AAXX  13121 76393 31430 30000 10162 20140 39516 40084 57034 70540 83500 91155 333 10286 20150 30014 56399 59082 70000 83607;
0217763930999992008031315004+25733-100300FM-12+051599999V0203601N003012200019N0040001N1+01961+01421100941ADDAY141031AY241031GA1041+060001001GF104991001001999999001011IA1019MA1999999095231MD1110071-0841MW1051REMSYN106AAXX  13151 76393 31940 43603 10196 20142 39523 40094 51007 70544 80001 91450 333 30/// 56005 59084 84070;
0261763930999992008031318004+25733-100300FM-12+051599999V0201301N001012200019N0060001N1+03021+01441100721ADDAY141061AY241061GA1011+015001081GF102991011021017501001011IA1019KA1120M+03101KA2240N+01501MA1999999095061MD1710171-0961MW1051REMSYN124AAXX  13181 76393 31756 21301 10302 20144 39506 40072 57017 70544 81201 91750 333 10310 20150 30/// 56305 59096 81850 81070;
0263763930999992008031400004+25733-100300FM-12+051599999V0202701N001012200019N0160001N1+03221-00211100251ADDAA124000091GA1001+999999999GF100991001001999999001001IA1019KA1120M+03681KA2180N+01501MA1999999094781MD1010031-0591MW1051REMSYN112AAXX  14001 76393 31966 02701 10322 21021 39478 40025 50003 705// 92350 333 10368 20150 30/// 50631 59059 70000;EQDQ01  00002PRCP24
0199763930999992008031403004+25733-100300FM-12+051599999V0209999C000012200019N0050001N1+02701+01442100581ADDAY141031AY221031GA1001+999999999GF100991001001999999001001IA1019MA1999999094121MD1210341-0341MW1051REMSYN088AAXX  14031 76393 31950 00000 10270 20144 39412 40058 52034 70542 90250 333 30/// 59034;
0270763930999992008031406004+25733-100300FM-12+051599999V0202301N001012200019N0050001N1+02401+01341100681ADDAY141061AY221061GA1001+999999999GF100991001001999999001001GJ106309IA1019KA1240M+03651KA2240N+01501MA1999999095212MD1110091-0201MW1051REMSYN106AAXX  14061 76393 31950 02301 10240 20134 39521 40068 51009 70542 90550 333 10365 20150 30/// 55105 59020;EQDQ01+095213APOSP 
0199763930999992008031409004+25733-100300FM-12+051599999V0202701N001012200019N0030001N1+02011+01211100651ADDAY141031AY221031GA1001+999999999GF100991001001999999001001IA1019MA1999999095131MD1710081-0151MW1051REMSYN088AAXX  14091 76393 31930 02701 10201 20121 39513 40065 57008 70542 90850 333 30/// 59015;
0273763930999992008031412004+25733-100300FM-12+051599999V0209999C000012200019N0030001N1+01921+00601100751ADDAA124000091AY141061AY221061GA1001+999999999GF100991001001999999001001IA1019KA1240M+03581KA2120N+01851MA1999999095151MD1310021-0011MW1051REMSYN106AAXX  14121 76393 31930 00000 10192 20060 39515 40075 53002 70542 91150 333 10358 20185 30144 59001 70000;EQDQ01  00002PRCP24
0171763930999992008031415004+25733-100300FM-12+051599999V0202701N001012200019N0150001N1+02641+00721100821ADDGA1001+999999999GF100991001001999999001001IA1019MA1999999095211MD1410001-0021REMSYN082AAXX  14151 76393 32965 02701 10264 20072 39521 40082 54006 91455 333 30/// 59002;
0209763930999992008031418004+25733-100300FM-12+051599999V0200701N001012200019N0080001N1+03381+00171100791ADDGA1001+999999999GF100991001001999999001001IA1019KA1120M+03601KA2240N+01851MA1999999095201MD1410001+0141REMSYN094AAXX  14181 76393 32958 00701 10338 20017 39520 40079 54001 91755 333 10360 20185 30/// 58014;
0171763930999992008031421004+25733-100300FM-12+051599999V0202201N001012200019N0200001N1+03801-00371100201ADDGA1001+999999999GF100991001001999999001001IA1019MA1999999094721MD1710481-0091REMSYN082AAXX  14211 76393 32970 02201 10380 21037 39472 40020 57048 92055 333 30/// 59009;
0251763930999992008031500004+25733-100300FM-12+051599999V0202701N001012200019N0200001N1+03541-00221099971ADDAA124000091GA1001+999999999GF100991001001999999001001IA1019KA1120M+03901KA2180N+01851MA1999999094571MD1610151+0211REMSYN106AAXX  15001 76393 32970 02701 10354 21022 39457 49997 56015 92355 333 10390 20185 30/// 50901 58021 70000;EQDQ01  00002PRCP24
0199763930999992008031503004+25733-100300FM-12+051599999V0202201N001012200019N0080001N1+03061+00341100221ADDAY141031AY221031GA1001+999999999GF100991001001999999001001IA1019MA1999999094851MD1210281-0271MW1051REMSYN088AAXX  15031 76393 31958 02201 10306 20034 39485 40022 52028 70542 90250 333 30/// 59027;
0251763930999992008031506004+25733-100300FM-12+051599999V0209999C000012200019N0050001N1+02701+00441100271ADDAY141061AY221061GA1001+999999999GF100991001001999999001001GJ106309IA1019KA1240M+03801KA2240N+01851MA1999999094881MD1610031-0331MW1051REMSYN106AAXX  15061 76393 31950 00000 10270 20044 39488 40027 56003 70542 90550 333 10380 20185 30/// 55105 59033;
0199763930999992008031509004+25733-100300FM-12+051599999V0209999C000012200019N0050001N1+02541+00551100231ADDAY141031AY221031GA1001+999999999GF100991001001999999001001IA1019MA1999999094791MD1710091-0341MW1051REMSYN088AAXX  15091 76393 31950 00000 10254 20055 39479 40023 57009 70542 90850 333 30/// 59034;
0273763930999992008031512004+25733-100300FM-12+051599999V0209999C000012200019N0050001N1+02201+00821100461ADDAA124000091AY141061AY221061GA1001+999999999GF100991001001999999001001IA1019KA1240M+03901KA2120N+02151MA1999999094951MD1210161-0181MW1051REMSYN106AAXX  15121 76393 31950 00000 10220 20082 39495 40046 52016 70542 91150 333 10390 20215 30198 59018 70000;EQDQ01  00002PRCP24
0171763930999992008031515004+25733-100300FM-12+051599999V0202201N001012200019N0180001N1+02901+00271100631ADDGA1001+999999999GF100991001001999999001001IA1019MA1999999095081MD1310131-0131REMSYN082AAXX  15151 76393 32968 02201 10290 20027 39508 40063 53013 91455 333 30/// 59013;
0253763930999992008031600004+25733-100300FM-12+051599999V0201401N002012200019N0200001N1+03421-00211100191ADDAA124000091GF102991001001999999001041IA1019KA1120M+03951KA2180N+02151MA1999999094801MD1410001+0231REMSYN124AAXX  16001 76393 32970 21402 10342 21021 39480 40019 54003 82004 92355 333 10395 20215 30/// 50971 56005 58023 70000 82074;EQDQ01+000022SCOTLC
0199763930999992008031615004+25733-100300FM-12+051599999V0209999C000012200019N0200001N1+02061+01361100921ADDAY141031AY221031GA1001+999999999GF100991001001999999001001IA1019MA1999999095251MD1999999+0171MW1051REMSYN088AAXX  16151 76393 31970 00000 10206 20136 39525 40092 5//// 70542 91450 333 30/// 58017;
0256763930999992008031618004+25733-100300FM-12+051599999V0201101N002012200019N9999999N1+01021+01021100791ADDAY141061AY221061GA1001+999999999GF100991001001999999001001IA1019KA1120M+03051KA2240N+99999MA1999999095201MD1010051-0041MW1051REMSYN100AAXX  16181 76393 31952 01102 10102 20102 39520 40079 50005 70542 91750 333 10305 20184 30/// 59004;EQDQ01 +01842ATMN  
0280763930999992008031621004+25733-100300FM-12+051599999V0201601N001019999999N0200001N1+03362+01191100311ADDAY141031AY261031GA1021+021001041GA2021+024001031GF105991999001999999011041IA1019MA1999999094801MD1710401-0031MW1051REMSYN118AAXX  16211 76393 31970 51601 10336 20119 39480 40031 57040 70546 80014 92050 333 30/// 56057 59003 82457 82358 81070;EQDQ01+000002SCOTLCQ02+003363ATOT  
0207763930999992008031715004+25733-100300FM-12+051599999V0202501N001010300019N0050001N1+02461+01721100421ADDGA1061+030001031GF107991061001999999051021IA1019MA1999999094871MD1010071+0001MW1051REMSYN112AAXX  17151 76393 31950 72501 10246 20172 39487 40042 50007 705// 86052 91450 333 30/// 56055 58000 86360 81070;
0245763930999992008031718004+25733-100300FM-12+051599999V0200901N001010300019N0050001N1+02841+01621100211ADDGA1061+030001081GF108991061001999999051021IA1019KA1120M+03041KA2240N+01901MA1999999094731MD1710141-0471MW1051REMSYN124AAXX  17181 76393 31950 80901 10284 20162 39473 40021 57014 705// 86052 91750 333 10304 20190 30/// 56055 59047 86860 82070;
0207763930999992008031721004+25733-100300FM-12+051599999V0200901N003019999999N0080001N1+03521+01421099771ADDGA1021+030001031GF107991021001999999041021IA1019MA1999999094371MD1710361-0431MW1051REMSYN112AAXX  17211 76393 31958 70903 10352 20142 39437 49977 57036 705// 82042 92050 333 30/// 56055 59043 82360 85070;
0284763930999992008031800004+25733-100300FM-12+051599999V0200901N002010360019N0100001N1+03381+01541099441ADDAA124000091AY141061AY241061GA1021+021001081GF106991021021017501031021IA1019KA1120M+03681KA2180N+01901MA1999999094041MD1710331-0761MW1051REMSYN136AAXX  18001 76393 31760 60902 10338 20154 39404 49944 57033 70544 82232 92350 333 10368 20190 30/// 50601 56355 59076 70000 82857 82360;
0189763930999992008031803004+25733-100300FM-12+051599999V0200501N002012200019N0100001N1+02801+01971099641ADDGA1031+008401061GF103991031041008001001001IA1019MA1999999094251MD1310211-0311REMSYN100AAXX  18031 76393 32560 30502 10280 20197 39425 49964 53021 83400 90255 333 30/// 56300 59031 83628;
0225763930999992008031806004+25733-100300FM-12+051599999V0200801N001012200019N0100001N1+02421+01901099731ADDGF102991021031004501001001GJ105349IA1019KA1240M+03681KA2240N+01901MA1999999094321MD1110071-0211REMSYN118AAXX  18061 76393 32460 20801 10242 20190 39432 49973 51007 82300 90555 333 10368 20190 30/// 55089 56300 59021 82617;
0189763930999992008031809004+25733-100300FM-12+051599999V0200501N001012200019N0100001N1+02261+01851099661ADDGA1041+004201061GF104991041031004501001001IA1019MA1999999094211MD1810111-0501REMSYN100AAXX  18091 76393 32460 40501 10226 20185 39421 49966 58011 84300 90855 333 30/// 56300 59050 84614;
0272763930999992008031812004+25733-100300FM-12+051599999V0203101N001012200019N0030001N1+02101+01801099591ADDAA124000091AY141061AY201061GA1021+003001061GF102991021031002501001001IA1019KA1240M+03681KA2120N+01901MA1999999094091MD1610121-0701MW1051REMSYN124AAXX  18121 76393 31330 23101 10210 20180 39409 49959 56012 70540 82300 91155 333 10368 20190 30180 56500 59070 70000 82610;
0189763930999992008031815004+25733-100300FM-12+051599999V0201201N001012200019N0100001N1+02381+01891099831ADDGA1021+004801061GF102991021041008001001001IA1019MA1999999094291MD1210201-0581REMSYN100AAXX  18151 76393 32560 21201 10238 20189 39429 49983 52020 82400 91450 333 30/// 56300 59058 82616;
0274763930999992008031818004+25733-100300FM-12+051599999V0203301N00301036001CN0002001N1+02161+00421100101ADDAY141061AY201061GA1011+015001071GF108991011061017501021999IA1019KA1120M+02951KA2240N+01901MA1999999094531MD1210241-0201MW1071REMSYN118AAXX  18181 76393 31702 83303 10216 20042 39453 40010 52024 70747 8162/ 91750 333 10295 20190 30/// 59020 81750 87456;EQDQ01+000072PSTWM2
0252763930999992008031821004+25733-100300FM-12+051599999V0202601N006010180019N0040001N1+02201+00011100131ADDAY141031AY201031GA1071+018001041GF107991999091022501021999IA1019MA1999999094551MD1010021+0181MW1071REMSYN106AAXX  18211 76393 31840 72606 10220 20001 39455 40013 50002 70747 8992/ 92050 333 30/// 5695/ 58018 87456;EQDQ01+000092SCOTLCQ02+000072PSTWM2
0245763930999992008031900004+25733-100300FM-12+051599999V0202701N003019999999N0040001N1+02301-00691100481ADDAY131061AY221061GF106991001001999999021999IA1019KA1120M+02951KA2180N+01901MA1999999094891MD1210341+0851MW1071REMSYN124AAXX  19001 76393 31940 62703 10230 21069 39489 40048 52034 70732 8002/ 92350 333 10295 20190 30/// 50901 5605/ 58085 86456;
0239763930999992008031906004+25733-100300FM-12+051599999V02099999999992200019N0100001N1+01741+00501101481ADDAY141061AY201061GA1001+999999999GF100991001001999999001001GJ101989KA1240M+02951KA2240N+01741MA1999999095781MD1210331+1461MW1051REMSYN100AAXX  19061 76393 31960 0//// 10174 20050 39578 40148 52033 70540 90558 333 10295 20174 55033 58146;
0171763930999992008031909004+25733-100300FM-12+051599999V0203001N001012200019N0140001N1+01691+00161101601ADDGA1001+999999999GF100991001001999999001001IA1019MA1999999095891MD1210111+1681REMSYN082AAXX  19091 76393 32964 03001 10169 20016 39589 40160 52011 90855 333 30/// 58168;
0245763930999992008031912004+25733-100300FM-12+051599999V0203001N001012200019N0120001N1+01631-00051101761ADDAA124000091GA1001+999999999GF100991001001999999001001IA1019KA1240M+02951KA2120N+01581MA1999999096021MD1210131+1931REMSYN100AAXX  19121 76393 32962 03001 10163 21005 39602 40176 52013 91156 333 10295 20158 30142 58193 70000;EQDQ01  00002PRCP24
0171763930999992008031915004+25733-100300FM-12+051599999V0203601N001012200019N0200001N1+01841-00011102121ADDGA1001+999999999GF100991001001999999001001IA1019MA1999999096331MD1210311+9999REMSYN082AAXX  19151 76393 32970 03601 10184 21001 39633 40212 52031 91430 333 30/// 59204;
0209763930999992008031918004+25733-100300FM-12+051599999V0203601N001012200019N0180001N1+02321-00241102111ADDGA1001+999999999GF100991001001999999001001IA1019KA1120M+02601KA2240N+01481MA1999999096351MD1010021-1821REMSYN094AAXX  19181 76393 32968 03601 10232 21024 39635 40211 50002 91750 333 10260 20148 30/// 59182;
0171763930999992008031921004+25733-100300FM-12+051599999V0200601N003012200019N0180001N1+02541-00281101841ADDGA1001+999999999GF100991001001999999001001IA1019MA1999999096121MD1710231-1571REMSYN082AAXX  19211 76393 32968 00603 10254 21028 39612 40184 57023 92050 333 30/// 59157;
0262763930999992008032000004+25733-100300FM-12+051599999V0203601N002012200019N0140001N1+02321-00131101781ADDAA124000091AY141061AY241061GF102991001001999999001021IA1019KA1120M+02761KA2180N+01481MA1999999096111MD1010011-1221MW1051REMSYN130AAXX  20001 76393 31964 23602 10232 21013 39611 40178 50001 70544 80002 92340 333 10276 20148 30/// 50981 56005 59122 70000 82070;
0199763930999992008032003004+25733-100300FM-12+051599999V0209999C000012200019N0100001N1+02001-00041102181ADDAY101031AY201031GA1001+999999999GF100991001001999999001001IA1019MA1999999096501MD1210391+1051MW1041REMSYN088AAXX  20031 76393 31960 00000 10200 21004 39650 40218 52039 70400 90250 333 30/// 58105;
0251763930999992008032006004+25733-100300FM-12+051599999V0202101N001012200019N0060001N1+01841+00451102301ADDAY141061AY201061GA1001+999999999GF100991001001999999001001GJ106609IA1019KA1240M+02761KA2240N+01481MA1999999096601MD1210101+0821MW1041REMSYN106AAXX  20061 76393 31956 02101 10184 20045 39660 40230 52010 70440 90550 333 10276 20148 30/// 55110 58082;
0199763930999992008032009004+25733-100300FM-12+051599999V0209999C000012200019N0060001N1+01601+00011102181ADDAY141031AY201031GA1001+999999999GF100991001001999999001001IA1019MA1999999096451MD1710151+0561MW1041REMSYN088AAXX  20091 76393 31956 00000 10160 20001 39645 40218 57015 70440 90855 333 30/// 58056;
0273763930999992008032012004+25733-100300FM-12+051599999V0201201N001012200019N0048001N1+01461-00211102251ADDAA124000091AY141061AY201061GA1001+999999999GF100991001001999999001001IA1019KA1240M+02761KA2120N+01381MA1999999096481MD1210031+0461MW1041REMSYN106AAXX  20121 76393 31948 01201 10146 21021 39648 40225 52003 70440 91150 333 10276 20138 30126 58046 70000;EQDQ01  00002PRCP24
0171763930999992008032015004+25733-100300FM-12+051599999V0200101N001012200019N0100001N1+01661+00171102521ADDGA1001+999999999GF100991001001999999001001IA1019MA1999999096701MD1210221+0371REMSYN082AAXX  20151 76393 32960 00101 10166 20017 39670 40252 52022 91450 333 30/// 58037;
0227763930999992008032018004+25733-100300FM-12+051599999V0201101N001012200019N0180001N1+02221+00171102471ADDGA1031+060001001GF103991001001999999001011IA1019KA1120M+02351KA2240N+01381MA1999999096661MD1710041+0311REMSYN112AAXX  20181 76393 32968 31101 10222 20017 39666 40247 57004 80001 91750 333 10235 20138 30/// 56007 58031 83070;
0171763930999992008032021004+25733-100300FM-12+051599999V0200901N002012200019N0180001N1+02561-00031102041ADDGA1001+999999999GF100991001001999999001001IA1019MA1999999096301MD1710361+0181REMSYN082AAXX  20211 76393 32968 00902 10256 21003 39630 40204 57036 92050 333 30/// 58018;
0215763930999992008032100004+25733-100300FM-12+051599999V0200601N003012200019N0200001N1+02461+00301101841ADDGA1001+999999999GF100991001001999999001001IA1019KA1120M+02701KA2180N+01381MA1999999096151MD1610151+0041REMSYN100AAXX  21001 76393 32970 00603 10246 20030 39615 40184 56015 92350 333 10270 20138 30/// 50781 58004;
0171763930999992008032103004+25733-100300FM-12+051599999V0201201N003012200019N0140001N1+02131-00261101901ADDGA1001+999999999GF100991001001999999001001IA1019MA1999999096261MD1210111-0241REMSYN082AAXX  21031 76393 32964 01203 10213 21026 39626 40190 52011 90255 333 30/// 59024;
0223763930999992008032106004+25733-100300FM-12+051599999V0201001N001012200019N0140001N1+01711+00081101981ADDGA1001+999999999GF100991001001999999001001GJ106489IA1019KA1240M+02701KA2240N+01381MA1999999096311MD1210051-0291REMSYN100AAXX  21061 76393 32964 01001 10171 20008 39631 40198 52005 90555 333 10270 20138 30/// 55108 59029;
0171763930999992008032109004+25733-100300FM-12+051599999V0209999C000012200019N0140001N1+01301+00441101821ADDGA1001+999999999GF100991001001999999001001IA1019MA1999999096101MD1710211-0351REMSYN082AAXX  21091 76393 32964 00000 10130 20044 39610 40182 57021 90850 333 30/// 59035;
0245763930999992008032112004+25733-100300FM-12+051599999V0209999C000012200019N0140001N1+01201+00451101831ADDAA124000091GA1001+999999999GF100991001001999999001001IA1019KA1240M+02701KA2120N+01101MA1999999096051MD1710051-0431REMSYN100AAXX  21121 76393 32964 00000 10120 20045 39605 40183 57005 91155 333 10270 20110 30083 59043 70000;EQDQ01  00002PRCP24
0171763930999992008032115004+25733-100300FM-12+051599999V0209999C000012200019N0180001N1+01661+00581101991ADDGA1001+999999999GF100991001001999999001001IA1019MA1999999096171MD1210121-0531REMSYN082AAXX  21151 76393 32968 00000 10166 20058 39617 40199 52012 91450 333 30/// 59053;
0227763930999992008032118004+25733-100300FM-12+051599999V0201001N001012200019N0180001N1+02451+00461101891ADDGA1031+060001001GF103991001001999999001041IA1019KA1120M+02531KA2240N+01081MA1999999096091MD1710031-0571REMSYN112AAXX  21181 76393 32968 31001 10245 20046 39609 40189 57003 80004 91750 333 10253 20108 30/// 56005 59057 83070;
0208763930999992008032121004+25733-100300FM-12+051599999V0201301N002012200019N0200001N1+02921+00711101451ADDGA1031+060001001GF103991001001999999001041IA1019MA1999999095761MD1710441-0551REMSYN100AAXX  21211 76393 32970 31302 10292 20071 39576 40145 57134 80004 92050 333 30/// 56005 59055 83070;EQDQ01+001342APC3  
0215763930999992008032200004+25733-100300FM-12+051599999V0201001N002012200019N0200001N1+02881+00751101261ADDGA1001+999999999GF100991001001999999001001IA1019KA1120M+03151KA2180N+01081MA1999999095641MD1610111-0511REMSYN100AAXX  22001 76393 32970 01002 10288 20075 39564 40126 56011 92350 333 10315 20108 30/// 50671 59051;
0171763930999992008032203004+25733-100300FM-12+051599999V0200901N003012200019N0200001N1+02461+00631101351ADDGA1001+999999999GF100991001001999999001001IA1019MA1999999095791MD1310151-0471REMSYN082AAXX  22031 76393 32970 00903 10246 20063 39579 40135 53015 90255 333 30/// 59047;
0244763930999992008032206004+25733-100300FM-12+051599999V0200901N002012200019N0200001N1+01941+01071101421ADDGF102991001001999999001041GJ106489IA1019KA1240M+03151KA2240N+01081MA1999999095851MD1110061-0461REMSYN118AAXX  22061 76393 32970 20902 10194 20107 39585 40142 51006 82004 90555 333 10315 20108 30/// 55108 56005 59046 82074;EQDQ01+000022SCOTLC
0208763930999992008032209004+25733-100300FM-12+051599999V0209999C000012200019N0200001N1+01601+01091101471ADDGA1021+072001001GF102991001001999999001041IA1019MA1999999095851MD1410001-0251REMSYN100AAXX  22091 76393 32970 20000 10160 20109 39585 40147 54000 82004 90855 333 30/// 56005 59025 82074;EQDQ01+000022SCOTLC
0263763930999992008032212004+25733-100300FM-12+051599999V0200801N001012200019N0200001N1+01501+01171101461ADDAA124000091GA1021+072001001GF102991001001999999001041IA1019KA1240M+03151KA2120N+01201MA1999999095761MD1410001-0271REMSYN118AAXX  22121 76393 32970 20801 10150 20117 39576 40146 54009 82004 91155 333 10315 20120 30110 56005 59027 70000 82074;EQDQ01+000022SCOTLC
0217763930999992008032215004+25733-100300FM-12+051599999V0209999C000010750019N0050001N1+01841+01321101801ADDAY141031AY211031GA1061+075001001GF106991001001999999001051IA1019MA1999999096051MD1210291-0121MW1051REMSYN106AAXX  22151 76393 31950 60000 10184 20132 39605 40180 52029 70541 80005 91450 333 30/// 56005 59012 86075;
0217763930999992008032221004+25733-100300FM-12+051599999V0200901N002012200019N0080001N1+02901+00971101251ADDAY141031AY201031GA1031+060001001GF103991001001999999001041IA1019MA1999999095591MD1710311-0161MW1051REMSYN106AAXX  22211 76393 31958 30902 10290 20097 39559 40125 57031 70540 80004 92050 333 30/// 56005 59016 83070;
0284763930999992008032300004+25733-100300FM-12+051599999V0200801N002019999999N0100001N1+02761+00901101071ADDAA124000091AY141061AY211061GA1021+027001031GF106991021001999999031011IA1019KA1120M+03141KA2180N+01201MA1999999095471MD1710221-0171MW1051REMSYN136AAXX  23001 76393 31960 60802 10276 20090 39547 40107 57022 70541 82031 92350 333 10314 20120 30/// 50721 56055 59017 70000 82359 84075;
0189763930999992008032303004+25733-100300FM-12+051599999V0201101N003012200019N0140001N1+02461+00781101201ADDGA1011+015001061GF104991011051017501031011IA1019MA1999999095631MD1210161-0161REMSYN100AAXX  23031 76393 32764 41103 10246 20078 39563 40120 52016 81531 90255 333 30/// 56855 59016 81650;
0269763930999992008032306004+25733-100300FM-12+051599999V0201001N003012200019N0120001N1+01821+01141101291ADDGA1011+006901081GA2011+008101061GF104991021081008001031001GJ106069IA1019KA1240M+03141KA2240N+01201MA1999999095701MD1210071-0151REMSYN130AAXX  23061 76393 32562 41003 10182 20114 39570 40129 52007 82830 90555 333 10314 20120 30/// 55101 56350 59015 81823 81627 82356;
0189763930999992008032309004+25733-100300FM-12+051599999V0201001N001010045019N0120001N1+01671+01221101341ADDGA1081+004501061GF108991081051004501999999IA1019MA1999999095701MD1410001-0151REMSYN100AAXX  23091 76393 32462 81001 10167 20122 39570 40134 54000 885// 90855 333 30/// 563// 59015 88615;
0250763930999992008032312004+25733-100300FM-12+051599999V0201001N001010021019N0080001N1+01561+01331101551ADDAA124000091AY141061AY221061GF108991081051002501999999KA1240M+03141KA2120N+01541MA1999999095851MD1210151+0091MW1051REMSYN124AAXX  23121 76393 31358 81001 10156 20133 39585 40155 52015 70542 885// 91155 333 10314 20154 20150 563// 58009 70000 88607;
0234763930999992008032315004+25733-100300FM-12+051599999V0201001N001010012019N0020001N1+01511+01441101961ADDAA103000291AY151031AY201031GA1081+001201071GF108991081071000751999999IA1119MA1999999096181MD1210331-0131MW1051REMSYN112AAXX  23151 76393 01120 81001 10151 20144 39618 40196 52033 70550 887// 91440 333 32/// 563// 59013 69927 88704;
0172763930999992008032318004+25733-100300FM-12+051599999V0200901N001019999999N0060001N1+01681+01221102131ADDAA106003091AY141061AY231061GF108991999999004501999999MA1999999096321MD1210141+9999MW1051REMSYN072AAXX  23181 76393 21456 80901 10168 20122 39632 40213 52014 60031 70543;
0234763930999992008032321004+25733-100300FM-12+051599999V0202001N001010018019N0020001N1+01621+01461102121ADDAA103000991AY141031AY231031GA1081+001801071GF108991081071001501999999IA1099MA1999999096321MD1010001-0731MW1051REMSYN112AAXX  23211 76393 11220 82001 10162 20146 39632 40212 50000 70543 887// 92040 333 31/// 563// 59073 69997 88706;
0172763930999992008032400004+25733-100300FM-12+051599999V0209999C000019999999N0020001N1+01481+01281102251ADDAA106003091AY151061AY201061GF108991999999002501999999MA1999999096431MD1210111+9999MW1051REMSYN072AAXX  24001 76393 01320 80000 10148 20128 39643 40225 52011 60031 70550;
0234763930999992008032403004+25733-100300FM-12+051599999V0201901N001010015019N0010001N1+01481+01351102541ADDAA103001091AY151031AY221031GA1081+001501071GF108991081061001501999999IA1099MA1999999096711MD1210281+1081MW1501REMSYN112AAXX  24031 76393 21210 81901 10148 20135 39671 40254 52028 75052 886// 90255 333 31/// 56399 58108 60017 88705;
0172763930999992008032406004+25733-100300FM-12+051599999V0201901N003019999999N0010001N1+01421+01181102751ADDAA106002091AY151061AY221061GF108991999999002501999999MA1999999096891MD1210181+9999MW1501REMSYN072AAXX  24061 76393 11310 81903 10142 20118 39689 40275 52018 60021 75052;
0189763930999992008032409004+25733-100300FM-12+051599999V0202101N003010048019N0120001N1+01341+00871102791ADDGA1081+004801061GF108991081041004501999999IA1099MA1999999096911MD1410001+1211REMSYN100AAXX  24091 76393 32462 82103 10134 20087 39691 40279 54002 884// 90855 333 31/// 56399 58121 88616;
0272763930999992008032412004+25733-100300FM-12+051599999V0203401N001010054019N0040001N1+01281+00761102741ADDAA124000891AY141061AY221061GA1081+005401061GF108991081041004501999999IA1019KA1240M+01761KA2120N+01181MA1999999096861MD1410001+1011MW1051REMSYN124AAXX  24121 76393 31440 83401 10128 20076 39686 40274 54005 70542 884// 91155 333 10176 20118 30106 56399 58101 70008 88618;
0217763930999992008032415004+25733-100300FM-12+051599999V0203201N002019999999N0150001N1+01361+00691103001ADDAY141031AY221031GA1041+006601061GF107991041041012501001001IA1019MA1999999097091MD1210231+0911MW1051REMSYN106AAXX  24151 76393 31665 73202 10136 20069 39709 40300 52023 70542 84400 91450 333 30/// 56300 58091 84622;
0255763930999992008032418004+25733-100300FM-12+051599999V0200901N003012200019N0100001N1+01881+00911102901ADDAY141061AY221061GA1021+009601061GF102991021041012501001001IA1019KA1120M+01951KA2240N+01181MA1999999097011MD1710081+0691MW1051REMSYN118AAXX  24181 76393 32660 20903 10188 20091 39701 40290 57008 70542 82400 91750 333 10195 20118 30/// 56300 58069 82632;
0217763930999992008032421004+25733-100300FM-12+051599999V0200901N002010099019N0100001N1+01941+00951102531ADDAY141031AY261031GA1051+009901061GF105991051041008001001001IA1019MA1999999096691MD1710321+0371MW1051REMSYN106AAXX  24211 76393 32560 50902 10194 20095 39669 40253 57032 70546 85400 92050 333 30/// 56300 58037 85633;
0245763930999992008032500004+25733-100300FM-12+051599999V0201701N003010075019N0200001N1+01841+00951102401ADDAY141061AY261061GF106991061041008001999999IA1019KA1120M+02071KA2180N+01181MA1999999096701MD1710011+0271MW1051REMSYN124AAXX  25001 76393 32570 61703 10184 20095 39670 40240 57001 70546 864// 92350 333 10207 20118 30/// 50351 563// 58027 86629;
0217763930999992008032503004+25733-100300FM-12+051599999V0201201N002010075019N0080001N1+01741+00991102371ADDAY141031AY221031GA1071+007501061GF107991071051008001999999IA1019MA1999999096601MD1410001+9999MW1051REMSYN106AAXX  25031 76393 31558 71202 10174 20099 39660 40237 54000 70542 875// 90255 333 30/// 563// 580// 87625;
0275763930999992008032506004+25733-100300FM-12+051599999V0201001N003012200019N0080001N1+01511+01041102291ADDAY141061AY221061GA1021+004501081GF104991041081004501001001GJ103249IA1019KA1240M+02071KA2240N+01181MA1999999096511MD1710091-0381MW1051REMSYN130AAXX  25061 76393 31458 41003 10151 20104 39651 40229 57009 70542 84800 90555 333 10207 20118 30/// 55054 56300 59038 82815 82627;
0217763930999992008032509004+25733-100300FM-12+051599999V0201001N001012200019N0080001N1+01331+01031102171ADDAY141031AY241031GA1011+003001061GF101991011051004501001001IA1019MA1999999096381MD1710131-0531MW1051REMSYN106AAXX  25091 76393 31458 11001 10133 20103 39638 40217 57013 70544 81500 90855 333 30/// 56300 59053 81610;
0272763930999992008032512004+25733-100300FM-12+051599999V0209999C000012200019N0080001N1+01231+01001102091ADDAA124000091AY141061AY241061GA1031+002101061GF103991031051002501001001IA1019KA1240M+02071KA2120N+01101MA1999999096271MD1710111-0591MW1051REMSYN124AAXX  25121 76393 31358 30000 10123 20100 39627 40209 57011 70544 83500 91155 333 10207 20110 30098 56800 59059 70000 83607;
0223763930999992008032515004+25733-100300FM-12+051599999V0202901N00101004201CN0040001N1+01541+01061102141ADDAY141031AY241031GA1011+004801081GF108991051061004501001001IA1019MA1999999096301MD1010031-0791MW1051REMSYN112AAXX  25151 76393 31440 82901 10154 20106 39630 40214 50003 70544 85600 91450 333 30/// 56300 59079 81816 84717;
0255763930999992008032518004+25733-100300FM-12+051599999V0203201N001012200019N0030001N1+02281+01221102141ADDAY141061AY241061GA1011+030001031GF101991011001999999031001IA1019KA1120M+02421KA2240N+01101MA1999999096321MD1010021-0691MW1051REMSYN118AAXX  25181 76393 31930 13201 10228 20122 39632 40214 50002 70544 81030 91750 333 10242 20110 30/// 56050 59069 81360;
0217763930999992008032521004+25733-100300FM-12+051599999V0200901N003012200019N0080001N1+02841+01151101731ADDAY141031AY241031GA1031+030001031GF103991031001999999031001IA1019MA1999999095991MD1710331-0701MW1051REMSYN106AAXX  25211 76393 31958 30903 10284 20115 39599 40173 57033 70544 83030 92050 333 30/// 56050 59070 83360;
0262763930999992008032600004+25733-100300FM-12+051599999V0201401N002012200019N0080001N1+02761+01251101511ADDAA124000091AY141061AY241061GF103991031021017501001001IA1019KA1120M+03001KA2180N+01101MA1999999095861MD1610131-0741MW1051REMSYN130AAXX  26001 76393 31758 31402 10276 20125 39586 40151 56013 70544 83200 92350 333 10300 20110 30/// 50371 56300 59074 70000 83850;
0189763930999992008032603004+25733-100300FM-12+051599999V0200801N002012200019N0100001N1+02301+01421101541ADDGA1021+008701061GF102991021031008001001001IA1019MA1999999095941MD1410001-0661REMSYN100AAXX  26031 76393 32560 20802 10230 20142 39594 40154 54008 82300 90255 333 30/// 56300 59066 82629;
0225763930999992008032606004+25733-100300FM-12+051599999V0200801N003012200019N0100001N1+01961+01561101611ADDGF102991021031004501001001GJ106189IA1019KA1240M+03001KA2240N+01101MA1999999096001MD1410001-0511REMSYN118AAXX  26061 76393 32460 20803 10196 20156 39600 40161 54006 82300 90555 333 10300 20110 30/// 55103 56300 59051 82614;
0217763930999992008032609004+25733-100300FM-12+051599999V0209999C000012200019N0040001N1+01721+01501101611ADDAY141031AY211031GA1041+002101061GF104991041031002501001001IA1019MA1999999095971MD1410001-0411MW1051REMSYN106AAXX  26091 76393 31340 40000 10172 20150 39597 40161 54003 70541 84300 90855 333 30/// 56300 59041 84607;
0272763930999992008032612004+25733-100300FM-12+051599999V0209999C000010021019N0020001N1+01721+01501101601ADDAA124000091AY141061AY221061GA1081+002101061GF108991081041002501999999IA1019KA1240M+03001KA2120N+01481MA1999999095911MD1410001-0361MW1051REMSYN124AAXX  26121 76393 31320 80000 10172 20150 39591 40160 54006 70542 884// 91155 333 10300 20148 30128 56399 59036 70000 88607;
0223763930999992008032615004+25733-100300FM-12+051599999V0203401N00101004201CN0030001N1+01921+01511101791ADDAY141031AY241031GA1031+003001051GF106991051041004501011999IA1019MA1999999096051MD1110141-0251MW1051REMSYN112AAXX  26151 76393 31430 63401 10192 20151 39605 40179 51014 70544 8541/ 91450 333 30/// 5635/ 59025 83510 83456;
0274763930999992008032618004+25733-100300FM-12+051599999V0200201N001012200019N0040001N1+02701+01441101671ADDAY141061AY221061GA1021+012601061GF102991021041017501001001IA1019KA1120M+02821KA2240N+01481MA1999999095252MD1710101-0371MW1051REMSYN118AAXX  26181 76393 31740 20201 10270 20144 39525 40167 57010 70542 82400 91750 333 10282 20148 30/// 56300 59037 82642;EQDQ01+095253APOSP 
0171763930999992008032621004+25733-100300FM-12+051599999V0201201N002012200019N0100001N1+03021+01521101281ADDGA1001+999999999GF100991001001999999001001IA1019MA1999999095641MD1710311-0351REMSYN082AAXX  26211 76393 31960 01202 10302 20152 39564 40128 57031 92050 333 30/// 59035;
0215763930999992008032700004+25733-100300FM-12+051599999V0201001N003012200019N0200001N1+03061+01451101011ADDGA1001+999999999GF100991001001999999001001IA1019KA1120M+03331KA2180N+01481MA1999999095451MD1610191-0411REMSYN100AAXX  27001 76393 31970 01003 10306 20145 39545 40101 56019 92350 333 10333 20148 30/// 50711 59041;
0171763930999992008032703004+25733-100300FM-12+051599999V0201001N001012200019N0150001N1+02801+01221101041ADDGA1001+999999999GF100991001001999999001001IA1019MA1999999095531MD1210081-0411REMSYN082AAXX  27031 76393 32965 01001 10280 20122 39553 40104 52008 90250 333 30/// 59041;
0209763930999992008032706004+25733-100300FM-12+051599999V0200901N002012200019N0150001N1+02201+01491101061ADDGA1001+999999999GF100991001001999999001001IA1019KA1240M+03331KA2240N+01481MA1999999095541MD1510011+9999REMSYN094AAXX  27061 76393 32965 00902 10220 20149 39554 40106 55001 90550 333 10333 20148 30/// 55094;
0199763930999992008032709004+25733-100300FM-12+051599999V0200801N001012200019N0060001N1+01901+01491100881ADDAY141031AY201031GA1001+999999999GF100991001001999999001001IA1019MA1999999095331MD1710211-0641MW1051REMSYN088AAXX  27091 76393 31956 00801 10190 20149 39533 40088 57021 70540 90850 333 30/// 59064;
0272763930999992008032712004+25733-100300FM-12+051599999V0209999C000012200019N0040001N1+01741+01491100911ADDAA124000091AY141061AY201061GA1021+002701061GF102991021051002501001001IA1019KA1240M+03331KA2120N+01601MA1999999095291MD1710041-0621MW1051REMSYN124AAXX  27121 76393 31340 20000 10174 20149 39529 40091 57004 70540 82500 91150 333 10333 20160 30142 56300 59062 70000 82609;
0199763930999992008032715004+25733-100300FM-12+051599999V0203301N001012200019N0050001N1+02061+01531100921ADDAY141031AY241031GA1001+999999999GF100991001001999999001001IA1019MA1999999095261MD1010031-0791MW1051REMSYN088AAXX  27151 76393 31950 03301 10206 20153 39526 40092 50003 70544 91450 333 30/// 59079;
0261763930999992008032718004+25733-100300FM-12+051599999V0200901N00101220001CN0060001N1+02881+01491100821ADDAY141061AY241061GA1011+013801081GF106991011021012501001041IA1019KA1120M+03061KA2240N+01601MA1999999095181MD1710081-0771MW1051REMSYN124AAXX  27181 76393 31656 60901 10288 20149 39518 40082 57008 70544 81204 91750 333 10306 20160 30/// 56305 59077 81846 85070;
0245763930999992008032721004+25733-100300FM-12+051599999V0200901N00501090001CN0080001N1+03361+01511100441ADDAY141031AY241031GA1021+018001081GA2011+030001031GF105991021021017501031021IA1019MA1999999094881MD1710301-0761MW1051REMSYN118AAXX  27211 76393 31758 50905 10336 20151 39488 40044 57030 70544 82232 92050 333 30/// 56355 59076 82856 81360 82070;
0284763930999992008032800004+25733-100300FM-12+051599999V0200901N001010360019N0080001N1+03181+01381100251ADDAA124000091AY141061AY241061GA1041+018001081GF107991041021017501051021IA1019KA1120M+03501KA2180N+01601MA1999999094771MD1010111-0681MW1051REMSYN136AAXX  28001 76393 31758 70901 10318 20138 39477 40025 50011 70544 84252 92350 333 10350 20160 30/// 50511 56355 59068 70000 84856 81360;
0208763930999992008032803004+25733-100300FM-12+051599999V0202501N001012200019N0100001N1+02821+01331100341ADDGA1041+072001001GF104991001001999999001041IA1019MA1999999094891MD1310121-0641REMSYN100AAXX  28031 76393 32960 42501 10282 20133 39489 40034 53012 84004 90255 333 30/// 56005 59064 84074;EQDQ01+000042SCOTLC
0244763930999992008032806004+25733-100300FM-12+051599999V0200801N003012200019N0100001N1+02261+01691100481ADDGF102991001001999999001041GJ105649IA1019KA1240M+03501KA2240N+01601MA1999999095021MD1210131-0521REMSYN118AAXX  28061 76393 32960 20803 10226 20169 39502 40048 52013 82004 90555 333 10350 20160 30/// 55094 56005 59052 82074;EQDQ01+000022SCOTLC
0195763930999992008032809004+25733-100300FM-12+051599999V0200801N001012200019N0100001N1+02041+01681100501ADDGA1021+024001031GF103991021001022501031041IA1019MA1999999094981MD1410001-0351REMSYN106AAXX  28091 76393 32860 30801 10204 20168 39498 40050 54004 82034 90855 333 30/// 56055 59035 82358 81074;
0272763930999992008032812004+25733-100300FM-12+051599999V0209999C000012200019N0040001N1+01921+01711100521ADDAA124000091AY141061AY201061GA1021+002101061GF102991021041002501001001IA1019KA1240M+03501KA2120N+01801MA1999999094941MD1410001-0351MW1051REMSYN124AAXX  28121 76393 31340 20000 10192 20171 39494 40052 54004 70540 82400 91155 333 10350 20180 30174 56300 59035 70000 82607;
0217763930999992008032815004+25733-100300FM-12+051599999V0203401N001010030019N0010001N1+02081+01781100861ADDAY141031AY221031GA1081+003001061GF108991081051002501999999IA1019MA1999999095221MD1210281-0041MW1051REMSYN106AAXX  28151 76393 31310 83401 10208 20178 39522 40086 52028 70542 885// 91450 333 30/// 56399 59004 88610;
0261763930999992008032818004+25733-100300FM-12+051599999V0200901N00101036001CN0020001N1+02641+01821100931ADDAY141061AY221061GA1031+008401061GF106991031051008001011001IA1019KA1120M+02761KA2240N+01741MA1999999095291MD1210071+0111MW1051REMSYN124AAXX  28181 76393 31520 60901 10264 20182 39529 40093 52007 70542 83510 91750 333 10276 20174 30/// 56350 58011 83628 83359;
0245763930999992008032821004+25733-100300FM-12+051599999V0200901N00101036001CN0040001N1+03161+01811100631ADDAY141031AY221031GA1021+010201061GA2021+027001031GF108991021051012501011041IA1019MA1999999095061MD1710231+0181MW1051REMSYN118AAXX  28211 76393 31640 80901 10316 20181 39506 40063 57023 70542 82514 92045 333 30/// 56355 58018 82634 82359 84075;
0306763930999992008032900004+25733-100300FM-12+051599999V0201201N00101030001CN0050001N1+02961+01771100601ADDAA124000091AY141061AY221061GA1031+012001061GA2031+030001031GF108991031051012501011041IA1019KA1120M+03301KA2180N+01741MA1999999095071MD1010011+0301MW1051REMSYN142AAXX  29001 76393 31650 81201 10296 20177 39507 40060 50001 70542 83514 92350 333 10330 20174 30/// 50621 56355 58030 70000 83640 83360 82075;
0217763930999992008032903004+25733-100300FM-12+051599999V0201001N004010075019N0050001N1+02561+01861100861ADDAY141031AY221031GA1061+007501061GF107991061051008001001011IA1019MA1999999095351MD1210281+0461MW1051REMSYN106AAXX  29031 76393 31550 71004 10256 20186 39535 40086 52028 70542 86501 90255 333 30/// 56808 58046 86625;
0275763930999992008032906004+25733-100300FM-12+051599999V0201101N003010090019N0050001N1+02321+01881100941ADDAY141061AY221061GA1011+004201081GF107991061081004501001011GJ102889IA1019KA1240M+03301KA2240N+01801MA1999999095421MD1210071+0401MW1051REMSYN130AAXX  29061 76393 31450 71103 10232 20188 39542 40094 52007 70542 86801 90555 333 10330 20180 30/// 55048 56405 58040 81814 85621;
0217763930999992008032909004+25733-100300FM-12+051599999V0201001N002010021019N0050001N1+02151+01921100851ADDAY141031AY221031GA1081+002101061GF108991081051002501999999IA1019MA1999999095301MD1710121+0321MW1051REMSYN106AAXX  29091 76393 31350 81002 10215 20192 39530 40085 57012 70542 885// 90850 333 30/// 563// 58032 88607;
0250763930999992008032912004+25733-100300FM-12+051599999V0201001N002010012019N0040001N1+02081+01931100901ADDAA124000091AY141061AY221061GF108991081051001501999999KA1240M+03301KA2120N+01801MA1999999095311MD1210011+0371MW1051REMSYN124AAXX  29121 76393 31240 81002 10208 20193 39531 40090 52001 70542 885// 91155 333 10330 20180 20160 563// 58037 70000 88605;
0234763930999992008032915004+25733-100300FM-12+051599999V0200901N003010015019N0010001N1+02121+01981101051ADDAA103000991AY141031AY221031GA1081+001501071GF108991081071001501999999IA1099MA1999999095421MD1210101+0201MW1051REMSYN112AAXX  29151 76393 21210 80903 10212 20198 39542 40105 52010 70542 887// 91450 333 31/// 563// 58020 69997 88705;
0255763930999992008032918004+25733-100300FM-12+051599999V0201401N003010066019N0040001N1+02501+01831101051ADDAY141061AY231061GA1081+006601061GF108991081051008001999999IA1019KA1120M+02501KA2240N+01801MA1999999095421MD1010001+0131MW1051REMSYN118AAXX  29181 76393 31540 81403 10250 20183 39542 40105 50000 70543 885// 91750 333 10250 20180 30/// 563// 58013 88622;
0223763930999992008032921004+25733-100300FM-12+051599999V0201201N002010105019N0060001N1+02881+01811100761ADDAY141031AY241031GA1051+010501061GF107991071041012501999999IA1019MA1999999095161MD1710261+0101MW1051REMSYN112AAXX  29211 76393 31656 71202 10288 20181 39516 40076 57026 70544 874// 92050 333 30/// 563// 58010 85635 82836;
0303763930999992008033000004+25733-100300FM-12+051599999V0201401N00101011401CN0060001N1+02781+01651100691ADDAA124999999AY141061AY241061GA1051+011401081GF107991051051012501061999IA1019KA1120M+03001KA2180N+01801MA1999999095141MD1610021+0071MW1051REMSYN136AAXX  30001 76393 31656 71401 10278 20165 39514 40069 56002 70544 8556/ 92350 333 10300 20180 30/// 50321 5635/ 58007 79999 85838 82360;EQDQ01  99992PRCP24
0217763930999992008033003004+25733-100300FM-12+051599999V0201301N001010075019N0050001N1+02601+01841100901ADDAY141031AY221031GA1061+007501061GF106991061051008001001001IA1019MA1999999095361MD1210221+0011MW1051REMSYN106AAXX  30031 76393 31550 61301 10260 20184 39536 40090 52022 70542 86500 90255 333 30/// 56300 58001 86625;
0253763930999992008033006004+25733-100300FM-12+051599999V0201101N001012200019N0050001N1+02281+01841101001ADDAY141061AY201061GF104991041051004501001001GJ100369IA1019KA1240M+03001KA2240N+01801MA1999999095461MD1210101+0041MW1051REMSYN124AAXX  30061 76393 31450 41101 10228 20184 39546 40100 52010 70540 84500 90550 333 10300 20180 30/// 55006 56300 58004 84615;
0217763930999992008033009004+25733-100300FM-12+051599999V0200901N001010024019N0030001N1+02141+01901100911ADDAY141031AY221031GA1071+002401061GF107991071051002501999999IA1019MA1999999095341MD1710121+0041MW1051REMSYN106AAXX  30091 76393 31330 70901 10214 20190 39534 40091 57012 70542 875// 90850 333 30/// 56399 58004 87608;
0291763930999992008033012004+25733-100300FM-12+051599999V0209999C000010021019N0010001N1+02161+01961100951ADDAA124000091AY141061AY221061GA1081+002101061GF108991081051001501999999IA1019KA1240M+03001KA2120N+01961MA1999999095351MD1010011+0031MW1051REMSYN124AAXX  30121 76393 31210 80000 10216 20196 39535 40095 50001 70542 885// 91150 333 10300 20196 30180 56399 58003 79999 88607;EQDQ01  00002PRCP24
0240763930999992008033015004+25733-100300FM-12+051599999V0209999C000010021019N0020001N1+02161+01931101211ADDAA103000991AY141031AY251031GA1051+002101061GF108991051051002501021999IA1019MA1999999095571MD1210191+0151MW1051REMSYN118AAXX  30151 76393 21320 80000 10216 20193 39557 40121 52019 70545 8552/ 91450 333 30/// 5635/ 58015 69997 85607 83456;
0261763930999992008033018004+25733-100300FM-12+051599999V0201001N00101036001CN0030001N1+02461+02001101191ADDAY141061AY221061GA1041+004501061GF106991041041004501011999IA1019KA1120M+02581KA2240N+01961MA1999999095551MD1710021+0131MW1051REMSYN124AAXX  30181 76393 31430 61001 10246 20200 39555 40119 57002 70542 8441/ 91750 333 10258 20196 30/// 5636/ 58013 84615 82456;
0223763930999992008033021004+25733-100300FM-12+051599999V0201301N001012200019N0040001N1+02821+02121100911ADDAY141031AY221031GA1031+006601061GF104991031041008001021001IA1019MA1999999095301MD1710251+0141MW1051REMSYN112AAXX  30211 76393 31540 41301 10282 20212 39530 40091 57025 70542 83420 92050 333 30/// 5635/ 58014 83622 81456;
0275763930999992008033100004+25733-100300FM-12+051599999V0201001N001012200019N0150001N1+02881+01831100821ADDAA124999999GA1011+010501061GF102991011041012501001041IA1019KA1120M+03131KA2180N+01961MA1999999095201MD1610101+0061REMSYN130AAXX  31001 76393 32665 21001 10288 20183 39520 40082 56010 81404 92350 333 10313 20196 30/// 50151 56307 58006 79999 81635 81070;EQDQ01  99992PRCP24
0219763930999992008033106004+25733-100300FM-12+051599999V0201001N002012200019N0100001N1+02361+01931100821ADDGF101991001001999999001011GJ102529IA1019KA1240M+03131KA2240N+01961MA1999999095291MD1710011+9999REMSYN112AAXX  31061 76393 32960 11002 10236 20193 39529 40082 57001 80001 90555 333 10313 20196 30/// 55042 56005 59017;
0217763930999992008033109004+25733-100300FM-12+051599999V0209999C000010015019N0050001N1+02141+01981100791ADDAY141031AY241031GA1081+001501061GF108991081051001501999999IA1019MA1999999095251MD1710041-0091MW1051REMSYN106AAXX  31091 76393 31250 80000 10214 20198 39525 40079 57004 70544 885// 90850 333 30/// 563// 59009 88605;
0272763930999992008033112004+25733-100300FM-12+051599999V0209999C000010012019N0040001N1+02161+01991100821ADDAA124000091AY141061AY221061GA1081+001201061GF108991081051001501999999IA1019KA1240M+03131KA2120N+02101MA1999999095231MD1710021-0121MW1051REMSYN124AAXX  31121 76393 31240 80000 10216 20199 39523 40082 57002 70542 885// 91155 333 10313 20210 30204 563// 59012 70000 88604;
0217763930999992008033115004+25733-100300FM-12+051599999V0200301N001010012019N0030001N1+02341+01961100931ADDAY141031AY241031GA1081+001201071GF108991081061002501999999IA1019MA1999999095321MD1010091-0251MW1051REMSYN106AAXX  31151 76393 31330 80301 10234 20196 39532 40093 50009 70544 886// 91450 333 30/// 563// 59025 88704;
0261763930999992008033118004+25733-100300FM-12+051599999V0200901N00301036001CN0020001N1+02941+01911100891ADDAY141061AY241061GA1021+010501071GF108991021061012501031999IA1019KA1120M+03101KA2240N+02101MA1999999095291MD1010031-0261MW1051REMSYN124AAXX  31181 76393 31620 80903 10294 20191 39529 40089 50003 70544 8263/ 91750 333 10310 20210 30/// 5635/ 59026 82735 86360;
0217763930999992008033121004+25733-100300FM-12+051599999V0200901N002010600019N0060001N1+03341+01601100531ADDAY141031AY221031GA1071+060001001GF107991001001999999001011IA1019MA1999999095001MD1710291-0301MW1051REMSYN106AAXX  31211 76393 31956 70902 10334 20160 39500 40053 57029 70542 80001 92050 333 30/// 56005 59030 87070;
0262763930999992008040100004+25733-100300FM-12+051599999V0201401N003019999999N0060001N1+03181+01721100471ADDAA124000091AY141061AY221061GF106991001001999999001021IA1019KA1120M+03521KA2180N+02101MA1999999094971MD1510151-0231MW1051REMSYN130AAXX  01001 76393 31956 61403 10318 20172 39497 40047 55015 70542 80002 92350 333 10352 20210 30/// 50711 56005 59023 70000 86070;
0217763930999992008040103004+25733-100300FM-12+051599999V0200901N001012200019N0030001N1+02901+01731100761ADDAY141031AY211031GA1041+075001001GF104991001001999999001011IA1019MA1999999095291MD1210321-0011MW1051REMSYN106AAXX  01031 76393 31930 40901 10290 20173 39529 40076 52032 70541 80001 90250 333 30/// 56005 59001 84075;
0255763930999992008040106004+25733-100300FM-12+051599999V0200801N001012200019N0030001N1+02601+01871100871ADDAY141061AY211061GA1041+027001031GF104991041001999999031001IA1019KA1240M+03521KA2240N+02101MA1999999095401MD1210111+0111MW1051REMSYN118AAXX  01061 76393 31930 40801 10260 20187 39540 40087 52011 70541 84030 90550 333 10352 20210 30/// 56050 58011 84359;
0217763930999992008040109004+25733-100300FM-12+051599999V0209999C000012200019N0030001N1+02401+02001100901ADDAY141031AY201031GA1021+003901061GF102991021051004501001001IA1019MA1999999095401MD1410001+0151MW1051REMSYN106AAXX  01091 76393 31430 20000 10240 20200 39540 40090 54000 70540 82500 90850 333 30/// 56300 58015 82613;
0273763930999992008040112004+25733-100300FM-12+051599999V0209999C000012200019N0020001N1+02201+02031101031ADDAA124000091AY141061AY201061GA1001+999999999GF100991001001999999001001IA1019KA1240M+03521KA2120N+02021MA1999999095481MD1210081+0251MW1051REMSYN106AAXX  01121 76393 31920 00000 10220 20203 39548 40103 52008 70540 91150 333 10352 20202 30180 58025 70000;EQDQ01  00002PRCP24
0223763930999992008040115004+25733-100300FM-12+051599999V0200401N00101036001CN0030001N1+02451+02041101291ADDAY141031AY221031GA1021+003901061GF106991021051004501011999IA1019MA1999999095691MD1210211+0371MW1051REMSYN112AAXX  01151 76393 31430 60401 10245 20204 39569 40129 52021 70542 8251/ 91450 333 30/// 5635/ 58037 82613 84456;
0261763930999992008040118004+25733-100300FM-12+051599999V0201001N003012200019N0040001N1+02941+02161101301ADDAY141061AY221061GA1011+007801061GF102991011041008001001041IA1019KA1120M+03031KA2240N+02021MA1999999095701MD1710011+0411MW1051REMSYN124AAXX  01181 76393 31540 21003 10294 20216 39570 40130 57001 70542 81404 91750 333 10303 20202 30/// 56307 58041 81626 81070;
0217763930999992008040121004+25733-100300FM-12+051599999V0201201N002012200019N0080001N1+03481+01751101011ADDAY141031AY241031GA1021+015001061GF102991021041017501001001IA1019MA1999999095461MD1710241+0461MW1051REMSYN106AAXX  01211 76393 31758 21202 10348 20175 39546 40101 57024 70544 82400 92050 333 30/// 56300 58046 82650;
0217763930999992008040200004+25733-100300FM-12+051599999V0201701N002010150019N0150001N1+03181+01461100971ADDGF105991051041017501001001IA1019KA1120M+03551KA2180N+02021MA1999999095471MD1210011+0501REMSYN118AAXX  02001 76393 31765 51702 10318 20146 39547 40097 52001 85400 92350 333 10355 20202 30/// 50721 56300 58050 85650;
0172763930999992008040206004+25733-100300FM-12+051599999V0201201N002019999999N0050001N1+02341+01961101431ADDAA106000021AY141061AY221061GF107991999999004501999999MA1999999095921MD1210121+9999MW1501REMSYN072AAXX  02061 76393 01450 71202 10234 20196 39592 40143 52012 69901 75042;
0234763930999992008040209004+25733-100300FM-12+051599999V0201001N001010018019N0050001N1+02161+01961101371ADDAA103000291AY151031AY221031GA1061+001801061GF106991061051002501001001IA1019MA1999999095811MD1710111+0411MW1051REMSYN112AAXX  02091 76393 21350 61001 10216 20196 39581 40137 57011 70552 86500 90855 333 30/// 56300 58041 69927 86606;
0272763930999992008040212004+25733-100300FM-12+051599999V0201101N001010018019N0040001N1+02161+01971101461ADDAA124000291AY141061AY241061GA1081+001801061GF108991081051001501999999IA1019KA1240M+03551KA2120N+02101MA1999999095851MD1210041+0371MW1051REMSYN124AAXX  02121 76393 31240 81101 10216 20197 39585 40146 52004 70544 885// 91155 333 10355 20210 30206 563// 58037 70002 88606;
0234763930999992008040215004+25733-100300FM-12+051599999V0201101N002010027019N0020001N1+02341+02081101571ADDAA103000991AY151031AY201031GA1081+002701071GF108991081071002501999999IA1019MA1999999095921MD1010071+0231MW1501REMSYN112AAXX  02151 76393 21320 81102 10234 20208 39592 40157 50007 75050 887// 91450 333 30/// 563// 58023 69997 88709;
0261763930999992008040218004+25733-100300FM-12+051599999V0201501N00201004201CN0060001N1+02661+02071101481ADDAY141061AY241061GA1041+005701061GF107991071021004501999999IA1019KA1120M+02781KA2240N+02101MA1999999095841MD1710081+0141MW1051REMSYN124AAXX  02181 76393 31456 71502 10266 20207 39584 40148 57008 70544 872// 91750 333 10278 20210 30/// 563// 58014 84619 83820;
0217763930999992008040221004+25733-100300FM-12+051599999V0201201N001010117019N0060001N1+02981+01821101061ADDAY141031AY241031GA1071+011701081GF107991071021012501999999IA1019MA1999999095481MD1710361+0021MW1051REMSYN106AAXX  02211 76393 31656 71201 10298 20182 39548 40106 57036 70544 872// 92050 333 30/// 563// 58002 87839;
0284763930999992008040300004+25733-100300FM-12+051599999V0201401N002010360019N0100001N1+03021+01741100861ADDAA124999929AY141061AY241061GA1011+012901081GF106991011021012501041021IA1019KA1120M+03221KA2180N+02101MA1999999095331MD1610151-0141MW1051REMSYN136AAXX  03001 76393 31660 61402 10302 20174 39533 40086 56015 70544 81242 92350 333 10322 20210 30/// 50451 56355 59014 79999 81843 81360;
0223763930999992008040303004+25733-100300FM-12+051599999V0200901N00201090001CN0100001N1+02761+01801101071ADDAY141031AY221031GA1011+009601061GF105991011041008001001021IA1019MA1999999095561MD1210231-0241MW1051REMSYN112AAXX  03031 76393 31560 50902 10276 20180 39556 40107 52023 70542 81402 90250 333 30/// 56305 59024 81632 84075;
0253763930999992008040306004+25733-100300FM-12+051599999V0201101N002012200019N0050001N1+02341+01841101091ADDAY141061AY201061GF103991031041004501001001GJ102109IA1019KA1240M+03221KA2240N+02101MA1999999095561MD1410001-0361MW1051REMSYN124AAXX  03061 76393 31450 31102 10234 20184 39556 40109 54000 70540 83400 90550 333 10322 20210 30/// 55035 56300 59036 83617;
0217763930999992008040309004+25733-100300FM-12+051599999V0201201N001010030019N0030001N1+02061+01951100901ADDAY141031AY221031GA1061+003001061GF106991061051002501001001IA1019MA1999999095361MD1710201-0451MW1051REMSYN106AAXX  03091 76393 31330 61201 10206 20195 39536 40090 57020 70542 86500 90850 333 30/// 56300 59045 86610;
0272763930999992008040312004+25733-100300FM-12+051599999V0200901N001010021019N0020001N1+02101+01891101071ADDAA124000021AY141061AY221061GA1081+002101061GF108991081051002501999999IA1019KA1240M+03221KA2120N+01921MA1999999095471MD1210111-0381MW1051REMSYN124AAXX  03121 76393 31320 80901 10210 20189 39547 40107 52011 70542 885// 91155 333 10322 20192 30184 56399 59038 79999 88607;
0223763930999992008040315004+25733-100300FM-12+051599999V0201201N00101001201CN0020001N1+02181+02011101191ADDAY141031AY231031GA1021+001501071GF108991081061001501999999IA1019MA1999999095551MD1210081-0371MW1051REMSYN112AAXX  03151 76393 31220 81201 10218 20201 39555 40119 52008 70543 886// 91450 333 30/// 563// 59037 82705 86607;
0261763930999992008040318004+25733-100300FM-12+051599999V0201001N00201036001CN0040001N1+02481+01991101061ADDAY141061AY231061GA1041+004801061GF108991041061004501021999IA1019KA1120M+02551KA2240N+01921MA1999999095431MD1710121-0411MW1051REMSYN124AAXX  03181 76393 31440 81002 10248 20199 39543 40106 57012 70543 8462/ 91750 333 10255 20192 30/// 5635/ 59041 84616 84456;
0195763930999992008040321004+25733-100300FM-12+051599999V0201001N00201036001CN0170001N1+02821+02011100681ADDGA1041+008101061GF107991041051017501021999IA1019MA1999999095091MD1710341-0391REMSYN106AAXX  03211 76393 32767 71002 10282 20201 39509 40068 57034 8452/ 92050 333 30/// 5635/ 59039 84627 83456;
0274763930999992008040400004+25733-100300FM-12+051599999V0202801N001012200019N0200001N1+03141+01821100321ADDGA1031+013201061GF106991031041012501001041IA1019KA1120M+03251KA2180N+01921MA1999999999999MD1710291-0501REMSYN124AAXX  04001 76393 31670 62801 10314 20182 39400 40032 57029 83404 92350 333 10325 20192 30/// 50431 56307 59050 83644 83070;EQDQ01+094003APOSP Q02 094003APOSP 
0195763930999992008040403004+25733-100300FM-12+051599999V0209999C000012200019N0080001N1+02791+01881100381ADDAY141031AY241031GF101991001001999999001011IA1019MA1999999094891MD1210091-0671MW1051REMSYN100AAXX  04031 76393 31958 10000 10279 20188 39489 40038 52009 70544 80001 90255 333 30/// 56005 59067;
0251763930999992008040406004+25733-100300FM-12+051599999V0209999C000012200019N0060001N1+02541+01661100401ADDAY141061AY241061GA1001+999999999GF100991001001999999001001GJ102469IA1019KA1240M+03251KA2240N+01921MA1999999094911MD1010021-0651MW1051REMSYN106AAXX  04061 76393 31956 00000 10254 20166 39491 40040 50002 70544 90555 333 10325 20192 30/// 55041 59065;
0195763930999992008040409004+25733-100300FM-12+051599999V0209999C000012200019N0060001N1+02241+01761100301ADDAY141031AY241031GF101991001001999999001011IA1019MA1999999094801MD1710111-0561MW1051REMSYN100AAXX  04091 76393 31956 10000 10224 20176 39480 40030 57011 70544 80001 90850 333 30/// 56005 59056;
0269763930999992008040412004+25733-100300FM-12+051599999V0209999C000012200019N0060001N1+02121+01711100391ADDAA124000091AY141061AY241061GF102991001001999999001011IA1019KA1240M+03251KA2120N+01901MA1999999094851MD1210051-0621MW1051REMSYN118AAXX  04121 76393 31956 20000 10212 20171 39485 40039 52005 70544 80001 91155 333 10325 20190 30182 56005 59062 70000;EQDQ01  00002PRCP24
0217763930999992008040415004+25733-100300FM-12+051599999V0203401N002010600019N0100001N1+02701+01481100701ADDAY141031AY211031GA1051+060001001GF105991001001999999001011IA1019MA1999999095121MD1210271-0431MW1051REMSYN106AAXX  04151 76393 31960 53402 10270 20148 39512 40070 52027 70541 80001 91450 333 30/// 56005 59043 85070;
0255763930999992008040418004+25733-100300FM-12+051599999V0203301N002010600019N0080001N1+03201+00831100701ADDAY141061AY221061GA1061+060001001GF106991001001999999001011IA1019KA1120M+03321KA2240N+01901MA1999999095141MD1710021-0291MW1051REMSYN118AAXX  04181 76393 31958 63302 10320 20083 39514 40070 57002 70542 80001 91750 333 10332 20190 30/// 56005 59029 86070;
0245763930999992008040421004+25733-100300FM-12+051599999V0200701N00101090001CN0100001N1+03341+00071100471ADDAY141031AY211031GA1011+007801081GA2021+027001031GF105991011021008001011021IA1019MA1999999094971MD1710171-0121MW1051REMSYN118AAXX  04211 76393 31560 50701 10334 20007 39497 40047 57017 70541 81212 92050 333 30/// 56355 59012 81826 82359 82070;
0262763930999992008040500004+25733-100300FM-12+051599999V0203501N001012200019N0100001N1+02981+00431100571ADDAA124000091AY141061AY201061GF104991001001999999001031IA1019KA1120M+03501KA2180N+01901MA1999999095101MD1210131+0301MW1051REMSYN130AAXX  05001 76393 31960 43501 10298 20043 39510 40057 52013 70540 80003 92350 333 10350 20190 30/// 50781 56005 58030 70000 84070;
0208763930999992008040503004+25733-100300FM-12+051599999V0200101N001012200019N0180001N1+02561+00641100821ADDGA1031+072001001GF103991001001999999001041IA1019MA1999999095361MD1210261+0471REMSYN100AAXX  05031 76393 32968 30101 10256 20064 39536 40082 52026 83004 90255 333 30/// 56005 58047 83074;EQDQ01+000032SCOTLC
0244763930999992008040506004+25733-100300FM-12+051599999V0201001N005012200019N0180001N1+02241+01171101101ADDGF104991001001999999001041GJ106789IA1019KA1240M+03501KA2240N+01901MA1999999095591MD1210231+0681REMSYN118AAXX  05061 76393 32968 41005 10224 20117 39559 40110 52023 84004 90555 333 10350 20190 30/// 55113 56005 58068 84074;EQDQ01+000042SCOTLC
0189763930999992008040509004+25733-100300FM-12+051599999V0200901N004010075019N0180001N1+01941+01181101221ADDGA1071+007501061GF107991071061008001999999IA1019MA1999999095641MD1110051+0841REMSYN100AAXX  05091 76393 32568 70904 10194 20118 39564 40122 51005 876// 90855 333 30/// 56399 58084 87625;
0244763930999992008040512004+25733-100300FM-12+051599999V0200801N001010063019N0160001N1+01861+01241101281ADDAA124000091GA1071+006301061GF107991071061008001999999IA1019KA1240M+03501KA2120N+01601MA1999999095641MD1410001+0791REMSYN118AAXX  05121 76393 32566 70801 10186 20124 39564 40128 54000 876// 91155 333 10350 20160 30150 56399 58079 70000 87621;
0217763930999992008040515004+25733-100300FM-12+051599999V0201001N001012200019N0150001N1+01961+01011101481ADDGA1011+009301061GA2011+018001031GF103991011041008001051001IA1019MA1999999095801MD1210161+0681REMSYN112AAXX  05151 76393 32565 31001 10196 20101 39580 40148 52016 81450 91450 333 30/// 56355 58068 81631 81356 81070;
0227763930999992008040518004+25733-100300FM-12+051599999V0200901N001012200019N0180001N1+02481+00851101281ADDGA1011+015001081GF101991011011017501001001IA1019KA1120M+02641KA2240N+01601MA1999999095601MD1710201+0461REMSYN112AAXX  05181 76393 32768 10901 10248 20085 39560 40128 57020 81100 91755 333 10264 20160 30/// 56300 58046 81850;
0189763930999992008040521004+25733-100300FM-12+051599999V0200901N002012200019N0160001N1+02801+00771100861ADDGA1021+012001081GF102991021011012501001001IA1019MA1999999095241MD1710361+0271REMSYN100AAXX  05211 76393 32666 20902 10280 20077 39524 40086 57036 82100 92050 333 30/// 56300 58027 82840;
0234763930999992008040600004+25733-100300FM-12+051599999V0201101N002012200019N0160001N1+02701+00611100621ADDAA124000091GF101991011011022501001001IA1019KA1120M+02951KA2180N+01601MA1999999095061MD1710181+0041REMSYN124AAXX  06001 76393 32866 11102 10270 20061 39506 40062 57018 81100 92350 333 10295 20160 30/// 50471 56300 58004 70000 81857;
0171763930999992008040603004+25733-100300FM-12+051599999V0201201N002012200019N0120001N1+02421+00381100711ADDGA1001+999999999GF100991001001999999001001IA1019MA1999999095161MD1210101-0201REMSYN082AAXX  06031 76393 32962 01202 10242 20038 39516 40071 52010 90255 333 30/// 59020;
0223763930999992008040606004+25733-100300FM-12+051599999V0201001N001012200019N0120001N1+02081+00961100791ADDGA1001+999999999GF100991001001999999001001GJ106429IA1019KA1240M+02951KA2240N+01601MA1999999095231MD1210071-0461REMSYN100AAXX  06061 76393 32962 01001 10208 20096 39523 40079 52007 90555 333 10295 20160 30/// 55107 59046;
0171763930999992008040609004+25733-100300FM-12+051599999V0201101N001012200019N0120001N1+01751+01351100751ADDGA1001+999999999GF100991001001999999001001IA1019MA1999999095151MD1710081-0491REMSYN082AAXX  06091 76393 32962 01101 10175 20135 39515 40075 57008 90850 333 30/// 59049;
0209763930999992008040612004+25733-100300FM-12+051599999V0209999C000012200019N0140001N1+01601+01301100851ADDGA1001+999999999GF100991001001999999001001KA1240M+02951KA2120N+01501MA1999999095161MD1210011-0451REMSYN100AAXX  06121 76393 32964 00000 10160 20130 39516 40085 52001 91155 333 10295 20150 20135 59045 70000;
0199763930999992008040615004+25733-100300FM-12+051599999V0203601N001012200019N0080001N1+02141+01451100941ADDAY141031AY241031GA1001+999999999GF100991001001999999001001IA1019MA1999999095251MD1110091-0551MW1051REMSYN088AAXX  06151 76393 31958 03601 10214 20145 39525 40094 51009 70544 91450 333 30/// 59055;
0262763930999992008040700004+25733-100300FM-12+051599999V0201201N002012200019N0100001N1+03301+00941100431ADDAA124000091AY141061AY241061GF101991011021022501001001IA1019KA1120M+03621KA2180N+01601MA1999999094931MD1610111-0131MW1051REMSYN130AAXX  07001 76393 31860 11202 10330 20094 39493 40043 56011 70544 81200 92350 333 10362 20160 30/// 50681 56300 59013 70000 81858;
0171763930999992008040703004+25733-100300FM-12+051599999V0201401N001012200019N0160001N1+02841+01321100641ADDGA1001+999999999GF100991001001999999001001IA1019MA1999999095171MD1210241+0011REMSYN082AAXX  07031 76393 32966 01401 10284 20132 39517 40064 52024 90255 333 30/// 58001;
0223763930999992008040706004+25733-100300FM-12+051599999V0200901N003012200019N0160001N1+02401+01621100721ADDGA1001+999999999GF100991001001999999001001GJ106789IA1019KA1240M+03621KA2240N+01601MA1999999095261MD1410001+0031REMSYN100AAXX  07061 76393 32966 00903 10240 20162 39526 40072 54009 90555 333 10362 20160 30/// 55113 58003;
0171763930999992008040709004+25733-100300FM-12+051599999V0200801N002012200019N0160001N1+02221+01741100781ADDGA1001+999999999GF100991001001999999001001IA1019MA1999999095271MD1410001+0121REMSYN082AAXX  07091 76393 32966 00802 10222 20174 39527 40078 54001 90855 333 30/// 58012;
0245763930999992008040712004+25733-100300FM-12+051599999V0200601N001012200019N0160001N1+01981+01741100861ADDAA124000091GA1001+999999999GF100991001001999999001001IA1019KA1240M+03621KA2120N+01861MA1999999095291MD1410001+0131REMSYN100AAXX  07121 76393 32966 00601 10198 20174 39529 40086 54002 91155 333 10362 20186 30174 58013 70000;EQDQ01  00002PRCP24
0239763930999992008040715004+25733-100300FM-12+051599999V0200901N00101018001CN0050001N1+02181+01721101071ADDAY141031AY261031GA1041+004501061GA2011+018001031GF107991041041004501021041IA1019MA1999999095451MD1210161+0201MW1051REMSYN112AAXX  07151 76393 31450 70901 10218 20172 39545 40107 52016 70546 84424 91450 333 30/// 58020 84615 81356 82070;
0209763930999992008040718004+25733-100300FM-12+051599999V0200701N002012200019N0150001N1+02821+01801101021ADDGA1001+999999999GF100991001001999999001001IA1019KA1120M+02981KA2240N+01861MA1999999095401MD1810051+0101REMSYN094AAXX  07181 76393 32965 00702 10282 20180 39540 40102 58005 91750 333 10298 20186 30/// 58010;
0189763930999992008040721004+25733-100300FM-12+051599999V0200901N002012200019N0180001N1+03421+01441100601ADDGA1011+015001061GF101991011041017501001001IA1019MA1999999095051MD1710351+0011REMSYN100AAXX  07211 76393 32768 10902 10342 20144 39505 40060 57035 81400 92050 333 30/// 56300 58001 81650;
0217763930999992008040800004+25733-100300FM-12+051599999V0201601N002012200019N0220001N1+03461+01201100371ADDGF101991011041999999001001IA1019KA1120M+03651KA2180N+01861MA1999999094901MD1610151-0031REMSYN118AAXX  08001 76393 32972 11602 10346 20120 39490 40037 56015 81400 92350 333 10365 20186 30/// 50801 56050 59003 81356;
0167763930999992008040803004+25733-100300FM-12+051599999V0201201N003012200019N0140001N1+02901+01621100431ADDGF101991011001022501031001IA1019MA1999999095001MD1210101-0171REMSYN094AAXX  08031 76393 32864 11203 10290 20162 39500 40043 52010 81030 90255 333 30/// 56050 59017;
0247763930999992008040806004+25733-100300FM-12+051599999V0201001N003012200019N0120001N1+02301+01921100581ADDGA1011+004201081GF102991021081004501001001GJ105709IA1019KA1240M+03651KA2240N+01861MA1999999095141MD1210141-0121REMSYN124AAXX  08061 76393 32462 21003 10230 20192 39514 40058 52014 82800 90555 333 10365 20186 30/// 55095 56400 59012 81814 81620;
0189763930999992008040809004+25733-100300FM-12+051599999V0200901N001010027019N0120001N1+02131+01851100531ADDGA1071+002701061GF107991071051002501999999IA1019MA1999999095041MD1710101-0231REMSYN100AAXX  08091 76393 32362 70901 10213 20185 39504 40053 57010 875// 90850 333 30/// 564// 59023 87609;
0272763930999992008040812004+25733-100300FM-12+051599999V0200901N001010036019N0060001N1+02221+01841100601ADDAA124000091AY141061AY241061GA1081+003601061GF108991081051004501999999IA1019KA1240M+03651KA2120N+02101MA1999999095051MD1210011-0241MW1051REMSYN124AAXX  08121 76393 31456 80901 10222 20184 39505 40060 52001 70544 885// 91155 333 10365 20210 30200 563// 59024 70000 88612;
0217763930999992008040815004+25733-100300FM-12+051599999V0200501N001010054019N0020001N1+02421+01901100611ADDAY141031AY221031GA1081+005401081GF108991081041004501999999IA1019MA1999999095021MD1010031-0431MW1051REMSYN106AAXX  08151 76393 31420 80501 10242 20190 39502 40061 50003 70542 884// 91450 333 30/// 563// 59043 88818;
0237763930999992008040818004+25733-100300FM-12+051599999V0201201N002012200019N0040001N1+03061+01821100591ADDAY141061AY241061GA1001+999999999GF100991001001999999001001IA1019KA1120M+03201KA2240N+02101MA1999999095021MD1410001-0381MW1051REMSYN100AAXX  08181 76393 31940 01202 10306 20182 39502 40059 54000 70544 91750 333 10320 20210 30/// 59038;
0217763930999992008040821004+25733-100300FM-12+051599999V0200901N002012200019N0060001N1+03581+01701100191ADDAY141031AY241031GA1011+021001081GF101991011021017501001001IA1019MA1999999094691MD1710331-0361MW1051REMSYN106AAXX  08211 76393 31756 10902 10358 20170 39469 40019 57033 70544 81200 92050 333 30/// 56300 59036 81857;
0262763930999992008040900004+25733-100300FM-12+051599999V0200901N001012200019N0080001N1+03461+01491100081ADDAA124000091AY141061AY241061GF103991001001999999001021IA1019KA1120M+03721KA2180N+02101MA1999999094651MD1010041-0251MW1051REMSYN130AAXX  09001 76393 31958 30901 10346 20149 39465 40008 50004 70544 80002 92350 333 10372 20210 30/// 50691 56005 59025 70000 81070;
0189763930999992008040903004+25733-100300FM-12+051599999V0201101N001012200019N0180001N1+03061+01611100201ADDGA1011+072001001GF101991001001999999001041IA1019MA1999999094801MD1310151-0201REMSYN100AAXX  09031 76393 32968 11101 10306 20161 39480 40020 53015 81004 90255 333 30/// 56005 59020 81074;
0244763930999992008040906004+25733-100300FM-12+051599999V0201401N003012200019N0160001N1+02441+01951100381ADDGF101991001001999999001041GJ105169IA1019KA1240M+03721KA2240N+02101MA1999999094951MD1310151-0191REMSYN118AAXX  09061 76393 32966 11403 10244 20195 39495 40038 53015 81004 90555 333 10372 20210 30/// 55086 56005 59019 81074;EQDQ01+000012SCOTLC
0217763930999992008040909004+25733-100300FM-12+051599999V0201001N002010033019N0030001N1+02301+01981100271ADDAY141031AY221031GA1071+003301061GF107991071031004501001001IA1019MA1999999094811MD1610141-0231MW1051REMSYN106AAXX  09091 76393 31430 71002 10230 20198 39481 40027 56014 70542 87300 90855 333 30/// 56399 59023 87611;
0272763930999992008040912004+25733-100300FM-12+051599999V0200901N001010033019N0030001N1+02321+02001100401ADDAA124000091AY141061AY221061GA1071+003301061GF107991071051004501999999IA1019KA1240M+03721KA2120N+02301MA1999999094871MD1410001-0181MW1051REMSYN124AAXX  09121 76393 31430 70901 10232 20200 39487 40040 54006 70542 875// 91155 333 10372 20230 30220 56399 59018 70000 87611;
0223763930999992008040915004+25733-100300FM-12+051599999V0201001N00101036001CN0050001N1+02441+02071100641ADDAY141031AY251031GA1041+003601061GF108991041041004501021999IA1019MA1999999095071MD1110201+0051MW1051REMSYN112AAXX  09151 76393 31450 81001 10244 20207 39507 40064 51020 70545 8442/ 91450 333 30/// 5635/ 58005 84612 84456;
0246763930999992008040918004+25733-100300FM-12+051599999V0200801N001012200019N0100001N1+03001+02011100511ADDGA1021+018001041GF102991999001999999021001IA1019KA1120M+03121KA2240N+02301MA1999999094951MD1710121-0071REMSYN112AAXX  09181 76393 32960 20801 10300 20201 39495 40051 57012 80020 91750 333 10312 20230 30/// 56050 59007 82456;EQDQ01+000002SCOTLC
0214763930999992008040921004+25733-100300FM-12+051599999V0200801N001019999999N0180001N1+03421+01851100101ADDGA1021+018001031GF105991999001999999041041IA1019MA1999999094621MD1710331-0071REMSYN106AAXX  09211 76393 32968 50801 10342 20185 39462 40010 57033 80044 92050 333 30/// 56037 59007 82356 83070;EQDQ01+000002SCOTLC
0275763930999992008041000004+25733-100300FM-12+051599999V0201101N002019999999N0200001N1+03451+01801099811ADDAA124000091GA1021+018001031GF106991999001999999041041IA1019KA1120M+03601KA2180N+02301MA1999999094391MD1510231-0261REMSYN130AAXX  10001 76393 32970 61102 10345 20180 39439 49981 55023 80044 92350 333 10360 20230 30/// 50691 56057 59026 70000 82356 83070;EQDQ01+000002SCOTLC
0195763930999992008041003004+25733-100300FM-12+051599999V0201101N002019999999N0150001N1+02981+02151099751ADDGA1021+027001031GF105991021001999999011011IA1019MA1999999094371MD1710021-0431REMSYN106AAXX  10031 76393 32965 51102 10298 20215 39437 49975 57002 82011 90255 333 30/// 56055 59043 82359 83075;
0275763930999992008041006004+25733-100300FM-12+051599999V0200901N001012200019N0080001N1+02701+02141099851ADDAY141061AY211061GA1021+030001031GF104991021001999999011011GJ104389IA1019KA1240M+03601KA2240N+02301MA1999999094451MD1210081-0501MW1051REMSYN130AAXX  10061 76393 31958 40901 10270 20214 39445 49985 52008 70541 82011 90550 333 10360 20230 30/// 55073 56055 59050 82360 82075;
0217763930999992008041009004+25733-100300FM-12+051599999V0209999C000012200019N0060001N1+02401+02091099891ADDAY141031AY201031GA1031+027001031GF103991031001999999011001IA1019MA1999999094461MD1810011-0351MW1051REMSYN106AAXX  10091 76393 31956 30000 10240 20209 39446 49989 58001 70540 83010 90850 333 30/// 56050 59035 83359;
0278763930999992008041012004+25733-100300FM-12+051599999V0209999C000019999999N0040001N1+02321+02061100101ADDAA124000091AY141061AY221061GA1021+027001031GF106991021001999999011011IA1019KA1240M+03601KA2120N+02201MA1999999094611MD1210151-0261MW1051REMSYN130AAXX  10121 76393 31940 60000 10232 20206 39461 40010 52015 70542 82011 91155 333 10360 20220 30208 56055 59026 70000 82359 84075;
0217763930999992008041015004+25733-100300FM-12+051599999V0209999C000010600019N0120001N1+03041+01471100211ADDAY141031AY241031GA1061+060001001GF106991001001999999001021IA1019MA1999999094701MD1210091-0371MW1051REMSYN106AAXX  10151 76393 31962 60000 10304 20147 39470 40021 52009 70544 80002 91450 333 30/// 56005 59037 86070;
0274763930999992008041018004+25733-100300FM-12+051599999V0203601N002010600019N0100001N1+03741+99999100121ADDAY141061AY241061GA1061+060001001GF106991001001999999001021IA1019KA1120M+03901KA2240N+02201MA1999999094641MD1710061-0311MW1051REMSYN118AAXX  10181 76393 31960 63602 10374 20013 39464 40012 57006 70544 80002 91750 333 10390 20220 30/// 56005 59031 86070;EQDQ01+000133ATOD  
0217763930999992008041021004+25733-100300FM-12+051599999V0201001N003010600019N0080001N1+03821+01451099921ADDAY141031AY241031GA1071+060001001GF107991001001999999001021IA1019MA1999999094521MD1510121-0101MW1051REMSYN106AAXX  10211 76393 31958 71003 10382 20145 39452 49992 55012 70544 80002 92050 333 30/// 56005 59010 87070;
0262763930999992008041100004+25733-100300FM-12+051599999V0200901N003019999999N0100001N1+03601+01331099811ADDAA124000091AY141061AY241061GF107991001001999999001021IA1019KA1120M+04101KA2180N+02201MA1999999094461MD1110061+0071MW1051REMSYN130AAXX  11001 76393 31960 70903 10360 20133 39446 49981 51006 70544 80002 92350 333 10410 20220 30/// 50931 56005 58007 70000 87070;
0208763930999992008041103004+25733-100300FM-12+051599999V0201601N001010720019N0120001N1+03241+01421099901ADDGA1061+072001001GF106991001001999999001041IA1019MA1999999094581MD1310121+0211REMSYN100AAXX  11031 76393 32962 61601 10324 20142 39458 49990 53012 86004 90255 333 30/// 56005 58021 86074;EQDQ01+000062SCOTLC
0244763930999992008041106004+25733-100300FM-12+051599999V0200301N001019999999N0120001N1+02881+01521100021ADDGF106991001001999999001041GJ105889IA1019KA1240M+04101KA2240N+02201MA1999999094661MD1410001+0211REMSYN118AAXX  11061 76393 32962 60301 10288 20152 39466 40002 54008 86004 90555 333 10410 20220 30/// 55098 56005 58021 86074;EQDQ01+000062SCOTLC
0208763930999992008041109004+25733-100300FM-12+051599999V0200101N001012200019N0130001N1+02481+01841100161ADDGA1041+072001001GF104991001001999999001041IA1019MA1999999094741MD1410001+0281REMSYN100AAXX  11091 76393 32963 40101 10248 20184 39474 40016 54008 84004 90855 333 30/// 56005 58028 84074;EQDQ01+000042SCOTLC
0263763930999992008041112004+25733-100300FM-12+051599999V0200101N001012200019N0120001N1+02501+01881100171ADDAA124000091GA1041+072001001GF104991001001999999001041IA1019KA1240M+04101KA2120N+02301MA1999999094751MD1410001+0141REMSYN118AAXX  11121 76393 32962 40101 10250 20188 39475 40017 54001 84004 91155 333 10410 20230 30220 56005 58014 70000 84074;EQDQ01+000042SCOTLC
0189763930999992008041115004+25733-100300FM-12+051599999V0203201N002012200019N0150001N1+02581+00681101051ADDGA1031+060001001GF103991001001999999001041IA1019MA1999999095501MD1210481+0801REMSYN100AAXX  11151 76393 31965 33202 10258 20068 39550 40105 52048 80004 91450 333 30/// 56005 58080 83070;
0227763930999992008041118004+25733-100300FM-12+051599999V0203601N002010600019N0150001N1+03001+00221101111ADDGA1051+060001001GF105991001001999999001041IA1019KA1120M+03101KA2240N+02301MA1999999095551MD1010051+0911REMSYN112AAXX  11181 76393 31965 53602 10300 20022 39555 40111 50005 80004 91750 333 10310 20230 30/// 56005 58091 85070;
0189763930999992008041121004+25733-100300FM-12+051599999V0200101N001010600019N0150001N1+03101+00491100871ADDGA1051+060001001GF105991001001999999001041IA1019MA1999999095341MD1710211+0831REMSYN100AAXX  11211 76393 31965 50101 10310 20049 39534 40087 57021 80004 92050 333 30/// 56050 58083 85070;
0234763930999992008041200004+25733-100300FM-12+051599999V0200901N001019999999N0130001N1+03061-00151100791ADDAA124000091GF105991001001999999021999IA1019KA1120M+03331KA2180N+02301MA1999999095281MD1310061+0821REMSYN124AAXX  12001 76393 31963 50901 10306 21015 39528 40079 53006 8002/ 92350 333 10333 20230 30/// 51061 5607/ 58082 70000 85456;
0217763930999992008041203004+25733-100300FM-12+051599999V0201201N001010600019N0080001N1+02771+00171101001ADDAY141031AY241031GA1051+060001001GF105991001001999999001041IA1019MA1999999095501MD1210221+0921MW1051REMSYN106AAXX  12031 76393 31958 51201 10277 20017 39550 40100 52022 70544 80004 90255 333 30/// 56005 58092 85070;
0253763930999992008041206004+25733-100300FM-12+051599999V0201201N003012200019N0060001N1+02451+00951101121ADDAY141061AY241061GF103991011051012501001011GJ104989IA1019KA1240M+03331KA2240N+02301MA1999999095611MD1110111+0951MW1051REMSYN124AAXX  12061 76393 31656 31203 10245 20095 39561 40112 51011 70544 81501 90555 333 10333 20230 30/// 55083 56405 58095 81650;
0195763930999992008041209004+25733-100300FM-12+051599999V0201001N001012200019N0060001N1+02171+01081101251ADDAY141031AY241031GF101991001001999999001011IA1019MA1999999095701MD1210091+0961MW1051REMSYN100AAXX  12091 76393 31956 11001 10217 20108 39570 40125 52009 70544 80001 90850 333 30/// 56005 58096;
0272763930999992008041212004+25733-100300FM-12+051599999V0201001N002012200019N0060001N1+02061+01571101431ADDAA124000091AY141061AY221061GA1041+004801061GF104991041051004501001001IA1019KA1240M+03331KA2120N+02001MA1999999095821MD1210121+0751MW1051REMSYN124AAXX  12121 76393 31456 41002 10206 20157 39582 40143 52012 70542 84500 91155 333 10333 20200 30195 56300 58075 70000 84616;
0223763930999992008041215004+25733-100300FM-12+051599999V0200401N00101007501CN0060001N1+02081+01161101861ADDAY141031AY231031GA1021+009001061GF107991071071008001999999IA1019MA1999999096191MD1210371-0691MW1051REMSYN112AAXX  12151 76393 31556 70401 10208 20116 39619 40186 52037 70543 877// 91445 333 30/// 563// 59069 82630 85731;
0255763930999992008041218004+25733-100300FM-12+051599999V0201701N002010099019N0060001N1+02301+01321101941ADDAY141061AY231061GA1081+009901061GF108991081051008001999999IA1019KA1120M+02421KA2240N+02001MA1999999096261MD1010071+0711MW1051REMSYN118AAXX  12181 76393 31556 81702 10230 20132 39626 40194 50007 70543 885// 91740 333 10242 20200 30/// 563// 58071 88633;
0223763930999992008041221004+25733-100300FM-12+051599999V0201901N00201012001CN0080001N1+02401+01091101821ADDAY141031AY231031GA1011+012901081GF108991081051012501999999IA1019MA1999999096141MD1610121+0801MW1051REMSYN112AAXX  12211 76393 31658 81902 10240 20109 39614 40182 56012 70543 885// 92040 333 30/// 563// 58080 81843 87644;
0278763930999992008041300004+25733-100300FM-12+051599999V0201401N001010360019N0100001N1+02441+00931101711ADDAA124000091AY141061AY241061GA1011+014701081GF106991021031017501051001KA1120M+02621KA2180N+02001MA1999999096061MD1610081+0781MW1051REMSYN136AAXX  13001 76393 31760 61401 10244 20093 39606 40171 56008 70544 82350 865// 333 10262 20200 30/// 50621 563// 58078 70000 81849 85650;
0189763930999992008041303004+25733-100300FM-12+051599999V0202101N001012200019N0160001N1+02281+00841101861ADDGA1041+024001031GF104991041001022501041001IA1019MA1999999096201MD1310141+0701REMSYN100AAXX  13031 76393 32866 42101 10228 20084 39620 40186 53014 84040 90255 333 30/// 56050 58070 84358;
0244763930999992008041306004+25733-100300FM-12+051599999V0200901N002012200019N0180001N1+01921+00751102041ADDGF102991001001999999001041GJ100009IA1019KA1240M+02621KA2240N+01901MA1999999096371MD1210171+0761REMSYN118AAXX  13061 76393 32968 20902 10192 20075 39637 40204 52017 82004 90555 333 10262 20190 30/// 55000 56005 58076 82074;EQDQ01+000022SCOTLC
0208763930999992008041309004+25733-100300FM-12+051599999V0201301N001012200019N0180001N1+01701+00771102091ADDGA1021+072001001GF102991001001999999001041IA1019MA1999999096391MD1410001+0691REMSYN100AAXX  13091 76393 32968 21301 10170 20077 39639 40209 54002 82004 90855 333 30/// 56005 58069 82074;EQDQ01+000022SCOTLC
0263763930999992008041312004+25733-100300FM-12+051599999V0200901N001012200019N0180001N1+01601+00771102241ADDAA124000091GA1021+072001001GF102991001001999999001041IA1019KA1240M+02621KA2120N+01501MA1999999096501MD1310111+0681REMSYN118AAXX  13121 76393 32968 20901 10160 20077 39650 40224 53011 82004 91155 333 10262 20150 30128 56005 58068 70000 82074;EQDQ01+000022SCOTLC
0214763930999992008041315004+25733-100300FM-12+051599999V0200901N003012200019N0220001N1+01961+00621102591ADDGA1011+018001031GF103991999001999999041041IA1019MA1999999096801MD1210421+0611REMSYN106AAXX  13151 76393 31972 30903 10196 20062 39680 40259 52042 80044 91450 333 30/// 56057 58061 81356 82070;EQDQ01+000002SCOTLC
0227763930999992008041318004+25733-100300FM-12+051599999V0200801N003012200019N0220001N1+02361+00771102551ADDGA1021+060001001GF102991001001999999001041IA1019KA1120M+02501KA2240N+00771MA1999999096751MD1710051+0491REMSYN112AAXX  13181 76393 31972 20803 10236 20077 39675 40255 57005 80004 91750 333 10250 20077 30/// 56007 58049 82070;
0214763930999992008041321004+25733-100300FM-12+051599999V0201201N002012200019N0240001N1+02801+00721102171ADDGA1021+018001031GF103991999001999999041021IA1019MA1999999096451MD1710301-0311REMSYN106AAXX  13211 76393 31974 31202 10280 20072 39645 40217 57030 80042 92050 333 30/// 56057 59031 82356 81070;EQDQ01+000002SCOTLC
0253763930999992008041400004+25733-100300FM-12+051599999V0201101N001012200019N0240001N1+02701+00711101951ADDAA124000091GF101991999001999999041001IA1019KA1120M+02871KA2180N+01501MA1999999096291MD1710161+0231REMSYN124AAXX  14001 76393 31974 11101 10270 20071 39629 40195 57016 80040 92350 333 10287 20150 30/// 50631 56050 58023 70000 81356;EQDQ01+000002SCOTLC
0167763930999992008041403004+25733-100300FM-12+051599999V0201201N001012200019N0120001N1+02361+00561102111ADDGF101991011001022501031001IA1019MA1999999096471MD1210181+0271REMSYN094AAXX  14031 76393 32862 11201 10236 20056 39647 40211 52018 81030 90255 333 30/// 56050 58027;
0225763930999992008041406004+25733-100300FM-12+051599999V0209999C000012200019N0120001N1+02091+00671102251ADDGF103991031001022501051001GJ106609IA1019KA1240M+02871KA2240N+01501MA1999999096601MD1210131+0231REMSYN118AAXX  14061 76393 32862 30000 10209 20067 39660 40225 52013 83050 90555 333 10287 20150 30/// 55110 56050 58023 83356;
0167763930999992008041409004+25733-100300FM-12+051599999V0209999C000012200019N0120001N1+01861+00851102131ADDGF102991001001999999001011IA1019MA1999999096461MD1710141+0071REMSYN094AAXX  14091 76393 32962 20000 10186 20085 39646 40213 57014 80001 90850 333 30/// 56005 58007;
0241763930999992008041412004+25733-100300FM-12+051599999V0209999C000012200019N0140001N1+01681+00661102301ADDAA124000091GF103991011001022501031091IA1019KA1240M+02871KA2120N+01601MA1999999096571MD1210111+0071REMSYN112AAXX  14121 76393 32864 30000 10168 20066 39657 40230 52011 81039 91155 333 10287 20160 30143 56055 58007 70000;EQDQ01  00002PRCP24
0183763930999992008041415004+25733-100300FM-12+051599999V0200601N002012200019N0140001N1+01981+00911102461ADDGA1001+999999999GF100991001001999999001001IA1019MA1999999096701MD1210131-0101MW1051REMSYN088AAXX  14151 76393 31964 00602 10198 20091 39670 40246 52013 705// 91450 333 30/// 59010;
0245763930999992008041418004+25733-100300FM-12+051599999V0201201N003012200019N0140001N1+02441+00891102381ADDGA1011+015001081GF102991011011017501031001IA1019KA1120M+02621KA2240N+01601MA1999999096621MD1710081-0131MW1051REMSYN124AAXX  14181 76393 31764 21203 10244 20089 39662 40238 57008 705// 81130 91750 333 10262 20160 30/// 56550 59013 81850 81360;
0189763930999992008041421004+25733-100300FM-12+051599999V0200901N002012200019N0160001N1+02741+00921101961ADDGA1031+018001081GF103991031011017501001001IA1019MA1999999096271MD1710351-0181REMSYN100AAXX  14211 76393 32766 30902 10274 20092 39627 40196 57035 83100 92050 333 30/// 56300 59018 83856;
0256763930999992008041500004+25733-100300FM-12+051599999V0200901N001012200019N0160001N1+02721+00741101731ADDAA124000091GA1011+021001081GF102991011011017501041001IA1019KA1120M+02981KA2180N+01601MA1999999096101MD1710171-0191REMSYN130AAXX  15001 76393 32766 20901 10272 20074 39610 40173 57017 81140 92350 333 10298 20160 30/// 50691 5655/ 59019 70000 81857 81360;
0208763930999992008041503004+25733-100300FM-12+051599999V0200901N003012200019N0190001N1+02381+00711101801ADDGA1011+072001001GF101991001001999999001041IA1019MA1999999096191MD1410001-0281REMSYN100AAXX  15031 76393 32969 10903 10238 20071 39619 40180 54009 81004 90255 333 30/// 56005 59028 81074;EQDQ01+000012SCOTLC
0247763930999992008041506004+25733-100300FM-12+051599999V0200901N002012200019N0190001N1+01881+01041101991ADDGA1011+024001031GF102991021001022501041031GJ106789IA1019KA1240M+02981KA2240N+01601MA1999999096351MD1210161-0251REMSYN124AAXX  15061 76393 32869 20902 10188 20104 39635 40199 52016 82043 90555 333 10298 20160 30/// 55113 56055 59025 81358 81074;
0189763930999992008041509004+25733-100300FM-12+051599999V0201201N003010045019N0160001N1+01701+01241101961ADDGA1081+004501061GF108991081051004501999999IA1019MA1999999096281MD1410001-0181REMSYN100AAXX  15091 76393 32466 81203 10170 20124 39628 40196 54007 885// 90855 333 30/// 56399 59018 88615;
0244763930999992008041512004+25733-100300FM-12+051599999V0200801N003010048019N0160001N1+01681+01181101981ADDAA124000091GA1071+004801061GF107991071051004501999999IA1019KA1240M+02981KA2120N+01601MA1999999096251MD1410001-0321REMSYN118AAXX  15121 76393 32466 70803 10168 20118 39625 40198 54003 875// 91155 333 10298 20160 30150 56399 59032 70000 87616;
0189763930999992008041515004+25733-100300FM-12+051599999V0200601N002010057019N0180001N1+01881+01301102091ADDGA1071+005701061GF107991071041004501999999IA1019MA1999999096321MD1010071-0381REMSYN100AAXX  15151 76393 31468 70602 10188 20130 39632 40209 50007 874// 91450 333 30/// 563// 59038 87619;
0233763930999992008041518004+25733-100300FM-12+051599999V0201001N002012200019N0220001N1+02281+01271102031ADDGA1031+009901061GF104991031041012501001041IA1019KA1120M+02421KA2240N+01601MA1999999096271MD1510051-0351REMSYN118AAXX  15181 76393 31672 41002 10228 20127 39627 40203 55005 83404 91750 333 10242 20160 30/// 56307 59035 83633 81070;
0189763930999992008041521004+25733-100300FM-12+051599999V0201501N002012200019N0220001N1+02781+01541101581ADDGA1021+012001061GF102991021041012501001001IA1019MA1999999095901MD1710371-0371REMSYN100AAXX  15211 76393 31672 21502 10278 20154 39590 40158 57037 82400 92050 333 30/// 56399 59037 82640;
0234763930999992008041600004+25733-100300FM-12+051599999V0201301N005012200019N0230001N1+02701+01291101371ADDAA124000091GF101991011041012501001001IA1019KA1120M+02901KA2180N+01601MA1999999095751MD1610151-0311REMSYN124AAXX  16001 76393 31673 11305 10270 20129 39575 40137 56015 81400 92350 333 10290 20160 30/// 50631 56399 59031 70000 81648;
0171763930999992008041603004+25733-100300FM-12+051599999V0201201N003012200019N0120001N1+02341+01211101401ADDGA1001+999999999GF100991001001999999001001IA1019MA1999999095811MD1210061-0381REMSYN082AAXX  16031 76393 32962 01203 10234 20121 39581 40140 52006 90255 333 30/// 59038;
0223763930999992008041606004+25733-100300FM-12+051599999V0201001N002012200019N0100001N1+01921+01351101431ADDGA1001+999999999GF100991001001999999001001GJ103969IA1019KA1240M+02901KA2240N+01601MA1999999095821MD1010011-0531REMSYN100AAXX  16061 76393 32960 01002 10192 20135 39582 40143 50001 90555 333 10290 20160 30/// 55066 59053;
0208763930999992008041609004+25733-100300FM-12+051599999V0201201N002012200019N0100001N1+01681+01341101301ADDGA1011+003301061GF101991011999004501051001IA1019MA1999999095661MD1710161-0621REMSYN100AAXX  16091 76393 32460 11202 10168 20134 39566 40130 57016 81050 90850 333 30/// 56300 59062 81611;EQDQ01+000002SCOLCG
0244763930999992008041612004+25733-100300FM-12+051599999V0209999C000012200019N0120001N1+01611+01351101291ADDAA124000091GA1021+002401061GF102991021051002501001001IA1019KA1240M+02901KA2120N+01501MA1999999095601MD1710061-0651REMSYN118AAXX  16121 76393 32362 20000 10161 20135 39560 40129 57006 82500 91155 333 10290 20150 30147 56300 59065 70000 82608;
0217763930999992008041615004+25733-100300FM-12+051599999V0200201N001010048019N0020001N1+01901+01411101341ADDAY141031AY231031GA1081+004801081GF108991081061004501999999IA1019MA1999999095621MD1210021-0701MW1051REMSYN106AAXX  16151 76393 31420 80201 10190 20141 39562 40134 52002 70543 886// 91450 333 30/// 563// 59070 88816;
0261763930999992008041618004+25733-100300FM-12+051599999V0200901N001019999999N0030001N1+02401+01511101301ADDAY141061AY241061GA1011+030001031GF105991011001999999031021IA1019KA1120M+02581KA2240N+01501MA1999999095591MD1710031-0681MW1051REMSYN124AAXX  16181 76393 31930 50901 10240 20151 39559 40130 57003 70544 81032 91750 333 10258 20150 30/// 56055 59068 81360 84070;
0223763930999992008041621004+25733-100300FM-12+051599999V0200901N001019999999N0080001N1+03101+01471100831ADDAY141031AY241031GA1031+030001031GF105991031001999999031021IA1019MA1999999095211MD1710381-0691MW1051REMSYN112AAXX  16211 76393 31958 50901 10310 20147 39521 40083 57038 70544 83032 92040 333 30/// 56055 59069 83360 82070;
0234763930999992008041700004+25733-100300FM-12+051599999V0201201N004019999999N0100001N1+02941+01451100651ADDAA124000091GF106991061001999999051001KA1120M+03201KA2180N+01501MA1999999095091MD1710121-0661MW1051REMSYN124AAXX  17001 76393 31960 61204 10294 20145 39509 40065 57012 705// 86050 92330 333 10320 20150 50581 56050 59066 70000 86360;
0223763930999992008041703004+25733-100300FM-12+051599999V0201101N001019999999N0100001N1+02501+01411100751ADDAY141031AY221031GA1021+027001031GF105991021001999999011031IA1019MA1999999095221MD1210131-0591MW1041REMSYN112AAXX  17031 76393 31960 51101 10250 20141 39522 40075 52013 70442 82013 90250 333 30/// 56055 59059 82359 83075;
0253763930999992008041706004+25733-100300FM-12+051599999V0200901N001012200019N0080001N1+02141+01421100831ADDAY141061AY201061GF103991001001999999001011GJ103849IA1019KA1240M+03201KA2240N+01501MA1999999095301MD1210081-0521MW1041REMSYN124AAXX  17061 76393 31958 30901 10214 20142 39530 40083 52008 70440 80001 90555 333 10320 20150 30/// 55064 56005 59052 83075;
0223763930999992008041709004+25733-100300FM-12+051599999V0200901N00101036001CN0060001N1+01861+01411100731ADDAY141031AY211031GA1031+004501061GF106991031041004501031001IA1019MA1999999095171MD1710131-0491MW1041REMSYN112AAXX  17091 76393 31456 60901 10186 20141 39517 40073 57013 70441 83430 90850 333 30/// 56350 59049 83615 83359;
0272763930999992008041712004+25733-100300FM-12+051599999V0209999C000012200019N0040001N1+01721+01431100801ADDAA124000091AY141061AY211061GA1041+003001061GF104991041051002501001001IA1019KA1240M+03201KA2120N+01601MA1999999095171MD1410001-0431MW1051REMSYN124AAXX  17121 76393 31340 40000 10172 20143 39517 40080 54000 70541 84500 91150 333 10320 20160 30148 56300 59043 70000 84610;
0189763930999992008041715004+25733-100300FM-12+051599999V0203401N001012200019N0100001N1+02161+01371100951ADDGA1011+007801061GF101991011041008001001001IA1019MA1999999095281MD1010111-0341REMSYN100AAXX  17151 76393 31560 13401 10216 20137 39528 40095 50011 81400 91450 333 30/// 56399 59034 81626;
0233763930999992008041718004+25733-100300FM-12+051599999V0200801N00201036001CN0180001N1+02681+01671100911ADDGA1011+009901011GF105991011041012501041001IA1019KA1120M+02851KA2240N+01601MA1999999095261MD1810031-0371REMSYN118AAXX  17181 76393 31668 50802 10268 20167 39526 40091 58003 81440 91750 333 10285 20160 30/// 56359 59037 81133 81356;
0195763930999992008041721004+25733-100300FM-12+051599999V0201001N003012200019N0200001N1+03321+01581100531ADDGA1011+015001061GF102991011041017501041001IA1019MA1999999094951MD1710301-0641REMSYN106AAXX  17211 76393 31770 21003 10332 20158 39495 40053 57030 81440 92050 333 30/// 56359 59064 81650 81356;
0227763930999992008041800004+25733-100300FM-12+051599999V0201001N002012200019N0250001N1+03441+01211100301ADDGA1001+999999999GF100991001001999999001001IA1019KA1120M+03541KA2180N+01601MA1999999094801MD1710151-0291REMSYN112AAXX  18001 76393 31975 01002 10344 20121 39480 40030 57015 92350 333 10354 20160 30/// 50711 56999 59029 70000;
0171763930999992008041803004+25733-100300FM-12+051599999V0201201N001012200019N0140001N1+02961+01201100341ADDGA1001+999999999GF100991001001999999001001IA1019MA1999999094901MD1210101-0321REMSYN082AAXX  18031 76393 32964 01201 10296 20120 39490 40034 52010 90255 333 30/// 59032;
0223763930999992008041806004+25733-100300FM-12+051599999V0201001N001012200019N0140001N1+02311+01701100531ADDGA1001+999999999GF100991001001999999001001GJ106489IA1019KA1240M+03541KA2240N+01601MA1999999095071MD1210171-0231REMSYN100AAXX  18061 76393 32964 01001 10231 20170 39507 40053 52017 90555 333 10354 20160 30/// 55108 59023;
0171763930999992008041809004+25733-100300FM-12+051599999V0203601N002012200019N0120001N1+02111+01611100711ADDGA1001+999999999GF100991001001999999001001IA1019MA1999999095201MD1210131+0031REMSYN082AAXX  18091 76393 32962 03602 10211 20161 39520 40071 52013 90850 333 30/// 58003;
0244763930999992008041812004+25733-100300FM-12+051599999V0203601N001010111019N0120001N1+01951+00831101531ADDAA124000091GA1081+011101061GF108991081051012501999999IA1019KA1240M+03541KA2120N+01921MA1999999095921MD1210721+0751REMSYN118AAXX  18121 76393 32662 83601 10195 20083 39592 40153 52072 885// 91158 333 10354 20192 30192 568// 58075 70000 88637;
0208763930999992008041815004+25733-100300FM-12+051599999V0202901N003010180019N0220001N1+02081-00031101881ADDGA1061+018001031GF106991999001022501031001IA1019MA1999999096201MD1210281+0921REMSYN100AAXX  18151 76393 31872 62903 10208 21003 39620 40188 52028 84030 91450 333 30/// 56059 58092 86356;EQDQ01+000042SCOTLC
0227763930999992008041818004+25733-100300FM-12+051599999V0202901N001012200019N0240001N1+02581-00121101891ADDGA1011+018001031GF101991011001999999031001IA1019KA1120M+02671KA2240N+01921MA1999999096201MD1410001+0951REMSYN112AAXX  18181 76393 31974 12901 10258 21012 39620 40189 54000 81030 91750 333 10267 20192 30/// 56959 58095 81356;
0171763930999992008041821004+25733-100300FM-12+051599999V0200701N001012200019N0250001N1+02841+00081101601ADDGA1001+999999999GF100991001001999999001001IA1019MA1999999095961MD1710241+1011REMSYN082AAXX  18211 76393 31975 00701 10284 20008 39596 40160 57024 92050 333 30/// 58101;
0251763930999992008041900004+25733-100300FM-12+051599999V0201101N002012200019N0250001N1+02861+00501101391ADDAA124000091GA1001+999999999GF100991001001999999001001IA1019KA1120M+03061KA2180N+01921MA1999999095801MD1610161+1001REMSYN106AAXX  19001 76393 31975 01102 10286 20050 39580 40139 56016 92350 333 10306 20192 30/// 50891 58100 70000;EQDQ01  00002PRCP24
0171763930999992008041903004+25733-100300FM-12+051599999V0200901N006012200019N0190001N1+02341+00211101471ADDGA1001+999999999GF100991001001999999001001IA1019MA1999999095891MD1410001+0991REMSYN082AAXX  19031 76393 32969 00906 10234 20021 39589 40147 54009 90255 333 30/// 58099;
0223763930999992008041906004+25733-100300FM-12+051599999V0201301N001012200019N0190001N1+02101+00261101531ADDGA1001+999999999GF100991001001999999001001GJ105709IA1019KA1240M+03061KA2240N+01921MA1999999095931MD1410001+0861REMSYN100AAXX  19061 76393 32969 01301 10210 20026 39593 40153 54004 90555 333 10306 20192 30/// 55095 58086;
0171763930999992008041909004+25733-100300FM-12+051599999V0209999C000012200019N0190001N1+01961+00361101431ADDGA1001+999999999GF100991001001999999001001IA1019MA1999999095811MD1610121+0611REMSYN082AAXX  19091 76393 32969 00000 10196 20036 39581 40143 56012 90855 333 30/// 58061;
0245763930999992008041912004+25733-100300FM-12+051599999V0200901N001012200019N0190001N1+01561+00451101531ADDAA124000091GA1001+999999999GF100991001001999999001001IA1019KA1240M+03061KA2120N+01451MA1999999095851MD1410001-0071REMSYN100AAXX  19121 76393 32969 00901 10156 20045 39585 40153 54004 91155 333 10306 20145 30140 59007 70000;EQDQ01  00002PRCP24
0171763930999992008041915004+25733-100300FM-12+051599999V0209999C000012200019N0220001N1+02021+00611101781ADDGA1001+999999999GF100991001001999999001001IA1019MA1999999096061MD1210211-0141REMSYN082AAXX  19151 76393 31972 00000 10202 20061 39606 40178 52021 91450 333 30/// 59014;
0209763930999992008041918004+25733-100300FM-12+051599999V0200901N003012200019N0250001N1+02761+00771101621ADDGA1001+999999999GF100991001001999999001001IA1019KA1120M+02931KA2240N+01451MA1999999095921MD1710141-0281REMSYN094AAXX  19181 76393 31975 00903 10276 20077 39592 40162 57014 91750 333 10293 20145 30/// 59028;
0171763930999992008041921004+25733-100300FM-12+051599999V0201201N002012200019N0250001N1+03101+00811101251ADDGA1001+999999999GF100991001001999999001001IA1019MA1999999095621MD1710301-0341REMSYN082AAXX  19211 76393 31975 01202 10310 20081 39562 40125 57030 92050 333 30/// 59034;
0234763930999992008042000004+25733-100300FM-12+051599999V0201201N002012200019N0240001N1+03141+00561100891ADDAA124000091GF101991011001999999041001IA1019KA1120M+03281KA2180N+01451MA1999999095351MD1710271-0451REMSYN124AAXX  20001 76393 31974 11202 10314 20056 39535 40089 57027 81040 92350 333 10328 20145 30/// 50841 56959 59045 70000 81356;
0167763930999992008042003004+25733-100300FM-12+051599999V0201201N005012200019N0120001N1+02621+01301100921ADDGF102991001001999999001011IA1019MA1999999095421MD1210071-0401REMSYN094AAXX  20031 76393 32962 21205 10262 20130 39542 40092 52007 80001 90255 333 30/// 56005 59040;
0247763930999992008042006004+25733-100300FM-12+051599999V0201101N003012200019N0120001N1+02181+01761100911ADDGA1011+004201081GF102991021081004501001001GJ106969IA1019KA1240M+03281KA2240N+01451MA1999999095401MD1710021-0531REMSYN124AAXX  20061 76393 32462 21103 10218 20176 39540 40091 57002 82800 90555 333 10328 20145 30/// 55116 56300 59053 81814 81622;
0189763930999992008042009004+25733-100300FM-12+051599999V0209999C000010030019N0120001N1+02041+01741100841ADDGA1071+003001061GF107991071051004501999999IA1019MA1999999095291MD1710111-0521REMSYN100AAXX  20091 76393 32462 70000 10204 20174 39529 40084 57011 875// 90850 333 30/// 563// 59052 87610;
0272763930999992008042012004+25733-100300FM-12+051599999V0209999C000010030019N0080001N1+02061+01761100941ADDAA124000091AY141061AY221061GA1081+003001061GF108991081051004501999999IA1019KA1240M+03281KA2120N+02001MA1999999095331MD1210041-0521MW1051REMSYN124AAXX  20121 76393 31458 80000 10206 20176 39533 40094 52004 70542 885// 91155 333 10328 20200 30196 568// 59052 70000 88610;
0245763930999992008042015004+25733-100300FM-12+051599999V0209999C00001036001CN0030001N1+02421+01701100991ADDAY141031AY241031GA1011+007201081GA2031+007501061GF106991041041008001041001IA1019MA1999999095361MD1510031-0701MW1051REMSYN118AAXX  20151 76393 31530 60000 10242 20170 39536 40099 55003 70544 84440 91440 333 30/// 56350 59070 81824 83625 82060;
0255763930999992008042018004+25733-100300FM-12+051599999V0201101N001010600019N0050001N1+02841+01651100881ADDAY141061AY241061GA1071+060001001GF107991001001999999001091IA1019KA1120M+02901KA2240N+01651MA1999999095271MD1710091-0651MW1051REMSYN118AAXX  20181 76393 31950 71101 10284 20165 39527 40088 57009 70544 80009 91740 333 10290 20165 30/// 56005 59065 87070;
0223763930999992008042021004+25733-100300FM-12+051599999V0201201N00301036001CN0060001N1+03421+01731100471ADDAY141031AY241031GA1031+015001081GF106991031021017501041001IA1019MA1999999094931MD1710341-0691MW1051REMSYN112AAXX  20211 76393 31756 61203 10342 20173 39493 40047 57034 70544 83240 92050 333 30/// 56350 59069 83850 83360;
0262763930999992008042100004+25733-100300FM-12+051599999V0201801N001012200019N0100001N1+03261+01531100221ADDAA124000091AY141061AY241061GF104991041021017501001001IA1019KA1120M+03551KA2180N+02001MA1999999094761MD1010171-0591MW1051REMSYN130AAXX  21001 76393 31760 41801 10326 20153 39476 40022 50017 70544 84200 92350 333 10355 20200 30/// 50611 563// 59059 70000 84853;
0208763930999992008042103004+25733-100300FM-12+051599999V0200901N003012200019N0180001N1+02981+01791100391ADDGA1011+072001001GF101991001001999999001041IA1019MA1999999094901MD1210141-0521REMSYN100AAXX  21031 76393 32968 10903 10298 20179 39490 40039 52014 81004 90255 333 30/// 56005 59052 81074;EQDQ01+000012SCOTLC
0247763930999992008042106004+25733-100300FM-12+051599999V0200801N003012200019N0180001N1+02381+01851100551ADDGA1021+024001031GF104991021001022501031041GJ104449IA1019KA1240M+03551KA2240N+02001MA1999999095051MD1210151-0351REMSYN124AAXX  21061 76393 32868 40803 10238 20185 39505 40055 52015 82034 90555 333 10355 20200 30/// 55074 56055 59035 82358 82074;
0214763930999992008042109004+25733-100300FM-12+051599999V0209999C000012200019N0180001N1+02241+01831100541ADDGA1021+024001081GF104991021999022501031041IA1019MA1999999094991MD1410001-0411REMSYN106AAXX  21091 76393 32868 40000 10224 20183 39499 40054 54006 82034 90855 333 30/// 56055 59041 82858 82074;EQDQ01    003SCOLCG
0263763930999992008042112004+25733-100300FM-12+051599999V0209999C000012200019N0100001N1+02141+01781100781ADDAA124000091GA1021+072001001GF102991001001999999001041IA1019KA1240M+03551KA2120N+02101MA1999999095171MD1210181-0161REMSYN118AAXX  21121 76393 32960 20000 10214 20178 39517 40078 52018 82004 91155 333 10355 20210 30190 56005 59016 70000 82074;EQDQ01+000022SCOTLC
0171763930999992008042115004+25733-100300FM-12+051599999V0209999C000012200019N0150001N1+02521+01951100781ADDGA1001+999999999GF100991001001999999001001IA1019MA1999999095241MD1210071+0121REMSYN082AAXX  21151 76393 31965 00000 10252 20195 39524 40078 52007 91450 333 30/// 58012;
0227763930999992008042118004+25733-100300FM-12+051599999V0200901N002012200019N0180001N1+03241+01971100831ADDGA1011+012601061GF101991011041012501001001IA1019KA1120M+03351KA2240N+02101MA1999999095231MD1810011-0041REMSYN112AAXX  21181 76393 31668 10902 10324 20197 39523 40083 58001 81400 91750 333 10335 20210 30/// 56399 59004 81642;
0171763930999992008042121004+25733-100300FM-12+051599999V0200901N002012200019N0200001N1+03661+01921100551ADDGA1001+999999999GF100991001001999999001001IA1019MA1999999095051MD1710181+0121REMSYN082AAXX  21211 76393 31970 00902 10366 20192 39505 40055 57018 92050 333 30/// 58012;
0256763930999992008042200004+25733-100300FM-12+051599999V0201201N003012200019N0220001N1+03581+01771100431ADDAA124000091GA1011+015001061GF102991011041017501041001IA1019KA1120M+03751KA2180N+02101MA1999999095001MD1210051+0241REMSYN130AAXX  22001 76393 31772 21203 10358 20177 39500 40043 52005 81440 92350 333 10375 20210 30/// 50691 56359 58024 70000 81650 81356;
0217763930999992008042203004+25733-100300FM-12+051599999V0200901N002012200019N0060001N1+02971+02071100611ADDAY141031AY241031GA1011+009001061GF101991011051008001001001IA1019MA1999999095211MD1210211+0311MW1051REMSYN106AAXX  22031 76393 31556 10902 10297 20207 39521 40061 52021 70544 81500 90255 333 30/// 56300 58031 81630;
0253763930999992008042206004+25733-100300FM-12+051599999V0201101N001012200019N0050001N1+02561+02131100711ADDAY141061AY241061GF103991031001022501051001GJ106729IA1019KA1240M+03751KA2240N+02101MA1999999095281MD1010071+0231MW1051REMSYN124AAXX  22061 76393 31850 31101 10256 20213 39528 40071 50007 70544 83050 90555 333 10375 20210 30/// 55112 56050 58023 53356;
0217763930999992008042209004+25733-100300FM-12+051599999V0200901N001012200019N0040001N1+02381+02131100681ADDAY141031AY241031GA1041+002401061GF105991041051002501001011IA1019MA1999999095211MD1710071+0221MW1051REMSYN106AAXX  22091 76393 31340 50901 10238 20213 39521 40068 57007 70544 84501 90850 333 30/// 56405 58022 84608;
0272763930999992008042212004+25733-100300FM-12+051599999V0201001N001010027019N0040001N1+02421+02141100841ADDAA124000091AY141061AY221061GA1081+002701061GF108991081051002501999999IA1019KA1240M+03751KA2120N+02301MA1999999095301MD1210091+0131MW1051REMSYN124AAXX  22121 76393 31340 81001 10242 20214 39530 40084 52009 70542 885// 91155 333 10375 20230 30224 563// 58013 70000 88609;
0217763930999992008042215004+25733-100300FM-12+051599999V02099999999990045019N0070001N1+02621+02171100921ADDAY141031AY241031GA1071+004501081GF107991071051004501999999IA1019MA1999999095351MD1210051-0111MW1051REMSYN106AAXX  22151 76393 31457 709// 10262 20217 39535 40092 52005 70544 875// 91440 333 30/// 563// 59011 87815;
0255763930999992008042218004+25733-100300FM-12+051599999V02099999999992200019N0020001N1+03001+02111100891ADDAY141061AY241061GA1021+008701081GF102991021021008001001001IA1019KA1120M+03181KA2240N+02301MA1999999095231MD1010021+0101MW1051REMSYN118AAXX  22181 76393 31520 209// 10300 20211 39523 40089 50002 70544 82200 91750 333 10318 20230 30/// 563// 58010 82829;
0223763930999992008042221004+25733-100300FM-12+051599999V0209999999999036001CN0060001N1+03461+01841100631ADDAY141031AY241031GA1041+015001081GF106991041021017501031001IA1019MA1999999095131MD1710201+0081MW1051REMSYN112AAXX  22211 76393 31756 609// 10346 20184 39513 40063 57020 70544 84230 92040 333 30/// 56350 58008 84850 82360;
0306763930999992008042300004+25733-100300FM-12+051599999V02099999999990360019N0050001N1+03241+01801100541ADDAA124000091AY141061AY241061GA1021+014701081GA2021+015001061GF106991041021017501031999IA1019KA1120M+03671KA2180N+02301MA1999999095091MD1010041+0091MW1051REMSYN142AAXX  23001 76393 31750 611// 10324 20180 39509 40054 50004 70544 8423/ 92350 333 10367 20230 30/// 50681 5635/ 58009 70000 82849 82650 82060;
0247763930999992008042306004+25733-100300FM-12+051599999V0200901N002012200019N0120001N1+02561+01961100781ADDGA1031+006001061GF107991031031004501001041GJ104389IA1019KA1240M+03671KA2240N+02301MA1999999095321MD1110101+0041REMSYN124AAXX  23061 76393 32462 70902 10256 20196 39532 40078 51010 83304 90555 333 10367 20230 30/// 55073 56305 58004 83620 84074;
0272763930999992008042312004+25733-100300FM-12+051599999V0201201N001010027019N0080001N1+02301+02041100801ADDAA124000091AY141061AY221061GA1071+002701061GF107991071031002501999999IA1019KA1240M+03671KA2120N+02201MA1999999095261MD1410001-0041MW1051REMSYN124AAXX  23121 76393 31358 71201 10230 20204 39526 40080 54003 70542 873// 91155 333 10367 20220 30218 56399 59004 70000 87609;
0195763930999992008042315004+25733-100300FM-12+051599999V0201101N00101036001CN0100001N1+02521+02101101141ADDGA1041+004201061GF108991041041004501021999IA1019MA1999999095551MD1210291+0201REMSYN106AAXX  23151 76393 31460 81101 10252 20210 39555 40114 52029 8442/ 91450 333 30/// 5635/ 58020 84614 84456;
0233763930999992008042318004+25733-100300FM-12+051599999V0200901N003012200019N0150001N1+03001+02081101081ADDGA1021+009001061GF104991021041008001041001IA1019KA1120M+03101KA2240N+02201MA1999999095501MD1710051+0171REMSYN118AAXX  23181 76393 31565 40903 10300 20208 39550 40108 57005 82440 91750 333 10310 20220 30/// 56359 58017 82630 82356;
0195763930999992008042321004+25733-100300FM-12+051599999V0200901N003012200019N0180001N1+03301+01961100731ADDGA1021+013201061GF104991021041012501041001IA1019MA1999999095201MD1710301+0071REMSYN106AAXX  23211 76393 31668 40903 10330 20196 39520 40073 57030 82440 92050 333 30/// 56359 58007 82644 82356;
0256763930999992008042400004+25733-100300FM-12+051599999V0209999C000010360019N0120001N1+03451+01841100511ADDAA124000091GA1031+015001061GF105991031041017501041001IA1019KA1120M+03451KA2180N+02201MA1999999095051MD1710151-0041REMSYN130AAXX  24001 76393 31762 50000 10345 20184 39505 40051 57015 83440 92350 333 10345 20220 30/// 50691 56359 59004 70000 83650 82356;
0145763930999992008042403004+25733-100300FM-12+051599999V0201001N001019999999N0100001N1+02901+01761999999ADDGF106991999999012501999999REMSYN107AAXX  24031 76393 31660 61001 10290 20176 0250 39516 40060 52011 70441 86400 9 333 30/// 56300 59006 86638;
0275763930999992008042406004+25733-100300FM-12+051599999V0200901N002012200019N0080001N1+02561+01731100711ADDAY141061AY211061GA1021+008401061GF103991021041008001001011GJ104629IA1019KA1240M+03451KA2240N+02201MA1999999095261MD1210101-0061MW1041REMSYN130AAXX  24061 76393 31558 30902 10256 20173 39526 40071 52010 70441 82401 90550 333 10345 20220 30/// 55077 56305 59006 82628 81070;
0217763930999992008042409004+25733-100300FM-12+051599999V0201001N001010060019N0060001N1+02341+01751100861ADDAY141031AY221031GA1071+006001061GF107991071051004501999999IA1019MA1999999095371MD1210111+0141MW1041REMSYN106AAXX  24091 76393 31456 71001 10234 20175 39537 40086 52011 70442 875// 90850 333 30/// 56399 58014 87620;
0272763930999992008042412004+25733-100300FM-12+051599999V0200901N001010027019N0040001N1+02221+01961101021ADDAA124000091AY141061AY221061GA1081+002701071GF108991081061002501999999IA1019KA1240M+03451KA2120N+02101MA1999999095461MD1210091+0201MW1051REMSYN124AAXX  24121 76393 31340 80901 10222 20196 39546 40102 52009 70542 886// 91150 333 10345 20210 30200 56399 58020 70000 88709;
0217763930999992008042415004+25733-100300FM-12+051599999V0200801N001012200019N0050001N1+02441+01981101001ADDAY141031AY241031GA1041+004501081GF104991041021004501001001IA1019MA1999999095411MD1710051-0141MW1051REMSYN106AAXX  24151 76393 31450 40801 10244 20198 39541 40100 57005 70544 84200 91450 333 30/// 56300 59014 84815;
0255763930999992008042418004+25733-100300FM-12+051599999V0200901N001012200019N0060001N1+03001+01981100901ADDAY141061AY241061GA1021+010201081GF102991021021012501001001IA1019KA1120M+03201KA2240N+02101MA1999999095321MD1710091-0181MW1051REMSYN118AAXX  24181 76393 31656 20901 10300 20198 39532 40090 57009 70544 82200 91740 333 10320 20210 30/// 56300 59018 82834;
0217763930999992008042421004+25733-100300FM-12+051599999V0200901N001012200019N0040001N1+03501+01891100481ADDAY141031AY241031GA1041+015001081GF104991041021017501001001IA1019MA1999999094971MD1710351-0231MW1051REMSYN106AAXX  24211 76393 31740 40901 10350 20189 39497 40048 57035 70544 84200 92040 333 30/// 56300 59023 84850;
0281763930999992008042500004+25733-100300FM-12+051599999V0201001N003010120019N0080001N1+03361+01921100271ADDAA124999999AY141061AY241061GF105991051021012501001001IA1019KA1120M+03651KA2180N+02101MA1999999094821MD1710151-0231MW1051REMSYN130AAXX  25001 76393 31658 51003 10336 20192 39482 40027 57015 70544 85200 92340 333 10365 20210 30/// 50611 56300 59023 79999 85848;EQDQ01  99992PRCP24
0171763930999992008042503004+25733-100300FM-12+051599999V0201501N002012200019N0180001N1+03041+01861100441ADDGA1001+999999999GF100991001001999999001001IA1019MA1999999095021MD1210201-0141REMSYN082AAXX  25031 76393 32968 01502 10304 20186 39502 40044 52020 90255 333 30/// 59014;
0223763930999992008042506004+25733-100300FM-12+051599999V0200701N002012200019N0160001N1+02441+01981100531ADDGA1001+999999999GF100991001001999999001001GJ105829IA1019KA1240M+03651KA2240N+02101MA1999999095091MD1110071-0171REMSYN100AAXX  25061 76393 32966 00702 10244 20198 39509 40053 51007 90555 333 10365 20210 30/// 55097 59017;
0272763930999992008042512004+25733-100300FM-12+051599999V0200701N001010033019N0040001N1+02381+02041100621ADDAA124000091AY141061AY221061GA1081+003301061GF108991081031004501999999IA1019KA1240M+03651KA2120N+02301MA1999999095081MD1410001-0381MW1051REMSYN124AAXX  25121 76393 31440 80701 10238 20204 39508 40062 54000 70542 883// 91155 333 10365 20230 30220 56399 59038 70000 88611;
0217763930999992008042515004+25733-100300FM-12+051599999V0200801N001010042019N0030001N1+02481+02081100881ADDAY141031AY221031GA1081+004201061GF108991081051004501999999IA1019MA1999999095301MD1210221-0111MW1051REMSYN106AAXX  25151 76393 31430 80801 10248 20208 39530 40088 52022 70542 885// 91450 333 30/// 56399 59011 88614;
0255763930999992008042518004+25733-100300FM-12+051599999V0201001N001010084019N0030001N1+02901+02061100881ADDAY141061AY221061GA1081+008401061GF108991081051008001999999IA1019KA1120M+03041KA2240N+02301MA1999999095311MD1110011-0011MW1051REMSYN118AAXX  25181 76393 31530 81001 10290 20206 39531 40088 51001 70542 885// 91755 333 10304 20230 30/// 56399 59001 88628;
0217763930999992008042521004+25733-100300FM-12+051599999V0200901N001010099019N0050001N1+03101+02131100671ADDAY141031AY221031GA1071+009901061GF107991071051008001999999IA1019MA1999999095141MD1710171-0171MW1051REMSYN106AAXX  25211 76393 31550 70901 10310 20213 39514 40067 57017 70542 875// 92055 333 30/// 56399 59017 87633;
0172763930999992008042600004+25733-100300FM-12+051599999V0201001N001019999999N0040001N1+02901+02061100751ADDAA106000591AY141061AY221061GF108991999999008001999999MA1999999095241MD1210101+9999MW1051REMSYN072AAXX  26001 76393 01540 81001 10290 20206 39524 40075 52010 69951 70542;
0234763930999992008042603004+25733-100300FM-12+051599999V0201201N001012200019N0040001N1+02481+02021100911ADDAA103000591AY151031AY211031GA1031+004501061GF103991031061004501001001IA1099MA1999999095401MD1210161+0381MW1051REMSYN112AAXX  26031 76393 21440 31201 10248 20202 39540 40091 52016 70551 83600 90255 333 31/// 56300 58038 69957 83615;
0253763930999992008042606004+25733-100300FM-12+051599999V0209999C000012200019N0040001N1+02421+02081101011ADDAY151061AY211061GF102991021051004501001001GJ102109IA1099KA1240M+03301KA2240N+02301MA1999999095481MD1010081+0391MW1051REMSYN124AAXX  26061 76393 31440 20000 10242 20208 39548 40101 50008 70551 82500 90555 333 10330 20230 31/// 55035 56300 58039 82611;
0272763930999992008042612004+25733-100300FM-12+051599999V0200901N001010018019N0040001N1+02171+01971101121ADDAA124001091AY141061AY221061GA1081+001801061GF108991081051002501999999IA1019KA1240M+03301KA2120N+02101MA1999999095521MD1210211+0441MW1051REMSYN124AAXX  26121 76393 31340 80901 10217 20197 39552 40112 52021 70542 885// 91155 333 10330 20210 30207 563// 58044 70010 88606;
0234763930999992008042621004+25733-100300FM-12+051599999V0200601N005010009019N0010001N1+01981+01891101151ADDAA103001091AY151031AY251031GA1081+000901061GF108991081041000751999999IA1119MA1999999095521MD1010131+0381MW1501REMSYN112AAXX  26211 76393 21110 80605 10198 20189 39552 40115 50013 75055 884// 92040 333 32/// 563// 58038 60017 88603;
0172763930999992008042700004+25733-100300FM-12+051599999V0203601N001019999999N0060001N1+02201+01851101011ADDAA106003091AY141061AY241061GF107991999999004501999999MA1999999095391MD1210131+9999MW1051REMSYN072AAXX  27001 76393 01456 73601 10220 20185 39539 40101 52013 60031 70544;
0189763930999992008042703004+25733-100300FM-12+051599999V0201201N002010033019N0140001N1+02041+01711101171ADDGA1051+003301061GF105991051031004501001001IA1099MA1999999095531MD1210141+0131REMSYN100AAXX  27031 76393 32464 51202 10204 20171 39553 40117 52014 85300 90255 333 31/// 56300 58013 85611;
0242763930999992008042706004+25733-100300FM-12+051599999V0200301N001010021019N0130001N1+01921+01711101061ADDAA106001091GF106991061031002501001001GJ100189IA1099KA1240M+02621KA2240N+01901MA1999999095401MD1710131-0081REMSYN124AAXX  27061 76393 12363 60301 10192 20171 39540 40106 57013 69991 86300 90555 333 10262 20190 31/// 55003 56300 59008 86607;
0217763930999992008042709004+25733-100300FM-12+051599999V0209999C000012200019N0040001N1+01901+01721101141ADDAY141031AY201031GA1031+001801061GF103991031031002501001001IA1019MA1999999095471MD1410001+0161MW1051REMSYN106AAXX  27091 76393 31340 30000 10190 20172 39547 40114 54007 70540 83300 90855 333 30/// 56300 58016 83606;
0272763930999992008042712004+25733-100300FM-12+051599999V0202801N001010030019N0040001N1+02001+01701101141ADDAA124002691AY141061AY221061GA1071+003001061GF107991071031002501999999IA1019KA1240M+02621KA2120N+01801MA1999999095461MD1410001-0061MW1051REMSYN124AAXX  27121 76393 31340 72801 10200 20170 39546 40114 54001 70542 873// 91155 333 10262 20180 30170 56399 59006 70026 87610;
0189763930999992008042715004+25733-100300FM-12+051599999V0200801N001012200019N0120001N1+02261+01681101161ADDGA1011+005701061GF101991011041004501001001IA1019MA1999999095491MD1010031-0131REMSYN100AAXX  27151 76393 31462 10801 10226 20168 39549 40116 50003 81400 91450 333 30/// 56399 59013 81619;
0253763930999992008042803004+25733-100300FM-12+051599999V0203601N002010030019N0060001N1+01401+01091102141ADDAA103001091AY151031AY221031GA1081+003001061GF108991081051004501999999IA1099MA1999999096431MD1210532+0901MW1521REMSYN112AAXX  28031 76393 21456 83602 10140 20109 39643 40214 52053 75252 885// 90255 333 31/// 568// 58090 60017 88610;EQDQ01+000532APC3  
0172763930999992008042806004+25733-100300FM-12+051599999V0203601N002019999999N0060001N1+01261+01161102231ADDAA106008991AY151061AY221061GF108991999999001501999999MA1999999096461MD1010031+9999MW1501REMSYN072AAXX  28061 76393 01256 83602 10126 20116 39646 40223 50003 60091 75052;
0234763930999992008042809004+25733-100300FM-12+051599999V0202101N001010009019N0060001N1+01271+01181102441ADDAA103000491AY151031AY251031GA1081+000901071GF108991081071000751999999IA1099MA1999999096601MD1210141+1131MW1051REMSYN112AAXX  28091 76393 21156 82101 10127 20118 39660 40244 52014 70555 887// 90858 333 31/// 568// 58113 69947 88703;
0172763930999992008042812004+25733-100300FM-12+051599999V0203601N001019999999N0030001N1+01161+01071102571ADDAA106001091AY151061AY251061GF108991999999000751999999MA1999999096681MD1210081+9999MW1501REMSYN072AAXX  28121 76393 01130 83601 10116 20107 39668 40257 52008 69991 75055;
0234763930999992008042815004+25733-100300FM-12+051599999V0209999C000010021019N0030001N1+01381+01181102721ADDAA103000391AY141031AY231031GA1081+002101061GF108991081041001501999999IA1099MA1999999096811MD1210131+1321MW1051REMSYN112AAXX  28151 76393 21230 80000 10138 20118 39681 40272 52013 70543 884// 91440 333 31/// 563// 58132 69937 88607;
0278763930999992008042818004+25733-100300FM-12+051599999V0202701N003010072019N0060001N1+01901+01181102621ADDAA106000391AY141061AY241061GA1051+007201081GF106991051021008001031001IA1019KA1120M+02041KA2240N+01101MA1999999096741MD1010071+0991MW1051REMSYN130AAXX  28181 76393 11556 62703 10190 20118 39674 40262 50007 70544 85230 91750 333 10204 20110 30/// 56350 58099 69931 85824 81660;
0201763930999992008042821004+25733-100300FM-12+051599999V0201201N001012200019N0060001N1+02361+01121102261ADDGA1021+012301081GF102991021021012501001001IA1019MA1999999096421MD1710321+0701MW1051REMSYN106AAXX  28211 76393 31656 21201 10236 20112 39642 40226 57032 705// 82200 92050 333 30/// 56300 58070 82841;
0262763930999992008042900004+25733-100300FM-12+051599999V0200901N001012200019N0100001N1+02561+01341102051ADDAA124999929AY141061AY241061GF101991011021012501001001IA1019KA1120M+02601KA2180N+01101MA1999999096251MD1710171+0351MW1051REMSYN130AAXX  29001 76393 31660 10901 10256 20134 39625 40205 57017 70544 81200 92350 333 10260 20110 30/// 50341 56300 58035 79999 81841;
0224763930999992008042903004+25733-100300FM-12+051599999V0201201N002012200019N0180001N1+02041+00781999999ADDGA1011+072001001GF101991001001999999001041IA1019MA1999999096301MD1410001-0131REMSYN100AAXX  29031 76393 32968 11202 10204 20078 39630 40120 54005 81004 90255 333 30/// 56005 59013 81074;EQDQ01+000012SCOTLCQ02 101203APOSLP
0260763930999992008042906004+25733-100300FM-12+051599999V0202101N001012200019N0180001N1+01821+00961102002ADDGF101991001001999999001041GJ104929IA1019KA1240M+02601KA2240N+01101MA1999999096301MD1410001-0161REMSYN118AAXX  29061 76393 32968 12101 10182 20096 39630 40200 54000 81004 90555 333 10260 20110 30/// 55082 56005 59016 81074;EQDQ01+000012SCOTLCQ02+102003APOSLP
0208763930999992008042909004+25733-100300FM-12+051599999V0209999C000012200019N0180001N1+01601+00941101951ADDGA1011+072001001GF101991001001999999001041IA1019MA1999999096221MD1410001-0381REMSYN100AAXX  29091 76393 32968 10000 10160 20094 39622 40195 54008 81004 90855 333 30/// 56005 59038 81074;EQDQ01+000012SCOTLC
0263763930999992008042912004+25733-100300FM-12+051599999V0209999C000012200019N0180001N1+01521+00961101981ADDAA124000091GA1011+072001001GF101991001001999999001041IA1019KA1240M+02601KA2120N+01401MA1999999096211MD1410001-0471REMSYN118AAXX  29121 76393 32968 10000 10152 20096 39621 40198 54001 81004 91155 333 10260 20140 30110 56005 59047 70000 81074;EQDQ01+000012SCOTLC
0171763930999992008042915004+25733-100300FM-12+051599999V0209999C000012200019N0180001N1+01841+01061102091ADDGA1001+999999999GF100991001001999999001001IA1019MA1999999096301MD1210121-0511REMSYN082AAXX  29151 76393 31968 00000 10184 20106 39630 40209 52012 91450 333 30/// 59051;
0209763930999992008042918004+25733-100300FM-12+051599999V0201401N002012200019N0220001N1+02521+01111101901ADDGA1001+999999999GF100991001001999999001001IA1019KA1120M+02651KA2240N+01401MA1999999096161MD1710141-0581REMSYN094AAXX  29181 76393 31972 01402 10252 20111 39616 40190 57014 91750 333 10265 20140 30/// 59058;
0251763930999992008043000004+25733-100300FM-12+051599999V0201001N003012200019N0240001N1+02861+01221101231ADDAA124000091GA1001+999999999GF100991001001999999001001IA1019KA1120M+02981KA2180N+01401MA1999999095641MD1710211-0611REMSYN106AAXX  30001 76393 31974 01003 10286 20122 39564 40123 57021 92350 333 10298 20140 30/// 50571 59061 70000;EQDQ01  00002PRCP24
0171763930999992008043003004+25733-100300FM-12+051599999V0200901N003012200019N0140001N1+02331+01001101171ADDGA1001+999999999GF100991001001999999001001IA1099MA1999999095611MD1710031-0691REMSYN082AAXX  30031 76393 32964 00903 10233 20100 39561 40117 57003 90255 333 31/// 59069;
0223763930999992008043006004+25733-100300FM-12+051599999V0200901N001012200019N0100001N1+01881+01041101171ADDGA1001+999999999GF100991001001999999001001GJ107209IA1019KA1240M+02981KA2240N+01401MA1999999095601MD1710011-0701REMSYN100AAXX  30061 76393 32960 00901 10188 20104 39560 40117 57001 90555 333 10298 20140 30/// 55120 59070;
0171763930999992008043009004+25733-100300FM-12+051599999V0209999C000012200019N0100001N1+01631+01131101011ADDGA1001+999999999GF100991001001999999001001IA1019MA1999999095391MD1710211-0831REMSYN082AAXX  30091 76393 32960 00000 10163 20113 39539 40101 57021 90850 333 30/// 59083;
0222763930999992008043012004+25733-100300FM-12+051599999V0209999C000012200019N0100001N1+01641+01191101011ADDAA124000091GF101991011011004501001001KA1240M+02981KA2120N+01501MA1999999095331MD1710061-0881REMSYN118AAXX  30121 76393 32460 10000 10164 20119 39533 40101 57006 81100 91155 333 10298 20150 20137 56800 59088 70000 81815;
0199763930999992008043015004+25733-100300FM-12+051599999V0209999C000012200019N0080001N1+02121+01251100951ADDAY141031AY241031GA1001+999999999GF100991001001999999001001IA1019MA1999999095251MD1610081-1051MW1051REMSYN088AAXX  30151 76393 31958 00000 10212 20125 39525 40095 56008 70544 91440 333 30/// 59105;
0255763930999992008043018004+25733-100300FM-12+051599999V0200901N003012200019N0060001N1+02921+01461100831ADDAY141061AY241061GA1011+014701081GF101991011021012501001001IA1019KA1120M+03081KA2240N+01501MA1999999095171MD1710081-0991MW1051REMSYN118AAXX  30181 76393 31656 10903 10292 20146 39517 40083 57008 70544 81200 91750 333 10308 20150 30/// 56500 59099 81849;
0223763930999992008043021004+25733-100300FM-12+051599999V0201301N003012200019N0120001N1+03321+01371100411ADDAY141031AY241031GA1021+018001081GF104991041021017501001001IA1019MA1999999094851MD1710321-1001MW1051REMSYN112AAXX  30211 76393 31762 41303 10332 20137 39485 40041 57032 70544 84200 92040 333 30/// 56500 59100 82856 82657;
0262763930999992008050100004+25733-100300FM-12+051599999V0201501N006010150019N0120001N1+03221+01401100241ADDAA124000091AY141061AY241061GF105991051041017501001001IA1019KA1120M+03481KA2180N+01501MA1999999094751MD1710101-0591MW1051REMSYN130AAXX  01001 76393 31762 51506 10322 20140 39475 40024 57010 70544 85400 92350 333 10348 20150 30/// 50591 56500 59059 70000 85656;
0217763930999992008050103004+25733-100300FM-12+051599999V0209999C000012200019N0120001N1+02821+01561100301ADDAY141031AY201031GA1031+012001061GF103991031041012501001001IA1019MA1999999094861MD1210111-0751MW1051REMSYN106AAXX  01031 76393 31662 30000 10282 20156 39486 40030 52011 70540 83400 90255 333 30/// 56300 59075 83640;
0253763930999992008050106004+25733-100300FM-12+051599999V0200901N001012200019N0100001N1+02301+01891100381ADDAY141061AY241061GF102991021041004501001001GJ105529IA1019KA1240M+03481KA2240N+01501MA1999999094911MD1210051-0691MW1041REMSYN124AAXX  01061 76393 31460 20901 10230 20189 39491 40038 52005 70444 82400 90550 333 10348 20150 30/// 55092 56300 59069 82614;
0223763930999992008050109004+25733-100300FM-12+051599999V0209999C000012200019N0080001N1+02081+01871100351ADDAY141031AY201031GA1021+002101061GF104991021041002501031001IA1019MA1999999094831MD1710081-0561MW1051REMSYN112AAXX  01091 76393 31358 40000 10208 20187 39483 40035 57008 70540 82430 90850 333 30/// 56350 59056 82607 82359;
0278763930999992008050112004+25733-100300FM-12+051599999V0209999C000019999999N0060001N1+02061+01881100401ADDAA124000091AY141061AY221061GA1041+030001041GF106991041001999999011021IA1019KA1240M+03481KA2120N+01941MA1999999094831MD1410001-0501MW1051REMSYN130AAXX  01121 76393 31956 60000 10206 20188 39483 40040 54000 70542 84012 91155 333 10348 20194 30182 56055 59050 70000 84460 82070;
0195763930999992008050115004+25733-100300FM-12+051599999V0209999C000012200019N0140001N1+02641+01811100511ADDGA1031+018001031GF104991031001008001041041IA1019MA1999999094911MD1010081-0341REMSYN106AAXX  01151 76393 31564 40000 10264 20181 39491 40051 50008 83044 91450 333 30/// 56057 59034 83356 81070;
0227763930999992008050118004+25733-100300FM-12+051599999V0201101N002019999999N0220001N1+03541+01131100351ADDGA1041+018001031GF106991999999022501999999IA1019KA1120M+03581KA2240N+01941MA1999999094811MD1710101-0361REMSYN112AAXX  01181 76393 31872 61102 10354 20113 39481 40035 57010 91750 333 10358 20194 30/// 56057 59036 84356 82070;
0199763930999992008050121004+25733-100300FM-12+051599999V0202801N001012200019N0220001N1+03881-00062100011ADDGA1021+018001031GF104991021001999999041041IA1019MD1510251-0291REMSYN106AAXX  01211 76393 31972 42801 10388 21006 39556 40001 55025 82044 92050 333 30/// 56057 59029 82356 82070;EQDQ01+095563APOSP 
0256763930999992008050200004+25733-100300FM-12+051599999V0201601N003019999999N0220001N1+03741+00551099811ADDAA124000091GA1021+018001031GF105991021001999999041041IA1019KA1120M+04051KA2180N+01941MA1999999094451MD1710111-0301REMSYN130AAXX  02001 76393 31972 51603 10374 20055 39445 49981 57011 82044 92350 333 10405 20194 30/// 57091 56057 59030 70000 82356 83070;
0189763930999992008050203004+25733-100300FM-12+051599999V0201801N001010600019N0120001N1+03081+00951099941ADDGA1061+060001001GF106991001001999999001041IA1019MA1999999094611MD1210161-0251REMSYN100AAXX  02031 76393 32962 61801 10308 20095 39461 49994 52016 80004 90255 333 30/// 56005 59025 86070;
0219763930999992008050206004+25733-100300FM-12+051599999V0209999C000012200019N0100001N1+02621+00851100111ADDGF102991001001999999001011GJ104929IA1019KA1240M+04051KA2240N+01941MA1999999094741MD1210131+9999REMSYN112AAXX  02061 76393 32960 20000 10262 20085 39474 40011 52013 80001 90555 333 10405 20194 30/// 55082 56005 59017;
0167763930999992008050209004+25733-100300FM-12+051599999V0209999C000012200019N0100001N1+02191+00811100091ADDGF101991001001999999001011IA1019MA1999999094661MD1710081-0171REMSYN094AAXX  02091 76393 32960 10000 10219 20081 39466 40009 57008 80001 90850 333 30/// 56005 59017;
0241763930999992008050212004+25733-100300FM-12+051599999V0202401N001012200019N0140001N1+02281+00331100281ADDAA124000091GF102991001001999999001011IA1019KA1240M+04051KA2120N+02101MA1999999094771MD1210111-0061REMSYN112AAXX  02121 76393 32964 22401 10228 20033 39477 40028 52011 80001 91155 333 10405 20210 30190 56005 59006 70000;EQDQ01  00002PRCP24
0167763930999992008050215004+25733-100300FM-12+051599999V02099999999992200019N0150001N1+03301+00681100461ADDGF103991999999999999999999IA1019MA1999999094931MD1210161+0021REMSYN094AAXX  02151 76393 32965 32965 00000 10330 20068 39493 40046 52016 91450 333 30/// 54108 58002;
0209763930999992008050218004+25733-100300FM-12+051599999V0203601N001012200019N0180001N1+03801-00111100361ADDGA1001+999999999GF100991001001999999001001IA1019KA1120M+03901KA2240N+02101MA1999999094871MD1710061+0061REMSYN094AAXX  02181 76393 32968 03601 10380 21011 39487 40036 57006 91750 333 10390 20210 30/// 58006;
0189763930999992008050221004+25733-100300FM-12+051599999V0203501N001012200019N0160001N1+03821+00771100141ADDGA1041+075001001GF104991001001999999001041IA1019MA1999999094741MD1710131+0181REMSYN100AAXX  02211 76393 32966 43501 10382 20077 39474 40014 57013 80004 92050 333 30/// 56005 58018 84075;
0234763930999992008050300004+25733-100300FM-12+051599999V0201101N001012200019N0150001N1+03541+01241100151ADDAA124000091GF101991011011022501001001IA1019KA1120M+04001KA2180N+02101MA1999999094801MD1210061+0351REMSYN124AAXX  03001 76393 32865 11101 10354 20124 39480 40015 52006 81100 92355 333 10400 20210 30/// 50971 56300 58035 70000 81858;
0171763930999992008050303004+25733-100300FM-12+051599999V0201401N002012200019N0160001N1+03041+01511100361ADDGA1001+999999999GF100991001001999999001001IA1019MA1999999095912MD1210111+1301REMSYN082AAXX  03031 76393 32966 01402 10304 20151 39591 40036 52011 90255 333 30/// 58130;
0244763930999992008050306004+25733-100300FM-12+051599999V0201701N001012200019N0170001N1+02861+01531100511ADDGA1001+999999999GF100991001001999999001001IA1019KA1240M+04001KA2240N+02101MA1999999095121MD1210151+0381REMSYN094AAXX  03061 76393 32967 01701 10286 20153 39512 40051 57079 90555 333 10400 20210 30/// 58038;EQDQ01+000072APCTENQ02+000792APC3  
0185763930999992008050309004+25733-100300FM-12+051599999V0200801N003012200019N0170001N1+02541+01781100561ADDGA1001+999999999GF100991001001999999001001GJ106909IA1019MA1999999095121MD1410001+0461REMSYN088AAXX  03091 76393 32967 00803 10254 20178 39512 40056 54000 90855 333 30/// 55115 58046;
0244763930999992008050312004+25733-100300FM-12+051599999V0201201N003012200019N0100001N1+02281+02111100731ADDAA124000091GA1031+001801061GF103991031031001501001001IA1019KA1240M+04001KA2120N+02201MA1999999095221MD1310101+0451REMSYN118AAXX  03121 76393 32260 31203 10228 20211 39522 40073 53010 83300 91155 333 10400 20220 30210 56300 58045 70000 83606;
0195763930999992008050315004+25733-100300FM-12+051599999V0202301N00101036001CN0120001N1+02621+02141101151ADDGA1031+004801061GF106991031041004501041001IA1019MA1999999095541MD1710321+0611REMSYN106AAXX  03151 76393 31462 62301 10262 20214 39554 40115 57032 83440 91450 333 30/// 56359 58061 83616 83356;
0255763930999992008050318004+25733-100300FM-12+051599999V0201101N00301036001CN0140001N1+03261+02101101121ADDGA1011+011401091GA2031+011701061GF107991041031012501041999IA1019KA1120M+03331KA2240N+02201MA1999999095571MD1710031+0701REMSYN124AAXX  03181 76393 31664 71103 10326 20210 39557 40112 57003 8434/ 91750 333 10333 20220 30/// 56359 58070 81938 83639 83356;
0240763930999992008050321004+25733-100300FM-12+051599999V0201801N00301036001CN0060001N1+02741+02241101091ADDAA103003091AY101031AY221031GA1041+004801061GF107991041041004501041999IA1119MA1999999095551MD1110021+0811MW1201REMSYN118AAXX  03211 76393 22456 71803 10274 20224 39555 40109 51002 72002 8444/ 92050 333 32/// 5635/ 58081 60037 84616 83356;
0172763930999992008050400004+25733-100300FM-12+051599999V0201601N001012200019N0140001N1+02861+01851100961ADDAA106003091AY141061AY241061GF104991999999012501999999MA1999999095451MD1110101+9999MW1051REMSYN072AAXX  04001 76393 12664 41601 10286 20185 39545 40096 51010 60031 70544;
0217763930999992008050403004+25733-100300FM-12+051599999V0200901N002010084019N0040001N1+02701+01841101131ADDAY141031AY221031GA1071+008401061GF108991071051008001001011IA1019MA1999999095611MD1210161-0301MW1051REMSYN106AAXX  04031 76393 31540 80902 10270 20184 39561 40113 52016 70542 87501 90255 333 30/// 56305 59030 87628;
0172763930999992008050406004+25733-100300FM-12+051599999V0200801N003019999999N0030001N1+02241+02111101311ADDAA106004191AY151061AY241061GF108991999999001501999999MA1999999095751MD1110141+9999MW1501REMSYN072AAXX  04061 76393 01230 80803 10224 20211 39575 40131 51014 60041 75054;
0234763930999992008050409004+25733-100300FM-12+051599999V0200901N004010009019N0010001N1+02101+02011101181ADDAA103006091AY151031AY251031GA1081+000901071GF108991081071000751999999IA1119MA1999999095601MD1710151+0481MW1521REMSYN112AAXX  04091 76393 21110 80904 10210 20201 39560 40118 57015 75255 887// 90858 333 32/// 563// 58048 60067 88703;
0172763930999992008050412004+25733-100300FM-12+051599999V0200801N001019999999N0010001N1+01971+01911101281ADDAA106014091AY151061AY251061GF108991999999000751999999MA1999999095651MD1210051+9999MW1501REMSYN072AAXX  04121 76393 01110 80801 10197 20191 39565 40128 52005 60141 75055;
0234763930999992008050415004+25733-100300FM-12+051599999V0200901N001010006019N0010001N1+02061+02001101441ADDAA103002091AY151031AY251031GA1081+000601071GF108991081061000751999999IA1119MA1999999095771MD1210121+0231MW1501REMSYN112AAXX  04151 76393 21110 80901 10206 20200 39577 40144 52012 75055 886// 91455 333 32/// 56399 58023 60027 88702;
0172763930999992008050418004+25733-100300FM-12+051599999V0201101N001019999999N0010001N1+02161+02101101371ADDAA106005191AY151061AY251061GF108991999999000751999999MA1999999095691MD1710081+9999MW1501REMSYN072AAXX  04181 76393 01110 81101 10216 20210 39569 40137 57008 60051 75055;
0234763930999992008050421004+25733-100300FM-12+051599999V0201001N001010015019N0020001N1+02321+02181101151ADDAA103001091AY151031AY251031GA1081+001501071GF108991081061001501999999IA1099MA1999999095491MD1710201-0061MW1501REMSYN112AAXX  04211 76393 21220 81001 10232 20218 39549 40115 57020 75055 886// 92050 333 31/// 56399 59006 60017 88705;
0172763930999992008050500004+25733-100300FM-12+051599999V0200701N001019999999N0030001N1+02441+02231101031ADDAA106002091AY141061AY241061GF108991999999002501999999MA1999999095401MD1710091+9999MW1051REMSYN072AAXX  05001 76393 01330 80701 10244 20223 39540 40103 57009 60021 70544;
0217763930999992008050503004+25733-100300FM-12+051599999V0200901N001010036019N0040001N1+02461+02121101051ADDAY141031AY221031GA1081+003601071GF108991081071004501999999IA1099MA1999999095441MD1410001-0171MW1051REMSYN106AAXX  05031 76393 31440 80901 10246 20212 39544 40105 54004 70542 887// 90255 333 31/// 56399 59017 88712;
0264763930999992008050506004+25733-100300FM-12+051599999V0200901N002010012019N0020001N1+02301+02131101101ADDAA106003091AY151061AY221061GF108991081071001501999999GJ100009IA1099KA1240M+02501KA2240N+01971MA1999999095501MD1410001-0251MW1501REMSYN124AAXX  05061 76393 11220 80902 10230 20213 39550 40110 54006 60031 75052 887// 333 10250 20197 31/// 55000 56399 59025 88706;
0234763930999992008050509004+25733-100300FM-12+051599999V0200901N003010006019N0010001N1+02201+02141101011ADDAA103002091AY151031AY221031GA1081+000601071GF108991081041000751999999IA1119MA1999999095411MD1410001-0191MW1501REMSYN112AAXX  05091 76393 01110 80903 10220 20214 39541 40101 54009 75052 884// 90855 333 32/// 56399 59019 60027 88702;
0172763930999992008050512004+25733-100300FM-12+051599999V0200901N002019999999N0010001N1+02201+02081101071ADDAA106002091AY151061AY221061GF108991999999001501999999MA1999999095451MD1410001+9999MW1501REMSYN072AAXX  05121 76393 11210 80902 10220 20208 39545 40107 54004 60021 75052;
0240763930999992008050515004+25733-100300FM-12+051599999V0200701N00201000901CN0020001N1+02221+02131101401ADDAA103000291AY141031AY251031GA1061+000901071GF108991081061000751999999IA1099MA1999999095751MD1210301-0021MW1501REMSYN118AAXX  05151 76393 21120 80702 10222 20213 39575 40140 52030 75045 886// 91450 333 31/// 963// 59002 69927 86703 83604;
0172763930999992008050518004+25733-100300FM-12+051599999V0200701N002019999999N0020001N1+02361+02211101431ADDAA106001091AY141061AY251061GF108991999999001501999999MA1999999095791MD1010041+9999MW1051REMSYN072AAXX  05181 76393 01220 80702 10236 20221 39579 40143 50004 60011 70545;
0223763930999992008050521004+25733-100300FM-12+051599999V0202001N002010054019N0120001N1+02681+02141101091ADDAY141031AY241031GA1051+005401061GF107991071041004501021999IA1019MA1999999095481MD1710421-0011MW1051REMSYN112AAXX  05211 76393 31462 72002 10268 20214 39548 40109 57042 70544 8742/ 92050 333 30/// 5635/ 59001 85618 82456;
0284763930999992008050600004+25733-100300FM-12+051599999V0200901N002010006019N0100001N1+02621+02461100871ADDAA124005591AY141061AY251061GA1031+000601061GF105991051041000751041999IA1019KA1120M+03081KA2180N+02161MA1999999095301MD1710181-0101MW1051REMSYN136AAXX  06001 76393 31160 50902 10262 20246 39530 40087 57018 70545 8544/ 92350 333 10308 20216 30/// 50581 5639/ 59010 70055 83602 82356;
0223763930999992008050603004+25733-100300FM-12+051599999V0200901N00301036001CN0050001N1+02731+02591101001ADDAY141031AY241031GA1031+001201061GF106991031061001501031001IA1099MA1999999095441MD1210141+0001MW1051REMSYN112AAXX  06031 76393 31250 60903 10273 20259 39544 40100 52014 70544 83630 90255 333 31/// 56450 58000 83604 83356;
0270763930999992008050606004+25733-100300FM-12+051599999V0200901N002010006019N0050001N1+02361+02301101011ADDAA101999929AY141061AY221061GF107991071071000751999999GJ101809IA1099KA1240M+03081KA2240N+02161MA1999999095461MD1210021-0041MW1501REMSYN130AAXX  06061 76393 21150 70902 10236 20230 39546 40101 52002 75042 877// 90555 333 10308 20216 31/// 55030 563// 59004 69905 87702;
0234763930999992008050609004+25733-100300FM-12+051599999V0200801N001010003019N0030001N1+02171+02141101061ADDAA103000021AY151031AY251031GA1081+000301071GF108991081071000251999999IA1099MA1999999095491MD1010031+0081MW1501REMSYN112AAXX  06091 76393 21030 80801 10217 20214 39549 40106 50003 75055 887// 90850 333 31/// 563// 58008 69907 88701;
0172763930999992008050612004+25733-100300FM-12+051599999V0200901N002019999999N0040001N1+02121+02111101131ADDAA106000021AY151061AY241061GF108991999999000251999999MA1999999095531MD1210041+9999MW1051REMSYN072AAXX  06121 76393 01040 80902 10212 20211 39553 40113 52004 69901 70554;
0217763930999992008050615004+25733-100300FM-12+051599999V0200901N001010003019N0020001N1+02201+02171101331ADDAY141031AY221031GA1081+000301071GF108991081061000251999999IA1019MA1999999095701MD1210171-0051MW1051REMSYN106AAXX  06151 76393 31020 80901 10220 20217 39570 40133 52017 70542 886// 91450 333 30/// 56399 59005 88701;
0255763930999992008050618004+25733-100300FM-12+051599999V0201201N001010024019N0040001N1+02421+02201101371ADDAY141061AY221061GA1081+002401071GF108991081061002501999999IA1019KA1120M+02481KA2240N+02101MA1999999095721MD1210021-0071MW1051REMSYN118AAXX  06181 76393 31340 81201 10242 20220 39572 40137 52002 70542 886// 91750 333 10248 20210 30/// 56399 59007 88708;
0223763930999992008050621004+25733-100300FM-12+051599999V0200601N00101002101CN0060001N1+03001+02791100931ADDAY141031AY221031GA1041+002101071GF106991061061002501999999IA1019MA1999999095341MD1710381-0141MW1051REMSYN112AAXX  06211 76393 31356 60601 10300 20279 39534 40093 57038 70542 866// 92055 333 30/// 56300 59014 84707 82612;
0262763930999992008050700004+25733-100300FM-12+051599999V0200901N001010021019N0050001N1+03081+02881100561ADDAA124999929AY141061AY221061GF106991061051002501001001IA1019KA1120M+03161KA2180N+02101MA1999999095031MD1710311-0271MW1051REMSYN130AAXX  07001 76393 31350 60901 10308 20288 39503 40056 57031 70542 86500 92355 333 10316 20210 30/// 50011 56300 59027 79999 86607;
0253763930999992008050706004+25733-100300FM-12+051599999V0203201N001010042019N0080001N1+02361+02051100421ADDAY141061AY221061GF107991071041004501999999GJ102349IA1019KA1240M+03161KA2240N+02101MA1999999094931MD1410001-0531MW1051REMSYN124AAXX  07061 76393 31458 73201 10236 20205 39493 40042 54001 70542 874// 90555 333 10316 20210 30/// 55039 56399 59053 87610;
0217763930999992008050709004+25733-100300FM-12+051599999V0209999C000010015019N0060001N1+02101+01961100311ADDAY141031AY211031GA1051+001501061GF105991051041001501001001IA1019MA1999999094791MD1610141-0701MW1051REMSYN106AAXX  07091 76393 31256 50000 10210 20196 39479 40031 56014 70541 85400 90855 333 30/// 56300 59070 85605;
0272763930999992008050712004+25733-100300FM-12+051599999V0209999C000010027019N0080001N1+02021+01841100261ADDAA124000091AY141061AY221061GA1071+002701061GF107991071041001501999999IA1019KA1240M+03161KA2120N+01981MA1999999094701MD1410001-0831MW1051REMSYN124AAXX  07121 76393 31258 70000 10202 20184 39470 40026 54009 70542 874// 91155 333 10316 20198 30185 56399 59083 70000 87609;
0233763930999992008050718004+25733-100300FM-12+051599999V0201601N00301036001CN0150001N1+03081+02761100451ADDGA1041+003001061GF107991041041004501011999IA1019KA1120M+03141KA2240N+01981MA1999999094881MD1210041-0841REMSYN118AAXX  07181 76393 31465 71603 10308 20276 39488 40045 52004 8441/ 91750 333 10314 20198 30/// 5635/ 59084 84610 83456;
0189763930999992008050721004+25733-100300FM-12+051599999V0209999C000012200019N0170001N1+03581+02321100131ADDGA1021+060001001GF102991001001999999001011IA1019MA1999999094631MD1710251-0711REMSYN100AAXX  07211 76393 31967 20000 10358 20232 39463 40013 57025 80001 92050 333 30/// 56997 59071 82070;
0278763930999992008050800004+25733-100300FM-12+051599999V0209999C000010900019N0180001N1+03361+01921100171ADDAA124000091GA1021+014401061GA2031+018001031GF106991021041012501031041IA1019KA1120M+03701KA2180N+01981MA1999999094731MD1210101-0301REMSYN136AAXX  08001 76393 31668 60000 10336 20192 39473 40017 52010 82434 92350 333 10370 20198 30/// 50381 56357 59030 70000 82648 83356 81070;
0247763930999992008050806004+25733-100300FM-12+051599999V0209999C000010360019N0150001N1+02821+02061100531ADDGA1031+007501061GF105991031051008001011001GJ103549IA1019KA1240M+03701KA2240N+01981MA1999999095121MD1210141+0191REMSYN124AAXX  08061 76393 32565 50000 10282 20206 39512 40053 52014 83510 90550 333 10370 20198 30/// 55059 56350 58019 83625 82359;
0223763930999992008050809004+25733-100300FM-12+051599999V0209999C000012200019N0060001N1+02481+02051100471ADDAY141031AY221031GA1011+004501061GF103991011051004501031001IA1019MA1999999095021MD1710101+0231MW1041REMSYN112AAXX  08091 76393 31456 30000 10248 20205 39502 40047 57010 70442 81530 90850 333 30/// 56350 58023 81615 82359;
0273763930999992008050812004+25733-100300FM-12+051599999V0209999C000012200019N0050001N1+02521+02041100591ADDAA124000091AY101061AY201061GA1001+999999999GF100991001001999999001001IA1019KA1240M+03701KA2120N+02401MA1999999095101MD1210081+0401MW1041REMSYN106AAXX  08121 76393 31950 00000 10252 20204 39510 40059 52008 70400 91150 333 10370 20240 30228 58040 70000;EQDQ01  00002PRCP24
0199763930999992008050815004+25733-100300FM-12+051599999V02099999999992200019N0050001N1+03121+02031100641ADDAY141031AY241031GA1001+999999999GF100991001001999999001001IA1019MA1999999095131MD1110031+0291MW1051REMSYN088AAXX  08151 76393 31950 0//// 10312 20203 39513 40064 51003 70544 91440 333 30/// 58029;
0255763930999992008050818004+25733-100300FM-12+051599999V02099999999992200019N0040001N1+03461+02241100571ADDAY141061AY241061GA1011+012001081GF101991011021012501001001IA1019KA1120M+03541KA2240N+02051MA1999999095061MD1710071+0181MW1051REMSYN118AAXX  08181 76393 31640 1//// 10346 20224 39506 40057 57007 70544 81200 91750 333 10354 20205 30/// 56500 58018 81840;
0223763930999992008050821004+25733-100300FM-12+051599999V02099999999992200019N0050001N1+03561+02131100211ADDAY141031AY241031GA1011+014101081GF102991011021012501031001IA1019MA1999999094781MD1710281+0151MW1051REMSYN112AAXX  08211 76393 31650 2//// 10356 20213 39478 40021 57028 70544 81230 92050 333 30/// 56550 58015 81847 81360;
0284763930999992008050900004+25733-100300FM-12+051599999V02099999999992200019N0050001N1+03541+02041100111ADDAA124000091AY141061AY241061GA1011+015001081GF102991011021012501031001IA1019KA1120M+03721KA2180N+02051MA1999999094731MD1710051+0001MW1051REMSYN136AAXX  09001 76393 31650 2//// 10354 20204 39473 40011 57005 70544 81230 92350 333 10372 20205 30/// 50751 56350 58000 70000 81850 81360;
0195763930999992008050903004+25733-100300FM-12+051599999V0209999C000012200019N0180001N1+03181+02061100271ADDGA1011+010201061GF102991011041012501031001IA1019MA1999999094901MD1310171-0081REMSYN106AAXX  09031 76393 32668 20000 10318 20206 39490 40027 53017 81430 90255 333 30/// 56350 59008 81634 81358;
0244763930999992008050906004+25733-100300FM-12+051599999V0200701N002012200019N0200001N1+02921+01821100321ADDGF101991001001999999001041GJ106609IA1019KA1240M+03721KA2240N+02051MA1999999094921MD1410001-0201REMSYN118AAXX  09061 76393 32970 10702 10292 20182 39492 40032 54002 81004 90555 333 10372 20205 30/// 55110 56005 59020 81074;EQDQ01+000012SCOTLC
0208763930999992008050909004+25733-100300FM-12+051599999V0200101N001012200019N0120001N1+02481+02021100241ADDGA1011+072001001GF101991001001999999001041IA1019MA1999999094811MD1610111-0211REMSYN100AAXX  09091 76393 32962 10101 10248 20202 39481 40024 56011 81004 90855 333 30/// 56005 59021 81074;EQDQ01+000012SCOTLC
0291763930999992008050912004+25733-100300FM-12+051599999V0203501N001012200019N0080001N1+02341+02061100381ADDAA124000091AY141061AY201061GA1021+072001001GF102991001001999999001041IA1019KA1240M+03721KA2120N+02201MA1999999094821MD1410001-0281MW1051REMSYN124AAXX  09121 76393 31958 23501 10234 20206 39482 40038 54001 70540 82004 91155 333 10372 20220 30210 56005 59028 70000 82074;EQDQ01+000022SCOTLC
0195763930999992008050915004+25733-100300FM-12+051599999V0203601N001019999999N0050001N1+02761+02021100591ADDGA1041+027001031GF106991041001999999031041IA1019MA1999999095061MD1210241-0071REMSYN106AAXX  09151 76393 31950 63601 10276 20202 39506 40059 52024 84034 91455 333 30/// 56055 59007 84359 82075;
0261763930999992008050918004+25733-100300FM-12+051599999V0201201N00201036001CN0050001N1+03401+02591100551ADDAY141061AY221061GA1011+008101081GF105991011011008001041001IA1019KA1120M+03451KA2240N+02201MA1999999095041MD1710021-0021MW1041REMSYN124AAXX  09181 76393 31550 51202 10340 20259 39504 40055 57002 70442 81140 91750 333 10345 20220 30/// 56350 59002 81827 84360;
0223763930999992008050921004+25733-100300FM-12+051599999V0201301N001012200019N0050001N1+03781+02071100311ADDAY141031AY211031GA1011+018001081GF103991011011017501001011IA1019MA1999999094851MD1710191+0071MW1041REMSYN112AAXX  09211 76393 31750 31301 10378 20207 39485 40031 57019 70441 81101 92050 333 30/// 56305 58007 81856 82070;
0306763930999992008051000004+25733-100300FM-12+051599999V0201301N00101039001CN0050001N1+03701+02041100251ADDAA124000091AY141061AY221061GA1021+021001081GA2031+039001041GF107991021021017501021011IA1019KA1120M+03851KA2180N+02201MA1999999094861MD1210011+0131MW1041REMSYN142AAXX  10001 76393 31750 71301 10370 20204 39486 40025 52001 70442 82221 92350 333 10385 20220 30/// 50791 56355 58013 70000 82857 83463 82075;
0217763930999992008051003004+25733-100300FM-12+051599999V0201201N002010600019N0050001N1+03301+02281100371ADDAY141031AY241031GA1071+060001021GF107991001001999999001071IA1019MA1999999095001MD1210141+0101MW1051REMSYN106AAXX  10031 76393 31950 71202 10330 20228 39500 40037 52014 70544 80007 90255 333 30/// 56005 58010 87270;
0253763930999992008051006004+25733-100300FM-12+051599999V0201201N003019999999N0050001N1+02611+02441100461ADDAY141061AY241061GF107991001001999999001071GJ105229IA1019KA1240M+03851KA2240N+02201MA1999999095071MD1010071+0151MW1051REMSYN124AAXX  10061 76393 31950 71203 10261 20244 39507 40046 50007 70544 80007 90555 333 10385 20220 30/// 55087 56005 58015 87270;
0217763930999992008051009004+25733-100300FM-12+051599999V0209999C000012200019N0050001N1+02401+02371100351ADDAY141031AY241031GA1031+060001001GF103991001001999999001041IA1019MA1999999094911MD1710161+0101MW1051REMSYN106AAXX  10091 76393 31950 30000 10240 20237 39491 40035 57016 70544 80004 90850 333 30/// 56005 58010 83070;
0278763930999992008051012004+25733-100300FM-12+051599999V0209999C00001090001CN0020001N1+02371+02341100481ADDAA124000091AY141061AY241061GA1021+000301071GF107991021071000251001071IA1019KA1240M+03851KA2120N+02301MA1999999094981MD1210071+0161MW1051REMSYN130AAXX  10121 76393 31020 70000 10237 20234 39498 40048 52007 70544 82707 91155 333 10385 20230 30230 56305 58016 70000 82701 85270;
0223763930999992008051015004+25733-100300FM-12+051599999V0200201N00101036001CN0030001N1+02921+02441100551ADDAY141031AY241031GA1031+004801061GF105991031061004501011001IA1019MA1999999095021MD1210041-0041MW1051REMSYN112AAXX  10151 76393 31430 50201 10292 20244 39502 40055 52004 70544 83610 91440 333 30/// 56305 59004 83616 82070;
0261763930999992008051018004+25733-100300FM-12+051599999V0200601N00101090001CN0030001N1+03421+02381100441ADDAY141061AY241061GA1021+010501071GF105991021021012501001031IA1019KA1120M+03551KA2240N+02301MA1999999094931MD1710091-0111MW1051REMSYN124AAXX  10181 76393 31630 50601 10342 20238 39493 40044 57009 70544 82203 91750 333 10355 20230 30/// 56305 59011 82735 83070;
0223763930999992008051021004+25733-100300FM-12+051599999V0201401N00301090001CN0040001N1+03701+02371100221ADDAY141031AY241031GA1031+013201081GF107991031021012501001031IA1019MA1999999094781MD1710151-0071MW1051REMSYN112AAXX  10211 76393 31640 71403 10370 20237 39478 40022 57015 70544 83203 92050 333 30/// 56305 59007 83844 84070;
0284763930999992008051100004+25733-100300FM-12+051599999V0201201N003010900019N0050001N1+03541+02391100121ADDAA124000091AY141061AY241061GA1021+011101081GF106991021021012501001031IA1019KA1120M+03871KA2180N+02301MA1999999094741MD1010041-0121MW1051REMSYN136AAXX  11001 76393 31650 61203 10354 20239 39474 40012 50004 70544 82203 92350 333 10387 20230 30/// 50641 56305 59012 70000 82837 84070;
0236763930999992008051103004+25733-100300FM-12+051599999V0201901N002010720019N0040001N1+03421+02471100271ADDAY141031AY211031GA1061+072001001GF106991001001999999001041IA1019MA1999999094911MD1310171-0091MW1051REMSYN106AAXX  11031 76393 31940 61902 10342 20247 39491 40027 53017 70541 86004 90255 333 30/// 56005 59009 86074;EQDQ01+000062SCOTLC
0272763930999992008051106004+25733-100300FM-12+051599999V0201801N001019999999N0060001N1+03141+02211100411ADDAY141061AY211061GF106991001001999999001041GJ103369IA1019KA1240M+03871KA2240N+02301MA1999999095031MD1310121-0041MW1051REMSYN124AAXX  11061 76393 31956 61801 10314 20221 39503 40041 53012 70541 86004 90555 333 10387 20230 30/// 55056 56005 59004 86074;EQDQ01+000062SCOTLC
0236763930999992008051109004+25733-100300FM-12+051599999V0200201N001010720019N0040001N1+02881+02251100441ADDAY141031AY211031GA1061+072001001GF106991001001999999001041IA1019MA1999999095031MD1410001+0121MW1051REMSYN106AAXX  11091 76393 31940 60201 10288 20225 39503 40044 54000 70541 86004 90855 333 30/// 56005 58012 86074;EQDQ01+000062SCOTLC
0291763930999992008051112004+25733-100300FM-12+051599999V0202201N001010720019N0060001N1+02781+02291100541ADDAA124000091AY141061AY211061GA1061+072001001GF106991001001999999001041IA1019KA1240M+03871KA2120N+02621MA1999999095091MD1410001+0111MW1051REMSYN124AAXX  11121 76393 31956 62201 10278 20229 39509 40054 54006 70541 86004 91155 333 10387 20262 30248 56005 58011 70000 86074;EQDQ01+000062SCOTLC
0171763930999992008051115004+25733-100300FM-12+051599999V0200701N002012200019N0100001N1+03241+02351100901ADDGA1001+999999999GF100991001001999999001001IA1019MA1999999095421MD1210331+0401REMSYN082AAXX  11151 76393 31960 00702 10324 20235 39542 40090 52033 91450 333 30/// 58040;
0300763930999992008051118004+25733-100300FM-12+051599999V0200601N003010063019N0120001N1+02901+02301101141ADDAA103000291AY151061AY201061GA1011+006001091GA2041+006301061GF107991051031008001041999IA1099KA1120M+03401KA2240N+02621MA1999999095641MD1210221+0711MW1461REMSYN136AAXX  11181 76393 21562 70603 10290 20230 39564 40114 52022 74650 8534/ 91750 333 10340 20262 31/// 5615/ 58071 69927 81920 84621 82356;
0217763930999992008051121004+25733-100300FM-12+051599999V0203601N003010105019N0150001N1+02821+02011101211ADDAY141031AY221031GA1061+010501061GF106991061041012501001001IA1019MA1999999095701MD1710061+0921MW1051REMSYN106AAXX  11211 76393 31665 63603 10282 20201 39570 40121 57006 70542 86400 92050 333 30/// 56759 58092 86635;
0256763930999992008051200004+25733-100300FM-12+051599999V0201201N00301006901CN0100001N1+02621+01931101151ADDAA124000291GA1051+006901061GF107991051041008001021999IA1019KA1120M+03401KA2180N+02621MA1999999095641MD1210061+0901REMSYN130AAXX  12001 76393 32560 71203 10262 20193 39564 40115 52006 8542/ 92350 333 10340 20262 30/// 50731 5635/ 58090 70002 85623 82456;
0223763930999992008051203004+25733-100300FM-12+051599999V0201401N005010039019N0050001N1+02181+01811101301ADDAY141031AY221031GA1051+003901061GF107991061031004501001011IA1019MA1999999095761MD1210121+0851MW1131REMSYN112AAXX  12031 76393 31450 71405 10218 20181 39576 40130 52012 71342 86301 90255 333 30/// 56305 58085 85613 81921;
0275763930999992008051206004+25733-100300FM-12+051599999V0201501N003010360019N0060001N1+02381+01451101351ADDAY141061AY241061GA1021+009301061GF106991021051008001031011GJ103189IA1019KA1240M+03401KA2240N+02181MA1999999095771MD1010011+0741MW1051REMSYN130AAXX  12061 76393 31556 61503 10238 20145 39577 40135 50001 70544 82531 90555 333 10340 20218 30/// 55053 56355 58074 82631 82356;
0217763930999992008051209004+25733-100300FM-12+051599999V0201301N002010063019N0060001N1+02281+01651101151ADDAY141031AY241031GA1071+006301061GF107991071051008001999999IA1019MA1999999095561MD1710211+0531MW1051REMSYN106AAXX  12091 76393 31556 71302 10228 20165 39556 40115 57021 70544 875// 90855 333 30/// 563// 58053 87621;
0278763930999992008051212004+25733-100300FM-12+051599999V0201201N001010900019N0080001N1+02261+01661101191ADDAA124000291AY141061AY241061GA1021+006001061GF107991021051008001001071IA1019KA1240M+03401KA2120N+02201MA1999999095571MD1110011+0481MW1051REMSYN130AAXX  12121 76393 31558 71201 10226 20166 39557 40119 51001 70544 82507 91155 333 10340 20220 30212 56305 58048 70002 82620 95270;
0217763930999992008051215004+25733-100300FM-12+051599999V0201101N001010072019N0080001N1+02481+01771101161ADDAY141031AY241031GA1081+007201061GF108991081051008001999999IA1019MA1999999095551MD1010021+0131MW1051REMSYN106AAXX  12151 76393 31558 81101 10248 20177 39555 40116 50002 70544 885// 91450 333 30/// 563// 58013 88624;
0261763930999992008051218004+25733-100300FM-12+051599999V0200901N00301090001CN0080001N1+02721+01981100951ADDAY141061AY241061GA1011+007501081GF105991011021008001001021IA1019KA1120M+02851KA2240N+02201MA1999999095361MD1710191-0281MW1051REMSYN124AAXX  12181 76393 31558 50903 10272 20198 39536 40095 57019 70544 81202 91750 333 10285 20220 30/// 56305 59028 81825 84070;
0279763930999992008051300004+25733-100300FM-12+051599999V0203101N001010900019N0050001N1+02641+02201100391ADDAA103000991AA224999929AY151061AY251061GF108991021021004501001071IA1019KA1120M+03151KA2180N+02201MA1999999094881MD1610071-0761MW1501REMSYN136AAXX  13001 76393 21450 83101 10264 20220 39488 40039 56007 75055 82207 92350 333 10315 20220 30/// 50481 56305 59076 69997 79999 82815;
0234763930999992008051303004+25733-100300FM-12+051599999V0200301N002010033019N0040001N1+02561+02231100461ADDAA103000991AY141031AY221031GA1081+003301061GF108991081031004501999999IA1019MA1999999094951MD1110071-0811MW1051REMSYN112AAXX  13031 76393 21440 80302 10256 20223 39495 40046 51007 70542 883// 90255 333 30/// 56399 59081 69997 88611;
0253763930999992008051306004+25733-100300FM-12+051599999V0201201N001010075019N0040001N1+02761+02121100511ADDAY141061AY221061GF108991081031008001999999GJ102769IA1019KA1240M+03151KA2240N+02201MA1999999095001MD1410001-0771MW1051REMSYN124AAXX  13061 76393 31540 81201 10276 20212 39500 40051 54005 70542 883// 90555 333 10315 20220 30/// 55046 56399 59077 88621;
0217763930999992008051309004+25733-100300FM-12+051599999V0203101N002010144019N0050001N1+03041+01581100361ADDAY141031AY221031GA1081+014401061GF108991081031012501999999IA1019MA1999999094871MD1610131-0691MW1051REMSYN106AAXX  13091 76393 31650 83102 10304 20158 39487 40036 56013 70542 883// 90855 333 30/// 56399 59069 88648;
0244763930999992008051312004+25733-100300FM-12+051599999V0200201N002010117019N0120001N1+02841+01651100331ADDAA124000021GA1081+011701061GF108991081031012501999999IA1019KA1240M+03151KA2120N+02751MA1999999094851MD1410001-0721REMSYN118AAXX  13121 76393 32662 80202 10284 20165 39485 40033 54002 883// 91155 333 10315 20275 30250 56399 59072 79999 88639;
0195763930999992008051315004+25733-100300FM-12+051599999V0200901N00201036001CN0150001N1+03121+01961100591ADDGA1041+011401061GF106991041041012501011999IA1019MA1999999095101MD1210251-0451REMSYN106AAXX  13151 76393 32665 60902 10312 20196 39510 40059 52025 8441/ 91450 333 30/// 56359 59045 84638 83456;
0233763930999992008051318004+25733-100300FM-12+051599999V0201201N003012200019N0180001N1+03441+01981100561ADDGA1021+014401061GF104991021041012501041001IA1019KA1120M+03551KA2240N+02701MA1999999095111MD1510011-0251REMSYN118AAXX  13181 76393 32668 41203 10344 20198 39511 40056 55001 82440 91750 333 10355 20270 30/// 56359 59025 82648 82356;
0195763930999992008051321004+25733-100300FM-12+051599999V0201201N003012200019N0200001N1+03761+01861100251ADDGA1031+018001031GF104991031001017501041041IA1019MA1999999094851MD1710261-0101REMSYN106AAXX  13211 76393 32770 41203 10376 20186 39485 40025 57026 83044 92050 333 30/// 56057 59010 83356 81070;
0278763930999992008051400004+25733-100300FM-12+051599999V0200901N003012200019N0200001N1+03781+01631100101ADDAA124000091GA1011+015001081GA2011+015001061GF104991021021012501041001IA1019KA1120M+03901KA2180N+02721MA1999999094741MD1610111-0141REMSYN136AAXX  14001 76393 32670 40903 10378 20163 39474 40010 56011 82240 92350 333 10390 20272 30/// 50861 56359 59014 70000 81850 81650 82356;
0195763930999992008051403004+25733-100300FM-12+051599999V0202801N002012200019N0080001N1+03231+01821100181ADDAY141031AY241031GF102991001001999999001011IA1019MA1999999094841MD1210101-0111MW1051REMSYN100AAXX  14031 76393 31958 22802 10323 20182 39484 40018 52010 70544 80001 90255 333 30/// 56005 59011;
0253763930999992008051406004+25733-100300FM-12+051599999V0201101N002010210019N0080001N1+02901+02181100271ADDAY141061AY241061GF108991081001022501021999GJ103849IA1019KA1240M+03901KA2240N+02721MA1999999094911MD1210071-0091MW1051REMSYN124AAXX  14061 76393 31858 81102 10290 20218 39491 40027 52007 70544 8802/ 90555 333 10390 20272 30/// 55064 5605/ 59009 88456;
0223763930999992008051409004+25733-100300FM-12+051599999V0202001N001012200019N0080001N1+02811+02251100261ADDAY141031AY241031GA1021+005101061GF104991021051004501031001IA1019MA1999999094861MD1710051-0011MW1051REMSYN112AAXX  14091 76393 31458 42001 10281 20225 39486 40026 57005 70544 82530 90855 333 30/// 56350 59001 82617 82356;
0278763930999992008051412004+25733-100300FM-12+051599999V0203101N00201036001CN0080001N1+03081+01561100331ADDAA124000091AY141061AY241061GA1041+015001061GF107991041051012501031011IA1019KA1240M+03901KA2120N+02601MA1999999094881MD1210021+0031MW1051REMSYN130AAXX  14121 76393 31658 73102 10308 20156 39488 40033 52002 70544 84531 91155 333 10390 20260 30250 56355 58003 70000 84650 82356;
0217763930999992008051415004+25733-100300FM-12+051599999V0201201N001010090019N0100001N1+03221+02331100431ADDAY141031AY241031GA1071+009001061GF107991071071008001999999IA1019MA1999999094981MD1210101-0121MW1051REMSYN106AAXX  14151 76393 31560 71201 10322 20233 39498 40043 52010 70544 877// 91450 333 30/// 563// 59012 87630;
0296763930999992008051418004+25733-100300FM-12+051599999V0200901N00501036001CN0080001N1+03521+02151100421ADDAY141061AY241061GA1021+013501081GF106991021021012501031001IA1019KA1120M+04001KA2240N+02601MA1999999094981MD1710011-0131MW1051REMSYN124AAXX  14181 76393 31658 60905 10352 20215 39498 40042 51000 70544 82230 91750 333 10400 20260 30/// 56350 59013 82845 84360;EQDQ01+000012APCTENQ02+000002APC3  
0240763930999992008051421004+25733-100300FM-12+051599999V0201701N00101015001CN0060001N1+03541+01901100181ADDAA103000991AY141031AY241031GA1031+015001071GF107991071021017501999999IA1019MA1999999094791MD1510291-0061MW1051REMSYN118AAXX  14211 76393 31756 71701 10354 20190 39479 40018 55029 70544 872// 92050 333 30/// 563// 59006 69997 83750 84856;
0180763930999992008051500004+25733-100300FM-12+051599999V0201801N005019999999N0050001N1+02681+02121100471ADDAY161061AY261061GF108991999999004501999999MA1999999095091MD1010301+9999MW1541REMSYN072AAXX  15001 76393 01450 81805 10268 20212 39509 40047 50030 69921 75466;EQDQ01  00002PRCP06
0253763930999992008051506004+25733-100300FM-12+051599999V0201701N001010075019N0050001N1+02701+01861100721ADDAY141061AY221061GF108991081051008001999999GJ101629IA1019KA1240M+04001KA2240N+02601MA1999999095251MD1210071+0341MW1041REMSYN124AAXX  15061 76393 31550 81701 10270 20186 39525 40072 52007 70442 885// 90550 333 10400 20260 30/// 55027 56399 58034 88628;
0217763930999992008051509004+25733-100300FM-12+051599999V0203001N001010036019N0040001N1+02441+02071100701ADDAY141031AY221031GA1071+003601061GF107991071051004501999999IA1019MA1999999095191MD1710061+0331MW1041REMSYN106AAXX  15091 76393 31440 73001 10244 20207 39519 40070 57006 70442 875// 90850 333 30/// 56399 58033 87612;
0272763930999992008051512004+25733-100300FM-12+051599999V0202101N001010108019N0060001N1+02721+01651100571ADDAA124001391AY141061AY221061GA1071+010801061GF107991071051012501999999IA1019KA1240M+04001KA2120N+02341MA1999999095051MD1710141+0171MW1041REMSYN124AAXX  15121 76393 31656 72101 10272 20165 39505 40057 57014 70442 875// 91150 333 10400 20234 30230 56399 58017 70013 87636;
0195763930999992008051515004+25733-100300FM-12+051599999V0200401N00201036001CN0100001N1+02451+01851101051ADDGA1041+006001061GF107991041041008001021999IA1019MA1999999095481MD1210431+0501REMSYN106AAXX  15151 76393 32560 70402 10245 20185 39548 40105 52043 8442/ 91450 333 30/// 5635/ 58050 84620 83456;
0233763930999992008051518004+25733-100300FM-12+051599999V0201001N001010060019N0150001N1+02601+01981101021ADDGA1051+006001061GF108991051041008001021999IA1019KA1120M+02741KA2240N+02341MA1999999095491MD1010011+0511REMSYN118AAXX  15181 76393 32565 81001 10260 20198 39549 40102 50001 8542/ 91750 333 10274 20234 30/// 5635/ 58051 85620 83456;
0240763930999992008051521004+25733-100300FM-12+051599999V0200701N002010075019N0140001N1+02741+01971100931ADDAA103000991AY151031AY221031GA1071+007501061GF108991071051008001021999IA1019MA1999999095381MD1010111+0591MW1051REMSYN118AAXX  15211 76393 22564 80702 10274 20197 39538 40093 50011 70552 8752/ 92050 333 30/// 5635/ 58059 69997 87625 81456;
0196763930999992008051600004+25733-100300FM-12+051599999V0201001N002019999999N0140001N1+02621+01951100671ADDAY151061AY221061GF108991999999008001999999MA1999999095131MD1810251+9999MW1051REMSYN072AAXX  16001 76393 01564 81002 10262 20195 39513 40067 58025 69921 70552;EQDQ01  00002PRCP06Q02  00002PRCP06
0189763930999992008051603004+25733-100300FM-12+051599999V0201301N002012200019N0120001N1+02311+02131100961ADDGA1031+018001031GF104991031001022501031011IA1019MA1999999095411MD1210081+0231REMSYN100AAXX  16031 76393 32862 41302 10231 20213 39541 40096 52008 83031 90255 333 30/// 56055 58023 83356;
0225763930999992008051606004+25733-100300FM-12+051599999V0201901N001010042019N0120001N1+02521+02041101301ADDGF107991071051004501999999GJ100729IA1019KA1240M+02941KA2240N+02341MA1999999095721MD1210311+0471REMSYN118AAXX  16061 76393 32462 71901 10252 20204 39572 40130 52031 875// 90555 333 10294 20234 30/// 55012 565// 58047 87616;
0228763930999992008051609004+25733-100300FM-12+051599999V0203301N002010006019N0050001N1+02131+02061101191ADDAA103000791AY151031AY221031GA1071+000601071GF107991071071000751999999IA1099MA1999999095591MD1510131+0401MW1051REMSYN106AAXX  16091 76393 21150 73302 10213 20206 39559 40119 55013 70552 877// 90850 333 31/// 58040 69977 87702;
0261763930999992008051612004+25733-100300FM-12+051599999V0203301N003010033019N0160001N1+01981+01631101561ADDAA106001091AA224001391GA1061+003301061GF107991061051004501031999IA1019KA1240M+02941KA2120N+01931MA1999999095921MD1210331+0871REMSYN124AAXX  16121 76393 12466 73303 10198 20163 39592 40156 52033 60011 8653/ 91155 333 10294 20193 30187 5645/ 58087 70013 86611;
0217763930999992008051615004+25733-100300FM-12+051599999V0200201N001010051019N0100001N1+02141+01621101771ADDAY141031AY221031GA1081+005101061GF108991081051004501999999IA1019MA1999999096091MD1210171+0611MW1041REMSYN106AAXX  16151 76393 31460 80201 10214 20162 39609 40177 52017 70442 885// 91450 333 30/// 56399 58061 88617;
0261763930999992008051618004+25733-100300FM-12+051599999V0201401N001010030019N0140001N1+02341+02041101721ADDAA103000991AA206001091GA1071+003001061GF107991071051002501999999IA1019KA1120M+02451KA2240N+01931MA1999999096041MD1710041+0551REMSYN124AAXX  16181 76393 02364 71401 10234 20204 39604 40172 57004 69991 875// 91750 333 10245 20193 30/// 56399 58055 69997 87610;
0234763930999992008051621004+25733-100300FM-12+051599999V0200901N001010045019N0100001N1+02241+01801101521ADDAA103000991AY141031AY221031GA1081+004501061GF108991081051004501999999IA1019MA1999999095861MD1710181+0481MW1041REMSYN112AAXX  16211 76393 21460 80901 10224 20180 39586 40152 57018 70442 885// 92055 333 30/// 56399 58048 69997 88615;
0172763930999992008051700004+25733-100300FM-12+051599999V0200301N001019999999N0040001N1+01981+01861101531ADDAA106002091AY151061AY221061GF108991999999001501999999MA1999999095871MD1210011+9999MW1501REMSYN072AAXX  17001 76393 01240 80301 10198 20186 39587 40153 52001 60021 75052;
0234763930999992008051703004+25733-100300FM-12+051599999V0200601N001010012019N0020001N1+01861+01741101691ADDAA103002091AY151031AY221031GA1081+001201071GF108991081041001501999999IA1099MA1999999095981MD1310111+0591MW1501REMSYN112AAXX  17031 76393 11220 80601 10186 20174 39598 40169 53011 75052 884// 90255 333 31/// 56599 58059 60027 88704;
0172763930999992008051706004+25733-100300FM-12+051599999V0200201N002019999999N0010001N1+01741+01651101871ADDAA106004191AY151061AY221061GF108991999999000751999999MA1999999096131MD1110151+9999MW1501REMSYN072AAXX  17061 76393 01110 80202 10174 20165 39613 40187 51015 60041 75052;
0234763930999992008051709004+25733-100300FM-12+051599999V0203601N002010009019N0020001N1+01741+01651101701ADDAA103003091AY151031AY221031GA1081+000901071GF108991081071000751999999IA1119MA1999999095941MD1710191+0351MW1501REMSYN112AAXX  17091 76393 11120 83602 10174 20165 39594 40170 57019 75052 887// 90855 333 32/// 56399 58035 60037 88703;
0172763930999992008051712004+25733-100300FM-12+051599999V0200301N001019999999N0020001N1+01701+01541101761ADDAA106006191AY151061AY221061GF108991999999001501999999MA1999999095981MD1410001+9999MW1501REMSYN072AAXX  17121 76393 01220 80301 10170 20154 39598 40176 54004 60061 75052;
0259763930999992008051715004+25733-100300FM-12+051599999V0209999C000010021019N0050001N1+01881+01671101871ADDAA103000391AY141031AY251031GA1021+001801071GF108991999061002501051999IA1099MA1999999096101MD1110121+0011MW1501REMSYN118AAXX  17151 76393 21350 80000 10188 20167 39610 40187 51012 75045 8865/ 91450 333 31/// 563// 58001 69937 82706 86607;EQDQ01+000082SCOTLC
0172763930999992008051718004+25733-100300FM-12+051599999V0202001N001019999999N0100001N1+02321+01691101761ADDAA106000391AY141061AY221061GF106991999999008001999999MA1999999096021MD1710121+9999MW1051REMSYN072AAXX  17181 76393 11560 62001 10232 20169 39602 40176 57012 69931 70542;
0195763930999992008051721004+25733-100300FM-12+051599999V0201001N00101036001CN0150001N1+02521+01791101451ADDGA1041+007501061GF107991041041008001021999IA1019MA1999999095761MD1710271-0101REMSYN106AAXX  17211 76393 32565 71001 10252 20179 39576 40145 57027 8442/ 92050 333 30/// 5635/ 59010 84625 83456;
0256763930999992008051800004+25733-100300FM-12+051599999V0201701N004010360019N0150001N1+02401+01811101251ADDAA124009691GA1041+005701061GF106991041041004501041999IA1019KA1120M+02651KA2180N+01501MA1999999095621MD1710141-0251REMSYN130AAXX  18001 76393 32465 61704 10240 20181 39562 40125 57014 8444/ 92350 333 10265 20150 30/// 50291 5635/ 59025 70096 84619 82356;
0225763930999992008051806004+25733-100300FM-12+051599999V0202201N001012200019N0100001N1+02081+01691101471ADDGF103991031051004501001001GJ101209IA1019KA1240M+02651KA2240N+01501MA1999999095851MD1210041-0281REMSYN118AAXX  18061 76393 32460 32201 10208 20169 39585 40147 52004 83500 90555 333 10265 20150 30/// 55020 56700 59028 83613;
0189763930999992008051809004+25733-100300FM-12+051599999V0202101N001012200019N0100001N1+02021+01641101311ADDGA1021+003601061GF102991021051004501001001IA1019MA1999999095681MD1710171-0261REMSYN100AAXX  18091 76393 32460 22101 10202 20164 39568 40131 57017 82500 90850 333 30/// 56700 59026 82612;
0272763930999992008051812004+25733-100300FM-12+051599999V0202101N001012200019N0080001N1+01861+01691101411ADDAA124000391AY141061AY241061GA1021+001501061GF102991021051001501001001IA1019KA1240M+02651KA2120N+01741MA1999999095741MD1210061+0261MW1051REMSYN124AAXX  18121 76393 31258 22101 10186 20169 39574 40141 52006 70544 82500 91155 333 10265 20174 30170 56700 58026 70003 82605;
0217763930999992008051815004+25733-100300FM-12+051599999V0202501N001012200019N0060001N1+02561+01731101441ADDAY141031AY241031GA1021+008401081GF102991021071008001001001IA1019MA1999999095771MD1210031-0231MW1051REMSYN106AAXX  18151 76393 31556 22501 10256 20173 39577 40144 52003 70544 82700 91450 333 30/// 56700 59023 82828;
0255763930999992008051818004+25733-100300FM-12+051599999V0200901N001012200019N0080001N1+03021+01701101301ADDAY141061AY241061GA1021+013201081GF104991041021022501001001IA1019KA1120M+03151KA2240N+01741MA1999999095671MD1710101-0351MW1051REMSYN118AAXX  18181 76393 31858 40901 10302 20170 39567 40130 57010 70544 84200 91750 333 10315 20174 30/// 56500 59035 82844;
0217763930999992008051821004+25733-100300FM-12+051599999V0203601N001012200019N0100001N1+03301+01551101001ADDAY141031AY241031GA1031+018001081GF103991031021017501001001IA1019MA1999999095431MD1710241-0331MW1051REMSYN106AAXX  18211 76393 31760 33601 10330 20155 39543 40100 57024 70544 83200 92050 333 30/// 563// 59033 83856;
0262763930999992008051900004+25733-100300FM-12+051599999V0201201N003010150019N0120001N1+03221+01551100801ADDAA124000091AY141061AY241061GF105991051021017501001001IA1019KA1120M+03481KA2180N+01741MA1999999095311MD1610121-0311MW1051REMSYN130AAXX  19001 76393 31762 51203 10322 20155 39531 40080 56012 70544 85200 92350 333 10348 20174 30/// 50481 56300 59031 70000 85850;
0195763930999992008051903004+25733-100300FM-12+051599999V0201501N001012200019N0180001N1+02881+01591100921ADDGA1011+024001031GF102991011001022501031041IA1019MA1999999095451MD1310141-0361REMSYN106AAXX  19031 76393 32868 21501 10288 20159 39545 40092 53014 81034 90255 333 30/// 56035 59036 81358 81074;
0247763930999992008051906004+25733-100300FM-12+051599999V0201801N001012200019N0180001N1+02541+01671101051ADDGA1011+024001031GF102991011001022501031041GJ106789IA1019KA1240M+03481KA2240N+01741MA1999999095561MD1310111-0291REMSYN124AAXX  19061 76393 32868 21801 10254 20167 39556 40105 53011 81034 90555 333 10348 20174 30/// 55113 56035 59029 81358 81074;
0195763930999992008051909004+25733-100300FM-12+051599999V0202301N001012200019N0180001N1+02281+01541100961ADDGA1011+024001031GF102991011001022501031041IA1019MA1999999095441MD1610121-0241REMSYN106AAXX  19091 76393 32868 22301 10228 20154 39544 40096 56012 81034 90855 333 30/// 56035 59024 81358 81074;
0250763930999992008051912004+25733-100300FM-12+051599999V0202201N001012200019N0180001N1+02261+01521101021ADDAA124000091GA1011+024001031GF102991011001022501031041IA1019KA1240M+03481KA2120N+02141MA1999999095451MD1410001-0291REMSYN124AAXX  19121 76393 32868 22201 10226 20152 39545 40102 54001 81034 91155 333 10348 20214 30180 56055 59029 70000 81358 81074;
0195763930999992008051915004+25733-100300FM-12+051599999V0201801N001012200019N0180001N1+02841+01721101181ADDGA1011+011101061GF102991011041012501041001IA1019MA1999999095591MD1710141-0181REMSYN106AAXX  19151 76393 32668 21801 10284 20172 39559 40118 57014 81440 91450 333 30/// 5635/ 59018 81637 81356;
0233763930999992008051918004+25733-100300FM-12+051599999V0201101N001012200019N0250001N1+03421+01481100981ADDGA1021+015001061GF103991031041017501041001IA1019KA1120M+03521KA2240N+02141MA1999999095431MD1710161-0241REMSYN118AAXX  19181 76393 32775 31101 10342 20148 39543 40098 57016 83440 91750 333 10352 20214 30/// 56359 59024 82650 81356;
0217763930999992008051921004+25733-100300FM-12+051599999V0201101N00301018001CN0220001N1+03561+01391100661ADDGA1031+015001061GA2021+018001031GF107991031041022501041041IA1019MA1999999095181MD1710251-0251REMSYN112AAXX  19211 76393 32872 71103 10356 20139 39518 40066 57025 83444 92050 333 30/// 56357 59025 83650 82356 82070;
0256763930999992008052000004+25733-100300FM-12+051599999V0202201N004012200019N0220001N1+03301+01551100451ADDAA124000091GA1031+015001061GF104991031041017501041001IA1019KA1120M+03721KA2180N+02141MA1999999095031MD1610151-0281REMSYN130AAXX  20001 76393 32772 42204 10330 20155 39503 40045 56015 83440 92350 333 10372 20214 30/// 50851 56359 59028 70000 83650 81356;
0195763930999992008052003004+25733-100300FM-12+051599999V0200601N001012200019N0140001N1+02751+01611100591ADDGA1011+011401061GF104991011051017501031011IA1019MA1999999095171MD1210141-0281REMSYN106AAXX  20031 76393 32764 40601 10275 20161 39517 40059 52014 81531 90255 333 30/// 56355 59028 81638 82356;
0219763930999992008052006004+25733-100300FM-12+051599999V0209999C000012200019N0140001N1+02501+01661100741ADDGF102991011001022501031011GJ105349IA1019KA1240M+03721KA2240N+02141MA1999999095281MD1210111+9999REMSYN112AAXX  20061 76393 32864 20000 10250 20166 39528 40074 52011 81031 90555 333 10372 20214 30/// 55089 56055 59028;
0167763930999992008052009004+25733-100300FM-12+051599999V0201001N001012200019N0120001N1+02301+01771100681ADDGF102991001001999999001061IA1019MA1999999095181MD1610101-0261REMSYN094AAXX  20091 76393 32962 21001 10230 20177 39518 40068 56010 80006 90850 333 30/// 56005 59026;
0244763930999992008052012004+25733-100300FM-12+051599999V0202801N001010600019N0160001N1+02361+01601100751ADDAA124000091GA1061+060001001GF107991011001022501031041IA1019KA1240M+03721KA2120N+02171MA1999999095191MD1210011-0091REMSYN118AAXX  20121 76393 32866 72801 10236 20160 39519 40075 52001 81034 91155 333 10372 20217 30186 56055 59009 70000 86070;
0217763930999992008052015004+25733-100300FM-12+051599999V0202301N001012200019N0140001N1+03121+02091100741ADDAY141031AY241031GA1021+010201061GF102991021051012501001001IA1019MA1999999095181MD1710011-0411MW1051REMSYN106AAXX  20151 76393 31664 22301 10312 20209 39518 40074 57001 70544 82500 91450 333 30/// 56100 59041 82634;
0255763930999992008052018004+25733-100300FM-12+051599999V0203601N002012200019N0040001N1+03721+01461100561ADDAY141061AY241061GA1041+021001081GF104991041021022501001001IA1019KA1120M+03891KA2240N+02171MA1999999095051MD1710131-0381MW1051REMSYN118AAXX  20181 76393 31840 43602 10372 20146 39505 40056 57013 70544 84200 91750 333 10389 20217 30/// 56500 59038 84857;
0223763930999992008052021004+25733-100300FM-12+051599999V0202501N003010180019N0100001N1+03641+01781100321ADDAY141031AY241031GA1061+018001081GF107991071021017501999999IA1019MA1999999094871MD1610181-0311MW1051REMSYN112AAXX  20211 76393 31760 72503 10364 20178 39487 40032 56018 70544 872// 92050 333 30/// 563// 59031 86856 81657;
0262763930999992008052100004+25733-100300FM-12+051599999V0201201N003010150019N0120001N1+03281+01641100291ADDAA124000091AY141061AY241061GF107991071041017501999999IA1019KA1120M+03981KA2180N+02171MA1999999094901MD1310031-0131MW1051REMSYN130AAXX  21001 76393 31762 71203 10328 20164 39490 40029 53003 70544 874// 92350 333 10398 20217 30/// 50701 563// 59013 70000 87656;
0195763930999992008052103004+25733-100300FM-12+051599999V0201801N001012200019N0200001N1+03041+01761100271ADDGA1031+012901061GF104991031041012501031001IA1019MA1999999094901MD1410001-0271REMSYN106AAXX  21031 76393 32670 41801 10304 20176 39490 40027 54000 83430 90255 333 30/// 56350 59027 83643 81358;
0247763930999992008052106004+25733-100300FM-12+051599999V0201201N001012200019N0200001N1+02721+01581100371ADDGA1021+011401061GF104991021041012501031001GJ105529IA1019KA1240M+03981KA2240N+02171MA1999999094971MD1410001-0311REMSYN124AAXX  21061 76393 32670 41201 10272 20158 39497 40037 54007 82430 90555 333 10398 20217 30/// 55092 56350 59031 82638 82358;
0208763930999992008052109004+25733-100300FM-12+051599999V0202301N001012200019N0200001N1+02421+01351100251ADDGA1021+072001001GF102991001001999999001041IA1019MA1999999094801MD1610171-0381REMSYN100AAXX  21091 76393 32970 22301 10242 20135 39480 40025 56017 82004 90855 333 30/// 56005 59038 82074;EQDQ01+000022SCOTLC
0250763930999992008052112004+25733-100300FM-12+051599999V0202201N001012200019N0190001N1+02401+01481100251ADDAA124000091GA1011+024001031GF102991011001022501031041IA1019KA1240M+03981KA2120N+02341MA1999999094751MD1410001-0441REMSYN124AAXX  21121 76393 32869 22201 10240 20148 39475 40025 54005 81034 91155 333 10398 20234 30200 56055 59044 70000 81358 81074;
0189763930999992008052115004+25733-100300FM-12+051599999V0201001N001012200019N0200001N1+02861+01571100411ADDGA1011+060001001GF102991001001999999001041IA1019MA1999999094891MD1010161-0291REMSYN100AAXX  21151 76393 32970 21001 10286 20157 39489 40041 50016 80004 91450 333 30/// 56995 59029 81070;
0227763930999992008052118004+25733-100300FM-12+051599999V0201301N002012200019N0240001N1+03501+01591100211ADDGA1011+015001081GF101991011031017501001001IA1019KA1120M+03551KA2240N+02341MA1999999094721MD1710171-0331REMSYN112AAXX  21181 76393 32774 11302 10350 20159 39472 40021 57017 81300 91750 333 10355 20234 30/// 56399 59033 81850;
0195763930999992008052121004+25733-100300FM-12+051599999V0201501N002012200019N0240001N1+03761+01461099911ADDGA1021+015001061GF103991021041022501001041IA1019MA1999999094391MD1710331-0481REMSYN106AAXX  21211 76393 32874 31502 10376 20146 39439 49991 57033 82404 92050 333 30/// 56307 59048 82650 81070;
0256763930999992008052200004+25733-100300FM-12+051599999V0201101N004012200019N0220001N1+03501+01821099551ADDAA124000091GA1021+015001061GF103991021041017501001041IA1019KA1120M+03801KA2180N+02341MA1999999094191MD1710201-0711REMSYN130AAXX  22001 76393 32772 31104 10350 20182 39419 49955 57020 82404 92350 333 10380 20234 30/// 50961 56307 59071 70000 82650 81070;
0171763930999992008052203004+25733-100300FM-12+051599999V0201101N001012200019N0120001N1+02941+01981099561ADDGA1001+999999999GF100991001001999999001001IA1019MA1999999094231MD1210041-0671REMSYN082AAXX  22031 76393 32962 01101 10294 20198 39423 49956 52004 90255 333 30/// 59067;
0223763930999992008052206004+25733-100300FM-12+051599999V0201201N002012200019N0120001N1+02651+01931099621ADDGA1001+999999999GF100991001001999999001001GJ107089IA1019KA1240M+03801KA2240N+02341MA1999999094261MD1010031-0711REMSYN100AAXX  22061 76393 32962 01202 10265 20193 39426 49962 50003 90555 333 10380 20234 30/// 55118 59071;
0173763930999992008052209004+25733-100300FM-12+051599999V0209999C000019999999N0060001N1+02451+02181999999ADDGF106991999999002501999999MA1999999094151MD1999999-0651REMSYN106AAXX  22091 76393 32356 60000 10245 20218 39415 39956 57011 70544 86500 90805 333 30/// 56700 59065 86609;
0278763930999992008052212004+25733-100300FM-12+051599999V0202901N001012200019N0040001N1+02401+02181099621ADDAA124000091AY141061AY241061GA1011+002101061GF102991021081002501001001IA1019KA1240M+03801KA2120N+02371MA1999999094161MD1210011-0591MW1051REMSYN130AAXX  22121 76393 31340 22901 10240 20218 39416 49962 52001 70544 82800 91155 333 10380 20237 30222 56700 59059 70000 81607 81817;
0199763930999992008052215004+25733-100300FM-12+051599999V0209999C000012200019N0070001N1+03021+01911099601ADDAY141031AY241031GA1001+999999999GF100991001001999999001001IA1019MA1999999094121MD1710041-0771MW1051REMSYN088AAXX  22151 76393 31957 00000 10302 20191 39412 49960 57004 70544 91450 333 30/// 59077;
0255763930999992008052218004+25733-100300FM-12+051599999V0200901N002012200019N0060001N1+03681+01981099531ADDAY141061AY241061GA1011+018001081GF101991011021017501001001IA1019KA1120M+03801KA2240N+02371MA1999999094091MD1710031-0631MW1051REMSYN118AAXX  22181 76393 31756 10902 10368 20198 39409 49953 57003 70544 81200 91750 333 10380 20237 30/// 56500 59063 81856;
0217763930999992008052221004+25733-100300FM-12+051599999V0201601N003012200019N0100001N1+04001+01721099311ADDAY141031AY241031GA1041+021001081GF104991041021022501001001IA1019MA1999999093941MD1710051-0451MW1051REMSYN106AAXX  22211 76393 31860 41603 10400 20172 39394 49931 57005 70544 84200 92050 333 30/// 56500 59045 84857;
0281763930999992008052300004+25733-100300FM-12+051599999V0201901N002019999999N0100001N1+03841+01981099081ADDAA124000091AY141061AY241061GF105991999021017501001001IA1019KA1120M+04131KA2180N+02371MA1999999093791MD1710151-0401MW1051REMSYN130AAXX  23001 76393 31760 51902 10384 20198 39379 49908 57015 70544 83200 92350 333 10413 20237 30/// 50741 56500 59040 70000 85857;EQDQ01+000032SCOTLC
0189763930999992008052303004+25733-100300FM-12+051599999V0202101N001012200019N0180001N1+03401+02041099231ADDGA1011+013801061GF101991011031012501001001IA1019MA1999999093961MD1210171-0301REMSYN100AAXX  23031 76393 32668 12101 10340 20204 39396 49923 52017 81300 90255 333 30/// 56300 59030 81646;
0247763930999992008052306004+25733-100300FM-12+051599999V0200601N002012200019N0180001N1+03001+02081099481ADDGA1011+009301061GF103991011031008001041001GJ106609IA1019KA1240M+04131KA2240N+02371MA1999999094191MD1210231-0071REMSYN124AAXX  23061 76393 32568 30602 10300 20208 39419 49948 52023 81340 90555 333 10413 20237 30/// 55110 56350 59007 81631 82358;
0208763930999992008052309004+25733-100300FM-12+051599999V0209999C000012200019N0180001N1+02801+02131099581ADDGA1021+072001001GF102991001001999999001041IA1019MA1999999094231MD1410001+0081REMSYN100AAXX  23091 76393 32968 20000 10280 20213 39423 49958 54004 82004 90855 333 30/// 56005 58008 82074;EQDQ01+000022SCOTLC
0245763930999992008052312004+25733-100300FM-12+051599999V0203101N005012200019N0160001N1+03021+01201099711ADDAA124000091GA1001+999999999GF100991001001999999001001IA1019KA1240M+04131KA2120N+02701MA1999999094311MD1410001+0151REMSYN100AAXX  23121 76393 32966 03105 10302 20120 39431 49971 54008 91155 333 10413 20270 30230 58015 70000;EQDQ01  00002PRCP24
0199763930999992008052315004+25733-100300FM-12+051599999V0202001N001012200019N0120001N1+03591+01391100041ADDAY101031AY201031GA1001+999999999GF100991001001999999001001IA1019MA1999999094611MD1210301+0491MW1041REMSYN088AAXX  23151 76393 31962 02001 10359 20139 39461 40004 52030 70400 91455 333 30/// 58049;
0237763930999992008052318004+25733-100300FM-12+051599999V0201201N003012200019N0100001N1+03821+01731099981ADDAY141061AY241061GA1001+999999999GF100991001001999999001001IA1019KA1120M+04021KA2240N+02701MA1999999094581MD1010031+0491MW1051REMSYN100AAXX  23181 76393 31960 01203 10382 20173 39458 49998 50003 70544 91750 333 10402 20270 30/// 58049;
0217763930999992008052321004+25733-100300FM-12+051599999V0201201N002012200019N0080001N1+04141+01761099831ADDAY141031AY241031GA1011+024001081GF101991011021022501001001IA1019MA1999999094491MD1710091+0451MW1051REMSYN106AAXX  23211 76393 31858 11202 10414 20176 39449 49983 57009 70544 81200 92055 333 30/// 56500 58045 81858;
0262763930999992008052400004+25733-100300FM-12+051599999V0201601N001012200019N0100001N1+03981+01721099681ADDAA124000091AY141061AY241061GF101991011021022501001001IA1019KA1120M+04221KA2180N+02701MA1999999094401MD1610091+0611MW1051REMSYN130AAXX  24001 76393 31860 11601 10398 20172 39440 49968 56009 70544 81200 92350 333 10422 20270 30/// 51041 56500 58061 70000 81857;
0171763930999992008052403004+25733-100300FM-12+051599999V0201501N002012200019N0120001N1+03381+01791099911ADDGA1001+999999999GF100991001001999999001001IA1019MA1999999094621MD1210221+0661REMSYN082AAXX  24031 76393 32962 01502 10338 20179 39462 49991 52022 90255 333 30/// 58066;
0229763930999992008052406004+25733-100300FM-12+051599999V0201301N003012200019N0120001N1+02901+02141100151ADDGA1001+999999999GF100991001001999999001001GJ107149IA1019KA1240M+04221KA2240N+02511MA1999999094811MD1210191+9999REMSYN106AAXX  24061 76393 32962 01303 10290 20214 39481 40015 52019 90555 333 10422 20251 30/// 54218 55119 58062;
0189763930999992008052409004+25733-100300FM-12+051599999V0201301N002012200019N0120001N1+02581+02331100241ADDGA1021+002401061GF102991021051002501001001IA1019MA1999999094841MD1210031+0611REMSYN100AAXX  24091 76393 32362 21302 10258 20233 39484 40024 52003 82500 90850 333 30/// 56300 58061 82608;
0272763930999992008052412004+25733-100300FM-12+051599999V0201301N001010021019N0050001N1+02511+02301100531ADDAA124000091AY141061AY241061GA1081+002101061GF108991081051002501999999IA1019KA1240M+04221KA2120N+02501MA1999999094961MD1210121+0651MW1051REMSYN124AAXX  24121 76393 31350 81301 10251 20230 39496 40053 52012 70544 885// 91155 333 10422 20250 30246 563// 58065 70000 88607;
0217763930999992008052415004+25733-100300FM-12+051599999V0201101N001010033019N0080001N1+02661+02331100611ADDAY111031AY211031GA1081+003301061GF108991081051004501999999IA1019MA1999999095081MD1210121+0471MW1051REMSYN106AAXX  24151 76393 31458 81101 10266 20233 39508 40061 52012 70511 885// 91450 333 30/// 563// 58047 88611;
0255763930999992008052418004+25733-100300FM-12+051599999V0201201N001012200019N0040001N1+03221+02361100651ADDAY141061AY241061GA1011+008701081GF101991011021008001001001IA1019KA1120M+03341KA2240N+02501MA1999999095131MD1710051+0551MW1051REMSYN118AAXX  24181 76393 31540 11201 10322 20236 39513 40065 57005 70544 81200 91750 333 10334 20250 30/// 56300 58055 81829;
0217763930999992008052421004+25733-100300FM-12+051599999V0201001N003012200019N0050001N1+03481+02391100471ADDAY141031AY241031GA1021+010801081GF102991021021012501001001IA1019MA1999999095001MD1710131+0511MW1051REMSYN106AAXX  24211 76393 31650 21003 10348 20239 39500 40047 57013 70544 82200 92050 333 30/// 56300 58051 82836;
0306763930999992008052500004+25733-100300FM-12+051599999V0201501N003012200019N0060001N1+03541+02171100371ADDAA124000091AY141061AY241061GA1011+013501081GA2011+013801091GF104991021021012501001031IA1019KA1120M+03721KA2180N+02501MA1999999094951MD1510051+0551MW1051REMSYN142AAXX  25001 76393 31656 41503 10354 20217 39495 40037 55005 70544 82203 92350 333 10372 20250 30/// 50931 56101 58055 70000 81845 81946 82070;
0217763930999992008052503004+25733-100300FM-12+051599999V0201601N006012200019N0180001N1+03321+02171100441ADDGA1011+011401081GA2011+024001031GF103991011021012501041031IA1019MA1999999095051MD1310101+0431REMSYN112AAXX  25031 76393 32668 31606 10332 20217 39505 40044 53010 81243 90255 333 30/// 56355 58043 81838 81358 81074;
0225763930999992008052506004+25733-100300FM-12+051599999V0201301N005012200019N0160001N1+02841+02201100611ADDGF102991021021008001001001GJ105409IA1019KA1240M+03721KA2240N+02501MA1999999095201MD1110151+0391REMSYN118AAXX  25061 76393 32566 21305 10284 20220 39520 40061 51015 82200 90555 333 10372 20250 30/// 55090 56300 58039 82621;
0189763930999992008052509004+25733-100300FM-12+051599999V0201201N006012200019N0170001N1+02581+02191100611ADDGA1031+003901061GF103991031031004501001001IA1019MA1999999095161MD1410001+0321REMSYN100AAXX  25091 76393 32467 31206 10258 20219 39516 40061 54004 83300 90855 333 30/// 56300 58032 83613;
0172763930999992008052512004+25733-100300FM-12+051599999V0200901N006019999999N0040001N1+02381+02271100711ADDAA106001091AY151061AY211061GF107991999999001501999999MA1999999095211MD1410001+9999MW1501REMSYN072AAXX  25121 76393 21240 70906 10238 20227 39521 40071 54005 69991 75051;
0234763930999992008052515004+25733-100300FM-12+051599999V0201001N002010006019N0020001N1+02401+02321100981ADDAA103000391AY151031AY211031GA1081+000601071GF108991081061000751999999IA1099MA1999999095431MD1210221+0551MW1501REMSYN112AAXX  25151 76393 21120 81002 10240 20232 39543 40098 52022 75051 886// 91450 333 31/// 563// 58055 69937 88702;
0172763930999992008052518004+25733-100300FM-12+051599999V0200901N004012200019N0100001N1+03121+02851100941ADDAA106000391AY141061AY221061GF103991999999000751999999MA1999999095391MD1010241+9999MW1051REMSYN072AAXX  25181 76393 12160 30904 10312 20285 39539 40094 50024 69931 70542;
0189763930999992008052521004+25733-100300FM-12+051599999V0200901N004012200019N0150001N1+03541+02071100631ADDGA1021+014701061GF102991021041012501001001IA1019MA1999999095131MD1710261+0131REMSYN100AAXX  25211 76393 32665 20904 10354 20207 39513 40063 57026 82400 92050 333 30/// 56399 58013 82649;
0256763930999992008052600004+25733-100300FM-12+051599999V0201501N004012200019N0220001N1+03501+01781100441ADDAA124000391GA1011+015001081GF104991041021017501001001IA1019KA1120M+03651KA2180N+02301MA1999999095001MD1510131+0051REMSYN130AAXX  26001 76393 32772 41504 10350 20178 39500 40044 55013 84200 92350 333 10365 20230 30/// 50741 56399 58005 70003 81850 83650;
0195763930999992008052603004+25733-100300FM-12+051599999V0201401N004012200019N0120001N1+02921+02201100541ADDGA1011+007201081GF104991041021008001001001IA1019MA1999999095121MD1210121+0071REMSYN106AAXX  26031 76393 32562 41404 10292 20220 39512 40054 52012 84200 90255 333 30/// 56300 58007 81824 83624;
0275763930999992008052606004+25733-100300FM-12+051599999V0201301N005012200019N0060001N1+02631+02191100621ADDAY141061AY241061GA1011+004201081GF102991021081004501001001GJ104929IA1019KA1240M+03651KA2240N+02301MA1999999095191MD1210071-0011MW1051REMSYN130AAXX  26061 76393 31456 21305 10263 20219 39519 40062 52007 70544 82800 90555 333 10365 20230 30/// 55082 56300 59001 81814 81621;
0217763930999992008052609004+25733-100300FM-12+051599999V0201201N004012200019N0060001N1+02441+02151100481ADDAY141031AY241031GA1021+002701061GF102991021051002501001001IA1019MA1999999095021MD1710171-0141MW1051REMSYN106AAXX  26091 76393 31356 21204 10244 20215 39502 40048 57017 70544 82500 90850 333 30/// 56300 59014 82609;
0278763930999992008052612004+25733-100300FM-12+051599999V0201601N001010039019N0060001N1+02541+02131100631ADDAA124000391AY141061AY241061GA1051+003901061GF108991051051004501011999IA1019KA1240M+03651KA2120N+02421MA1999999095111MD1210091-0101MW1051REMSYN130AAXX  26121 76393 31456 81601 10254 20213 39511 40063 52009 70544 8551/ 91155 333 10365 20242 30238 5635/ 59010 70003 85613 83456;
0217763930999992008052615004+25733-100300FM-12+051599999V0200601N002010039019N0040001N1+02661+02271100751ADDAY141031AY241031GA1071+003901061GF107991071041004501999999IA1019MA1999999095201MD1210091-0231MW1051REMSYN106AAXX  26151 76393 31440 70602 10266 20227 39520 40075 52009 70544 874// 91450 333 30/// 563// 59023 87613;
0255763930999992008052618004+25733-100300FM-12+051599999V0209999C000010093019N0040001N1+03121+02191100711ADDAY141061AY241061GA1061+009301081GF106991061021008001999999IA1019KA1120M+03241KA2240N+02421MA1999999095181MD1710021-0211MW1051REMSYN118AAXX  26181 76393 31540 60000 10312 20219 39518 40071 57002 70544 862// 91750 333 10324 20242 30/// 563// 59021 86831;
0223763930999992008052621004+25733-100300FM-12+051599999V0201001N00601036001CN0060001N1+03541+02331100411ADDAY141031AY241031GA1041+012001081GF105991041021012501031001IA1019MA1999999094931MD1710251-0201MW1051REMSYN112AAXX  26211 76393 31656 51006 10354 20233 39493 40041 57025 70544 84230 92050 333 30/// 56350 59020 84840 81360;
0262763930999992008052700004+25733-100300FM-12+051599999V0201401N006019999999N0060001N1+03401+02261100281ADDAA124000091AY141061AY241061GF107991001001999999041999IA1019KA1120M+03671KA2180N+02421MA1999999094851MD1710081-0151MW1051REMSYN130AAXX  27001 76393 31956 71406 10340 20226 39485 40028 57008 70544 8004/ 92350 333 10367 20242 30/// 50661 5605/ 59015 70000 87360;
0195763930999992008052703004+25733-100300FM-12+051599999V0201901N00101090001CN0100001N1+03201+02091100421ADDGA1041+024001031GF107991041001022501031041IA1019MA1999999095011MD1210161-0111REMSYN106AAXX  27031 76393 32860 71901 10320 20209 39501 40042 52016 84034 90255 333 30/// 56055 59011 84358 83074;
0247763930999992008052706004+25733-100300FM-12+051599999V0201001N005010900019N0100001N1+02761+02241100551ADDGA1041+005401061GF106991041051004501001031GJ103609IA1019KA1240M+03671KA2240N+02421MA1999999095131MD1210121-0061REMSYN124AAXX  27061 76393 32460 61005 10276 20224 39513 40055 52012 84503 90555 333 10367 20242 30/// 55060 56305 59006 84618 82074;
0195763930999992008052709004+25733-100300FM-12+051599999V0200901N002012200019N0120001N1+02521+02011100541ADDGA1021+005101061GF104991021051004501001041IA1019MA1999999095081MD1410001+0061REMSYN106AAXX  27091 76393 32462 40902 10252 20201 39508 40054 54005 82504 90855 333 30/// 56305 58006 82617 82074;
0250763930999992008052712004+25733-100300FM-12+051599999V0201001N004012200019N0160001N1+02421+02021100601ADDAA124000091GA1031+004201061GF104991031051004501001041IA1019KA1240M+03671KA2120N+02381MA1999999095101MD1410001-0011REMSYN124AAXX  27121 76393 32466 41004 10242 20202 39510 40060 54002 83504 91155 333 10367 20238 30235 56305 59001 70000 83614 81074;
0195763930999992008052715004+25733-100300FM-12+051599999V0200501N00201036001CN0080001N1+02541+02001100981ADDGA1041+005401061GF106991041041004501021999IA1019MA1999999095421MD1210281+0221REMSYN106AAXX  27151 76393 32458 60502 10254 20200 39542 40098 52028 8442/ 91450 333 30/// 5635/ 58022 84618 82456;
0227763930999992008052718004+25733-100300FM-12+051599999V0200501N002012200019N0120001N1+03141+02151100961ADDGA1031+009901061GF103991031041008001001001IA1019KA1120M+03241KA2240N+02381MA1999999095411MD1710011+0231REMSYN112AAXX  27181 76393 32562 30502 10314 20215 39541 40096 57001 83400 91750 333 10324 20238 30/// 56399 58023 83633;
0195763930999992008052721004+25733-100300FM-12+051599999V0201201N003012200019N0070001N1+03521+02151100701ADDGA1011+013501081GF103991031021012501999999IA1019MA1999999095201MD1710211+0271REMSYN106AAXX  27211 76393 32657 31203 10352 20215 39520 40070 57021 832// 92050 333 30/// 56399 58027 81845 82646;
0261763930999992008052800004+25733-100300FM-12+051599999V0201301N002010900019N0180001N1+03361+02251100671ADDGA1021+011101061GA2011+018001031GF105991021041012501091041IA1019KA1120M+03601KA2180N+02381MA1999999095221MD1210021+0371REMSYN130AAXX  28001 76393 32668 51302 10336 20225 39522 40067 52002 82494 92350 333 10360 20238 30/// 50871 56357 58037 82637 81356 82070;
0189763930999992008052803004+25733-100300FM-12+051599999V0201601N003012200019N0100001N1+03121+01751100701ADDGA1011+013501081GF102991011011012501001011IA1019MA1999999095271MD1210051+0261REMSYN100AAXX  28031 76393 32660 21603 10312 20175 39527 40070 52005 81101 90255 333 30/// 56305 58026 81845;
0247763930999992008052806004+25733-100300FM-12+051599999V0201201N005012200019N0100001N1+02651+02041100941ADDGA1011+006001081GF102991021081008001001001GJ105349IA1019KA1240M+03601KA2240N+02381MA1999999095501MD1210231+0371REMSYN124AAXX  28061 76393 32560 21205 10265 20204 39550 40094 52023 82800 90255 333 10360 20238 30/// 55089 56300 58037 81820 81628;
0189763930999992008052809004+25733-100300FM-12+051599999V0201201N005010030019N0100001N1+02401+02091101001ADDGA1061+003001061GF106991061051004501001001IA1019MA1999999095511MD1210011+0431REMSYN100AAXX  28091 76393 32460 61205 10240 20209 39551 40100 52001 86500 90855 333 30/// 56300 58043 86610;
0191763930999992008052812004+25733-100300FM-12+051599999V0201401N002019999999N0060001N1+02411+02141101171ADDAA106000091AY141061AY241061GF107991999999002501999999MA1999999095621MD1210021+9999MW1051REMSYN072AAXX  28121 76393 01356 71402 10241 20214 39562 40117 52002 69901 70544;EQDQ01  00002PRCP06
0217763930999992008052815004+25733-100300FM-12+051599999V0201001N005010045019N0060001N1+02641+02201101351ADDAY141031AY241031GA1061+004501081GF106991061021004501999999IA1019MA1999999095771MD1210151+0351MW1051REMSYN106AAXX  28151 76393 31456 61005 10264 20220 39577 40135 52015 70544 862// 91450 333 30/// 563// 58035 86815;
0255763930999992008052818004+25733-100300FM-12+051599999V0201101N006012200019N0080001N1+03081+02201101371ADDAY101061AY201061GA1041+008701081GF104991041021008001001001IA1019KA1120M+03201KA2240N+02361MA1999999095791MD1010021+0381MW1051REMSYN118AAXX  28181 76393 31558 41106 10308 20220 39579 40137 50002 70500 84200 91750 333 10320 20236 30/// 56300 58038 84829;
0217763930999992008052821004+25733-100300FM-12+051599999V0201201N003010180019N0100001N1+03501+01741101171ADDAY101031AY201031GA1061+018001081GF106991061021017501001001IA1019MA1999999095641MD1710151+0441MW1051REMSYN106AAXX  28211 76393 31760 61203 10350 20174 39564 40117 57015 70500 86200 92050 333 30/// 56300 58044 86856;
0262763930999992008052900004+25733-100300FM-12+051599999V0201301N006010150019N0140001N1+03501+01821101071ADDAA124000091AY101061AY201061GF105991051021017501001001IA1019KA1120M+03641KA2180N+02361MA1999999095601MD1610041+0381MW1051REMSYN130AAXX  29001 76393 31764 51306 10350 20182 39560 40107 56004 70500 85200 92350 333 10364 20236 30/// 50731 56300 58038 70000 85850;
0189763930999992008052903004+25733-100300FM-12+051599999V0201401N002012200019N0150001N1+03001+01881101281ADDGA1021+011101081GF102991021011012501001001IA1019MA1999999095821MD1210221+0551REMSYN100AAXX  29031 76393 32665 21402 10300 20188 39582 40128 52022 82100 90250 333 30/// 56300 58055 82837;
0253763930999992008052906004+25733-100300FM-12+051599999V0200901N002012200019N0100001N1+02581+01951101501ADDAY141061AY201061GF104991041011008001001001GJ105769IA1019KA1240M+03641KA2240N+02361MA1999999096021MD1210201+0521MW1041REMSYN124AAXX  29061 76393 31560 40902 10258 20195 39602 40150 52020 70440 84100 90550 333 10364 20236 30/// 55096 56300 58052 84821;
0217763930999992008052909004+25733-100300FM-12+051599999V0200901N001012200019N0100001N1+02301+02011101341ADDAY141031AY201031GA1021+002701081GF102991021011002501001001IA1019MA1999999095831MD1710191+0321MW1041REMSYN106AAXX  29091 76393 31360 20901 10230 20201 39583 40134 57019 70440 82100 90855 333 30/// 56300 58032 82809;
0272763930999992008052912004+25733-100300FM-12+051599999V0202301N001012200019N0100001N1+02281+01961101401ADDAA124000091AY141061AY201061GA1011+003301081GF101991011011004501001001IA1019KA1240M+03641KA2120N+02201MA1999999095831MD1410001+0211MW1041REMSYN124AAXX  29121 76393 31460 12301 10228 20196 39583 40140 54000 70440 81100 91150 333 10364 20220 30216 56300 58021 70000 81811;
0189763930999992008052915004+25733-100300FM-12+051599999V0200501N002012200019N0120001N1+02561+01901101561ADDGA1011+006601061GF101991011041008001001001IA1019MA1999999095951MD1210121+0161REMSYN100AAXX  29151 76393 32562 10502 10256 20190 39595 40156 52012 81400 91450 333 30/// 56399 58016 81622;
0233763930999992008052918004+25733-100300FM-12+051599999V0201101N004012200019N0150001N1+03061+02031101521ADDGA1011+010201061GF103991011041012501041001IA1019KA1120M+03201KA2240N+02201MA1999999095911MD1810041+0121REMSYN118AAXX  29181 76393 32665 31104 10306 20203 39591 40152 58004 81440 91750 333 10320 20220 30/// 56359 58012 81634 82356;
0189763930999992008052921004+25733-100300FM-12+051599999V0201101N002012200019N0180001N1+03461+01611101211ADDGA1011+021001041GF101991011001017501041001IA1019MA1999999095671MD1710241+0031REMSYN100AAXX  29211 76393 32768 11102 10346 20161 39567 40121 57024 81040 92050 333 30/// 56399 58003 81457;
0256763930999992008053000004+25733-100300FM-12+051599999V0201001N004012200019N0220001N1+03461+01711101021ADDAA124000091GA1011+015001061GF103991011041017501041001IA1019KA1120M+03571KA2180N+02201MA1999999095541MD1710131-0061REMSYN130AAXX  30001 76393 32772 31004 10346 20171 39554 40102 57013 81440 92350 333 10357 20220 30/// 51131 56359 59006 70000 81650 82356;
0189763930999992008053003004+25733-100300FM-12+051599999V0201401N004012200019N0120001N1+02841+01791101171ADDGA1011+010501081GF102991011011012501031001IA1019MA1999999095701MD1210161-0121REMSYN100AAXX  30031 76393 32662 21404 10284 20179 39570 40117 52016 81130 90255 333 30/// 56350 59012 81835;
0225763930999992008053006004+25733-100300FM-12+051599999V0201301N003012200019N0120001N1+02501+01891101311ADDGF101991011011008001001001GJ107209IA1019KA1240M+03571KA2240N+02201MA1999999095831MD1010131-0191REMSYN118AAXX  30061 76393 32562 11303 10250 20189 39583 40131 50013 81100 90555 333 10357 20220 30/// 55120 56300 59019 81820;
0189763930999992008053009004+25733-100300FM-12+051599999V0201301N002012200019N0100001N1+02301+01921101191ADDGA1021+003601061GF102991021051004501001001IA1019MA1999999095661MD1710171-0171REMSYN100AAXX  30091 76393 32460 21302 10230 20192 39566 40119 57017 82500 90855 333 30/// 56300 59017 82612;
0272763930999992008053012004+25733-100300FM-12+051599999V0201401N002010021019N0080001N1+02301+02041101201ADDAA124000091AY141061AY241061GA1071+002101061GF107991071051002501999999IA1019KA1240M+03571KA2120N+02241MA1999999095621MD1710041-0211MW1051REMSYN124AAXX  30121 76393 31358 71402 10230 20204 39562 40120 57004 70544 875// 91155 333 10357 20224 30216 568// 59021 70000 87607;
0217763930999992008053015004+25733-100300FM-12+051599999V0200901N001010054019N0060001N1+02561+02021101351ADDAY141031AY221031GA1051+005401061GF105991051051004501001001IA1019MA1999999095751MD1210131-0201MW1041REMSYN106AAXX  30151 76393 31456 50901 10256 20202 39575 40135 52013 70442 85500 91455 333 30/// 56300 59020 85618;
0255763930999992008053018004+25733-100300FM-12+051599999V0201001N002012200019N0060001N1+03161+01941101291ADDAY141061AY211061GA1031+012301081GF103991031011012501001001IA1019KA1120M+03301KA2240N+02241MA1999999095701MD1710051-0211MW1041REMSYN118AAXX  30181 76393 31656 31002 10316 20194 39570 40129 57005 70441 83100 91750 333 10330 20224 30/// 56300 59021 83841;
0217763930999992008053021004+25733-100300FM-12+051599999V0201201N002010132019N0100001N1+03501+02191101021ADDAY141031AY211031GA1051+013201081GF105991051011012501001001IA1019MA1999999095491MD1710211-0181MW1041REMSYN106AAXX  30211 76393 31660 51202 10350 20219 39549 40102 57021 70441 85100 92050 333 30/// 56300 59018 85844;
0234763930999992008053100004+25733-100300FM-12+051599999V0201101N002012200019N0160001N1+03461+01941100861ADDAA124000091GF102991021011017501001001IA1019KA1120M+03621KA2180N+02241MA1999999095401MD1710091-0141REMSYN124AAXX  31001 76393 32766 21102 10346 20194 39540 40086 57009 82100 92355 333 10362 20224 30/// 50821 56300 59014 70000 82850;
0171763930999992008053103004+25733-100300FM-12+051599999V0201501N002012200019N0100001N1+03151+01771100951ADDGA1001+999999999GF100991001001999999001001IA1019MA1999999095411MD1010031-0291REMSYN082AAXX  31031 76393 32960 01502 10315 20177 39541 40095 50003 90250 333 30/// 59029;
0223763930999992008053106004+25733-100300FM-12+051599999V0201101N004012200019N0100001N1+02641+02081101121ADDGA1001+999999999GF100991001001999999001001GJ107089IA1019KA1240M+03621KA2240N+02241MA1999999095691MD1210281-0141REMSYN100AAXX  31061 76393 32960 01104 10264 20208 39569 40112 52028 90550 333 10362 20224 30/// 55118 59014;
0189763930999992008053109004+25733-100300FM-12+051599999V0201001N003012200019N0080001N1+02421+02111101091ADDGA1021+003001061GF102991021041999999001001IA1019MA1999999095601MD1610091-0061REMSYN100AAXX  31091 76393 32958 21003 10242 20211 39560 40109 56009 82400 90850 333 30/// 56399 59006 82610;
0250763930999992008053112004+25733-100300FM-12+051599999V0200901N002010039019N0100001N1+02421+02021101131ADDAA124000091GA1061+003901061GF107991061041004501011999IA1019KA1240M+03621KA2120N+02331MA1999999095591MD1110011-0031REMSYN124AAXX  31121 76393 32460 70902 10242 20202 39559 40113 51001 8641/ 91150 333 10362 20233 30229 5635/ 59003 70000 86613 81456;
0217763930999992008053115004+25733-100300FM-12+051599999V0200901N002010033019N0030001N1+02521+02181101301ADDAY141031AY211031GA1071+003301061GF107991071031004501999999IA1019MA1999999095711MD1210121-0041MW1051REMSYN106AAXX  31151 76393 31430 70902 10252 20218 39571 40130 52012 70541 873// 91455 333 30/// 56399 59004 87611;
0227763930999992008053118004+25733-100300FM-12+051599999V0201301N003012200019N0100001N1+03041+02061101261ADDGA1031+009901061GF103991031031008001001001IA1019KA1120M+03141KA2240N+02331MA1999999095681MD1410001-0021REMSYN112AAXX  31181 76393 32560 31303 10304 20206 39568 40126 54003 83300 91755 333 10314 20233 30/// 56300 59002 83633;
0189763930999992008053121004+25733-100300FM-12+051599999V0200901N006012200019N0190001N1+03461+02011100971ADDGA1021+014401081GF102991021031012501001001IA1019MA1999999095441MD1010241-0051REMSYN100AAXX  31211 76393 32669 20906 10346 20201 39544 40097 50024 82300 92055 333 30/// 56300 59005 82848;
0217763930999992008060115004+25733-100300FM-12+051599999V0200501N001010063019N0060001N1+02701+02081101171ADDAY141031AY241031GA1061+006301081GF106991061021008001001001IA1019MA1999999095611MD1210081-0101MW1051REMSYN106AAXX  01151 76393 31556 60501 10270 20208 39561 40117 52008 70544 86200 91450 333 30/// 56300 59010 86821;
0255763930999992008060118004+25733-100300FM-12+051599999V0200901N005012200019N0100001N1+03221+02211101121ADDAY101061AY201061GA1041+009901081GF104991041021012501001001IA1019KA1120M+03341KA2240N+02301MA1999999095561MD1710051-0121MW1051REMSYN118AAXX  01181 76393 31660 40905 10322 20221 39556 40112 57005 70500 84200 91750 333 10334 20230 30/// 56300 59012 84833;
0217763930999992008060121004+25733-100300FM-12+051599999V0200901N008012200019N0140001N1+03621+02241100831ADDAY101031AY201031GA1011+013801081GF101991011021012501001001IA1019MA1999999095331MD1710231-0111MW1051REMSYN106AAXX  01211 76393 31664 10908 10362 20224 39533 40083 57023 70500 81200 92050 333 30/// 56500 59011 81846;
0279763930999992008060200004+25733-100300FM-12+051599999V0201101N006012200019N0160001N1+03541+01761100681ADDAA124000091AY141061AY241061GA1001+999999999GF100991001001999999001001IA1019KA1120M+03741KA2180N+02301MA1999999095241MD1710091-0031MW1051REMSYN112AAXX  02001 76393 31966 01106 10354 20176 39524 40068 57009 70544 92350 333 10374 20230 30/// 50501 59003 70000;EQDQ01  00002PRCP24
0179763930999992008060203004+25733-100300FM-12+051599999V0201301N005012200019N0200001N1+03281+01921100791ADDGF101991011031012501001001IA1019MA1999999095381MD1310141+9999REMSYN106AAXX  02031 76393 32670 11305 10328 20192 39538 40079 53014 81300 90255 333 30/// 56300 58/// 59/// 81845;
0225763930999992008060206004+25733-100300FM-12+051599999V0201101N005012200019N0200001N1+02681+02151100961ADDGF101991011031004501001001GJ106549IA1019KA1240M+03741KA2240N+02301MA1999999095531MD1210151+9999REMSYN118AAXX  02061 76393 32470 11105 10268 20215 39553 40096 52015 81300 90555 333 10374 20230 30/// 55109 56300 58/// 81817;
0189763930999992008060209004+25733-100300FM-12+051599999V0200901N003012200019N0200001N1+02461+02091100901ADDGA1021+003601081GF102991021031004501001001IA1019MA1999999095431MD1110101+9999REMSYN100AAXX  02091 76393 32470 20903 10246 20209 39543 40090 51010 82300 90855 333 30/// 56300 58/// 82812;
0244763930999992008060212004+25733-100300FM-12+051599999V0200901N002012200019N0190001N1+02381+02131100941ADDAA124000091GA1041+002401061GF104991041031002501001001IA1019KA1240M+03741KA2120N+02301MA1999999095411MD1410001-0021REMSYN118AAXX  02121 76393 32369 40902 10238 20213 39541 40094 54002 84300 91155 333 10374 20230 30228 56300 59002 70000 84608;
0217763930999992008060215004+25733-100300FM-12+051599999V0209999C000012200019N0190001N1+02781+02141101181ADDAY141031AY221031GA1031+006301061GF103991031041008001001001IA1019MA1999999095611MD1210201+0001MW1051REMSYN106AAXX  02151 76393 31569 30000 10278 20214 39561 40118 52020 70542 83400 91450 333 30/// 56399 58000 83621;
0233763930999992008060218004+25733-100300FM-12+051599999V0201101N002012200019N0220001N1+03141+02161101141ADDGA1011+009601061GF102991021041008001041999IA1019KA1120M+03301KA2240N+02301MA1999999095581MD1710031+0021REMSYN118AAXX  02181 76393 32572 21102 10314 20216 39558 40114 57003 8244/ 91750 333 10330 20230 30/// 56359 58002 81632 81356;
0171763930999992008060221004+25733-100300FM-12+051599999V0201301N004012200019N0220001N1+03721+01851100771ADDGA1001+999999999GF100991001001999999001001IA1019MA1999999095281MD1710301-0031REMSYN082AAXX  02211 76393 32972 01304 10372 20185 39528 40077 57030 92050 333 30/// 59003;
0251763930999992008060300004+25733-100300FM-12+051599999V0201401N004012200019N0220001N1+03501+01801100571ADDAA124000091GA1001+999999999GF100991001001999999001001IA1019KA1120M+03801KA2180N+02301MA1999999095141MD1710141-0101REMSYN106AAXX  03001 76393 32972 01404 10350 20180 39514 40057 57014 92350 333 10380 20230 30/// 51051 59010 70000;EQDQ01  00002PRCP24
0171763930999992008060303004+25733-100300FM-12+051599999V0201401N002012200019N0150001N1+03201+02091100681ADDGA1001+999999999GF100991001001999999001001IA1019MA1999999095271MD1210131-0111REMSYN082AAXX  03031 76393 32965 01402 10320 20209 39527 40068 52013 90250 333 30/// 59011;
0223763930999992008060306004+25733-100300FM-12+051599999V0201501N001012200019N0150001N1+02701+02071100821ADDGA1001+999999999GF100991001001999999001001GJ105829IA1019KA1240M+03801KA2240N+02301MA1999999095401MD1210131-0131REMSYN100AAXX  03061 76393 32965 01501 10270 20207 39540 40082 52013 90550 333 10380 20230 30/// 55097 59013;
0217763930999992008060309004+25733-100300FM-12+051599999V0200901N002012200019N0080001N1+02401+02091100761ADDAY141031AY201031GA1041+003301061GF104991041051004501001001IA1019MA1999999095301MD1710101-0131MW1041REMSYN106AAXX  03091 76393 31458 40902 10240 20209 39530 40076 57010 70440 84500 90855 333 0/300 30/// 59013 84611;
0161763930999992008060312004+25733-100300FM-12+051599999V0201301N001010042019N0060001N1+02381+02041100761ADDAY141061AY221061GF107991071051004501999999MA1999999095251MD1710051+9999MW1041REMSYN072AAXX  03121 76393 31456 71301 10238 20204 39525 40076 57005 70442 875//;
0237763930999992008060318004+25733-100300FM-12+051599999V0200301N002012200019N0080001N1+03121+02091100721ADDAY141061AY241061GA1001+999999999GF100991001001999999001001IA1019KA1120M+03361KA2240N+02341MA1999999095181MD1810041-0401MW1051REMSYN100AAXX  03181 76393 31958 00302 10312 20209 39518 40072 58004 70544 91750 333 10336 20234 30/// 59040;
0199763930999992008060321004+25733-100300FM-12+051599999V0201201N005012200019N0140001N1+03721+01891100331ADDAY141031AY241031GA1001+999999999GF100991001001999999001001IA1019MA1999999094861MD1710321-0421MW1051REMSYN088AAXX  03211 76393 31964 01205 10372 20189 39486 40033 57032 70544 92050 333 30/// 59042;
0208763930999992008060403004+25733-100300FM-12+051599999V0201401N005012200019N0200001N1+03221+01911100241ADDGA1011+072001001GF101991001001999999001041IA1019MA1999999094861MD1410001-0411REMSYN100AAXX  04031 76393 32970 11405 10322 20191 39486 40024 54009 81004 90255 333 30/// 56005 59041 81074;EQDQ01+000012SCOTLC
0244763930999992008060406004+25733-100300FM-12+051599999V0200901N006012200019N0200001N1+02741+02091100361ADDGF101991001001999999001041GJ107149IA1019KA1240M+03841KA2240N+02341MA1999999094961MD1310101-0441REMSYN118AAXX  04061 76393 32970 10906 10274 20209 39496 40036 53010 81004 90555 333 10384 20234 30/// 55119 56005 59044 81074;EQDQ01+000012SCOTLC
0208763930999992008060409004+25733-100300FM-12+051599999V0200901N004012200019N0200001N1+02421+02021100281ADDGA1011+072001001GF101991001001999999001041IA1019MA1999999094851MD1210111-0451REMSYN100AAXX  04091 76393 31970 10904 10242 20202 39485 40028 52011 81004 90855 333 30/// 56005 59045 81074;EQDQ01+000012SCOTLC
0244763930999992008060412004+25733-100300FM-12+051599999V0201301N001010036019N0190001N1+02341+01991100301ADDAA124000091GA1081+003601061GF108991081041004501999999IA1019KA1240M+03841KA2120N+02301MA1999999094801MD1410001-0501REMSYN118AAXX  04121 76393 32469 81301 10234 20199 39480 40030 54005 884// 91155 333 10384 20230 30228 56399 59050 70000 88612;
0189763930999992008060415004+25733-100300FM-12+051599999V0201501N002010066019N0190001N1+02681+02001100471ADDGA1061+006601061GF106991061041008001001001IA1019MA1999999094941MD1010141-0281REMSYN100AAXX  04151 76393 32569 61502 10268 20200 39494 40047 50014 86400 91450 333 0/399 30/// 59028 86622;
0227763930999992008060418004+25733-100300FM-12+051599999V0200801N002012200019N0200001N1+03241+02101100371ADDGA1041+060001001GF104991001001999999001041IA1019KA1120M+03271KA2240N+02301MA1999999094881MD1710061-0301REMSYN112AAXX  04181 76393 32970 40802 10324 20210 39488 40037 57006 80004 91750 333 0/007 10327 20230 30/// 59030 84070;
0189763930999992008060421004+25733-100300FM-12+051599999V0201101N004010600019N0220001N1+03661+02191100041ADDGA1051+060001001GF105991001001999999001041IA1019MA1999999094591MD1710291-0271REMSYN100AAXX  04211 76393 32972 51104 10366 20219 39459 40004 57029 80004 92050 333 0/997 30/// 59027 85070;
0250763930999992008060500004+25733-100300FM-12+051599999V0201101N004010600019N0220001N1+03641+01961099821ADDAA124000091GA1051+060001001GF105991001001999999001041IA1019KA1120M+03841KA2180N+02301MA1999999094441MD1610151-0331REMSYN124AAXX  05001 76393 32972 51104 10364 20196 39444 49982 56015 80004 92350 333 0/997 10384 20230 30/// 50951 59033 70000 85070;
0208763930999992008060503004+25733-100300FM-12+051599999V0201101N002012200019N0150001N1+03281+02051099831ADDGA1031+075001001GF103991001001999999001041IA1019MA1999999094481MD1210041-0381REMSYN100AAXX  05031 76393 32965 31102 10328 20205 39448 49983 52004 81004 90255 333 0/005 30/// 59038 83075;EQDQ01+000012SCOTLC
0223763930999992008060506004+25733-100300FM-12+051599999V0201301N002012200019N0150001N1+02701+02111100081ADDGA1001+999999999GF100991001001999999001001GJ105769IA1019KA1240M+03841KA2240N+02301MA1999999094711MD1210231-0251REMSYN100AAXX  05061 76393 32965 01302 10270 20211 39471 40008 52023 90550 333 10384 20230 30/// 55096 59025;
0217763930999992008060509004+25733-100300FM-12+051599999V0201401N002012200019N0050001N1+02441+02131099981ADDAY141031AY201031GA1041+003301061GF104991041051004501001001IA1019MA1999999094561MD1710151-0291MW1041REMSYN106AAXX  05091 76393 31450 41402 10244 20213 39456 49998 57015 70440 84500 90850 333 0/300 30/// 59029 84611;
0161763930999992008060512004+25733-100300FM-12+051599999V0200901N001010042019N0070001N1+02501+02131100021ADDAY141061AY221061GF108991081051004501999999MA1999999094551MD1710011+9999MW1041REMSYN072AAXX  05121 76393 31457 80901 10250 20213 39455 40002 57001 70442 885//;
0217763930999992008060515004+25733-100300FM-12+051599999V0203501N001010057019N0050001N1+02681+02121100161ADDAY121031AY221031GA1081+005701061GF108991081041004501999999IA1019MA1999999094651MD1210101-0291MW1051REMSYN106AAXX  05151 76393 31450 83501 10268 20212 39465 40016 52010 70522 884// 91450 333 30/// 56300 59029 88619;
0261763930999992008060518004+25733-100300FM-12+051599999V0200901N003012200019N0060001N1+03321+02261100161ADDAY141061AY241061GA1011+010501081GF102991011021012501001011IA1019KA1120M+03461KA2240N+02361MA1999999094661MD1810011-0221MW1051REMSYN124AAXX  05181 76393 31656 20903 10332 20226 39466 40016 58001 70544 81201 91750 333 10346 20236 30/// 56305 59022 81835 81070;
0223763930999992008060521004+25733-100300FM-12+051599999V0201201N005012200019N0002001N1+03761+02221099921ADDAY141031AY241031GA1011+015001081GF103991011021017501001011IA1019MA1999999094481MD1710181-0111MW1051REMSYN112AAXX  05211 76393 31702 31205 10376 20222 39448 49992 57018 70544 81201 92050 333 30/// 56305 59011 81850 82070;
0284763930999992008060600004+25733-100300FM-12+051599999V0201301N007012200019N0120001N1+03601+02121099781ADDAA124000091AY141061AY241061GA1031+014701081GF104991031021012501001011IA1019KA1120M+03861KA2180N+02361MA1999999094401MD1710081-0041MW1051REMSYN136AAXX  06001 76393 31662 41307 10360 20212 39440 49978 57008 70544 83201 92350 333 10386 20236 30/// 50951 56305 59004 70000 83849 81070;
0208763930999992008060603004+25733-100300FM-12+051599999V0201301N004010720019N0200001N1+03241+02041099881ADDGA1051+072001001GF105991001001999999001041IA1019MA1999999094531MD1310131+0051REMSYN100AAXX  06031 76393 32970 51304 10324 20204 39453 49988 53013 85004 90255 333 30/// 56005 58005 85074;EQDQ01+000052SCOTLC
0244763930999992008060606004+25733-100300FM-12+051599999V0200901N005019999999N0200001N1+02721+02191100161ADDGF105991001001999999001041GJ106129IA1019KA1240M+03861KA2240N+02361MA1999999094781MD1210251+0071REMSYN118AAXX  06061 76393 32970 50905 10272 20219 39478 40016 52025 85004 90555 333 10386 20236 30/// 55102 56005 58007 85074;EQDQ01+000052SCOTLC
0195763930999992008060609004+25733-100300FM-12+051599999V0201301N004012200019N0200001N1+02521+02181100131ADDGA1021+003301061GF104991021031004501001041IA1019MA1999999094711MD1210071+0151REMSYN106AAXX  06091 76393 32470 41304 10252 20218 39471 40013 52007 82304 90855 333 30/// 56305 58015 82611 82074;
0244763930999992008060612004+25733-100300FM-12+051599999V0201301N004010033019N0180001N1+02481+02141100331ADDAA124000091GA1071+003301061GF107991071041004501999999IA1019KA1240M+03861KA2120N+02451MA1999999094841MD1210131+0291REMSYN118AAXX  06121 76393 32468 71304 10248 20214 39484 40033 52013 874// 91155 333 10386 20245 30238 56399 58029 70000 87611;
0189763930999992008060615004+25733-100300FM-12+051599999V0200901N002010033019N0150001N1+02581+02251100801ADDGA1071+003301061GF107991071051004501999999IA1019MA1999999095261MD1210421+0611REMSYN100AAXX  06151 76393 32465 70902 10258 20225 39526 40080 52042 875// 91450 333 0/399 30/// 58061 87611;
0227763930999992008060618004+25733-100300FM-12+051599999V0200901N002010075019N0160001N1+02981+02241100881ADDGA1061+007501061GF106991061051008001001001IA1019KA1120M+03041KA2240N+02451MA1999999095331MD1210071+0671REMSYN112AAXX  06181 76393 32566 60902 10298 20224 39533 40088 52007 86500 91750 333 0/300 10304 20245 30/// 58067 86625;
0195763930999992008060621004+25733-100300FM-12+051599999V0201301N002010120019N0180001N1+03581+02291100591ADDGA1051+012001061GF106991061051012501001001IA1019MA1999999095101MD1710231+0621REMSYN106AAXX  06211 76393 32668 61302 10358 20229 39510 40059 57023 86500 92050 333 02300 30/// 58062 85640 81842;
0150763930999992008060700004+25733-100300FM-12+051599999V0201401N003010075019N0150001N1+03081+02321100571ADDAA106001091GF107991071051008001999999MA1999999095121MD1210021+9999REMSYN072AAXX  07001 76393 02565 71403 10308 20232 39512 40057 52002 69991 875//;
0189763930999992008060703004+25733-100300FM-12+051599999V0201201N006012200019N0120001N1+02721+02041100731ADDGA1011+006601081GF103991011021008001001011IA1019MA1999999095281MD1210161+0751REMSYN100AAXX  07031 76393 32562 31206 10272 20204 39528 40073 52016 81201 90255 333 01405 30/// 58075 81822;
0241763930999992008060706004+25733-100300FM-12+051599999V0201101N005012200019N0100001N1+02481+02141100891ADDGA1041+003301061GF104991041051004501001001GJ104029IA1019KA1240M+03751KA2240N+02451MA1999999095421MD1210141+0641REMSYN118AAXX  07061 76393 32460 41105 10248 20214 39542 40089 52014 84500 90555 333 0/300 10375 20245 30/// 55067 58064 84611;
0217763930999992008060709004+25733-100300FM-12+051599999V0201201N005010021019N0080001N1+02421+02211100901ADDAY141031AY241031GA1071+002101061GF107991071051002501999999IA1019MA1999999095391MD1710031+0681MW1051REMSYN106AAXX  07091 76393 31358 71205 10242 20221 39539 40090 57003 70544 875// 90855 333 0/3// 30/// 58068 87607;
0357763930999992008060712004+25733-100300FM-12+051599999V0201201N002010360019N0080001N1+02341+02201100961ADDAA103999999AA206000091AA324000091AY151061AY241061GA1031+001201061GF105991031051001501031011IA1019KA1240M+03751KA2120N+02341MA1999999095391MD1410001+0551MW1051REMSYN136AAXX  07121 76393 01258 51202 10234 20220 39539 40096 54000 69901 70554 83531 91158 333 0/355 10375 20234 30234 58055 69907 79999 83604;EQDQ01  00002PRCP06Q02  00002PRCP24Q03  99992PRCP03
0233763930999992008060718004+25733-100300FM-12+051599999V0201101N006010087019N0080001N1+03081+02231100901ADDGA1061+008701081GF107991061021008001041999IA1019KA1120M+03341KA2240N+02341MA1999999095351MD1610071+0051REMSYN118AAXX  07181 76393 32558 71106 10308 20223 39535 40090 56007 8624/ 91750 333 10334 20234 30/// 5635/ 58005 86829 81360;
0217763930999992008060721004+25733-100300FM-12+051599999V0201101N004010087019N0100001N1+03221+02361100821ADDGA1061+008701081GA2011+030001031GF108991061021008001031011IA1019MA1999999095311MD1710041+0211REMSYN112AAXX  07211 76393 32560 81104 10322 20236 39531 40082 57004 86231 92050 333 30/// 56355 58021 86829 81360 81070;
0297763930999992008060800004+25733-100300FM-12+051599999V0201201N00601007201CN0140001N1+03041+02311100631ADDAA124999999GA1051+007201081GA2011+030001031GF108991051021008001041011IA1019KA1120M+03421KA2180N+02341MA1999999095171MD1710141+0051REMSYN136AAXX  08001 76393 32564 81206 10304 20231 39517 40063 57014 85241 92350 333 10342 20234 30/// 50771 56355 58005 79999 85824 81360 82070;EQDQ01  99992PRCP24
0225763930999992008060806004+25733-100300FM-12+051599999V0201301N006010042019N0200001N1+02461+02061100951ADDGF105991051031004501001001GJ103969IA1019KA1240M+03421KA2240N+02341MA1999999095451MD1410001+0031REMSYN118AAXX  08061 76393 32470 51306 10246 20206 39545 40095 54009 85300 90655 333 10342 20234 30/// 55066 56300 58003 85614;
0189763930999992008060809004+25733-100300FM-12+051599999V0201201N008010024019N0200001N1+02341+02111100911ADDGA1081+002401061GF108991081041002501999999IA1019MA1999999095381MD1410001-0011REMSYN100AAXX  08091 76393 32370 81208 10234 20211 39538 40091 54007 884// 90855 333 30/// 56399 59001 88608;
0263763930999992008060812004+25733-100300FM-12+051599999V0201201N004010027019N0200001N1+02381+02101100841ADDAA124000091GA1081+002701061GF108991081041002501999999IA1019KA1240M+03421KA2120N+02301MA1999999095281MD1510071-0111REMSYN118AAXX  08121 76393 32370 81204 10238 20210 39528 40084 55610 884// 91155 333 10342 20230 30225 56399 59011 70000 88609;EQDQ01+006107APC3  
0217763930999992008060815004+25733-100300FM-12+051599999V0201101N004010024019N0100001N1+02401+02151101131ADDAY141031AY251031GA1081+002401061GF108991081041002501999999IA1019MA1999999095531MD1210251+0111MW1051REMSYN106AAXX  08151 76393 31360 81104 10240 20215 39553 40113 52025 70545 884// 91450 333 0/399 30/// 58011 88608;
0161763930999992008060818004+25733-100300FM-12+051599999V0201201N004010360019N0180001N1+02961+02181101051ADDAY141061AY221061GF106991031041008001031999MA1999999095571MD1310041+9999MW1051REMSYN072AAXX  08181 76393 31568 61204 10296 20218 39557 40105 53004 70542 8343/;
0245763930999992008060821004+25733-100300FM-12+051599999V0201201N004012200019N0220001N1+03061+02111100821ADDAY141031AY221031GA1011+009301081GA2021+009901061GF104991031021008001031001IA1019MA1999999095281MD1710291-0031MW1051REMSYN118AAXX  08211 76393 32572 41204 10306 20211 39528 40082 57029 70542 83230 92050 333 00359 30/// 59003 81831 82633 81356;
0161763930999992008060900004+25733-100300FM-12+051599999V0201101N004010360019N0220001N1+02801+02161100731ADDAY141061AY261061GF106991041021008001031041MA1999999095231MD1210051+9999MW1051REMSYN072AAXX  09001 76393 31572 61104 10280 20216 39523 40073 52005 70546 84234;
0189763930999992008060903004+25733-100300FM-12+051599999V0201201N004012200019N0160001N1+02501+02001100821ADDGA1021+004801081GF104991021011004501001011IA1019MA1999999095321MD1210091-0041REMSYN100AAXX  09031 76393 32466 41204 10250 20200 39532 40082 52009 82101 90255 333 01305 30/// 59004 82816;
0247763930999992008060906004+25733-100300FM-12+051599999V0201301N004012200019N0120001N1+02281+01931100911ADDGA1011+003301081GF103991021081004501001011GJ102049IA1019KA1240M+03201KA2240N+02281MA1999999095381MD1010061-0071REMSYN124AAXX  09061 76393 32462 31304 10228 20193 39538 40091 50006 82801 90555 333 00305 10320 20228 30/// 55034 59007 81811 81621;
0189763930999992008060909004+25733-100300FM-12+051599999V0201201N002010024019N0100001N1+02231+01981100921ADDGA1051+002401061GF105991051051002501001001IA1019MA1999999095351MD1710031-0031REMSYN100AAXX  09091 76393 32360 51202 10223 20198 39535 40092 57003 85500 90855 333 0/300 30/// 59003 85608;
0269763930999992008060912004+25733-100300FM-12+051599999V0200901N00101036001CN0160001N1+02301+01941100951ADDAA124000091GA1021+003601061GF107991021051004501031021IA1019KA1240M+03201KA2120N+02201MA1999999095351MD1410001+0071REMSYN124AAXX  09121 76393 32466 70901 10230 20194 39535 40095 54000 82532 91155 333 0/355 10320 20220 30217 58007 79999 82612 83356;EQDQ01  00002PRCP24
0217763930999992008060915004+25733-100300FM-12+051599999V0203001N001010300019N0100001N1+02581+02281100961ADDGA1031+003001061GA2041+030001031GF108991031041002501041011IA1019MA1999999095351MD1010001-0221REMSYN112AAXX  09151 76393 32360 83001 10258 20228 39535 40096 50000 83441 91450 333 30/// 56355 59022 83610 84360 81070;
0233763930999992008060918004+25733-100300FM-12+051599999V0201201N005010084019N0100001N1+03301+02451100881ADDGA1061+008401081GF107991061021008001001011IA1019KA1120M+03401KA2240N+02201MA1999999095291MD1310061-0281REMSYN118AAXX  09181 76393 32560 71205 10330 20245 39529 40088 53006 86201 91750 333 10340 20220 30/// 56305 59028 86828 81070;
0217763930999992008060921004+25733-100300FM-12+051599999V0201401N007010102019N0080001N1+03501+02471100581ADDGA1051+010201081GA2011+030001031GF107991051021012501031011IA1019MA1999999095061MD1710231-0221REMSYN112AAXX  09211 76393 32658 71407 10350 20247 39506 40058 57023 85231 92050 333 30/// 56355 59022 85834 81360 81070;
0256763930999992008061000004+25733-100300FM-12+051599999V0201201N00601007801CN0080001N1+03181+02401100471ADDAA124000091GA1051+007801081GF107991051021008001001011IA1019KA1120M+03621KA2180N+02201MA1999999095001MD1510061-0231REMSYN130AAXX  10001 76393 32558 71206 10318 20240 39500 40047 55006 85201 92350 333 10362 20220 30/// 50641 56305 59023 70000 85826 82070;
0189763930999992008061003004+25733-100300FM-12+051599999V0201201N004012200019N0200001N1+02941+02161100651ADDGA1021+007801061GF102991021031008001001001IA1019MA1999999095221MD1210221+0101REMSYN100AAXX  10031 76393 32570 21204 10294 20216 39522 40065 52022 82300 90255 333 30/// 56300 58010 82626;
0247763930999992008061006004+25733-100300FM-12+051599999V0200901N006012200019N0200001N1+02621+02231100781ADDGA1021+003901061GF104991021031004501001041GJ104149IA1019KA1240M+03621KA2240N+02201MA1999999095321MD1110101-0061REMSYN124AAXX  10061 76393 32470 40906 10262 20223 39532 40078 51010 82304 90555 333 10362 20220 30/// 55069 56305 59006 82613 82074;
0189763930999992008061009004+25733-100300FM-12+051599999V0201401N003012200019N0180001N1+02461+02181100801ADDGA1021+002701061GF102991021031002501001001IA1019MA1999999095301MD1410001-0051REMSYN100AAXX  10091 76393 32368 21403 10246 20218 39530 40080 54002 82300 90855 333 30/// 56300 59005 82609;
0272763930999992008061012004+25733-100300FM-12+051599999V0201201N003010024019N0040001N1+02401+02151100951ADDAA124000091AY141061AY221061GA1081+002401061GF108991081041002501999999IA1019KA1240M+03621KA2120N+02381MA1999999095401MD1310101+0051MW1051REMSYN124AAXX  10121 76393 31340 81203 10240 20215 39540 40095 53010 70542 884// 91155 333 10362 20238 30230 56399 58005 70000 88608;
0195763930999992008061015004+25733-100300FM-12+051599999V0200601N00301220001CN0100001N1+02681+02181101181ADDGA1031+004801061GF106991031041004501001041IA1019MA1999999095601MD1210201+0251REMSYN106AAXX  10151 76393 32460 60603 10268 20218 39560 40118 52020 83404 91450 333 0/307 30/// 58025 83616 83070;
0255763930999992008061018004+25733-100300FM-12+051599999V0201101N00401090001CN0180001N1+03221+02241101121ADDGA1021+009601061GA2021+018001031GF105991021041008001031041IA1019KA1120M+03371KA2240N+02381MA1999999095571MD1710031+0281REMSYN124AAXX  10181 76393 32568 51104 10322 20224 39557 40112 57003 82434 91750 333 0/357 10337 20238 30/// 58028 82632 82356 81070;
0239763930999992008061021004+25733-100300FM-12+051599999V0201101N00501036001CN0220001N1+03621+01971100861ADDGA1011+014701081GA2021+015001061GA3011+018001031GF106991031041017501041041IA1019MA1999999095361MD1710211+0301REMSYN118AAXX  10211 76393 32772 61105 10362 20197 39536 40086 57021 83444 92050 333 00357 30/// 58030 81849 82650 81356 82070;
0278763930999992008061100004+25733-100300FM-12+051599999V0201201N005012200019N0200001N1+03381+02001100691ADDAA124000091GA1011+013801081GA2031+014101061GF104991041041012501041001IA1019KA1120M+03771KA2180N+02381MA1999999095251MD1510111-0251REMSYN136AAXX  11001 76393 32670 41205 10338 20200 39525 40069 55011 84440 92350 333 00359 10377 20238 30/// 51071 59025 70000 81846 83647 81356;
0217763930999992008061103004+25733-100300FM-12+051599999V0201501N00401090001CN0140001N1+02821+02001100881ADDGA1011+008101081GA2011+008101061GF107991021081008001001061IA1019MA1999999095451MD1210201+0231REMSYN112AAXX  11031 76393 32564 71504 10282 20200 39545 40088 52020 82806 90255 333 00305 30/// 58023 81827 81627 85070;
0247763930999992008061106004+25733-100300FM-12+051599999V0201201N00301220001CN0120001N1+02501+02021100941ADDGA1011+004501081GF106991011011004501001061GJ106369IA1019KA1240M+03771KA2240N+02381MA1999999095491MD1210041+0171REMSYN124AAXX  11061 76393 32462 61203 10250 20202 39549 40094 52004 81106 90555 333 00305 10377 20238 30/// 55106 58017 81815 85070;
0189763930999992008061109004+25733-100300FM-12+051599999V0201201N002012200019N0120001N1+02411+02041100871ADDGA1021+003601061GF104991021051004501001011IA1019MA1999999095371MD1710121+0071REMSYN100AAXX  11091 76393 32462 41202 10241 20204 39537 40087 57012 82501 90855 333 0/305 30/// 58007 82612;
0244763930999992008061112004+25733-100300FM-12+051599999V0201201N001010030019N0100001N1+02461+02141100971ADDAA124000091GA1051+003001061GF107991051051004501001061IA1019KA1240M+03771KA2120N+02321MA1999999095421MD1210051+0021REMSYN118AAXX  11121 76393 32460 71201 10246 20214 39542 40097 52005 85506 91155 333 0/305 10377 20232 30232 58002 70000 85610;
0195763930999992008061115004+25733-100300FM-12+051599999V0200901N00301220001CN0060001N1+02721+02281101011ADDGA1031+004501081GF106991031021004501001011IA1019MA1999999095441MD1210021-0161REMSYN106AAXX  11151 76393 32456 60903 10272 20228 39544 40101 52002 83201 91450 333 30/// 56305 59016 83815 83070;
0233763930999992008061118004+25733-100300FM-12+051599999V0201101N006010054019N0100001N1+03201+02651100921ADDGA1051+005401081GF107991051021004501001011IA1019KA1120M+03341KA2240N+02321MA1999999095361MD1010081-0211REMSYN118AAXX  11181 76393 32460 71106 10320 20265 39536 40092 50008 85201 91750 333 10334 20232 30/// 56305 59021 85818 82070;
0195763930999992008061121004+25733-100300FM-12+051599999V0201201N00401220001CN0120001N1+03421+02321100571ADDGA1041+010801081GF106991041021012501001011IA1019MA1999999095091MD1710271-0271REMSYN106AAXX  11211 76393 32662 61204 10342 20232 39509 40057 57027 84201 92050 333 30/// 56305 59027 84836 82070;
0256763930999992008061200004+25733-100300FM-12+051599999V0201301N003012200019N0140001N1+03361+02431100401ADDAA124000091GA1031+009301081GF104991031021008001001011IA1019KA1120M+03651KA2180N+02321MA1999999094971MD1710121-0181REMSYN130AAXX  12001 76393 32564 41303 10336 20243 39497 40040 57012 83201 92350 333 10365 20232 30/// 50741 56305 59018 70000 83831 81070;
0189763930999992008061203004+25733-100300FM-12+051599999V0201301N002012200019N0140001N1+03001+02231100611ADDGA1011+007801081GF101991011011008001001001IA1019MA1999999095191MD1210221-0261REMSYN100AAXX  12031 76393 32564 11302 10300 20223 39519 40061 52022 81100 90250 333 00300 30/// 59026 81826;
0269763930999992008061206004+25733-100300FM-12+051599999V0200901N002010027019N0100001N1+02561+02291100841ADDAY141061AY211061GA1061+002701061GF106991061051002501001001GJ106129IA1019KA1240M+03651KA2240N+02321MA1999999095381MD1210191-0111MW1041REMSYN124AAXX  12061 76393 31360 60902 10256 20229 39538 40084 52019 70441 86500 90550 333 0/300 10365 20232 30/// 55102 59011 86609;
0217763930999992008061209004+25733-100300FM-12+051599999V0200701N001010021019N0050001N1+02441+02221100781ADDAY141031AY221031GA1081+002101061GF108991081051002501999999IA1019MA1999999095301MD1710081-0071MW1041REMSYN106AAXX  12091 76393 31350 80701 10244 20222 39530 40078 57008 70442 885// 90850 333 0/399 30/// 59007 88607;
0161763930999992008061212004+25733-100300FM-12+051599999V0200901N001010021019N0040001N1+02401+02151100861ADDAY141061AY221061GF108991081051002501999999MA1999999095321MD1210021+9999MW1041REMSYN072AAXX  12121 76393 31340 80901 10240 20215 39532 40086 52002 70442 885//;
0223763930999992008061215004+25733-100300FM-12+051599999V0200901N00201036001CN0040001N1+02661+02221101051ADDAY141031AY221031GA1041+004201061GF106991041041004501011999IA1019MA1999999095481MD1210161+0041MW1051REMSYN112AAXX  12151 76393 31440 60902 10266 20222 39548 40105 52016 70542 8441/ 91450 333 0/359 30/// 58004 84614 82456;
0161763930999992008061218004+25733-100300FM-12+051599999V0201101N003010360019N0120001N1+03001+02351100981ADDAY141061AY221061GF106991041041008001011999MA1999999095421MD1710031+9999MW1051REMSYN072AAXX  12181 76393 31562 61103 10300 20235 39542 40098 57003 70542 8441/;
0245763930999992008061221004+25733-100300FM-12+051599999V0200901N00401090001CN0180001N1+03361+02131100761ADDAY141031AY241031GA1021+012301061GA2011+018001031GF105991021041012501041041IA1019MA1999999095251MD1710171+0161MW1051REMSYN118AAXX  12211 76393 31668 50904 10336 20213 39525 40076 57017 70544 82444 92050 333 0/357 30/// 58016 82641 81356 82070;
0256763930999992008061300004+25733-100300FM-12+051599999V0201101N002012200019N0200001N1+03501+02131100661ADDAA124000091GA1021+013501081GF103991031021012501001001IA1019KA1120M+03621KA2180N+02341MA1999999095211MD1210041+0241REMSYN130AAXX  13001 76393 32670 31102 10350 20213 39521 40066 52004 83200 92350 333 00300 10362 20234 30/// 50871 58024 70000 82845 81647;
0211763930999992008061303004+25733-100300FM-12+051599999V0201501N003010096019N0100001N1+02961+01981100741ADDAY141031AY241031GA1051+009601061GF105991999999008001999999IA1019MA1999999095301MD1210091+0111MW1041REMSYN100AAXX  13031 76393 31560 51503 10296 20198 39530 40074 52009 70444 90255 333 0/300 30/// 58011 85632;
0161763930999992008061306004+25733-100300FM-12+051599999V0201301N004010042019N0080001N1+02631+02171101021ADDAY141061AY241061GF107991071051004501999999MA1999999095561MD1210261+9999MW1041REMSYN072AAXX  13061 76393 31458 71304 10263 20217 39556 40102 52026 70444 875//;
0217763930999992008061309004+25733-100300FM-12+051599999V0201201N004012200019N0080001N1+02441+02151100931ADDAY141031AY241031GA1041+002701061GF104991041051002501001001IA1019MA1999999095441MD1710121+0141MW1051REMSYN106AAXX  13091 76393 31358 41204 10244 20215 39544 40093 57012 70544 84500 90855 333 0/300 30/// 58014 84609;
0161763930999992008061312004+25733-100300FM-12+051599999V0200901N003010012019N0080001N1+02441+02251101011ADDAY141061AY241061GF106991061051001501001001MA1999999095471MD1210031+9999MW1051REMSYN072AAXX  13121 76393 31258 60903 10244 20225 39547 40101 52003 70544 86500;
0217763930999992008061315004+25733-100300FM-12+051599999V0200701N001012200019N0100001N1+02641+02281101221ADDAY141031AY201031GA1041+003601061GF104991041051004501001001IA1019MA1999999095641MD1210171+0161MW1041REMSYN106AAXX  13151 76393 31460 40701 10264 20228 39564 40122 52017 70440 84500 91450 333 0/300 30/// 58016 84612;
0233763930999992008061318004+25733-100300FM-12+051599999V0201001N00201007501CN0150001N1+03241+02381101221ADDGA1011+008401061GF106991061011008001001001IA1019KA1120M+03341KA2240N+02401MA1999999095661MD1210021+0241REMSYN118AAXX  13181 76393 32565 61002 10324 20238 39566 40122 52002 86100 91750 333 01300 10334 20240 30/// 58024 81628 85830;
0189763930999992008061321004+25733-100300FM-12+051599999V0200901N002010123019N0180001N1+03621+02371100941ADDGA1061+012301081GF106991061011012501001001IA1019MA1999999095441MD1710221+0191REMSYN100AAXX  13211 76393 31668 60902 10362 20237 39544 40094 57022 86100 92055 333 01300 30/// 58019 86841;
0250763930999992008061400004+25733-100300FM-12+051599999V0201301N002010141019N0200001N1+03601+02181100741ADDAA124000091GA1061+014101081GF106991061011012501001001IA1019KA1120M+03741KA2180N+02401MA1999999095311MD1710131+0101REMSYN124AAXX  14001 76393 32670 61302 10360 20218 39531 40074 57013 86100 92350 333 01300 10374 20240 30/// 50821 58010 70000 86847;
0189763930999992008061403004+25733-100300FM-12+051599999V0201301N005010093019N0200001N1+03041+02121100881ADDGA1061+009301061GF106991061041008001001001IA1019MA1999999095461MD1210151+0161REMSYN100AAXX  14031 76393 32570 61305 10304 20212 39546 40088 52015 86400 90255 333 30/// 56300 58016 86631;
0225763930999992008061406004+25733-100300FM-12+051599999V0200901N004012200019N0200001N1+02681+02181101091ADDGF104991041031004501001001GJ106549IA1019KA1240M+03741KA2240N+02401MA1999999095641MD1210181+0081REMSYN118AAXX  14061 76393 32470 40904 10268 20218 39564 40109 52018 84300 90555 333 10374 20240 30/// 55109 56300 58008 84617;
0189763930999992008061409004+25733-100300FM-12+051599999V0201301N005012200019N0200001N1+02441+02101101091ADDGA1021+003301061GF102991021031004501001001IA1019MA1999999095601MD1410001+0161REMSYN100AAXX  14091 76393 32470 21305 10244 20210 39560 40109 54004 82300 90855 333 30/// 56300 58016 82611;
0272763930999992008061412004+25733-100300FM-12+051599999V0201201N002012200019N0080001N1+02381+02071101151ADDAA124000091AY141061AY201061GA1041+003001061GF104991041041004501001001IA1019KA1240M+03741KA2120N+02301MA1999999095601MD1410001+0131MW1051REMSYN124AAXX  14121 76393 31458 41202 10238 20207 39560 40115 54000 70540 84400 91155 333 10374 20230 30228 56300 58013 70000 84610;
0195763930999992008061415004+25733-100300FM-12+051599999V0200601N002010045019N0050001N1+02621+02171101391ADDGA1051+004501061GF108991051041004501021999IA1019MA1999999095791MD1210191+0151REMSYN106AAXX  14151 76393 31450 80602 10262 20217 39579 40139 52019 8542/ 91450 333 0/359 30/// 58015 85615 83456;
0161763930999992008061418004+25733-100300FM-12+051599999V0200601N003012200019N0120001N1+03201+02181101381ADDAY141061AY221061GF104991021041012501031001MA1999999095801MD1810011+9999MW1051REMSYN072AAXX  14181 76393 31662 40603 10320 20218 39580 40138 58001 70542 82430;
0195763930999992008061421004+25733-100300FM-12+051599999V0201201N00501012001CN0180001N1+03601+02151101101ADDGA1021+014401081GF105991051021012501999999IA1019MA1999999095581MD1710221+0141REMSYN106AAXX  14211 76393 32668 51205 10360 20215 39558 40110 57022 852// 92050 333 00359 30/// 58014 82848 83649;
0256763930999992008061500004+25733-100300FM-12+051599999V0200901N005012200019N0200001N1+03541+02041100881ADDAA124000091GA1011+015001081GF103991031021012501001001IA1019KA1120M+03651KA2180N+02301MA1999999095431MD1510151+0121REMSYN130AAXX  15001 76393 32670 30905 10354 20204 39543 40088 55015 83200 92350 333 00399 10365 20230 30/// 50961 58012 70000 81850 82650;
0217763930999992008061503004+25733-100300FM-12+051599999V0201401N005010108019N0100001N1+03021+01941101001ADDAY141031AY241031GA1051+010801061GF105991051051012501001001IA1019MA1999999095561MD1210131+0101MW1051REMSYN106AAXX  15031 76393 31660 51405 10302 20194 39556 40100 52013 70544 85500 90255 333 0/300 30/// 58010 85636;
0161763930999992008061506004+25733-100300FM-12+051599999V0201301N004012200019N0060001N1+02631+01781101141ADDAY141061AY241061GF101991011011008001001001MA1999999095691MD1010131+9999MW1051REMSYN072AAXX  15061 76393 31556 11304 10263 20178 39569 40114 50013 70544 81100;
0217763930999992008061509004+25733-100300FM-12+051599999V0201101N002012200019N0080001N1+02421+02031101091ADDAY141031AY241031GA1021+003901061GF102991021051004501001001IA1019MA1999999095601MD1710091+0001MW1051REMSYN106AAXX  15091 76393 31458 21102 10242 20203 39560 40109 57009 70544 82500 90850 333 0/300 30/// 58000 82613;
0161763930999992008061512004+25733-100300FM-12+051599999V0201201N001010021019N0060001N1+02441+02201101151ADDAY141061AY221061GF108991081051002501999999MA1999999095601MD1410001+9999MW1051REMSYN072AAXX  15121 76393 31356 81201 10244 20220 39560 40115 54000 70542 885//;
0217763930999992008061515004+25733-100300FM-12+051599999V0200601N001012200019N0030001N1+02741+02441101161ADDAY141031AY241031GA1041+003001081GF104991041021002501001001IA1019MA1999999095591MD1010011-0201MW1051REMSYN106AAXX  15151 76393 31330 40601 10274 20244 39559 40116 50001 70544 84200 91450 333 30/// 56300 59020 84810;
0261763930999992008061518004+25733-100300FM-12+051599999V0201201N003012200019N0060001N1+03421+02421101041ADDAY141061AY241061GA1031+009901081GF104991031021012501001011IA1019KA1120M+03501KA2240N+02361MA1999999095491MD1710101-0311MW1051REMSYN124AAXX  15181 76393 31656 41203 10342 20242 39549 40104 57010 70544 83201 91750 333 10350 20236 30/// 56305 59031 83833 81070;
0195763930999992008061521004+25733-100300FM-12+051599999V0201301N005010132019N0140001N1+03661+02321100741ADDGA1051+013201081GF107991051021012501001011IA1019MA1999999095251MD1710241-0331REMSYN106AAXX  15211 76393 32664 71305 10366 20232 39525 40074 57024 85201 92050 333 30/// 56305 59033 85844 82070;
0256763930999992008061600004+25733-100300FM-12+051599999V0201301N003012200019N0060001N1+03561+01711100531ADDAA124000091GA1041+999999081GF106991041021017501001011IA1019KA1120M+03721KA2180N+02361MA1999999095111MD1710141-0321REMSYN130AAXX  16001 76393 32756 61303 10356 20171 39511 40053 57014 84201 92350 333 10372 20236 30/// 50891 56305 59032 70000 84853 82070;
0195763930999992008061603004+25733-100300FM-12+051599999V0200901N002012200019N0200001N1+03261+01721100611ADDGA1011+015001081GF102991011041012501001041IA1019MA1999999095221MD1310111-0341REMSYN106AAXX  16031 76393 32670 20902 10326 20172 39522 40061 53011 81404 90255 333 30/// 56305 59034 81850 81074;
0247763930999992008061606004+25733-100300FM-12+051599999V0200901N005012200019N0200001N1+02801+01811100791ADDGA1011+009901081GF102991011041008001001041GJ105949IA1019KA1240M+03721KA2240N+02361MA1999999095381MD1210161-0311REMSYN124AAXX  16061 76393 32570 20905 10280 20181 39538 40079 52016 81404 90555 333 10372 20236 30/// 55099 56305 59031 81833 81074;
0189763930999992008061609004+25733-100300FM-12+051599999V0200901N003012200019N0200001N1+02541+02091100791ADDGA1021+004501061GF102991021041004501001001IA1019MA1999999095341MD1110041-0261REMSYN100AAXX  16091 76393 32470 20903 10254 20209 39534 40079 51004 82400 90855 333 30/// 56300 59026 82615;
0244763930999992008061612004+25733-100300FM-12+051599999V0200901N001010033019N0100001N1+02441+02101100861ADDAA124000091GA1051+003301061GF105991051041004501001001IA1019KA1240M+03721KA2120N+02401MA1999999095351MD1410001-0251REMSYN118AAXX  16121 76393 32460 50901 10244 20210 39535 40086 54001 85400 91155 333 10372 20240 30238 56300 59025 70000 85611;
0223763930999992008061615004+25733-100300FM-12+051599999V0201301N00101009001CN0040001N1+02681+02101101131ADDAY141031AY241031GA1021+005701081GF107991071081004501999999IA1019MA1999999095571MD1210221+0021MW1051REMSYN112AAXX  16151 76393 31440 71301 10268 20210 39557 40113 52022 70544 878// 91455 333 018// 30/// 58002 82819 85627;
0161763930999992008061618004+25733-100300FM-12+051599999V0201201N003012200019N0050001N1+03281+01851101041ADDAY141061AY241061GF101991011011012501001001MA1999999095501MD1710071+9999MW1051REMSYN072AAXX  16181 76393 31650 11203 10328 20185 39550 40104 57007 70544 81100;
0189763930999992008061621004+25733-100300FM-12+051599999V0201201N003012200019N0160001N1+03681+01801100761ADDGA1021+015001081GF102991021011017501001001IA1019MA1999999095281MD1710221+0031REMSYN100AAXX  16211 76393 32766 21203 10368 20180 39528 40076 57022 82100 90255 333 00300 30/// 58003 82850;
0250763930999992008061700004+25733-100300FM-12+051599999V0201301N003012200019N0180001N1+03711+01671100621ADDAA124000091GA1021+018001081GF102991021011017501001001IA1019KA1120M+03921KA2180N+02401MA1999999095201MD1710081+0091REMSYN124AAXX  17001 76393 32768 21303 10371 20167 39520 40062 57008 82100 92355 333 00300 10392 20240 30/// 51001 58009 70000 82856;
0189763930999992008061703004+25733-100300FM-12+051599999V0201301N002012200019N0150001N1+03321+01761100791ADDGA1041+015001061GF104991041051012501001001IA1019MA1999999095401MD1210201+0181REMSYN100AAXX  17031 76393 32665 41302 10332 20176 39540 40079 52020 84500 90255 333 0/300 30/// 58018 84650;
0223763930999992008061706004+25733-100300FM-12+051599999V0201301N002012200019N0150001N1+02841+01921100971ADDGA1001+999999999GF100991001001999999001001GJ106009IA1019KA1240M+03921KA2240N+02401MA1999999095561MD1210161+0181REMSYN100AAXX  17061 76393 32965 01302 10284 20192 39556 40097 52016 90550 333 10392 20240 30/// 55100 58018;
0217763930999992008061709004+25733-100300FM-12+051599999V0200901N001010033019N0050001N1+02561+02231100981ADDAY141031AY211031GA1051+003301061GF105991051051004501001001IA1019MA1999999095541MD1710021+0201MW1041REMSYN106AAXX  17091 76393 31450 50901 10256 20223 39554 40098 57002 70441 85500 90850 333 0/300 30/// 58020 85611;
0161763930999992008061712004+25733-100300FM-12+051599999V0201001N001010042019N0030001N1+02581+02191101181ADDAY141061AY221061GF108991081051004501999999MA1999999095661MD1210121+9999MW1041REMSYN072AAXX  17121 76393 31430 81001 10258 20219 39566 40118 52012 70442 885//;
0211763930999992008061715004+25733-100300FM-12+051599999V0200301N001010060019N0030001N1+02761+02151101321ADDAY141031AY211031GA1061+006001061GF106991061041008001001001IA1019MA1999999095771MD1310111+0201MW1051REMSYN100AAXX  17151 76393 31530 60301 10276 20215 39577 40132 53011 70541 86400 333 30/// 56300 58020 86620;
0255763930999992008061718004+25733-100300FM-12+051599999V0201101N003012200019N0030001N1+03301+02081101241ADDAY141061AY201061GA1021+012001081GF102991021041012501001001IA1019KA1120M+03401KA2240N+02481MA1999999095691MD1110081+0121MW1051REMSYN118AAXX  17181 76393 31630 21103 10330 20208 39569 40124 51008 70540 82400 91755 333 10340 20248 30/// 56300 58012 82840;
0189763930999992008061721004+25733-100300FM-12+051599999V0201301N005012200019N0180001N1+03721+01711100941ADDGA1021+021001081GF102991021041022501001001IA1019MA1999999095461MD1710231-0041REMSYN100AAXX  17211 76393 32868 21305 10372 20171 39546 40094 57023 82400 92055 333 30/// 56300 59004 82857;
0234763930999992008061800004+25733-100300FM-12+051599999V0201301N003012200019N0200001N1+03721+01711100761ADDAA124000091GF101991011041022501001001IA1019KA1120M+03901KA2180N+02481MA1999999095341MD1710121+0141REMSYN124AAXX  18001 76393 32870 11303 10372 20171 39534 40076 57012 81400 92355 333 10390 20248 30/// 50961 56300 58014 70000 81853;
0199763930999992008061803004+25733-100300FM-12+051599999V0201301N005012200019N0040001N1+03301+01911100811ADDAY141031AY241031GA1001+999999999GF100991001001999999001001IA1019MA1999999095411MD1210071+0011MW1051REMSYN088AAXX  18031 76393 31940 01305 10330 20191 39541 40081 52007 70544 90250 333 30/// 58001;
0251763930999992008061806004+25733-100300FM-12+051599999V0201201N005012200019N0040001N1+02821+02121100971ADDAY141061AY241061GA1001+999999999GF100991001001999999001001GJ106189IA1019KA1240M+02861KA2240N+02481MA1999999095561MD1210151+0001MW1051REMSYN106AAXX  18061 76393 31940 01205 10282 20212 39556 40097 52015 70544 90550 333 10286 20248 30/// 55103 58000;
0199763930999992008061809004+25733-100300FM-12+051599999V0200701N001012200019N0040001N1+02541+02121100961ADDAY141031AY241031GA1001+999999999GF100991001001999999001001IA1019MA1999999095511MD1710051-0031MW1051REMSYN088AAXX  18091 76393 31940 00701 10254 20212 39551 40096 57005 70544 90850 333 30/// 59003;
0278763930999992008061812004+25733-100300FM-12+051599999V0209999C000012200019N0100001N1+02501+02131101011ADDAA124000091AY141061AY241061GA1011+003601081GF102991011021004501001011IA1019KA1240M+03901KA2120N+02481MA1999999095501MD1010011-0161MW1051REMSYN130AAXX  18121 76393 31460 20000 10250 20213 39550 40101 50001 70544 81201 91150 333 10390 20248 30/// 56305 59016 70000 81812 81070;
0217763930999992008061815004+25733-100300FM-12+051599999V0201201N001012200019N0050001N1+02801+02161101231ADDAY141031AY241031GA1021+006301081GF102991021011008001001001IA1019MA1999999095671MD1210171-0101MW1041REMSYN106AAXX  18151 76393 31550 21201 10280 20216 39567 40123 52017 70444 82100 91455 333 00300 30/// 59010 82821;
0161763930999992008061818004+25733-100300FM-12+051599999V0201201N001012200019N0070001N1+03491+01951101191ADDAY141061AY241061GF103991021011017501001011MA1999999095661MD1710011+9999MW1041REMSYN072AAXX  18181 76393 31757 31201 10349 20195 39566 40119 57001 70444 82101;
0223763930999992008061821004+25733-100300FM-12+051599999V0201101N005012200019N0120001N1+03651+02061100921ADDAY141031AY241031GA1011+015001091GF104991021031017501001011IA1019MA1999999095441MD1710221-0021MW1041REMSYN112AAXX  18211 76393 31762 41105 10365 20206 39544 40092 57022 70444 82301 90258 333 06305 30/// 59002 81950 81856;
0161763930999992008061900004+25733-100300FM-12+051599999V0201301N004010900019N0120001N1+03611+01911100591ADDAY141061AY241061GF105991011011017501031011MA1999999095181MD1710261+9999MW1041REMSYN072AAXX  19001 76393 31762 51304 10361 20191 39518 40059 57026 70444 81131;
0217763930999992008061903004+25733-100300FM-12+051599999V0201001N001012200019N0100001N1+03401+02041100611ADDAY141031AY221031GA1011+013501061GF101991011041012501999999IA1019MA1999999095241MD1210061-0171MW1051REMSYN106AAXX  19031 76393 32660 11001 10340 20204 39524 40061 52006 70542 814// 90250 333 0/599 30/// 59017 81645;
0199763930999992008061909004+25733-100300FM-12+051599999V0200901N002012200019N0050001N1+02661+02191100811ADDAY141031AY241031GA1001+999999999GF100991001001999999001001IA1019MA1999999095371MD1610061-0141MW1051REMSYN088AAXX  19091 76393 32950 00902 10266 20219 39537 40081 56006 70544 90850 333 30/// 59014;
0244763930999992008061912004+25733-100300FM-12+051599999V0200501N001012200019N0120001N1+02521+02131100931ADDAA124000091GA1021+003901061GF102991021041002501001001IA1019KA1240M+03941KA2120N+02481MA1999999095441MD1210071-0061REMSYN118AAXX  19121 76393 31362 20501 10252 20213 39544 40093 52007 82400 91150 333 0/399 10394 20248 30244 59006 70000 82613;
0236763930999992008061915004+25733-100300FM-12+051599999V0200901N001012200019N0040001N1+02761+02081101031ADDAY141031AY201031GA1011+072001001GF101991001001999999001041IA1019MA1999999095501MD1110061-0171MW1051REMSYN106AAXX  19151 76393 31940 10901 10276 20208 39550 40103 51006 70540 81004 91455 333 30/// 56005 59017 81074;EQDQ01+000012SCOTLC
0255763930999992008061918004+25733-100300FM-12+051599999V0200901N003012200019N0060001N1+03521+02081100971ADDAY141061AY201061GA1011+014401081GF101991011041012501001001IA1019KA1120M+03941KA2240N+02401MA1999999095451MD1410001-0211MW1051REMSYN118AAXX  19181 76393 31656 10903 10352 20208 39545 40097 54005 70540 81400 91755 333 10394 20240 30/// 56300 59021 81848;
0189763930999992008061921004+25733-100300FM-12+051599999V0201301N006012200019N0200001N1+03901+01771100691ADDGA1021+021001081GF102991021041022501001001IA1019MA1999999095231MD1710221-0211REMSYN100AAXX  19211 76393 32870 21306 10390 20177 39523 40069 57022 82400 92055 333 30/// 56300 59021 82857;
0234763930999992008062000004+25733-100300FM-12+051599999V0201301N002012200019N0200001N1+03821+01651100411ADDAA124000091GF102991021041022501001001IA1019KA1120M+04001KA2180N+02401MA1999999095031MD1710201-0411REMSYN124AAXX  20001 76393 32870 21302 10382 20165 39503 40041 57020 82400 92355 333 10400 20240 30/// 50101 56300 59041 70000 82857;
0199763930999992008062003004+25733-100300FM-12+051599999V0201101N006012200019N0030001N1+03241+01831100491ADDAY141031AY241031GA1001+999999999GF100991001001999999001001IA1019MA1999999095141MD1210111-0101MW1051REMSYN088AAXX  20031 76393 31930 01106 10324 20183 39514 40049 52011 70544 90250 333 30/// 59010;
0253763930999992008062006004+25733-100300FM-12+051599999V0201201N003012200019N0040001N1+02841+02111100731ADDAY141061AY241061GF101991011021008001001001GJ106969IA1019KA1240M+03581KA2240N+02401MA1999999095351MD1210211-0071MW1051REMSYN124AAXX  20061 76393 31540 11203 10284 20211 39535 40073 52021 70544 81200 90550 333 10358 20240 30/// 55116 56400 59007 81824;
0217763930999992008062009004+25733-100300FM-12+051599999V0201101N002010039019N0030001N1+02561+02171100831ADDAY141031AY241031GA1071+003901061GF107991071051004501999999IA1019MA1999999095391MD1010041+0021MW1051REMSYN106AAXX  20091 76393 31430 71102 10256 20217 39539 40083 50004 70544 875// 90850 333 30/// 563// 58002 87613;
0272763930999992008062012004+25733-100300FM-12+051599999V0201201N001010039019N0030001N1+02501+02121100911ADDAA124000091AY141061AY241061GA1081+003901061GF108991081051004501999999IA1019KA1240M+04001KA2120N+02501MA1999999095411MD1010021-0031MW1051REMSYN124AAXX  20121 76393 31430 81201 10250 20212 39541 40091 50002 70544 885// 91150 333 10400 20250 30/// 563// 59003 70000 88613;
0195763930999992008062015004+25733-100300FM-12+051599999V0209999C000010051019N0080001N1+02721+02191101271ADDGA1051+005101061GF107991051041004501021999IA1019MA1999999095721MD1210311+0221REMSYN106AAXX  20151 76393 32458 70000 10272 20219 39572 40127 52031 8542/ 91450 333 0/359 30/// 58022 85617 82456;
0161763930999992008062018004+25733-100300FM-12+051599999V0201001N002010360019N0100001N1+03121+02391101261ADDAY141061AY241061GF106991041041008001021999MA1999999095711MD1710011+9999MW1051REMSYN072AAXX  20181 76393 32560 61002 10312 20239 39571 40126 57001 70544 8442/;
0217763930999992008062021004+25733-100300FM-12+051599999V0201001N00101018001CN0120001N1+03681+02251101071ADDGA1031+014101061GA2021+018001031GF106991031041012501041041IA1019MA1999999095571MD1510141+0341REMSYN112AAXX  20211 76393 32662 61001 10368 20225 39557 40107 55014 83444 92040 333 0/357 30/// 58034 83647 82356 81070;
0278763930999992008062100004+25733-100300FM-12+051599999V0201001N00201090001CN0150001N1+03481+02071100931ADDAA124000091GA1021+014101061GA2021+018001041GF105991021041012501021041IA1019KA1120M+03741KA2180N+02501MA1999999095481MD1610041+0451REMSYN136AAXX  21001 76393 32665 51002 10348 20207 39548 40093 56004 82424 92350 333 0/357 10374 20250 30/// 50851 58045 70000 82647 82456 81070;
0223763930999992008062103004+25733-100300FM-12+051599999V0201201N00201220001CN0100001N1+03121+01791101051ADDAY141031AY221031GA1031+013201061GF105991031051012501001011IA1019MA1999999095621MD1210141+0481MW1041REMSYN112AAXX  21031 76393 31660 51202 10312 20179 39562 40105 52014 70442 83501 90250 333 0/305 30/// 58048 83644 82075;
0161763930999992008062106004+25733-100300FM-12+051599999V0201201N002012200019N0080001N1+02741+01901101331ADDAY141061AY211061GF101991011051008001001001MA1999999095871MD1210251+9999MW1041REMSYN072AAXX  21061 76393 31558 11202 10274 20190 39587 40133 52025 70441 81500;
0217763930999992008062109004+25733-100300FM-12+051599999V0201101N001012200019N0050001N1+02481+02021101361ADDAY141031AY201031GA1031+004501061GF103991031051004501001001IA1019MA1999999095851MD1710021+0461MW1041REMSYN106AAXX  21091 76393 31450 31101 10248 20202 39585 40136 57002 70440 83500 90850 333 0/300 30/// 58046 83615;
0161763930999992008062112004+25733-100300FM-12+051599999V0201201N001010042019N0050001N1+02401+02031101511ADDAY121061AY221061GF106991061051004501001001MA1999999095951MD1210101+9999MW1041REMSYN072AAXX  21121 76393 31450 61201 10240 20203 39595 40151 52010 70422 86500;
0189763930999992008062115004+25733-100300FM-12+051599999V0203501N001012200019N0180001N1+02701+02081101601ADDGA1041+006301061GF104991041041008001001001IA1019MA1999999096011MD1110061+0291REMSYN100AAXX  21151 76393 32568 43501 10270 20208 39601 40160 51006 84400 91455 333 30/// 56300 58029 84621;
0227763930999992008062118004+25733-100300FM-12+051599999V0201201N002012200019N0180001N1+03281+01991101551ADDGA1021+012901081GF102991021041012501001001IA1019KA1120M+03501KA2240N+02361MA1999999095981MD1410001+0271REMSYN112AAXX  21181 76393 32668 21202 10328 20199 39598 40155 54003 82400 91755 333 10350 20236 30/// 56300 58027 82843;
0189763930999992008062121004+25733-100300FM-12+051599999V0200901N003010210019N0200001N1+03601+01371101361ADDGA1051+021001081GF105991051041022501001001IA1019MA1999999095841MD1610141+0271REMSYN100AAXX  21211 76393 32870 50903 10360 20137 39584 40136 56014 85400 92055 333 30/// 56300 58027 85857;
0234763930999992008062200004+25733-100300FM-12+051599999V0201301N003010210019N0200001N1+03581+01381101181ADDAA124000091GF105991051041022501001001IA1019KA1120M+03741KA2180N+02361MA1999999095711MD1510131+0231REMSYN124AAXX  22001 76393 32870 51303 10358 20138 39571 40118 55013 85400 92355 333 10374 20236 30/// 50821 56300 58023 70000 85857;
0236763930999992008062203004+25733-100300FM-12+051599999V0201701N001012200019N0030001N1+02921+01891101221ADDAY141031AY241031GA1011+060001001GF101991001001999999001011IA1019MA1999999095781MD1010071+0161MW1051REMSYN106AAXX  22031 76393 31930 11701 10292 20189 39578 40122 50007 70544 81001 90250 333 30/// 56005 58016 81070;EQDQ01+000012SCOTLC
0272763930999992008062206004+25733-100300FM-12+051599999V0201101N002012200019N0040001N1+02601+01911101471ADDAY141061AY241061GF101991001001999999001011GJ105409IA1019KA1240M+03041KA2240N+02361MA1999999095991MD1010211+0121MW1051REMSYN124AAXX  22061 76393 31940 11102 10260 20191 39599 40147 50021 70544 81001 90550 333 10304 20236 30/// 55090 56005 58012 81070;EQDQ01+000012SCOTLC
0208763930999992008062209004+25733-100300FM-12+051599999V0200601N001012200019N0040001N1+02441+01821101471ADDGA1011+060001001GF101991001001999999001011IA1019MA1999999095951MD1710041+0101REMSYN100AAXX  22091 76393 32940 10601 10244 20182 39595 40147 57004 81001 90850 333 30/// 56005 58010 81070;EQDQ01+000012SCOTLC
0263763930999992008062212004+25733-100300FM-12+051599999V0209999C000010600019N0080001N1+02381+01981101591ADDAA124000091GA1051+060001001GF105991001001999999001011IA1019KA1240M+03741KA2120N+02321MA1999999096001MD1210051+0051REMSYN118AAXX  22121 76393 32958 50000 10238 20198 39600 40159 52005 85001 91150 333 10374 20232 30/// 56005 58005 70000 85070;EQDQ01+000052SCOTLC
0223763930999992008062215004+25733-100300FM-12+051599999V0202801N00101090001CN0080001N1+02841+01911101721ADDAY141031AY241031GA1011+009301081GF107991011011008001001081IA1019MA1999999096111MD1210111+0101MW1041REMSYN112AAXX  22151 76393 31558 72801 10284 20191 39611 40172 52011 70444 81108 91455 333 00505 30/// 58010 81831 82670;
0233763930999992008062218004+25733-100300FM-12+051599999V0203601N00201220001CN0160001N1+03321+01311101571ADDGA1021+018001081GF106991021021017501001041IA1019KA1120M+03431KA2240N+02321MA1999999096001MD1710111+0021REMSYN118AAXX  22181 76393 32766 63602 10332 20131 39600 40157 57011 82204 91755 333 01505 10343 20232 30/// 58002 82856 84070;
0223763930999992008062221004+25733-100300FM-12+051599999V0203601N00201090001CN0160001N1+03391+01451101341ADDAY121031AY221031GA1011+015001091GF107991031061017501001021IA1019MA1999999095821MD1710181-0021MW1151REMSYN112AAXX  22211 76393 31766 73602 10339 20145 39582 40134 57018 71522 83602 92055 333 07305 30/// 59002 81950 85656;
0161763930999992008062300004+25733-100300FM-12+051599999V0201701N002012200019N0200001N1+03501+01571101151ADDAY121061AY221061GF104991031031017501031001MA1999999095691MD1710131+9999MW1151REMSYN072AAXX  23001 76393 31770 41702 10350 20157 39569 40115 57013 71522 83330;
0189763930999992008062303004+25733-100300FM-12+051599999V0201601N001012200019N0150001N1+02841+01791101281ADDGA1021+010201061GF102991021051012501001001IA1019MA1999999095831MD1210151+0051REMSYN100AAXX  23031 76393 32665 21601 10284 20179 39583 40128 52015 82500 90255 333 0/300 30/// 58005 82634;
0161763930999992008062306004+25733-100300FM-12+051599999V0201301N002012200019N0080001N1+02561+01961101361ADDAY101061AY201061GF101991011051008001001001MA1999999095881MD1210051+9999MW1041REMSYN072AAXX  23061 76393 31558 11302 10256 20196 39588 40136 52005 70400 81500;
0217763930999992008062309004+25733-100300FM-12+051599999V0200601N001012200019N0040001N1+02401+01971101291ADDAY101031AY201031GA1031+004501061GF103991031051004501001001IA1019MA1999999095771MD1710111-0181MW1041REMSYN106AAXX  23091 76393 31440 30601 10240 20197 39577 40129 57011 70400 83500 90850 333 0/300 30/// 59018 83615;
0180763930999992008062312004+25733-100300FM-12+051599999V0209999C000012200019N0160001N1+02401+01971101411ADDAY101061AY201061GF103991001001999999001041MA1999999095831MD1210061+9999MW1041REMSYN072AAXX  23121 76393 31966 30000 10240 20197 39583 40141 52006 70400 83004;EQDQ01+000032SCOTLC
0233763930999992008062318004+25733-100300FM-12+051599999V0201101N004012200019N0180001N1+03361+01741101341ADDGA1011+015001081GF102991011041017501001041IA1019KA1120M+03671KA2240N+02341MA1999999095781MD1410001-0221REMSYN118AAXX  23181 76393 32768 21104 10336 20174 39578 40134 54005 81404 91755 333 10367 20234 30/// 56305 59022 81850 81074;
0189763930999992008062321004+25733-100300FM-12+051599999V0201301N006012200019N0200001N1+03681+01571101121ADDGA1041+021001081GF104991041041022501001001IA1019MA1999999095621MD1710161-0381REMSYN100AAXX  23211 76393 32870 41306 10368 20157 39562 40112 57016 84400 92055 333 30/// 56300 59038 84857;
0234763930999992008062400004+25733-100300FM-12+051599999V0201401N003012200019N0200001N1+03441+01471101021ADDAA124000091GF104991041041017501001001IA1019KA1120M+03861KA2180N+02341MA1999999095581MD1410001-0111REMSYN124AAXX  24001 76393 32770 41403 10344 20147 39558 40102 54004 84400 92355 333 10386 20234 30/// 50841 56300 59011 70000 84856;
0217763930999992008062403004+25733-100300FM-12+051599999V0201301N005012200019N0030001N1+03161+01511101051ADDAY101031AY201031GA1011+015001081GF101991011021017501001001IA1019MA1999999095631MD1210051-0201MW1051REMSYN106AAXX  24031 76393 31730 11305 10316 20151 39563 40105 52005 70500 81200 90250 333 30/// 56300 59020 81850;
0253763930999992008062406004+25733-100300FM-12+051599999V0201201N005012200019N0030001N1+02701+01991101231ADDAY101061AY201061GF101991011021008001001001GJ106609IA1019KA1240M+03361KA2240N+02341MA1999999095781MD1210151-0101MW1051REMSYN124AAXX  24061 76393 31530 11205 10270 20199 39578 40123 52015 70500 81200 90550 333 10336 20234 30/// 55110 56300 59010 81824;
0189763930999992008062409004+25733-100300FM-12+051599999V0200901N003012200019N0030001N1+02461+02121101291ADDGA1011+003301081GF101991011021004501001001IA1019MA1999999095771MD1010011-0031REMSYN100AAXX  24091 76393 32430 10903 10246 20212 39577 40129 50001 81200 90850 333 30/// 56300 59003 81811;
0278763930999992008062412004+25733-100300FM-12+051599999V0200901N001010027019N0040001N1+02421+02141101391ADDAA124000091AY141061AY241061GA1071+002701081GF108991071021002501001011IA1019KA1240M+03861KA2120N+02351MA1999999095841MD1210081+0011MW1051REMSYN130AAXX  24121 76393 31340 80901 10242 20214 39584 40139 52008 70544 87201 91150 333 10386 20235 30/// 563/5 58001 70000 87809 81070;
0223763930999992008062415004+25733-100300FM-12+051599999V0203601N00201012001CN0050001N1+02641+01981101661ADDAY141031AY241031GA1021+006601081GF107991071081008001999999IA1019MA1999999096061MD1210221+0231MW1041REMSYN112AAXX  24151 76393 31550 73602 10264 20198 39606 40166 52022 70444 878// 91455 333 018// 30/// 58023 82822 85630;
0161763930999992008062418004+25733-100300FM-12+051599999V0201301N003012200019N0080001N1+03171+01901101591ADDAY141061AY241061GF102991021021012501001001MA1999999096001MD1710061+9999MW1041REMSYN072AAXX  24181 76393 31658 21303 10317 20190 39600 40159 57006 70444 82200;
0195763930999992008062421004+25733-100300FM-12+051599999V0201401N003012200019N0120001N1+03621+01771101321ADDGA1021+015001081GF104991031021017501001011IA1019MA1999999095791MD1710211+0171REMSYN106AAXX  24211 76393 32762 41403 10362 20177 39579 40132 57021 83201 92055 333 01305 30/// 58017 82850 81650;
0256763930999992008062500004+25733-100300FM-12+051599999V0201401N005012200019N0140001N1+03461+01651101121ADDAA124000091GA1011+021001091GF103991021031017501031001IA1019KA1120M+03761KA2180N+02351MA1999999095661MD1710131+0081REMSYN130AAXX  25001 76393 32764 31405 10346 20165 39566 40112 57013 82330 92355 333 06350 10376 20235 30/// 50971 58008 70000 81957 81863;
0217763930999992008062503004+25733-100300FM-12+051599999V0201101N002012200019N0100001N1+03001+01811101201ADDAY101031AY201031GA1011+012001081GF101991011011012501001001IA1019MA1999999095761MD1210101+0131MW1041REMSYN106AAXX  25031 76393 31660 11102 10300 20181 39576 40120 52010 70400 81100 90255 333 00300 30/// 58013 81840;
0251763930999992008062506004+25733-100300FM-12+051599999V0201201N001012200019N0080001N1+02641+01921101431ADDAY101061AY201061GA1001+999999999GF100991001001999999001001GJ105769IA1019KA1240M+03761KA2240N+02321MA1999999095961MD1210201+0181MW1041REMSYN106AAXX  25061 76393 31958 01201 10264 20192 39596 40143 52020 70400 90550 333 10376 20232 30/// 55096 58018;
0199763930999992008062509004+25733-100300FM-12+051599999V0201001N002012200019N0030001N1+02421+01961101351ADDAY101031AY201031GA1001+999999999GF100991001001999999001001IA1019MA1999999095841MD1710021+0081MW1041REMSYN088AAXX  25091 76393 31930 01002 10242 20196 39584 40135 57002 70400 90855 333 30/// 58008;
0161763930999992008062512004+25733-100300FM-12+051599999V0200901N001012200019N0020001N1+02381+01981101521ADDAY141061AY201061GF104991041051004501001001MA1999999095951MD1210111+9999MW1051REMSYN072AAXX  25121 76393 31420 40901 10238 20198 39595 40152 52011 70540 84500;
0223763930999992008062515004+25733-100300FM-12+051599999V0209999C000012200019N9999999N1+02621+02091101631ADDAY141031AY201031GA1021+005101061GF104991021041004501011999IA1019MA1999999096021MD1210071-0041MW1051REMSYN112AAXX  25151 76393 31453 40000 10262 20209 39602 40163 52007 70540 8241/ 91455 333 0/359 30/// 59004 82617 82456;
0233763930999992008062518004+25733-100300FM-12+051599999V0200501N002012200019N0100001N1+03201+02181101621ADDGA1021+010201081GF103991031021012501001001IA1019KA1120M+03321KA2240N+02321MA1999999096031MD1010011+0031REMSYN118AAXX  25181 76393 32660 30502 10320 20218 39603 40162 50001 83200 91750 333 00399 10332 20232 30/// 58003 82834 81635;
0195763930999992008062521004+25733-100300FM-12+051599999V0200901N002012200019N0150001N1+03741+01921101311ADDGA1011+015001061GF102991011041017501041001IA1019MA1999999095791MD1710241+0001REMSYN106AAXX  25211 76393 32765 20902 10374 20192 39579 40131 57024 81440 92050 333 0/399 30/// 59000 81650 81356;
0256763930999992008062600004+25733-100300FM-12+051599999V0201301N005012200019N0200001N1+03501+01801101071ADDAA124000091GA1021+018001031GF104991021001017501041041IA1019KA1120M+03801KA2180N+02321MA1999999095591MD1810201-0071REMSYN130AAXX  26001 76393 32770 41305 10350 20180 39559 40107 58020 82044 92350 333 0/057 10380 20232 30/// 50911 59007 70000 82356 82070;
0223763930999992008062615004+25733-100300FM-12+051599999V0201101N00101012001CN0060001N1+02641+01911101451ADDAY141031AY241031GA1031+006901081GF106991061081008001001001IA1019MA1999999095851MD1999999-0171MW1051REMSYN112AAXX  26151 76393 31556 61101 10264 20191 39585 40145 5//// 70544 86800 91455 333 00800 30/// 59017 83823 83630;
0161763930999992008062618004+25733-100300FM-12+051599999V0201101N002012200019N0100001N1+03221+01911101351ADDAY141061AY241061GF101991011021012501001001MA1999999095801MD1710051+9999MW1051REMSYN072AAXX  26181 76393 31660 11102 10322 20191 39580 40135 57005 70544 81200;
0195763930999992008062621004+25733-100300FM-12+051599999V0201201N005012200019N0160001N1+03641+01731101011ADDGA1011+018001081GF102991021031017501001001IA1019MA1999999095531MD1710271-0261REMSYN106AAXX  26211 76393 32766 21205 10364 20173 39553 40101 57027 82300 92055 333 06500 30/// 59026 81856 81967;
0250763930999992008062700004+25733-100300FM-12+051599999V0201401N005012200019N0180001N1+03551+01561100701ADDAA124000091GA1011+018001081GF102991011011017501001011IA1019KA1120M+03781KA2180N+02301MA1999999095261MD1710271-0331REMSYN124AAXX  27001 76393 32768 21405 10355 20156 39526 40070 57027 81101 92355 333 01505 10378 20230 30/// 50911 59033 70000 81856;
0171763930999992008062703004+25733-100300FM-12+051599999V0201301N002012200019N0150001N1+03061+01641100821ADDGA1001+999999999GF100991001001999999001001IA1019MA1999999095401MD1210141+9999REMSYN082AAXX  27031 76393 32965 01302 10306 20164 39540 40082 52014 90255 333 30/// 58///;
0243763930999992008062706004+25733-100300FM-12+051599999V0201201N001012200019N0100001N1+02801+01611100941ADDAY101061AY201061GA1001+999999999GF100991001001999999001001IA1019KA1240M+03781KA2240N+02301MA1999999095521MD1210121+9999MW1041REMSYN106AAXX  27061 76393 31960 01201 10280 20161 39552 40094 52012 70400 90550 333 10378 20230 30/// 55/// 58///;
0199763930999992008062709004+25733-100300FM-12+051599999V0200901N001012200019N0040001N1+02501+01831100881ADDAY101031AY201031GA1001+999999999GF100991001001999999001001IA1019MA1999999095421MD1710101+9999MW1041REMSYN088AAXX  27091 76393 31940 00901 10250 20183 39542 40088 57010 70400 90850 333 30/// 58///;
0161763930999992008062712004+25733-100300FM-12+051599999V0201201N001012200019N0030001N1+02421+01991101021ADDAY101061AY201061GF102991021051004501001001MA1999999095501MD1210081+9999MW1041REMSYN072AAXX  27121 76393 31430 21201 10242 20199 39550 40102 52008 70400 82500;
0217763930999992008062715004+25733-100300FM-12+051599999V0201201N002010075019N0050001N1+02641+01891101191ADDAY141031AY211031GA1071+007501061GF107991071041008001999999IA1019MA1999999095631MD1310131-0221MW1051REMSYN106AAXX  27151 76393 31550 71202 10264 20189 39563 40119 53013 70541 874// 91455 333 30/// 56399 59022 87625;
0255763930999992008062718004+25733-100300FM-12+051599999V0200901N001012200019N0050001N1+03021+01941101151ADDAY141061AY201061GA1021+009901061GF102991021041012501001001IA1019KA1120M+03781KA2240N+02341MA1999999095591MD1110041-0211MW1051REMSYN118AAXX  27181 76393 31650 20901 10302 20194 39559 40115 51004 70540 82400 91755 333 10378 20234 30/// 56300 59021 82633;
0189763930999992008062721004+25733-100300FM-12+051599999V0201201N004012200019N0180001N1+03621+01761100861ADDGA1021+018001081GF102991021041017501001001IA1019MA1999999095361MD1710231-0171REMSYN100AAXX  27211 76393 32768 21204 10362 20176 39536 40086 57023 82400 92055 333 30/// 56300 59017 82856;
0234763930999992008062800004+25733-100300FM-12+051599999V0201301N006012200019N0180001N1+03721+01741100611ADDAA124000091GF103991031041017501001001IA1019KA1120M+03881KA2180N+02341MA1999999095181MD1710181-0081REMSYN124AAXX  28001 76393 32768 31306 10372 20174 39518 40061 57018 83400 92355 333 10388 20234 30/// 50861 56300 59008 70000 83857;
0199763930999992008062803004+25733-100300FM-12+051599999V0201001N003012200019N0030001N1+03081+02011100741ADDAY101031AY201031GA1001+999999999GF100991001001999999001001IA1019MA1999999095331MD1210151-0071MW1051REMSYN088AAXX  28031 76393 31930 01003 10308 20201 39533 40074 52015 70500 90250 333 30/// 59007;
0253763930999992008062806004+25733-100300FM-12+051599999V0200901N006012200019N0030001N1+02681+02061100951ADDAY101061AY201061GF101991011021008001001001GJ105769IA1019KA1240M+03521KA2240N+02341MA1999999095531MD1210201+0011MW1051REMSYN124AAXX  28061 76393 31530 10906 10268 20206 39553 40095 52020 70500 81200 90550 333 10352 20234 30/// 55096 56300 58001 81821;
0199763930999992008062809004+25733-100300FM-12+051599999V0200901N003012200019N0030001N1+02541+02091100961ADDAY101031AY201031GA1001+999999999GF100991001001999999001001IA1019MA1999999095491MD1710041+0071MW1051REMSYN088AAXX  28091 76393 31930 00903 10254 20209 39549 40096 57004 70500 90850 333 30/// 58007;
0272763930999992008062812004+25733-100300FM-12+051599999V0201001N001010027019N0040001N1+02361+02081101001ADDAA124000091AY141061AY241061GA1081+002701061GF108991081051002501999999IA1019KA1240M+03881KA2120N+02351MA1999999095481MD1010011-0021MW1051REMSYN124AAXX  28121 76393 31340 81001 10236 20208 39548 40100 50001 70544 885// 91150 333 10388 20235 30232 563// 59002 70000 88609;
0223763930999992008062815004+25733-100300FM-12+051599999V0201201N00101009001CN0050001N1+02601+02031101321ADDAY141031AY241031GA1011+005701081GF107991061081004501001011IA1019MA1999999095741MD1210261+0111MW1051REMSYN112AAXX  28151 76393 31450 71201 10260 20203 39574 40132 52026 70544 86801 91455 333 01805 30/// 58011 81819 85626;
0161763930999992008062818004+25733-100300FM-12+051599999V0201201N003012200019N0080001N1+03181+02021101301ADDAY141061AY241061GF103991021011012501001011MA1999999095731MD1710011+9999MW1051REMSYN072AAXX  28181 76393 31658 31203 10318 20202 39573 40130 57001 70544 82101;
0189763930999992008062821004+25733-100300FM-12+051599999V0201301N003012200019N0160001N1+03701+01831100981ADDGA1041+018001081GF106991041021017501001011IA1019MA1999999095471MD1710261+0111REMSYN100AAXX  28211 76393 32766 61303 10370 20183 39547 40098 57026 84201 92055 333 01305 30/// 58011 84856;
0250763930999992008062900004+25733-100300FM-12+051599999V0201701N003010900019N0160001N1+03621+01581100821ADDAA124000091GA1031+021001081GF105991031021017501001021IA1019KA1120M+03801KA2180N+02351MA1999999095381MD1610091+0201REMSYN124AAXX  29001 76393 32766 51703 10362 20158 39538 40082 56009 83202 92355 333 01305 10380 20235 30/// 50991 58020 70000 83857;
0217763930999992008062903004+25733-100300FM-12+051599999V0201101N003012200019N0100001N1+03161+01811100891ADDAY141031AY221031GA1021+013501061GF102991021041012501999999IA1019MA1999999095481MD1210101+0151MW1051REMSYN106AAXX  29031 76393 31660 21103 10316 20181 39548 40089 52010 70542 824// 90250 333 0/399 30/// 58015 82645;
0251763930999992008062906004+25733-100300FM-12+051599999V0201401N003012200019N0080001N1+02661+02011101161ADDAY141061AY221061GA1001+999999999GF100991001001999999001001GJ105529IA1019KA1240M+03801KA2240N+02351MA1999999095721MD1210241+0191MW1051REMSYN106AAXX  29061 76393 31958 01403 10266 20201 39572 40116 52024 70542 90550 333 10380 20235 30/// 55092 58019;
0171763930999992008062909004+25733-100300FM-12+051599999V0201001N003012200019N0050001N1+02541+01871101151ADDGA1001+999999999GF100991001001999999001001IA1019MA1999999095671MD1610051+0181REMSYN082AAXX  29091 76393 32950 01003 10254 20187 39567 40115 56005 90850 333 30/// 58018;
0228763930999992008062912004+25733-100300FM-12+051599999V0200901N003012200019N0120001N1+02321+01881999999ADDGA1001+999999999GF100991001001999999001001KA1240M+03801KA2120N+02301MA1999999095721MD1010051+0241REMSYN100AAXX  29121 76393 32962 00903 10232 20188 39572 50126 52005 91150 333 10380 20230 30226 58024 17000;EQDQ01+001262APC3  
0189763930999992008062915004+25733-100300FM-12+051599999V0200201N001010066019N0180001N1+02501+01831101501ADDGA1061+006601061GF106991061041008001001001IA1019MA1999999095911MD1210191+0171REMSYN100AAXX  29151 76393 32568 60201 10250 20183 39591 40150 52019 86400 91455 333 30/// 56300 58017 86622;
0227763930999992008062918004+25733-100300FM-12+051599999V0201601N003012200019N0180001N1+03221+01881101511ADDGA1031+012901081GF103991031041012501001001IA1019KA1120M+03281KA2240N+02301MA1999999095931MD1110021+0201REMSYN112AAXX  29181 76393 32668 31603 10322 20188 39593 40151 51002 83400 91755 333 10328 20230 30/// 56300 58020 83843;
0189763930999992008062921004+25733-100300FM-12+051599999V0201401N006012200019N0200001N1+03521+01651101171ADDGA1041+018001081GF104991041041017501001001IA1019MA1999999095651MD1710281+0181REMSYN100AAXX  29211 76393 32770 41406 10352 20165 39565 40117 57028 84400 92055 333 30/// 56300 58018 84856;
0234763930999992008063000004+25733-100300FM-12+051599999V0201301N007012200019N0200001N1+03481+01561101011ADDAA124000091GF104991041041017501001001IA1019KA1120M+03721KA2180N+02301MA1999999095511MD1610141+0131REMSYN124AAXX  30001 76393 32770 41307 10348 20156 39551 40101 56014 84400 92355 333 10372 20230 30/// 50901 56300 58013 70000 84856;
0217763930999992008063003004+25733-100300FM-12+051599999V0201001N003012200019N0030001N1+02961+01871101111ADDAY141031AY241031GA1011+010801081GF101991011021012501001001IA1019MA1999999095671MD1210161-0191MW1051REMSYN106AAXX  30031 76393 31630 11003 10296 20187 39567 40111 52016 70544 81200 90250 333 30/// 56300 59019 81836;
0297763930999992008063006004+25733-100300FM-12+051599999V0201201N006010900019N0030001N1+02641+01891101381ADDAY141061AY241061GA1011+007501081GA2011+030001031GF105991011021008001031011GJ106729IA1019KA1240M+03281KA2240N+02301MA1999999095911MD1010241+0191MW1051REMSYN136AAXX  30061 76393 31530 51206 10264 20189 39591 40138 50024 70544 81231 90550 333 10328 20230 30/// 55112 56355 58019 81825 81360 83070;
0223763930999992008063009004+25733-100300FM-12+051599999V0201201N006012200019N0030001N1+02481+01871101321ADDAY141031AY241031GA1011+006001081GF102991011021008001031001IA1019MA1999999095811MD1710101+0141MW1051REMSYN112AAXX  30091 76393 31530 21206 10248 20187 39581 40132 57010 70544 81230 90850 333 30/// 56350 58014 81820 81360;
0278763930999992008063012004+25733-100300FM-12+051599999V0200901N00301036001CN0120001N1+02421+01991101431ADDAA124000091AY141061AY241061GA1021+004501081GF107991021021004501041001IA1019KA1240M+03721KA2120N+02401MA1999999095871MD1310061+0151MW1051REMSYN130AAXX  30121 76393 31462 70903 10242 20199 39587 40143 53006 70544 82240 91150 333 10372 20240 30238 56350 58015 70000 82815 85360;
0223763930999992008063015004+25733-100300FM-12+051599999V0201401N00301036001CN0100001N1+02721+01981101681ADDAY141031AY241031GA1021+007201061GF107991021051008001031999IA1019MA1999999096081MD1210211+0171MW1051REMSYN112AAXX  30151 76393 31560 71403 10272 20198 39608 40168 52021 70544 8253/ 91455 333 0/45/ 30/// 58017 82624 85356;
0161763930999992008063018004+25733-100300FM-12+051599999V0201201N005012200019N0100001N1+03271+01871101621ADDAY141061AY221061GF105991041021012501001011MA1999999096031MD1710051+9999MW1051REMSYN072AAXX  30181 76393 31660 51205 10327 20187 39603 40162 57005 70542 84201;
0217763930999992008063021004+25733-100300FM-12+051599999V0201401N00501036001CN0140001N1+03411+01771101341ADDGA1011+015001091GA2021+015001081GF105991031031017501031001IA1019MA1999999095811MD1710221+0161REMSYN112AAXX  30211 76393 32764 51405 10341 20177 39581 40134 57022 83330 92055 333 06350 30/// 58016 81950 82850 82356;
0324763930999992008070100004+25733-100300FM-12+051599999V0201401N005010900019N0180001N1+03221+01741101151ADDAA103000091AA224000091AY151061AY221061GA1011+014701091GF105991021031012501031041IA1019KA1120M+03591KA2180N+02041MA1999999095661MD1710151+0151REMSYN136AAXX  01001 76393 21668 51405 10322 20174 39566 40115 57015 72252 82334 92355 333 10359 20204 30/// 50951 58015 69907 70000 81949 81649;EQDQ01+000222PRSWM1Q02  00002PRCP03
0173763930999992008070103004+25733-100300FM-12+051599999V0201401N001019999999N0150001N1+02821+01871101351ADDGF106991999999008001999999MA1999999095871MD1999999+0201REMSYN106AAXX  01031 76393 32565 61401 10282 20187 39587 40135 40135 52021 86500 90550 333 0/300 30/// 58020 86631;
0161763930999992008070106004+25733-100300FM-12+051599999V0201001N001010360019N0100001N1+02561+01861101431ADDAY141061AY221061GF105991041051008001031001MA1999999095931MD1210061+9999MW1041REMSYN072AAXX  01061 76393 31560 51001 10256 20186 39593 40143 52006 70442 84530;
0223763930999992008070109004+25733-100300FM-12+051599999V0209999C00001036001CN0030001N1+02421+01831101291ADDAY141031AY221031GA1021+005701061GF105991021051004501031001IA1019MA1999999095751MD1710181-0061MW1041REMSYN112AAXX  01091 76393 31430 50000 10242 20183 39575 40129 57018 70442 82530 90850 333 0/350 30/// 59006 82619 83360;
0161763930999992008070112004+25733-100300FM-12+051599999V0200601N001010021019N0050001N1+02221+01931101431ADDAY141061AY221061GF106991061051002501001001MA1999999095841MD1210091+9999MW1041REMSYN072AAXX  01121 76393 31350 60601 10222 20193 39584 40143 52009 70442 86500;
0189763930999992008070115004+25733-100300FM-12+051599999V0200801N002010045019N0100001N1+02401+01941101561ADDGA1071+004501061GF107991071041004501999999IA1019MA1999999095941MD1310101-0141REMSYN100AAXX  01151 76393 32460 70802 10240 20194 39594 40156 53010 874// 91455 333 30/// 56399 59014 87615;
0227763930999992008070121004+25733-100300FM-12+051599999V0200901N006012200019N0200001N1+03181+01831101391ADDGA1031+013501081GF103991031041012501001001IA1019KA1999M+03201KA2999N+02161MA1999999095801MD1610141-0231REMSYN112AAXX  01211 76393 32670 30906 10318 20183 39580 40139 56014 83400 91755 333 10320 20216 30/// 56300 59023 83845;
0234763930999992008070200004+25733-100300FM-12+051599999V0201801N006010120019N0200001N1+03041+01761100921ADDAA124000091GF107991071041012501999999IA1019KA1120M+03461KA2180N+02161MA1999999095441MD1610141-0371REMSYN124AAXX  02001 76393 32670 71806 10304 20176 39544 40092 56014 874// 92355 333 10346 20216 30/// 50701 56399 59037 70000 87640;
0245763930999992008070203004+25733-100300FM-12+051599999V0200901N00601036001CN0040001N1+02541+02031101081ADDAY141031AY241031GA1011+005101081GA2021+030001031GF106991011021004501051011IA1019MA1999999095601MD1210161-0271MW1051REMSYN118AAXX  02031 76393 31440 60906 10254 20203 39560 40108 52016 70544 81251 90250 333 30/// 56355 59027 81817 82360 83070;
0297763930999992008070206004+25733-100300FM-12+051599999V0201201N005010900019N0030001N1+02461+02001101191ADDAY141061AY241061GA1021+004501081GA2021+030001031GF105991021021004501021011GJ102769IA1019KA1240M+02921KA2240N+02161MA1999999095681MD1110081-0251MW1051REMSYN136AAXX  02061 76393 31430 51205 10246 20200 39568 40119 51008 70544 82221 90550 333 10292 20216 30/// 55046 56355 59025 82815 82360 81070;
0240763930999992008070209004+25733-100300FM-12+051599999V0201201N00301036001CN0030001N1+02381+01921101111ADDAA103001091AY141031AY241031GA1021+004501081GF106991021021004501041001IA1019MA1999999095561MD1710121-0191MW1051REMSYN118AAXX  02091 76393 11430 61203 10238 20192 39556 40111 57012 69997 70544 82240 90850 333 30/// 56350 59019 82815 84360;
0297763930999992008070212004+25733-100300FM-12+051599999V0201201N00301036001CN0040001N1+02341+01871101141ADDAA124000091AY141061AY241061GA1011+004801081GF108991011021004501041999IA1019KA1240M+03461KA2120N+02301MA1999999095551MD1610011-0291MW1051REMSYN130AAXX  02121 76393 31440 81203 10234 20187 39555 40114 56001 70544 8124/ 91150 333 10346 20230 30218 5635/ 59029 79999 81816 87460;EQDQ01  00002PRCP24
0217763930999992008070215004+25733-100300FM-12+051599999V0200901N00101036001CN0120001N1+02501+01951101411ADDGA1011+005401081GA2031+007501061GF108991041081004501031999IA1019MA1999999095791MD1210241-0151REMSYN112AAXX  02151 76393 32462 80901 10250 20195 39579 40141 52024 8483/ 91455 333 0035/ 30/// 59015 81818 83625 84356;
0161763930999992008070218004+25733-100300FM-12+051599999V0201201N002010360019N0060001N1+02911+01921101291ADDAY141061AY241061GF107991031081008001031999MA1999999095701MD1710091+9999MW1041REMSYN072AAXX  02181 76393 31556 71202 10291 20192 39570 40129 57009 70444 8383/;
0245763930999992008070221004+25733-100300FM-12+051599999V0202001N00201036001CN0120001N1+03271+01911101001ADDAY121031AY221031GA1011+013501091GA2011+013501081GF107991021031012501031999IA1019MA1999999095461MD1710241-0121MW1151REMSYN118AAXX  02211 76393 32662 72002 10327 20191 39546 40100 57024 71522 8233/ 92055 333 0635/ 30/// 59012 81945 81845 85356;
0369763930999992008070300004+25733-100300FM-12+051599999V0201601N00201036001CN0140001N1+03241+01801100841ADDAA103999999AA206000091AA324000091AY121061AY221061GA1031+014401061GF107991031051012501031999IA1019KA1120M+03521KA2180N+02301MA1999999095351MD1710111-0091MW1151REMSYN148AAXX  03001 76393 01664 71602 10324 20180 39535 40084 57011 69901 71522 8353/ 92355 333 0/35/ 10352 20230 30/// 50711 59009 69907 79999 83648 84356;EQDQ01  00002PRCP06Q02  00002PRCP24Q03  99992PRCP03
0195763930999992008070303004+25733-100300FM-12+051599999V0201401N00201036001CN0060001N1+02841+01991100961ADDGA1041+008401061GF106991041041008001041999IA1019MA1999999095491MD1210141-0111REMSYN106AAXX  03031 76393 32556 61402 10284 20199 39549 40096 52014 8444/ 90250 333 0/359 30/// 59011 84628 82356;
0326763930999992008070306004+25733-100300FM-12+051599999V0200901N002010042019N0050001N1+02521+02101100981ADDAA103000991AA206001092AA324000022AY151061AY221061GA1051+004201061GF108991051041004501011999GJ101929IA1099KA1240M+03521KA2240N+02301MA1999999095501MD1710011-0181MW1201REMSYN148AAXX  03061 76393 31450 80902 10252 20210 39550 40098 57001 69991 72052 8541/ 90550 333 0/359 10352 20230 31/// 55032 59018 69997 79999 85614 83456;
0234763930999992008070309004+25733-100300FM-12+051599999V0201101N003012200019N0030001N1+02521+02101101001ADDAA103000991AY141031AY221031GA1031+005101061GF103991031041004501001001IA1019MA1999999095491MD1510011-0071MW1051REMSYN112AAXX  03091 76393 21430 31103 10252 20210 39549 40100 55001 70542 83400 90850 333 0/399 30/// 59007 69997 83617;
0180763930999992008070312004+25733-100300FM-12+051599999V0200901N002010042019N0050001N1+02381+01921101091ADDAY141061AY201061GF108991061041004501021999MA1999999095531MD1210041+9999MW1051REMSYN072AAXX  03121 76393 31450 80902 10238 20192 39553 40109 52004 70547 8642/;EQDQ01+000072PSTWM2
0189763930999992008070315004+25733-100300FM-12+051599999V0201201N001010057019N0120001N1+02501+01921101191ADDGA1081+005701061GF108991081051004501999999IA1019MA1999999095601MD1310071-0191REMSYN100AAXX  03151 76393 32462 81201 10250 20192 39560 40119 53007 885// 91455 333 30/// 56399 59019 88619;
0255763930999992008070318004+25733-100300FM-12+051599999V0200601N001010060019N0040001N1+02701+02111101261ADDAY141061AY221061GA1081+006001061GF108991081051004501999999IA1019KA1120M+02741KA2240N+02361MA1999999095671MD1410001-0031MW1051REMSYN118AAXX  03181 76393 31440 80601 10270 20211 39567 40126 54007 70542 885// 91755 333 10274 20236 30/// 56399 59003 88620;
0217763930999992008070321004+25733-100300FM-12+051599999V0200901N001010069019N0040001N1+02941+02231101071ADDAY141031AY221031GA1081+006901061GF108991081051008001999999IA1019MA1999999095511MD1710161+0051MW1051REMSYN106AAXX  03211 76393 31540 80901 10294 20223 39551 40107 57016 70542 885// 92055 333 30/// 56399 58005 88623;
0234763930999992008070400004+25733-100300FM-12+051599999V0200901N001010120019N0100001N1+02961+01931100921ADDAA124999929GF108991081051012501999999IA1019KA1120M+03101KA2180N+02361MA1999999095391MD1610121+0041REMSYN124AAXX  04001 76393 32660 80901 10296 20193 39539 40092 56012 885// 92355 333 10310 20236 30/// 50441 56399 58004 79999 88634;
0234763930999992008070403004+25733-100300FM-12+051599999V0200901N002010006019N0006001N1+02241+02181101091ADDAA103018091AY161031AY261031GA1081+000601061GF108991081071000751999999IA1119MA1999999095551MD1510161-0061MW1641REMSYN112AAXX  04031 76393 01106 80902 10224 20218 39555 40109 55016 76466 887// 90250 333 32/// 563// 59006 60187 88602;
0172763930999992008070406004+25733-100300FM-12+051599999V0200501N001019999999N0010001N1+02161+02071101251ADDAA106023191AY151061AY251061GF108991999999008001999999MA1999999095681MD1210131+9999MW1541REMSYN072AAXX  04061 76393 01510 80501 10216 20207 39568 40125 52013 60231 75455;
0234763930999992008070409004+25733-100300FM-12+051599999V0201201N001010006019N0010001N1+02181+02121101241ADDAA103002091AY151031AY251031GA1081+000601061GF108991081071000751999999IA1119MA1999999095671MD1610011+0181MW1501REMSYN112AAXX  04091 76393 31110 81201 10218 20212 39567 40124 56001 75055 887// 90850 333 32/// 563// 58018 60027 88602;
0172763930999992008070412004+25733-100300FM-12+051599999V0201101N003019999999N0010001N1+02201+02141101271ADDAA106004191AY151061AY251061GF108991999999000751999999MA1999999095601MD1610071+9999MW1501REMSYN072AAXX  04121 76393 11110 81103 10220 20214 39560 40127 56007 60041 75055;
0234763930999992008070415004+25733-100300FM-12+051599999V0201301N001010015019N0020001N1+02241+02101101491ADDAA103002091AY141031AY221031GA1081+001501071GF108991081071001501999999IA1119MA1999999095831MD1210231+0231MW1051REMSYN112AAXX  04151 76393 21220 81301 10224 20210 39583 40149 52023 70542 887// 91450 333 0/399 32/// 58023 60027 88705;
0289763930999992008070418004+25733-100300FM-12+051599999V0201101N002010012019N0030001N1+02321+02181101511ADDAA103001091AA206003091AY151061AY251061GA1081+001201071GF108991081071002501999999IA1119KA1120M+02421KA2240N+02151MA1999999095861MD1210031+0191MW1501REMSYN130AAXX  04181 76393 01330 81102 10232 20218 39586 40151 52003 60031 75055 887// 91755 333 0/399 10242 20215 32/// 58019 60017 88704;
0234763930999992008070421004+25733-100300FM-12+051599999V0201201N001010012019N0010001N1+02301+02191101371ADDAA103001091AY151031AY251031GA1081+001201071GF108991081071001501999999IA1119MA1999999095741MD1710121+0071MW1501REMSYN112AAXX  04211 76393 21210 81201 10230 20219 39574 40137 57012 75055 887// 92050 333 0/399 32/// 58007 60017 88704;
0234763930999992008070503004+25733-100300FM-12+051599999V0201101N004010006019N0010001N1+02141+02081101411ADDAA103002091AY151031AY221031GA1081+000601071GF108991081061000751999999IA1119MA1999999095781MD1210111+0231MW1501REMSYN112AAXX  05031 76393 21110 81104 10214 20208 39578 40141 52011 75052 886// 90250 333 0/399 32/// 58023 60027 88702;
0320763930999992008070506004+25733-100300FM-12+051599999V0209999C000010012019N0020001N1+02201+02061101491ADDAA103000591AA206002091AA324015391AY141061AY251061GA1081+001201071GF108991081061001501999999GJ100009IA1099KA1240M+02521KA2240N+02141MA1999999095851MD1510071+0171MW1051REMSYN142AAXX  05061 76393 01220 80000 10220 20206 39585 40149 55007 60021 70545 886// 90550 333 0/399 10252 20214 31/// 55000 58017 69957 70153 88704;
0306763930999992008070512004+25733-100300FM-12+051599999V0201301N002010012019N0020001N1+02121+01981101391ADDAA103002091AA212004191AA324013791AY151061AY221061GA1081+001201071GF108991081061001501999999IA1019KA1240M+02521KA2120N+02091MA1999999095731MD1210031+0131MW1501REMSYN136AAXX  05121 76393 01220 81302 10212 20198 39573 40139 52003 60042 75052 886// 91150 333 0/399 10252 20209 30206 58013 60027 70137 88704;
0234763930999992008070515004+25733-100300FM-12+051599999V0200501N001010015019N0030001N1+02141+02001101431ADDAA103002091AY141031AY221031GA1081+001501071GF108991081061001501999999IA1099MA1999999095771MD1410001-0061MW1051REMSYN112AAXX  05151 76393 11230 80501 10214 20200 39577 40143 54004 70542 886// 91455 333 31/// 56399 59006 60027 88705;
0244763930999992008070518004+25733-100300FM-12+051599999V0201301N003010060019N0200001N1+02521+01911101381ADDAA106003091GA1081+006001071GF108991081061008001999999IA1099KA1120M+02561KA2240N+02091MA1999999095741MD1410001-0121REMSYN118AAXX  05181 76393 12570 81303 10252 20191 39574 40138 54003 60031 886// 91755 333 10256 20209 31/// 56399 59012 88720;
0146763930999992008070521004+25733-100300FM-12+051599999V0201201N001019999999N0030001N1+02341+02141999999ADDGF108991999999001501999999REMSYN108AAXX  05211 76393 21230 81201 10234 20214 32/// 39562 40124 56012 56399 59012 60027 76062 886// 88707 92055;
0172763930999992008070600004+25733-100300FM-12+051599999V0201001N002019999999N0010001N1+02281+02141101121ADDAA106022191AY161061AY221061GF108991999999001501999999MA1999999095511MD1610111+9999MW1601REMSYN072AAXX  06001 76393 01210 81002 10228 20214 39551 40112 56011 60221 76062;
0234763930999992008070603004+25733-100300FM-12+051599999V0201101N002010015019N0020001N1+02181+02031101121ADDAA103002091AY141031AY241031GA1071+001501071GF107991071061001501999999IA1119MA1999999095511MD1410001-0271MW1051REMSYN112AAXX  06031 76393 01220 71102 10218 20203 39551 40112 54000 70544 876// 90250 333 32/// 563// 59027 60027 87705;
0253763930999992008070606004+25733-100300FM-12+051599999V0201301N003010006019N0020001N1+02161+02071101161ADDAY141061AY241061GF108991081061000751999999GJ100009IA1119KA1240M+02261KA2240N+02141MA1999999095531MD1010021-0321MW1051REMSYN124AAXX  06061 76393 11120 81303 10216 20207 39553 40116 50002 70544 886// 90550 333 10226 20214 32/// 55000 563// 59032 88703;
0234763930999992008070609004+25733-100300FM-12+051599999V0200701N003010006019N0020001N1+02141+02081101121ADDAA106002091AY141031AY241031GA1081+000601071GF108991081061000751999999IA1119MA1999999095491MD1710041-0211MW1051REMSYN112AAXX  06091 76393 11120 80703 10214 20208 39549 40112 57004 70544 886// 90850 333 32/// 563// 59021 60021 88702;
0172763930999992008070612004+25733-100300FM-12+051599999V0201001N003019999999N0020001N1+02121+02091101101ADDAA106004191AY151061AY251061GF108991999999000751999999MA1999999095461MD1610031+9999MW1501REMSYN072AAXX  06121 76393 01120 81003 10212 20209 39546 40110 56003 60041 75055;
0234763930999992008070615004+25733-100300FM-12+051599999V0201201N005010003019N0010001N1+02091+02051101321ADDAA103005091AY151031AY251031GA1081+000301071GF108991081071000251999999IA1119MA1999999095651MD1210191-0121MW1501REMSYN112AAXX  06151 76393 21010 81205 10209 20205 39565 40132 52019 75055 887// 91459 333 0/3// 32/// 59012 60057 88701;
0276763930999992008070618004+25733-100300FM-12+051599999V0201201N00301001201CN0060001N1+02261+02081101321ADDAA103000991AA206006191AY151061AY221061GA1041+001801061GF107991071051001501031999IA1099KA1240N+02021MA1999999095671MD1110021-0071MW1501REMSYN130AAXX  06181 76393 01256 71203 10226 20208 39567 40132 51002 60061 75052 8753/ 91758 333 0/35/ 20202 31/// 59007 69997 84606 83356;
0217763930999992008070621004+25733-100300FM-12+051599999V0201501N00201004201CN0060001N1+02601+02091101161ADDAY141031AY221031GA1011+005101061GF108991081051004501999999IA1099MA1999999095531MD1710141-0091MW1051REMSYN106AAXX  06211 76393 31456 81502 10260 20209 39553 40116 57014 70542 885// 92055 333 0/3// 31/// 59009 81617;
0336763930999992008070700004+25733-100300FM-12+051599999V0201801N001019999999N0080001N1+02401+02121101081ADDAA103009091AA224020091AY151061AY251061GA1041+002701061GF107991999999002501091011KA1120M+02671KA2180N+02021MA1999999095461MD1710071-0051MW1501REMSYN148AAXX  07001 76393 01358 71801 10240 20212 39546 40108 57007 75055 80091 8453/ 92355 333 0/35/ 10267 20202 31/// 50371 59005 60097 70200 84609 83356;EQDQ01+000002SCOTLCQ02+000002SCOLCG
0240763930999992008070703004+25733-100300FM-12+051599999V0201201N00101000601CN0030001N1+02201+02101101131ADDAA103002091AY151031AY251031GA1021+000901071GF105991051051000751001001IA1119MA1999999095521MD1210061+0011MW1501REMSYN118AAXX  07031 76393 21130 51201 10220 20210 39552 40113 52006 75055 85500 90255 333 0/300 32/// 58001 60027 82703 83611;
0303763930999992008070706004+25733-100300FM-12+051599999V0209999C000010006019N0030001N1+02141+02081101181ADDAA103000191AA206003091AY151061AY251061GA1081+000601071GF108991081071000751999999GJ100009IA1119KA1240M+02671KA2240N+02121MA1999999095561MD1210041+0031MW1501REMSYN136AAXX  07061 76393 01130 80000 10214 20208 39556 40118 52004 60031 75055 887// 90555 333 0/399 10267 20212 32/// 55000 58003 69917 88702;
0234763930999992008070709004+25733-100300FM-12+051599999V0201201N001010015019N0010001N1+02121+01951101141ADDAA103001091AY151031AY251031GA1081+001501071GF108991081071001501999999IA1099MA1999999095501MD1710061+0011MW1501REMSYN112AAXX  07091 76393 21210 81201 10212 20195 39550 40114 57006 75055 887// 90850 333 0/399 31/// 58001 60017 88705;
0306763930999992008070712004+25733-100300FM-12+051599999V0209999C000010006019N0010001N1+02141+02081101121ADDAA103001091AA206002091AA324018591AY141061AY221061GA1081+000601071GF108991081071000751999999IA1019KA1240M+02671KA2120N+02081MA1999999095471MD1710031-0021MW1051REMSYN136AAXX  07121 76393 01110 80000 10214 20208 39547 40112 57003 60021 70542 887// 91155 333 0/399 10267 20208 30202 59002 60017 70185 88702;
0234763930999992008070715004+25733-100300FM-12+051599999V0202701N001010021019N0040001N1+02301+02101101201ADDAA103002091AY151031AY221031GA1081+002101071GF108991081061001501999999IA1119MA1999999095561MD1410001-0091MW1501REMSYN112AAXX  07151 76393 21240 82701 10230 20210 39556 40120 54009 75052 886// 91455 333 32/// 56399 59009 60027 88707;
0244763930999992008070718004+25733-100300FM-12+051599999V0201301N005010027019N0180001N1+02361+02101101181ADDAA106002091GA1081+002701071GF108991081061002501999999IA1099KA1120M+02421KA2240N+02081MA1999999095541MD1410001-0131REMSYN118AAXX  07181 76393 12368 81305 10236 20210 39554 40118 54002 60021 886// 91755 333 10242 20208 31/// 56399 59013 88709;
0206763930999992008070721004+25733-100300FM-12+051599999V0200901N002010036019N0200001N1+02481+02111101001ADDAA103000291GA1081+003601071GF108991081061004501999999IA1099MA1999999095391MD1610151-0141REMSYN106AAXX  07211 76393 22470 80902 10248 20211 39539 40100 56015 886// 92055 333 31/// 56399 59014 69927 88712;
0268763930999992008070800004+25733-100300FM-12+051599999V0200901N004010042019N0200001N1+02521+01981100901ADDAA103001091AA206001091AA324007591GF108991081061004501999999IA1099KA1120M+02641KA2180N+02081MA1999999095311MD1410001-0151REMSYN136AAXX  08001 76393 02470 80904 10252 20198 39531 40090 54008 60011 886// 92355 333 10264 20208 31/// 50281 56399 59015 60017 70075 88718;
0234763930999992008070803004+25733-100300FM-12+051599999V0200901N006010006019N0020001N1+02081+02021100981ADDAA103001091AY151031AY251031GA1081+000601071GF108991081071000751999999IA1119MA1999999095381MD1210071-0141MW1501REMSYN112AAXX  08031 76393 01120 80906 10208 20202 39538 40098 52007 75055 887// 90250 333 32/// 563// 59014 60017 88702;
0172763930999992008070806004+25733-100300FM-12+051599999V0200901N003019999999N0020001N1+02101+02041101041ADDAA106001091AY141061AY241061GF108991999999000751999999MA1999999095421MD1110041+9999MW1051REMSYN072AAXX  08061 76393 21120 80903 10210 20204 39542 40104 51004 60011 70544;
0234763930999992008070809004+25733-100300FM-12+051599999V0200901N003010006019N0020001N1+02101+02041101051ADDAA106000991AY141031AY241031GA1081+000601071GF108991081061000751999999IA1099MA1999999095421MD1410001-0081MW1051REMSYN112AAXX  08091 76393 21120 80903 10210 20204 39542 40105 54000 70544 886// 90850 333 31/// 563// 59008 69991 88702;
0172763930999992008070812004+25733-100300FM-12+051599999V0201201N003019999999N0020001N1+02141+02081101061ADDAA106000591AY151061AY251061GF108991999999000751999999MA1999999095421MD1410001+9999MW1501REMSYN072AAXX  08121 76393 01120 81203 10214 20208 39542 40106 54000 69951 75055;
0234763930999992008070815004+25733-100300FM-12+051599999V0201001N002010009019N0040001N1+02241+02131101261ADDAA103000021AY151031AY241031GA1081+000901061GF108991081051001501999999IA1099MA1999999095611MD1210191+0051MW1501REMSYN112AAXX  08151 76393 21240 81002 10224 20213 39561 40126 52019 75054 885// 91455 333 0/3// 31/// 58005 69907 88603;
0289763930999992008070818004+25733-100300FM-12+051599999V0201201N005010012019N0030001N1+02301+02161101311ADDAA103001091AA206001091AY151061AY251061GA1081+001201061GF108991081051001501999999IA1099KA1120M+02371KA2240N+02081MA1999999095661MD1010051+0121MW1501REMSYN130AAXX  08181 76393 01230 81205 10230 20216 39566 40131 50005 60011 75055 885// 91758 333 0/3// 10237 20208 31/// 58012 60017 88604;
0212763930999992008070821004+25733-100300FM-12+051599999V0201401N00301036001CN0160001N1+02521+02011101061ADDAA103001091GA1031+005101061GF107991031051004501021999IA1099MA1999999095441MD1710221+0051REMSYN112AAXX  08211 76393 22466 71403 10252 20201 39544 40106 57022 8352/ 92059 333 0/35/ 31/// 58005 60017 83617 84456;
0150763930999992008070900004+25733-100300FM-12+051599999V0201401N004010042019N0160001N1+02451+02081100991ADDAA106001091GF107991051051004501021999MA1999999095391MD1510051+9999REMSYN072AAXX  09001 76393 02466 71404 10245 20208 39539 40099 55005 60011 8552/;
0234763930999992008070903004+25733-100300FM-12+051599999V0201101N002010009019N0020001N1+02241+02151101171ADDAA103004091AY151031AY251031GA1081+000901071GF108991081071000751999999IA1119MA1999999095561MD1210171+0181MW1501REMSYN112AAXX  09031 76393 21120 81102 10224 20215 39556 40117 52017 75055 887// 90300 333 0/399 32/// 58018 60047 88703;
0303763930999992008070906004+25733-100300FM-12+051599999V0201201N001010009019N0010001N1+02241+02151101291ADDAA103002091AA206005191AY151061AY251061GA1081+000901071GF108991081071000751999999GJ100009IA1119KA1240M+02561KA2240N+02081MA1999999095671MD1210111+0251MW1501REMSYN136AAXX  09061 76393 01110 81201 10224 20215 39567 40129 52011 60051 75055 887// 90555 333 0/399 10256 20208 32/// 55000 58025 60027 88703;
0230763930999992008070909004+25733-100300FM-12+051599999V0209999C000010012019N0030001N1+02221+02101101281ADDAA103000991AY141031AY241031GF107991071051001501999999IA1099MA1999999095661MD1710011+0241MW1051REMSYN124AAXX  09091 76393 21230 70000 10222 20210 39566 40128 57001 70544 875// 90850 333 0/399 31/// 58024 69997 58024 69997 87604;
0161763930999992008070912004+25733-100300FM-12+051599999V0203201N001010006019N0040001N1+02121+02061101351ADDAY141061AY241061GF108991051051000751011001MA1999999095711MD1210051+9999MW1051REMSYN072AAXX  09121 76393 31140 83201 10212 20206 39571 40135 52005 70544 85510;
0217763930999992008070915004+25733-100300FM-12+051599999V0201301N004010027019N0080001N1+02301+02041101421ADDAY141031AY221031GA1081+002701071GF108991081061002501999999IA1019MA1999999095771MD1410001+0161MW1051REMSYN106AAXX  09151 76393 31358 81304 10230 20204 39577 40142 54006 70542 886// 91455 333 30/// 56399 58016 88709;
0244763930999992008070918004+25733-100300FM-12+051599999V0201301N002010027019N0190001N1+02741+02161101411ADDAA103001091GA1081+002701071GF108991081061004501999999IA1099KA1120M+02801KA2240N+02081MA1999999095781MD1410001+0121REMSYN118AAXX  09181 76393 22469 81302 10274 20216 39578 40141 54001 886// 91755 333 10280 20208 31/// 56399 58012 60017 88709;
0206763930999992008070921004+25733-100300FM-12+051599999V0200901N006010036019N0200001N1+02481+02111101271ADDAA106001091GA1071+003601071GF107991071061004501999999IA1099MA1999999095671MD1610111+0231REMSYN106AAXX  09211 76393 12470 70906 10248 20211 39567 40127 56011 60011 876// 92055 333 31/// 56399 58023 87712;
0234763930999992008071000004+25733-100300FM-12+051599999V0201301N005010075019N0200001N1+02881+01971101241ADDAA124006191GF106991061041008001001001IA1099KA1120M+03001KA2180N+02081MA1999999095671MD1410001+0281REMSYN124AAXX  10001 76393 32570 61305 10288 20197 39567 40124 54000 86400 92355 333 10300 20208 31/// 50231 56300 58028 70061 86631;
0240763930999992008071003004+25733-100300FM-12+051599999V0201101N00301004201CN0080001N1+02541+02211101311ADDAA103002091AY151031AY221031GA1021+003301081GF107991071021004501001001IA1099MA1999999095751MD1210081+0191MW1501REMSYN118AAXX  10031 76393 21458 71103 10254 20221 39575 40131 52008 75052 87200 90250 333 01399 31/// 58019 60027 82811 85613;
0302763930999992008071006004+25733-100300FM-12+051599999V0200901N001012200019N0040001N1+02321+02121101491ADDAA103000991AA206002092AA324001592AY141061AY221061GA1001+999999999GF100991001001999999001001GJ102649IA1099KA1240M+03001KA2240N+02081MA1999999095871MD1010031+0201MW1051REMSYN124AAXX  10061 76393 01940 00901 10232 20212 39587 40149 50003 60021 70542 90550 333 10300 20208 31/// 55044 58020 69997 70015;
0217763930999992008071009004+25733-100300FM-12+051599999V0200501N001010012019N0040001N1+02181+02041101401ADDAY141031AY221031GA1051+001201061GF105991051041001501001001IA1099MA1999999095801MD1710071+0141MW1051REMSYN106AAXX  10091 76393 31240 50501 10218 20204 39580 40140 57007 70542 85400 90850 333 0/399 31/// 58014 85604;
0314763930999992008071012004+25733-100300FM-12+051599999V0200501N001010012019N0050001N1+02121+02001101501ADDAA106002091AA224002291AY141061AY201061GA1061+001201071GF108991081061001501999999IA1019KA1240M+03001KA2120N+02101MA1999999095871MD1210071+0161MW1051REMSYN136AAXX  10121 76393 11250 80501 10212 20200 39587 40150 52007 60021 70547 886// 91150 333 0/399 10300 20210 30202 58016 70022 86704 82605;EQDQ01+000072PSTWM2
0223763930999992008071015004+25733-100300FM-12+051599999V0201401N00201009001CN0060001N1+02391+02021101661ADDAY141031AY221031GA1011+003601081GF106991061081004501001001IA1099MA1999999096011MD1210141+0241MW1051REMSYN112AAXX  10151 76393 31456 61402 10239 20202 39601 40166 52014 70542 86800 91455 333 01300 31/// 58024 81812 85622;
0161763930999992008071018004+25733-100300FM-12+051599999V0201401N005012200019N0080001N1+02931+02001101591ADDAY141061AY221061GF104991041021008001001001MA1999999095961MD1710051+9999MW1051REMSYN072AAXX  10181 76393 31558 41405 10293 20200 39596 40159 57005 70542 84200;
0223763930999992008071021004+25733-100300FM-12+051599999V0201401N006012200019N0120001N1+03181+01901101391ADDAY141031AY201031GA1031+012601081GF104991041021012501001001IA1099MA1999999095811MD1710151+0141MW1051REMSYN112AAXX  10211 76393 31662 41406 10318 20190 39581 40139 57015 70540 84200 92055 333 01300 31/// 58014 83842 81642;
0256763930999992008071100004+25733-100300FM-12+051599999V0201401N005010111019N0200001N1+03001+01881101291ADDAA124001591GA1051+011101061GF107991061031012501001011IA1099KA1120M+03261KA2180N+02101MA1999999095751MD1710061+0081REMSYN130AAXX  11001 76393 32670 71405 10300 20188 39575 40129 57006 86301 92355 333 06305 10326 20210 31/// 50641 58008 70015 85637 81937;
0217763930999992008071103004+25733-100300FM-12+051599999V0201201N005012200019N0030001N1+02621+01871101261ADDAY101031AY201031GA1011+007501081GF101991011021008001001001IA1019MA1999999095751MD1410001+0001MW1051REMSYN106AAXX  11031 76393 31530 11205 10262 20187 39575 40126 54000 70500 81200 90250 333 30/// 56300 58000 81825;
0247763930999992008071106004+25733-100300FM-12+051599999V0201301N004012200019N0030001N1+02301+01951101371ADDGA1021+003301061GF103991021051004501001011GJ105649IA1019KA1240M+02721KA2240N+02101MA1999999095831MD1210081-0041REMSYN124AAXX  11061 76393 32430 31304 10230 20195 39583 40137 52008 82501 90550 333 10272 20210 30/// 55094 56305 59004 82611 81070;
0189763930999992008071109004+25733-100300FM-12+051599999V0201101N002012200019N0030001N1+02181+01981101401ADDGA1041+002101061GF104991041051001501001001IA1019MA1999999095821MD1710011+0021REMSYN100AAXX  11091 76393 32230 41102 10218 20198 39582 40140 57001 84500 90850 333 30/// 56100 58002 84607;
0300763930999992008071112004+25733-100300FM-12+051599999V0200701N001010024019N0040001N1+02221+01991101471ADDAA124000091AY141061AY241061GA1041+002101081GA2011+002401071GF107991051021002501001011IA1019KA1240M+03261KA2120N+02151MA1999999095841MD1810021-0031MW1051REMSYN136AAXX  11121 76393 31340 70701 10222 20199 39584 40147 58002 70544 85201 91150 333 10326 20215 30212 56305 59003 70000 84807 81708 82070;
0217763930999992008071115004+25733-100300FM-12+051599999V0201101N002010054019N0050001N1+02501+02051101691ADDAY141031AY221031GA1061+005401061GF106991061041004501999999IA1019MA1999999096051MD1010211+0041MW1051REMSYN106AAXX  11151 76393 31450 61102 10250 20205 39605 40169 50021 70542 864// 91450 333 0/399 30/// 58004 86618;
0233763930999992008071118004+25733-100300FM-12+051599999V0200801N00201090001CN0080001N1+02921+02051101631ADDGA1041+008701061GF106991041041008001001081IA1019KA1120M+03021KA2240N+02101MA1999999096001MD1710051+0041REMSYN118AAXX  11181 76393 32558 60802 10292 20205 39600 40163 57005 84408 91750 333 0/307 10302 20210 30/// 58004 84629 82070;
0217763930999992008071121004+25733-100300FM-12+051599999V0201101N00401036001CN0150001N1+03361+01881101351ADDGA1031+014701061GA2011+018001031GF105991031041012501041081IA1019MA1999999095791MD1710211-0021REMSYN112AAXX  11211 76393 32665 51104 10336 20188 39579 40135 57021 83448 92050 333 0/357 30/// 59002 83649 81356 81270;
0250763930999992008071200004+25733-100300FM-12+051599999V0201301N00301012001CN0180001N1+03201+01991101221ADDAA124000091GA1021+012001081GF106991061021012501001001IA1019KA1120M+03421KA2180N+02101MA1999999095711MD1510081+9999REMSYN124AAXX  12001 76393 32668 61303 10320 20199 39571 40122 55008 86200 92350 333 0/399 10342 20210 30/// 50601 70000 82840 84642;
0217763930999992008071203004+25733-100300FM-12+051599999V0201301N003012200019N0030001N1+02761+01961101221ADDAY101031AY201031GA1011+008101081GF101991011021008001001001IA1019MA1999999095731MD1210021-0021MW1051REMSYN106AAXX  12031 76393 31530 11303 10276 20196 39573 40122 52002 70500 81200 90250 333 30/// 56300 59002 81827;
0225763930999992008071206004+25733-100300FM-12+051599999V0200901N001012200019N0030001N1+02461+01881101431ADDGF101991011021004501001001GJ104809IA1019KA1240M+03021KA2240N+02041MA1999999095921MD1210191+0091REMSYN118AAXX  12061 76393 32430 10901 10246 20188 39592 40143 52019 81200 90550 333 10302 20204 30/// 55080 563// 58009 81819;
0171763930999992008071209004+25733-100300FM-12+051599999V0200901N003012200019N0030001N1+02301+01891101451ADDGA1001+999999999GF100991001001999999001001IA1019MA1999999095901MD1710021+0081REMSYN082AAXX  12091 76393 32930 00903 10230 20189 39590 40145 57002 90850 333 30/// 58008;
0272763930999992008071212004+25733-100300FM-12+051599999V0200601N001010012019N0020001N1+02201+02081101531ADDAA124000091AY141061AY241061GA1081+001201061GF108991081051001501999999IA1019KA1240M+03421KA2120N+02161MA1999999095921MD1510021+0081MW1051REMSYN124AAXX  12121 76393 31220 80601 10220 20208 39592 40153 55002 70544 885// 91150 333 10342 20216 30204 563// 58008 70000 88604;
0223763930999992008071215004+25733-100300FM-12+051599999V0202701N00101009001CN0030001N1+02451+01951101711ADDAY141031AY241031GA1021+004501081GF105991051081004501001001IA1019MA1999999096071MD1210151+0021MW1051REMSYN112AAXX  12151 76393 31430 52701 10245 20195 39607 40171 52015 70544 85800 91455 333 01800 30/// 58002 82815 83625;
0161763930999992008071218004+25733-100300FM-12+051599999V0201101N002012200019N0040001N1+03041+02031101561ADDAY141061AY221061GF101991011011008001001001MA1999999095971MD1710101+9999MW1051REMSYN072AAXX  12181 76393 31540 11102 10304 20203 39597 40156 57010 70542 81100;
0189763930999992008071221004+25733-100300FM-12+051599999V0201301N003012200019N0160001N1+03441+01861101311ADDGA1011+015001081GF102991011011017501001011IA1019MA1999999095751MD1710221-0041REMSYN100AAXX  12211 76393 32766 21303 10344 20186 39575 40131 57022 81101 92055 333 00505 30/// 59004 81850;
0250763930999992008071300004+25733-100300FM-12+051599999V0201401N005012200019N0180001N1+03331+01881101131ADDAA124000091GA1011+014401081GF101991011011012501001001IA1019KA1120M+03521KA2180N+02161MA1999999095651MD1710121-0081REMSYN124AAXX  13001 76393 32668 11405 10333 20188 39565 40113 57012 81100 92355 333 00500 10352 20216 30/// 50801 59008 70000 81848;
0171763930999992008071303004+25733-100300FM-12+051599999V0200901N001012200019N0150001N1+02961+01971101151ADDGA1001+999999999GF100991001001999999001001IA1019MA1999999095691MD1210061+0041REMSYN082AAXX  13031 76393 32965 00901 10296 20197 39569 40115 52006 90250 333 30/// 58004;
0223763930999992008071306004+25733-100300FM-12+051599999V0201001N001012200019N0150001N1+02561+02021101251ADDGA1001+999999999GF100991001001999999001001GJ106309IA1019KA1240M+03521KA2240N+02161MA1999999095771MD1210081-0151REMSYN100AAXX  13061 76393 32965 01001 10256 20202 39577 40125 52008 90550 333 10352 20216 30/// 55105 59015;
0207763930999992008071309004+25733-100300FM-12+051599999V0200901N001010021019N0040001N1+02401+02181101281ADDAY141031AY211031GF107991071051002501999999IA1019MA1999999095761MD1710011-0141MW1051REMSYN112AAXX  13091 76393 31340 70901 10240 20218 39576 40128 57001 70541 875// 90850 333 0/399 30/// 59014 59014 87607;
0161763930999992008071312004+25733-100300FM-12+051599999V0201101N001010012019N0020001N1+02321+02151101291ADDAY141061AY221061GF108991081051001501999999MA1999999095721MD1710041+9999MW1051REMSYN072AAXX  13121 76393 31220 81101 10232 20215 39572 40129 57004 70542 885//;
0189763930999992008071315004+25733-100300FM-12+051599999V0200401N001010045019N0030001N1+02521+02071101341ADDGA1071+004501061GF107991071041004501999999IA1019MA1999999095741MD1410001-0231REMSYN100AAXX  13151 76393 32430 70401 10252 20207 39574 40134 54002 874// 91455 333 30/// 56399 59023 87615;
0255763930999992008071318004+25733-100300FM-12+051599999V0200501N002012200019N0020001N1+02981+02121101291ADDAY141061AY201061GA1011+008701081GF101991011011008001001001IA1019KA1120M+03081KA2240N+02101MA1999999095701MD1410001-0271MW1051REMSYN118AAXX  13181 76393 31520 10502 10298 20212 39570 40129 54004 70540 81100 91755 333 10308 20210 30/// 56300 59027 81829;
0217763930999992008071409004+25733-100300FM-12+051599999V0200701N001010018019N0030001N1+02421+02221101121ADDAY141031AY221031GA1061+001801061GF106991061051001501001001IA1019MA1999999095611MD1710051-0151MW1051REMSYN106AAXX  14091 76393 31230 60701 10242 20222 39561 40112 57005 70542 86500 90850 333 0/300 30/// 59015 86606;
0272763930999992008071412004+25733-100300FM-12+051599999V0200901N001010027019N0030001N1+02461+02181101151ADDAA124000091AY141061AY221061GA1081+002701061GF108991081051002501999999IA1019KA1240M+03521KA2120N+02381MA1999999095601MD1710011-0121MW1051REMSYN124AAXX  14121 76393 31330 80901 10246 20218 39560 40115 57001 70542 885// 91150 333 0/399 10352 20238 30234 59012 70000 88609;
0223763930999992008071415004+25733-100300FM-12+051599999V0200101N001010090019N0020001N1+02621+02081101301ADDAY141031AY241031GA1041+005401081GF107991071081004501999999IA1019MA1999999095721MD1210121-0021MW1051REMSYN112AAXX  14151 76393 31420 70101 10262 20208 39572 40130 52012 70544 878// 91455 333 018// 30/// 59002 84818 83630;
0161763930999992008071418004+25733-100300FM-12+051599999V0200501N001012200019N0040001N1+03121+02021101211ADDAY141061AY241061GF102991011011012501001011MA1999999095641MD1710081+9999MW1051REMSYN072AAXX  14181 76393 31640 20501 10312 20202 39564 40121 57008 70544 81101;
0217763930999992008071421004+25733-100300FM-12+051599999V0201101N003012200019N0080001N1+03481+01901101001ADDAY141031AY241031GA1011+015001081GF103991011011017501001031IA1019MA1999999095491MD1710151+0001MW1041REMSYN106AAXX  14211 76393 31758 31103 10348 20190 39549 40100 57015 70444 81103 92055 333 00505 30/// 58000 81850;
0240763930999992008071500004+25733-100300FM-12+051599999V0201501N003012200019N0140001N1+03481+01931100821ADDAA124000091GF104991011011017501001051IA1019KA1120M+03571KA2180N+02381MA1999999095361MD1710131-0051REMSYN130AAXX  15001 76393 32764 41503 10348 20193 39536 40082 57013 81105 92355 333 01305 10357 20238 30/// 50721 57832 59005 70000 81850;
0217763930999992008071503004+25733-100300FM-12+051599999V0209999C000010129019N0100001N1+03161+01861100961ADDAY141031AY211031GA1061+012901061GF106991061051012501001001IA1019MA1999999095521MD1210161+0021MW1041REMSYN106AAXX  15031 76393 31660 60000 10316 20186 39552 40096 52016 70441 86500 90255 333 0/300 30/// 58002 86643;
0251763930999992008071506004+25733-100300FM-12+051599999V0200901N001012200019N0050001N1+02681+02031101081ADDAY101061AY201061GA1001+999999999GF100991001001999999001001GJ105949IA1019KA1240M+03571KA2240N+02381MA1999999095631MD1210111-0031MW1041REMSYN106AAXX  15061 76393 31950 00901 10268 20203 39563 40108 52011 70400 90550 333 10357 20238 30/// 55099 59003;
0199763930999992008071509004+25733-100300FM-12+051599999V0200601N001012200019N0040001N1+02481+02111101081ADDAY101031AY201031GA1001+999999999GF100991001001999999001001IA1019MA1999999095591MD1710041-0021MW1041REMSYN088AAXX  15091 76393 31940 00601 10248 20211 39559 40108 57004 70400 90850 333 30/// 59002;
0161763930999992008071512004+25733-100300FM-12+051599999V0200701N001010021019N0020001N1+02421+02201101201ADDAY141061AY221061GF107991071051002501999999MA1999999095651MD1210061+9999MW1041REMSYN072AAXX  15121 76393 31320 70701 10242 20220 39565 40120 52006 70442 875//;
0217763930999992008071515004+25733-100300FM-12+051599999V0201201N001010051019N0020001N1+02601+02091101251ADDAY141031AY211031GA1051+005101061GF105991051011004501001001IA1019MA1999999095681MD1410001-0041MW1051REMSYN106AAXX  15151 76393 31420 51201 10260 20209 39568 40125 54003 70541 85100 91455 333 30/// 56300 59004 85617;
0255763930999992008071518004+25733-100300FM-12+051599999V0200501N002012200019N0020001N1+03061+02021101271ADDAY141061AY201061GA1011+010501081GF101991011011012501001001IA1019KA1120M+03201KA2240N+02381MA1999999095711MD1410001+0071MW1051REMSYN118AAXX  15181 76393 31620 10502 10306 20202 39571 40127 54003 70540 81100 91755 333 10320 20238 30/// 56300 58007 81835;
0217763930999992008071521004+25733-100300FM-12+051599999V0200901N003012200019N0020001N1+03481+02071101121ADDAY141031AY201031GA1011+013501081GF101991011011012501001001IA1019MA1999999095591MD1610121+0101MW1051REMSYN106AAXX  15211 76393 31620 10903 10348 20207 39559 40112 56012 70540 81100 92055 333 30/// 56300 58010 81845;
0234763930999992008071600004+25733-100300FM-12+051599999V0201301N007012200019N0200001N1+03421+01991100971ADDAA124000091GF102991021011012501001001IA1019KA1120M+03601KA2180N+02381MA1999999095511MD1410001+0151REMSYN124AAXX  16001 76393 32670 21307 10342 20199 39551 40097 54002 82100 92355 333 10360 20238 30/// 50741 56300 58015 70000 82848;
0199763930999992008071603004+25733-100300FM-12+051599999V0201701N003012200019N0050001N1+03081+01941101001ADDAY101031AY201031GA1001+999999999GF100991001001999999001001IA1019MA1999999095551MD1210041+0031MW1051REMSYN088AAXX  16031 76393 31950 01703 10308 20194 39555 40100 52004 70500 90550 333 30/// 58003;
0251763930999992008071606004+25733-100300FM-12+051599999V0201101N002012200019N0030001N1+02681+01971101161ADDAY141061AY241061GA1001+999999999GF100991001001999999001001GJ106369IA1019KA1240M+03261KA2240N+02201MA1999999095701MD1210151+0071MW1051REMSYN106AAXX  16061 76393 31930 01102 10268 20197 39570 40116 52015 70544 90550 333 10326 20220 30/// 55106 58007;
0199763930999992008071609004+25733-100300FM-12+051599999V0200301N001012200019N0030001N1+02361+01921101231ADDAY141031AY241031GA1001+999999999GF100991001001999999001001IA1019MA1999999095721MD1010021+0131MW1051REMSYN088AAXX  16091 76393 31930 00301 10236 20192 39572 40123 50002 70544 90850 333 30/// 58013;
0278763930999992008071612004+25733-100300FM-12+051599999V0200901N001010024019N0030001N1+02281+02051101291ADDAA124000091AY141061AY241061GA1051+002401071GF106991051061002501001011IA1019KA1240M+03601KA2120N+02261MA1999999095731MD1310011+0081MW1051REMSYN130AAXX  16121 76393 31330 60901 10228 20205 39573 40129 53001 70544 85601 91150 333 10360 20226 30220 56305 58008 70000 85708 81070;
0217763930999992008071615004+25733-100300FM-12+051599999V0203601N00201036001CN0040001N1+02561+02051101551ADDAY141031AY241031GA1041+005101061GF108991041051004501021999IA1019MA1999999095941MD1210211+0261MW1051REMSYN106AAXX  16151 76393 31440 83602 10256 20205 39594 40155 52021 70544 8452/ 333 0/85/ 30/// 58026 84617 84456;
0161763930999992008071618004+25733-100300FM-12+051599999V0200701N003012200019N0040001N1+02931+01981101531ADDAY141061AY241061GF103991031011008001001001MA1999999095931MD1710011+9999MW1051REMSYN072AAXX  16181 76393 31540 30703 10293 20198 39593 40153 57001 70544 83100;
0217763930999992008071621004+25733-100300FM-12+051599999V0200901N002012200019N0060001N1+03341+01991101301ADDAY141031AY241031GA1011+013501081GF103991011011012501001011IA1019MA1999999095741MD1710111+0211MW1041REMSYN106AAXX  16211 76393 31656 30902 10334 20199 39574 40130 57011 70444 81101 92055 333 01505 30/// 58021 81845;
0256763930999992008071700004+25733-100300FM-12+051599999V0201201N00201220001CN0140001N1+03331+01951101131ADDAA124000091GA1011+001801011GF106991011011012501001061IA1019KA1120M+03511KA2180N+02261MA1999999095631MD1710111+0121REMSYN130AAXX  17001 76393 32664 61202 10333 20195 39563 40113 57011 81106 92355 333 00305 10351 20226 30/// 50691 58012 70000 81846 85070;
0223763930999992008071703004+25733-100300FM-12+051599999V0200901N001012200019N0080001N1+02981+01921101171ADDAY141031AY201031GA1011+010201081GF103991011011012501011001IA1019MA1999999095701MD1210071+0151MW1041REMSYN112AAXX  17031 76393 31658 30901 10298 20192 39570 40117 52007 70440 81110 90255 333 00305 30/// 58015 81834 82075;
0251763930999992008071706004+25733-100300FM-12+051599999V0201201N001012200019N0060001N1+02601+02001101261ADDAY141061AY201061GA1001+999999999GF100991001001999999001001GJ104689IA1019KA1240M+03511KA2240N+02261MA1999999095781MD1210081+0081MW1041REMSYN106AAXX  17061 76393 31956 01201 10260 20200 39578 40126 52008 70440 90550 333 10351 20226 30/// 55078 58008;
0217763930999992008071709004+25733-100300FM-12+051599999V0201301N001010033019N0030001N1+02381+02041101221ADDAY141031AY211031GA1061+003301061GF106991061051004501001001IA1019MA1999999095701MD1710081-0021MW1041REMSYN106AAXX  17091 76393 31430 61301 10238 20204 39570 40122 57008 70441 86500 90850 333 0/300 30/// 59002 86611;
0161763930999992008071712004+25733-100300FM-12+051599999V0209999C000010021019N0020001N1+02401+02121101341ADDAY141061AY221061GF108991081051002501999999MA1999999095771MD1210071+9999MW1041REMSYN072AAXX  17121 76393 31320 80000 10240 20212 39577 40134 52007 70442 885//;
0217763930999992008071715004+25733-100300FM-12+051599999V0200201N001010033019N0020001N1+02461+02121101441ADDAY141031AY221031GA1081+003301061GF108991081051004501999999IA1019MA1999999095841MD1410001-0101MW1051REMSYN106AAXX  17151 76393 31420 80201 10246 20212 39584 40144 54007 70542 885// 91455 333 30/// 56399 59010 88611;
0255763930999992008071718004+25733-100300FM-12+051599999V0200501N003010075019N0020001N1+02921+02171101471ADDAY141061AY211061GA1071+007501061GF107991071051008001999999IA1019KA1120M+03521KA2240N+02321MA1999999095861MD1410001-0071MW1051REMSYN118AAXX  17181 76393 31520 70503 10292 20217 39586 40147 54002 70541 875// 91755 333 10352 20232 30/// 56399 59007 87625;
0217763930999992008071721004+25733-100300FM-12+051599999V0200901N005012200019N0080001N1+03141+01981101271ADDAY141031AY201031GA1041+011701081GF104991041021012501001001IA1019MA1999999095711MD1710151-0031MW1051REMSYN106AAXX  17211 76393 31658 40905 10314 20198 39571 40127 57015 70540 84200 92055 333 30/// 56300 59003 84839;
0256763930999992008071800004+25733-100300FM-12+051599999V0201301N006012200019N0160001N1+03121+01961100981ADDAA124000091GA1021+011701081GF103991031021012501001001IA1019KA1120M+03501KA2180N+02321MA1999999095471MD1710241-0161REMSYN130AAXX  18001 76393 32666 31306 10312 20196 39547 40098 57024 83200 92355 333 10350 20232 30/// 50561 56300 59016 70000 82839 81074;
0189763930999992008071803004+25733-100300FM-12+051599999V0201301N001012200019N0040001N1+02941+01881100931ADDGA1011+010501081GF101991011011012501001001IA1019MA1999999095451MD1310161-0211REMSYN100AAXX  18031 76393 32640 11301 10294 20188 39545 40093 53016 81100 90250 333 30/// 56300 59021 81835;
0225763930999992008071806004+25733-100300FM-12+051599999V0201201N004012200019N0040001N1+02541+02151101041ADDGF104991041021004501001001GJ103549IA1019KA1240M+03081KA2240N+02121MA1999999095551MD1110101-0231REMSYN118AAXX  18061 76393 32440 41204 10254 20215 39555 40104 51010 84200 90550 333 10308 20212 30/// 55059 56300 59023 84813;
0245763930999992008071809004+25733-100300FM-12+051599999V0200901N003010300019N0030001N1+02361+02101101031ADDAY141031AY241031GA1031+002701071GA2021+030001031GF106991031021002501031011IA1019MA1999999095511MD1710041-0211MW1051REMSYN118AAXX  18091 76393 31330 60903 10236 20210 39551 40103 57004 70544 83231 90850 333 30/// 56355 59021 83709 82360 81070;
0278763930999992008071812004+25733-100300FM-12+051599999V0200601N002010024019N0020001N1+02381+02131101051ADDAA124000091AY141061AY241061GA1071+002401071GF108991071061002501071999IA1019KA1240M+03501KA2120N+01901MA1999999095491MD1010021-0281MW1051REMSYN130AAXX  18121 76393 31320 80602 10238 20213 39549 40105 50002 70544 8767/ 91150 333 10350 20190 30165 5635/ 59028 70000 87708 81360;
0223763930999992008071815004+25733-100300FM-12+051599999V0200901N001010039019N0050001N1+02541+02151101301ADDAY141031AY251031GA1061+003901061GF108991061041004501021999IA1019MA1999999095711MD1210231-0131MW1051REMSYN112AAXX  18151 76393 31450 80901 10254 20215 39571 40130 52023 70545 8642/ 91450 333 0/359 30/// 59013 86613 82456;
0161763930999992008071818004+25733-100300FM-12+051599999V0200401N001010075019N0100001N1+02841+02141101321ADDAY141061AY221061GF106991051041008001021999MA1999999095731MD1810021+9999MW1051REMSYN072AAXX  18181 76393 31560 60401 10284 20214 39573 40132 58002 70542 8542/;
0195763930999992008071821004+25733-100300FM-12+051599999V0201101N00201004201CN0180001N1+03321+01901101101ADDGA1031+014101081GF105991051021004501001001IA1019MA1999999095511MD1610221-0201REMSYN106AAXX  18211 76393 32468 51102 10332 20190 39551 40110 56022 85200 92050 333 0/300 30/// 59020 83847 82648;
0273763930999992008071900004+25733-100300FM-12+051599999V0201801N00301004201CN0100001N1+02661+02161100941ADDAA103000391AA224000391GA1021+004801091GF105991051091004501999999IA1099KA1120M+03361KA2180N+02301MA1999999095431MD1010081-0041REMSYN136AAXX  19001 76393 21460 51803 10266 20216 39543 40094 50008 859// 92350 333 013// 10336 20230 31/// 50651 59004 69937 70003 82916 83619;
0223763930999992008071903004+25733-100300FM-12+051599999V0200601N00301036001CN0030001N1+02461+01911100891ADDAY141031AY241031GA1031+005401061GF106991031021004501051001IA1019MA1999999095391MD1010041-0061MW1051REMSYN112AAXX  19031 76393 31430 60603 10246 20191 39539 40089 50004 70544 83250 90250 333 30/// 56350 59006 83618 83360;
0253763930999992008071906004+25733-100300FM-12+051599999V0200901N003012200019N0030001N1+02381+01951101101ADDAY101061AY201061GF102991021021004501001001GJ102769IA1019KA1240M+03361KA2240N+01921MA1999999095571MD1010181-0021MW1051REMSYN124AAXX  19061 76393 31430 20903 10238 20195 39557 40110 50018 70500 82200 90550 333 10336 20192 30/// 55046 56300 59002 82814;
0217763930999992008071909004+25733-100300FM-12+051599999V0201901N001010030019N0030001N1+02301+02011101211ADDAY141031AY221031GA1071+003001061GF107991071051002501999999IA1019MA1999999095631MD1210061+0121MW1051REMSYN106AAXX  19091 76393 31330 71901 10230 20201 39563 40121 52006 70542 875// 90850 333 0/399 30/// 58012 87610;
0161763930999992008071912004+25733-100300FM-12+051599999V0201101N001010042019N0030001N1+02341+01991101231ADDAY141061AY221061GF105991051051004501001001MA1999999095631MD1410001+9999MW1051REMSYN072AAXX  19121 76393 31430 51101 10234 20199 39563 40123 54000 70542 85500;
0223763930999992008071915004+25733-100300FM-12+051599999V0201301N002010039019N0040001N1+02481+02081101361ADDAY141031AY241031GA1061+003901061GF107991071021004501999999IA1019MA1999999095751MD1210121+0041MW1051REMSYN112AAXX  19151 76393 31440 71302 10248 20208 39575 40136 52012 70544 872// 91455 333 013// 30/// 58004 86613 81827;
0161763930999992008071918004+25733-100300FM-12+051599999V0200901N003010075019N0050001N1+02951+02051101391ADDAY141061AY241061GF107991071021008001999999MA1999999095791MD1110041+9999MW1051REMSYN072AAXX  19181 76393 31550 70903 10295 20205 39579 40139 51004 70544 872//;
0245763930999992008071921004+25733-100300FM-12+051599999V0200901N00201036001CN0060001N1+03021+02101101211ADDAY141031AY241031GA1021+009001061GA2021+013201081GF107991041021008001031999IA1019MA1999999095651MD1710141+0141MW1041REMSYN118AAXX  19211 76393 31556 70902 10302 20210 39565 40121 57014 70444 8423/ 92055 333 0435/ 30/// 58014 82630 82844 83356;
0391763930999992008072000004+25733-100300FM-12+051599999V0201801N00301036001CN0050001N1+03021+02101101031ADDAA103999999AA206000091AA324000091AY151061AY241061GA1021+009001061GA2011+012001091GF107991031031008001031999IA1019KA1120M+03121KA2180N+02261MA1999999095511MD1710141+0081MW1041REMSYN154AAXX  20001 76393 01550 71803 10302 20210 39551 40103 57014 69901 70454 8333/ 92355 333 0635/ 10312 20226 30/// 50431 58008 69907 79999 82630 81940 84356;EQDQ01  00002PRCP06Q02  00002PRCP24Q03  99992PRCP03
0223763930999992008072003004+25733-100300FM-12+051599999V0201101N00301036001CN0030001N1+02761+02081101131ADDAY141031AY241031GA1021+006901081GF105991021021008001051001IA1019MA1999999095621MD1210111+0231MW1051REMSYN112AAXX  20031 76393 31530 51103 10276 20208 39562 40113 52011 70544 82250 90250 333 30/// 56350 58023 82823 83360;
0275763930999992008072006004+25733-100300FM-12+051599999V0200901N003010360019N0030001N1+02541+01901101271ADDAY141061AY241061GA1011+006301081GF105991011021008001051001GJ102349IA1019KA1240M+02981KA2240N+02121MA1999999095751MD1210131+0181MW1051REMSYN130AAXX  20061 76393 31530 50903 10254 20190 39575 40127 52013 70544 81250 90550 333 10298 20212 30/// 55039 56350 58018 81821 84360;
0189763930999992008072009004+25733-100300FM-12+051599999V0200801N002010300019N0040001N1+02341+01991101321ADDGA1071+030001031GF107991071001999999051999IA1019MA1999999095761MD1010011+0131REMSYN100AAXX  20091 76393 32940 70802 10234 20199 39576 40132 50001 8705/ 90850 333 30/// 5605/ 58013 87360;
0297763930999992008072012004+25733-100300FM-12+051599999V0200901N00101036001CN0050001N1+02281+02051101381ADDAA124000091AY141061AY241061GA1021+002401081GF107991021021002501051999IA1019KA1240M+03121KA2120N+01821MA1999999095791MD1210331+0161MW1051REMSYN130AAXX  20121 76393 31350 70901 10228 20205 39579 40138 52033 70544 8225/ 91150 333 10312 20182 30160 5635/ 58016 79999 82808 85360;EQDQ01  00002PRCP24
0217763930999992008072015004+25733-100300FM-12+051599999V0200601N001010042019N0040001N1+02431+02011101701ADDAY141031AY241031GA1051+004201061GF106991051051004501001011IA1019MA1999999096071MD1210281+0321MW1051REMSYN106AAXX  20151 76393 31440 60601 10243 20201 39607 40170 52028 70544 85501 91455 333 0/805 30/// 58032 85614;
0161763930999992008072018004+25733-100300FM-12+051599999V0201101N006012200019N0060001N1+02991+01921101661ADDAY141061AY241061GF106991011011012501001041MA1999999096041MD1610031+9999MW1051REMSYN072AAXX  20181 76393 31656 61106 10299 20192 39604 40166 56003 70544 81104;
0189763930999992008072021004+25733-100300FM-12+051599999V0201201N006012200019N0140001N1+03331+01811101381ADDGA1021+015001081GF103991021011012501001011IA1019MA1999999095821MD1710221+0171REMSYN100AAXX  20211 76393 32664 31206 10333 20181 39582 40138 57022 82101 92055 333 00305 30/// 58017 82850;
0250763930999992008072100004+25733-100300FM-12+051599999V0201301N003012200019N0160001N1+03141+01851101181ADDAA124000091GA1011+012301081GF104991011011012501021011IA1019KA1120M+03391KA2180N+01821MA1999999095681MD1710141+0171REMSYN124AAXX  21001 76393 32666 41303 10314 20185 39568 40118 57014 81121 92355 333 01355 10339 20182 30/// 50731 58017 70000 81841;
0195763930999992008072103004+25733-100300FM-12+051599999V0201301N002012200019N0100001N1+03001+01881101301ADDGA1011+011101061GF102991011041012501041999IA1019MA1999999095801MD1210181+0121REMSYN106AAXX  21031 76393 32660 21302 10300 20188 39580 40130 52018 8144/ 90250 333 0/359 30/// 58012 81637 81356;
0258763930999992008072106004+25733-100300FM-12+051599999V0200901N003012200019N0050001N1+02581+02121101431ADDAA124000091GA1041+004501061GF104991041041004501001001GJ105049IA1019KA1240M+03391KA2240N+01821MA1999999095941MD1210141+0191REMSYN124AAXX  21061 76393 32450 40903 10258 20212 39594 40143 52014 84400 90550 333 0/399 10339 20182 30/// 55084 58019 70000 84615;
0189763930999992008072109004+25733-100300FM-12+051599999V0201001N003010027019N0040001N1+02461+02181101371ADDGA1051+002701061GF105991051041002501001001IA1019MA1999999095851MD1710091+0091REMSYN100AAXX  21091 76393 31340 51003 10246 20218 39585 40137 57009 85400 90850 333 0/399 30/// 58009 85609;
0250763930999992008072112004+25733-100300FM-12+051599999V0200701N00101036001CN0080001N1+02381+02131101401ADDAA124000091GA1041+002401061GF107991041041002501011999IA1019KA1240M+03391KA2120N+02381MA1999999095831MD1510021+0041REMSYN124AAXX  21121 76393 32358 70701 10238 20213 39583 40140 55002 8441/ 91150 333 0/359 10339 20238 30225 58004 70000 84608 83456;
0217763930999992008072115004+25733-100300FM-12+051599999V0209999C000010042019N0020001N1+02501+02101101421ADDAY141031AY201031GA1061+004201061GF106991061011004501001001IA1019MA1999999095821MD1410001-0251MW1051REMSYN106AAXX  21151 76393 31420 60000 10250 20210 39582 40142 54001 70540 86100 91455 333 30/// 56300 59025 86614;
0255763930999992008072118004+25733-100300FM-12+051599999V0201101N002012200019N0030001N1+03161+02071101331ADDAY141061AY211061GA1011+010801081GF105991011011012501001041IA1019KA1120M+03241KA2240N+02351MA1999999095751MD1410001-0291MW1051REMSYN118AAXX  21181 76393 31630 51102 10316 20207 39575 40133 54007 70541 81104 91755 333 10324 20235 30/// 56305 59029 81836;
0223763930999992008072121004+25733-100300FM-12+051599999V0201301N003012200019N0100001N1+03421+01851101061ADDAY141031AY201031GA1011+015001081GF102991011011012501001041IA1019MA1999999095541MD1710211-0281MW1051REMSYN112AAXX  21211 76393 31660 21303 10342 20185 39554 40106 57021 70540 81104 92055 333 30/// 56305 59028 81850 81074;
0253763930999992008072200004+25733-100300FM-12+051599999V0201401N005012200019N0200001N1+03441+01581100871ADDAA124000091GF103991001001999999001041IA1019KA1120M+03541KA2180N+02351MA1999999095401MD1710141-0281REMSYN124AAXX  22001 76393 32970 31405 10344 20158 39540 40087 57014 83004 92355 333 10354 20235 30/// 50431 56005 59028 70000 83074;EQDQ01+000032SCOTLC
0195763930999992008072215004+25733-100300FM-12+051599999V0203401N002012200019N0060001N1+02761+01961101131ADDAY141031AY241031GF101991001001999999001011IA1019MA1999999095571MD1999999-0251MW1051REMSYN100AAXX  22151 76393 31956 13402 10276 20196 39557 40113 5//// 70544 80001 91450 333 0/005 30/// 59025;
0217763930999992008072315004+25733-100300FM-12+051599999V0203601N00101090001CN0150001N1+02781+02111100901ADDGA1021+006301061GA2021+018001031GF105991021041008001041081IA1019MA1999999095361MD1999999-0221REMSYN112AAXX  23151 76393 32565 53601 10278 20211 39536 40090 5//// 82448 91450 333 0/357 30/// 59022 82621 82356 81270;
0317763930999992008072318004+25733-100300FM-12+051599999V0203401N00301015001CN0180001N1+03421+01891100771ADDAA103000991AA206001091AY151061AY211061GA1021+015001081GA2041+015001061GF107991061021017501051999IA1099KA1120M+03481KA2240N+02321MA1999999095291MD1710071+0241MW1501REMSYN142AAXX  23181 76393 01768 73403 10342 20189 39529 40077 57007 69991 75051 8625/ 91750 333 01779 10348 20232 31/// 58024 69997 82850 84650 81356;
0217763930999992008072321004+25733-100300FM-12+051599999V0203401N002010078019N0180001N1+02901+01901100711ADDGA1011+007201081GA2061+007801061GF108991071021008001011999IA1019MA1999999095241MD1710051+9999REMSYN112AAXX  23211 76393 32568 83402 10290 20190 39524 40071 57005 8721/ 92050 333 01779 30/// 59/// 81824 86626 81456;
0256763930999992008072400004+25733-100300FM-12+051599999V0203401N004010096019N0190001N1+02921+01951100671ADDAA124000021GA1061+009601061GF108991061051008001011999IA1019KA1120M+03481KA2180N+02321MA1999999095181MD1710061+9999REMSYN130AAXX  24001 76393 32569 83404 10292 20195 39518 40067 57006 8651/ 92350 333 0/779 10348 20232 30/// 50741 59/// 79999 86632 82456;
0212763930999992008072415004+25733-100300FM-12+051599999V0201101N00101001201CN0080001N1+02461+02271100961ADDAA103001091GA1031+001801071GF108991081061001501999999IA1099MA1999999095371MD1210041+0011REMSYN112AAXX  24151 76393 21258 81101 10246 20227 39537 40096 52004 886// 91450 333 0/799 31/// 58001 60017 83706 85608;
0295763930999992008072418004+25733-100300FM-12+051599999V0201101N001010039019N0040001N1+02621+02231101081ADDAA103001091AA206006191AY151061AY211061GA1061+003901061GF108991061051004501021999IA1099KA1120M+02681KA2240N+02391MA1999999095501MD1210131+0211MW1541REMSYN136AAXX  24181 76393 01440 81101 10262 20223 39550 40108 52013 60061 75451 8652/ 91750 333 0/759 10268 20239 31/// 58021 60017 86613 82456;
0223763930999992008072421004+25733-100300FM-12+051599999V0209999C000010030019N0030001N1+02671+02361100981ADDAY141031AY241031GA1051+003001061GF108991051051004501021999IA1099MA1999999095411MD1710091+0171MW1051REMSYN112AAXX  24211 76393 21430 80000 10267 20236 39541 40098 57009 70544 8552/ 92050 333 0/759 31/// 58017 85610 83456;
0296763930999992008072500004+25733-100300FM-12+051599999V0201001N001010360019N0120001N1+02851+02201100831ADDAA106000021AA224005891AY141061AY211061GA1041+006301061GF106991041051008001021999KA1120M+02951KA2180N+02391MA1999999095291MD1710121+0111MW1051REMSYN143AAXX  25001 76393 11562 61001 10285 20220 39529 40083 57012 69921 70541 8452/ 92350 333 0/4750 10295 20239 30/// 50191 58011 70058 84621 82456;
0198763930999992008072515004+25733-100300FM-12+051599999V0200701N00201003901CN0050001N1+02601+02211101361ADDGA1051+003901061GA2999+012301001GF107991051051004501011999IA1019MA1999999095781REMSYN107AAXX  25151 76393 32450 70702 10260 20221 39578 40136 5//// 8551/ 91450 333 0/579 30/// 58/041 85613 82256;
0255763930999992008072518004+25733-100300FM-12+051599999V0201301N00201018001CN0100001N1+02921+02231101421ADDGA1021+006901061GA2031+018001031GF107991021051008001041041IA1019KA1120M+03001KA2240N+02401MA1999999095861MD1110081+0361REMSYN124AAXX  25181 76393 32560 71302 10292 20223 39586 40142 51008 82544 91750 333 0/357 10300 20240 30/// 58036 82623 83356 82070;
0217763930999992008072521004+25733-100300FM-12+051599999V0201401N003012200019N0170001N1+03301+02211101271ADDGA1011+010801081GA2031+011101061GF104991041021012501041001IA1019MA1999999095751MD1710111+0341REMSYN112AAXX  25211 76393 32667 41403 10330 20221 39575 40127 57011 84240 92050 333 01359 30/// 58034 81836 83637 81356;
0250763930999992008072600004+25733-100300FM-12+051599999V0201201N002012200019N0180001N1+03261+02001101121ADDAA124000091GA1031+012601061GF103991031051012501001001IA1019KA1120M+03481KA2180N+02421MA1999999095621MD1710131+0331REMSYN124AAXX  26001 76393 32668 31202 10326 20200 39562 40112 57013 83500 92350 333 0/399 10348 20242 30/// 50501 58033 70000 83642;
0217763930999992008072603004+25733-100300FM-12+051599999V0201201N004012200019N0040001N1+02841+02171101251ADDAY141031AY241031GA1021+006601081GF102991021021008001001001IA1019MA1999999095771MD1210151+0001MW1051REMSYN106AAXX  26031 76393 31540 21204 10284 20217 39577 40125 52015 70544 82200 90250 333 30/// 56300 58000 82822;
0253763930999992008072606004+25733-100300FM-12+051599999V0200901N006012200019N0030001N1+02601+02121101351ADDAY141061AY241061GF104991041021004501001001GJ103849IA1019KA1240M+03201KA2240N+02161MA1999999095851MD1110081+0001MW1051REMSYN124AAXX  26061 76393 31430 40906 10260 20212 39585 40135 51008 70544 84200 90550 333 10320 20216 30/// 55064 56300 58000 84810;
0217763930999992008072609004+25733-100300FM-12+051599999V0200301N001012200019N0030001N1+02401+02031101341ADDAY141031AY241031GA1011+003601081GF101991011021004501001001IA1019MA1999999095811MD1510041+0001MW1051REMSYN106AAXX  26091 76393 31430 10301 10240 20203 39581 40134 55004 70544 81200 90850 333 30/// 56300 58000 81812;
0278763930999992008072612004+25733-100300FM-12+051599999V0200601N001010021019N0040001N1+02261+02061101461ADDAA124000091AY141061AY241061GA1051+002101061GF107991051041001501999021IA1019KA1240M+03481KA2120N+02251MA1999999095881MD1210071+0001MW1051REMSYN130AAXX  26121 76393 31240 70601 10226 20206 39588 40146 52007 70544 854/2 91150 333 10348 20225 30125 563/5 58000 70000 85607 82070;
0217763930999992008072615004+25733-100300FM-12+051599999V0200401N001010042019N0030001N1+02521+02101101711ADDAY141031AY241031GA1081+004201061GF108991081051004501999999IA1019MA1999999096091MD1210211+0311MW1051REMSYN106AAXX  26151 76393 31430 80401 10252 20210 39609 40171 52021 70544 885// 91455 333 0/8// 30/// 58031 88614;
0161763930999992008072618004+25733-100300FM-12+051599999V0200901N002012200019N0050001N1+03041+02091101701ADDAY141061AY241061GF101991011011008001001001MA1999999096091MD1410001+9999MW1051REMSYN072AAXX  26181 76393 31550 10902 10304 20209 39609 40170 54000 70544 81100;
0217763930999992008072621004+25733-100300FM-12+051599999V0201301N007012200019N0080001N1+03381+01871101371ADDAY141031AY241031GA1011+015001081GF101991011011012501001001IA1019MA1999999095821MD1710271+0071MW1051REMSYN106AAXX  26211 76393 31658 11307 10338 20187 39582 40137 57027 70544 81100 92055 333 01500 30/// 58007 81850;
0161763930999992008072700004+25733-100300FM-12+051599999V0201801N004012200019N0120001N1+03331+01511101171ADDAY141061AY241061GF101991011011017501001001MA1999999095671MD1710151+9999MW1051REMSYN072AAXX  27001 76393 31762 11804 10333 20151 39567 40117 57015 70544 81100;
0199763930999992008072703004+25733-100300FM-12+051599999V0201001N001012200019N0100001N1+02961+01801101211ADDAY101031AY201031GA1001+999999999GF100991001001999999001001IA1019MA1999999095741MD1210071-0031MW1041REMSYN088AAXX  27031 76393 31960 01001 10296 20180 39574 40121 52007 70400 90300 333 30/// 59003;
0251763930999992008072706004+25733-100300FM-12+051599999V0201101N001012200019N0080001N1+02561+02141101321ADDAY101061AY201061GA1001+999999999GF100991001001999999001001GJ104569IA1019KA1240M+03561KA2240N+02251MA1999999095841MD1210101-0011MW1041REMSYN106AAXX  27061 76393 31958 01101 10256 20214 39584 40132 52010 70400 90550 333 10356 20225 30/// 55076 59001;
0199763930999992008072709004+25733-100300FM-12+051599999V0201201N001012200019N0050001N1+02361+02101101321ADDAY101031AY201031GA1001+999999999GF100991001001999999001001IA1019MA1999999095801MD1710041-0011MW1041REMSYN088AAXX  27091 76393 31950 01201 10236 20210 39580 40132 57004 70400 90855 333 30/// 59001;
0291763930999992008072712004+25733-100300FM-12+051599999V0201301N999992200019N0030001N1+02361+02101101311ADDAA124000091AY141061AY221061GF103991999999002501999999KA1240M+03561KA2120N+02241MA1999999095751MD1710051-0341MW1051REMSYN130AAXX  27121 76393 31330 31330 10236 20210 39575 40131 57005 70542 71001 875// 91155 333 0/399 10356 20224 30212 59034 70000 87607;EQDQ01+003003WOSPD Q020003003WOSPD 
0237763930999992008072718004+25733-100300FM-12+051599999V0200601N002012200019N0020001N1+03181+01931101251ADDAY141061AY201061GA1001+999999999GF100991001001999999001001IA1019KA1120M+03241KA2240N+02241MA1999999095671MD1610101-0421MW1051REMSYN100AAXX  27181 76393 31920 00602 10318 20193 39567 40125 56010 70540 91755 333 10324 20224 30/// 59042;
0199763930999992008072721004+25733-100300FM-12+051599999V0200901N004012200019N0080001N1+03461+01731100941ADDAY141031AY201031GA1001+999999999GF100991001001999999001001IA1019MA1999999095421MD1710251-0401MW1051REMSYN088AAXX  27211 76393 31958 00904 10346 20173 39542 40094 57025 70540 92055 333 30/// 59040;
0256763930999992008072800004+25733-100300FM-12+051599999V0201301N005012200019N0200001N1+03481+01681100761ADDAA124000091GA1011+024001031GF102991011001999999041041IA1019KA1120M+03641KA2180N+02241MA1999999095301MD1610121-0371REMSYN130AAXX  28001 76393 32970 21305 10348 20168 39530 40076 56012 81044 92355 333 10364 20224 30/// 50781 56055 59037 70000 81358 81074;
0217763930999992008072803004+25733-100300FM-12+051599999V0201901N001012200019N0030001N1+03101+01761100801ADDAY101031AY201031GA1011+013501081GF101991011021012501001001IA1019MA1999999095381MD1210081-0361MW1051REMSYN106AAXX  28031 76393 31630 11901 10310 20176 39538 40080 52008 70500 81200 90250 333 30/// 56300 59036 81845;
0253763930999992008072806004+25733-100300FM-12+051599999V0200901N003012200019N0030001N1+02681+01771100941ADDAY101061AY201061GF101991011001999999011001GJ105769IA1019KA1240M+03421KA2240N+02281MA1999999095481MD1010101-0361MW1051REMSYN124AAXX  28061 76393 31930 10903 10268 20177 39548 40094 50010 70500 81010 90550 333 10342 20228 30/// 55096 56050 59036 81360;
0199763930999992008072809004+25733-100300FM-12+051599999V0200601N001012200019N0030001N1+02421+01961100901ADDAY101031AY201031GA1001+999999999GF100991001001999999001001IA1019MA1999999095421MD1710061-0381MW1051REMSYN088AAXX  28091 76393 31930 00601 10242 20196 39542 40090 57006 70500 90850 333 30/// 59038;
0272763930999992008072812004+25733-100300FM-12+051599999V0209999C000012200019N0060001N1+02361+02081100901ADDAA124000091AY141061AY241061GA1041+060001001GF104991001001999999001011IA1019KA1240M+03641KA2120N+01901MA1999999095371MD1310051-0381MW1051REMSYN124AAXX  28121 76393 31956 40000 10236 20208 39537 40090 53005 70544 80001 91150 333 10364 20190 30160 56005 59038 70000 84070;
0201763930999992008072815004+25733-100300FM-12+051599999V0200301N002019999999N0040001N1+02711+02081101081ADDAY141031AY241031GF105991001001999999001081IA1019MA1999999095511MD1710141-0261MW1051REMSYN106AAXX  28151 76393 31940 50302 10271 20208 39551 40108 57014 70544 80008 91455 333 0/005 30/// 59026 95470;
0161763930999992008072818004+25733-100300FM-12+051599999V0203601N002012200019N0060001N1+03301+01991101011ADDAY141061AY241061GF102991011011012501001011MA1999999095461MD1710051+9999MW1051REMSYN072AAXX  28181 76393 31656 23602 10330 20199 39546 40101 57005 70544 81101;
0217763930999992008072821004+25733-100300FM-12+051599999V0201101N003012200019N0120001N1+03611+02011100791ADDAY141031AY241031GA1011+015001081GF102991011011017501001011IA1019MA1999999095301MD1710161-0121MW1051REMSYN106AAXX  28211 76393 31762 21103 10361 20201 39530 40079 57016 70544 81101 92055 333 00505 30/// 59012 81850;
0161763930999992008072900004+25733-100300FM-12+051599999V0201301N004012200019N0120001N1+03561+01861100661ADDAY141061AY241061GF101991011011017501001001MA1999999095231MD1710071+9999MW1041REMSYN072AAXX  29001 76393 31762 11304 10356 20186 39523 40066 57007 70444 81100;
0251763930999992008072906004+25733-100300FM-12+051599999V0200901N002012200019N0060001N1+02761+02271100861ADDAY101061AY201061GA1001+999999999GF100991001001999999001001GJ106789IA1019KA1240M+03731KA2240N+02221MA1999999095431MD1210071-0051MW1041REMSYN106AAXX  29061 76393 31956 00902 10276 20227 39543 40086 52007 70400 90555 333 10373 20222 30/// 55113 59005;
0217763930999992008072909004+25733-100300FM-12+051599999V0200501N001012200019N0040001N1+02501+02221100791ADDAY101031AY201031GA1021+002701061GF102991021051002501001001IA1019MA1999999095361MD1710071-0061MW1401REMSYN106AAXX  29091 76393 31340 20501 10250 20222 39536 40079 57007 74000 82500 90850 333 0/300 30/// 59006 82609;
0161763930999992008072912004+25733-100300FM-12+051599999V0200301N001010021019N0020001N1+02461+02181100831ADDAY141061AY221061GF107991071051002501999999MA1999999095341MD1710021+9999MW1051REMSYN072AAXX  29121 76393 31320 70301 10246 20218 39534 40083 57002 70542 875//;
0217763930999992008072915004+25733-100300FM-12+051599999V0203601N001010057019N0020001N1+02741+02161100861ADDAY141031AY211031GA1051+005701061GF105991051011004501001001IA1019MA1999999095331MD1410001-0181MW1051REMSYN106AAXX  29151 76393 31420 53601 10274 20216 39533 40086 54001 70541 85100 91455 333 30/// 56300 59018 85619;
0274763930999992008072918004+25733-100300FM-12+051599999V0201201N001012200019N0020001N1+03161+02201100881ADDAY141061AY201061GA1011+024001031GF101991011011022501999001IA1019KA1120M+03341KA2240N+02421MA1999999095371MD1410001-0091MW1051REMSYN118AAXX  29181 76393 31820 11201 10316 20220 39537 40088 54004 70540 81100 91755 333 10334 20242 30/// 56300 59009 81358;EQDQ01+000002SCOMCG
0217763930999992008072921004+25733-100300FM-12+051599999V0201301N004012200019N0040001N1+03481+02171100691ADDAY141031AY201031GA1011+012901081GF101991011011012501001001IA1019MA1999999095231MD1610141-0071MW1051REMSYN106AAXX  29211 76393 31640 11304 10348 20217 39523 40069 56014 70540 81100 92055 333 30/// 56300 59007 81843;
0234763930999992008073000004+25733-100300FM-12+051599999V0201301N004012200019N0160001N1+03441+02081100491ADDAA124000091GF101991011001022501031001IA1019KA1120M+03641KA2180N+02421MA1999999095061MD1610171-0171REMSYN124AAXX  30001 76393 32866 11304 10344 20208 39506 40049 56017 81030 92355 333 10364 20242 30/// 50741 56050 59017 70000 81358;
0199763930999992008073003004+25733-100300FM-12+051599999V0201201N001012200019N0030001N1+03161+02071100551ADDAY141031AY241031GA1001+999999999GF100991001001999999001001IA1019MA1999999095141MD1210081-0221MW1051REMSYN088AAXX  30031 76393 31930 01201 10316 20207 39514 40055 52008 70544 90250 333 30/// 59022;
0251763930999992008073006004+25733-100300FM-12+051599999V0200801N003012200019N0030001N1+02781+02141100651ADDAY141061AY241061GA1001+999999999GF100991001001999999001001GJ106189IA1019KA1240M+03421KA2240N+02361MA1999999095221MD1210081-0211MW1051REMSYN106AAXX  30061 76393 31930 00803 10278 20214 39522 40065 52008 70544 90550 333 10342 20236 30/// 55103 59021;
0217763930999992008073009004+25733-100300FM-12+051599999V0201101N002012200019N0030001N1+02521+02271100701ADDAY141031AY241031GA1031+002401071GF103991031061002501001001IA1019MA1999999095241MD1010021-0121MW1051REMSYN106AAXX  30091 76393 31330 31102 10252 20227 39524 40070 50002 70544 83600 90850 333 30/// 56300 59012 83708;
0272763930999992008073012004+25733-100300FM-12+051599999V0200901N001010030019N0030001N1+02541+02231100731ADDAA124000091AY141061AY241061GA1081+003001071GF108991081061002501999999IA1019KA1240M+03641KA2120N+02061MA1999999095231MD1010011-0111MW1051REMSYN124AAXX  30121 76393 31330 80901 10254 20223 39523 40073 50001 70544 886// 91150 333 10364 20206 30170 563// 59011 70000 88710;
0217763930999992008073015004+25733-100300FM-12+051599999V0201301N001010069019N0020001N1+02801+02131100841ADDAY141031AY211031GA1071+006901061GF107991071031008001999999IA1019MA1999999095311MD1410001-0021MW1051REMSYN106AAXX  30151 76393 31520 71301 10280 20213 39531 40084 54008 70541 873// 91455 333 30/// 56399 59002 87623;
0255763930999992008073018004+25733-100300FM-12+051599999V0200501N002012200019N0020001N1+03301+02211100811ADDAY141061AY201061GA1021+010801061GF102991021011017501001001IA1019KA1120M+03381KA2240N+02441MA1999999095291MD1410001-0081MW1051REMSYN118AAXX  30181 76393 31720 20502 10330 20221 39529 40081 54002 70540 82100 91755 333 10338 20244 30/// 56300 59008 82636;
0217763930999992008073021004+25733-100300FM-12+051599999V0200901N003012200019N0030001N1+03541+02141100621ADDAY141031AY201031GA1021+014101061GF102991021011012501001001IA1019MA1999999095151MD1610141-0081MW1051REMSYN106AAXX  30211 76393 31630 20903 10354 20214 39515 40062 56014 70540 82100 92055 333 30/// 56300 59008 82647;
0234763930999992008073100004+25733-100300FM-12+051599999V0201001N003012200019N0160001N1+03421+02031100421ADDAA124000091GF102991021011012501001001IA1019KA1120M+03621KA2180N+02441MA1999999094991MD1710161-0071REMSYN124AAXX  31001 76393 32666 21003 10342 20203 39499 40042 57016 82100 92355 333 10362 20244 30/// 50701 56300 59007 70000 82848;
0173763930999992008073103004+25733-100300FM-12+051599999V0200901N001012200019N0100001N1+03141+02021100661ADDGF102991021041012501001001IA1019MA1999999095251MD1210261-0081REMSYN100AAXX  31031 76393 32660 20901 10314 20202 39525 40066 52026 82400 90250 333 0/399 30/// 59008 32637;
0241763930999992008073106004+25733-100300FM-12+051599999V0201001N002012200019N0050001N1+02901+02121100751ADDGA1011+007801061GF101991011041008001001001GJ105769IA1019KA1240M+03621KA2240N+02441MA1999999095321MD1110071+0101REMSYN118AAXX  31061 76393 32550 11002 10290 20212 39532 40075 51007 81400 90550 333 0/399 10362 20244 30/// 55096 58010 81626;
0189763930999992008073109004+25733-100300FM-12+051599999V0200901N001012200019N0040001N1+02601+02331100691ADDGA1011+002701061GF101991011041002501001001IA1019MA1999999095241MD1710081+0001REMSYN100AAXX  31091 76393 32340 10901 10260 20233 39524 40069 57008 81400 90850 333 0/399 30/// 59000 81609;
0161763930999992008073112004+25733-100300FM-12+051599999V0200601N001010021019N0030001N1+02641+02351100771ADDAY141061AY261061GF106991061041002501999999MA1999999095281MD1510041+9999MW1051REMSYN072AAXX  31121 76393 31330 60601 10264 20235 39528 40077 55004 70546 864//;
0217763930999992008073115004+25733-100300FM-12+051599999V0200901N002010051019N0020001N1+02801+02281100841ADDAY141031AY211031GA1071+005101061GF107991071021004501999999IA1019MA1999999095321MD1410001+0011MW1051REMSYN106AAXX  31151 76393 31420 70902 10280 20228 39532 40084 54004 70541 872// 91455 333 30/// 56399 58001 87617;
0255763930999992008073118004+25733-100300FM-12+051599999V0200901N003012200019N0020001N1+03321+02231100801ADDAY141061AY201061GA1021+009901081GF102991021041012501001001IA1019KA1120M+03401KA2240N+02561MA1999999095291MD1410001+0001MW1051REMSYN118AAXX  31181 76393 31620 20903 10332 20223 39529 40080 54003 70540 82400 91755 333 10340 20256 30/// 56300 58000 82833;
0217763930999992008080100004+25733-100300FM-12+051599999V0200901N004012200019N0180001N1+03481+02031100431ADDGF104991041031012501001001IA1019KA1120M+03721KA2180N+02561MA1999999095021MD1610101+0041REMSYN118AAXX  01001 76393 32668 40904 10348 20203 39502 40043 56010 84300 92355 333 10372 20256 30/// 50781 56300 58004 84848;
0217763930999992008080103004+25733-100300FM-12+051599999V0201801N001012200019N0040001N1+03021+02161100531ADDAY141031AY241031GA1021+008701081GF102991021021008001999999IA1019MA1999999095141MD1210121-0111MW1051REMSYN106AAXX  01031 76393 31540 21801 10302 20216 39514 40053 52012 70544 822// 90250 333 30/// 563// 59011 82829;
0251763930999992008080106004+25733-100300FM-12+051599999V0200901N001012200019N0030001N1+02741+02271100671ADDAY141061AY241061GA1001+999999999GF100991001001999999001001GJ105649IA1019KA1240M+03741KA2240N+02321MA1999999095251MD1210111-0071MW1051REMSYN106AAXX  01061 76393 31930 00901 10274 20227 39525 40067 52011 70544 90550 333 10374 20232 30/// 55094 59007;
0217763930999992008080109004+25733-100300FM-12+051599999V0200901N003012200019N0020001N1+02461+02211100691ADDAY141031AY241031GA1041+002401071GF104991041061002501001001IA1019MA1999999095231MD1010021-0011MW1051REMSYN106AAXX  01091 76393 31320 40903 10246 20221 39523 40069 50002 70544 84600 90850 333 30/// 56100 59001 84708;
0272763930999992008080112004+25733-100300FM-12+051599999V0200801N001010030019N0020001N1+02541+02241100771ADDAA124000091AY141061AY241061GA1081+003001071GF108991081071004501999999IA1019KA1240M+03721KA2120N+02401MA1999999095261MD1210031-0021MW1051REMSYN124AAXX  01121 76393 31420 80801 10254 20224 39526 40077 52003 70544 887// 91150 333 10372 20240 30170 563// 59002 70000 88710;
0195763930999992008080115004+25733-100300FM-12+051599999V0201101N001010045019N0030001N1+02721+02251101051ADDGA1051+004501061GF107991051041004501011999IA1019MA1999999095501MD1210241+0181REMSYN106AAXX  01151 76393 32430 71101 10272 20225 39550 40105 52024 8541/ 91450 333 0/359 30/// 58018 85615 82456;
0233763930999992008080118004+25733-100300FM-12+051599999V0200901N002012200019N0040001N1+02901+02241101141ADDGA1031+006601061GF104991031041008001011999IA1019KA1120M+03021KA2240N+02401MA1999999095581MD1010081+0291REMSYN118AAXX  01181 76393 32540 40902 10290 20224 39558 40114 50008 8341/ 91750 333 0/359 10302 20240 30/// 58029 83622 81456;
0195763930999992008080121004+25733-100300FM-12+051599999V0201301N001012200019N0050001N1+03341+02221101001ADDGA1021+011101061GF104991021041012501011999IA1019MA1999999095481MD1510101+0361REMSYN106AAXX  01211 76393 32650 41301 10334 20222 39548 40100 55010 8241/ 92050 333 0/359 30/// 58036 82637 82456;
0256763930999992008080200004+25733-100300FM-12+051599999V0201301N00201012001CN0120001N1+03481+02171100601ADDAA124000091GA1011+013201081GF105991051021012501001001IA1019KA1120M+03581KA2180N+02401MA1999999095201MD1710281+0181REMSYN130AAXX  02001 76393 32662 51302 10348 20217 39520 40060 57028 85200 92350 333 01399 10358 20240 30/// 50611 58018 70000 81844 83646;
0223763930999992008080203004+25733-100300FM-12+051599999V0200901N001012200019N0080001N1+03041+02121100851ADDAY141031AY211031GA1021+009301081GF104991041051008001001001IA1019MA1999999095401MD1210201+0261MW1041REMSYN112AAXX  02031 76393 31558 40901 10304 20212 39540 40085 52020 70441 84500 90255 333 00300 30/// 58026 82831 82632;
0161763930999992008080206004+25733-100300FM-12+051599999V0201101N001012200019N0060001N1+02721+02221101031ADDAY141061AY211061GF104991041051004501001001MA1999999095571MD1210171+9999MW1041REMSYN072AAXX  02061 76393 31456 41101 10272 20222 39557 40103 52017 70441 84500;
0217763930999992008080209004+25733-100300FM-12+051599999V0201201N002010024019N0030001N1+02561+02311100971ADDAY141031AY221031GA1071+002401061GF107991071051002501999999IA1019MA1999999095491MD1710081+0261MW1041REMSYN106AAXX  02091 76393 31330 71202 10256 20231 39549 40097 57008 70442 875// 90855 333 0/399 30/// 58026 87608;
0161763930999992008080212004+25733-100300FM-12+051599999V0200901N001010021019N0030001N1+02521+02241101061ADDAY141061AY221061GF106991061051002501001001MA1999999095531MD1210041+9999MW1051REMSYN072AAXX  02121 76393 31330 60901 10252 20224 39553 40106 52004 70542 86500;
0217763930999992008080215004+25733-100300FM-12+051599999V0200501N002010054019N0030001N1+02701+02171101071ADDAY141031AY201031GA1051+005401061GF105991051041004501001001IA1019MA1999999095511MD1410001+0011MW1051REMSYN106AAXX  02151 76393 31430 50502 10270 20217 39551 40107 54002 70540 85400 91455 333 30/// 56300 58001 85618;
0255763930999992008080218004+25733-100300FM-12+051599999V0200901N002012200019N0020001N1+03201+02181101091ADDAY141061AY201061GA1021+010201081GF102991021021012501001001IA1019KA1120M+03321KA2240N+02481MA1999999095551MD1410001-0031MW1051REMSYN118AAXX  02181 76393 31620 20902 10320 20218 39555 40109 54004 70540 82200 91755 333 10332 20248 30/// 56300 59003 82834;
0189763930999992008080221004+25733-100300FM-12+051599999V0200901N003012200019N0150001N1+03521+02021100841ADDGA1021+015001081GF102991021021012501001001IA1019MA1999999095351MD1710201-0231REMSYN100AAXX  02211 76393 32665 20903 10352 20202 39535 40084 57020 82200 92055 333 30/// 56300 59023 82850;
0234763930999992008080300004+25733-100300FM-12+051599999V0201301N005012200019N0190001N1+03521+01731100881ADDAA124000091GF102991021041017501001001IA1019KA1120M+03741KA2180N+02481MA1999999095431MD1610081+0231REMSYN124AAXX  03001 76393 32769 21305 10352 20173 39543 40088 56008 82400 92355 333 10374 20248 30/// 50711 56300 58023 70000 82856;
0199763930999992008080303004+25733-100300FM-12+051599999V0201201N002012200019N0030001N1+03201+01781100801ADDAY101031AY201031GA1001+999999999GF100991001001999999001001IA1019MA1999999095381MD1210181-0021MW1051REMSYN088AAXX  03031 76393 31930 01202 10320 20178 39538 40080 52018 70500 90250 333 30/// 59002;
0251763930999992008080306004+25733-100300FM-12+051599999V0200901N005012200019N0030001N1+02721+02071100931ADDAY101061AY201061GA1001+999999999GF100991001001999999001001GJ105949IA1019KA1240M+03441KA2240N+02321MA1999999095501MD1210121-0071MW1051REMSYN106AAXX  03061 76393 31930 00905 10272 20207 39550 40093 52012 70500 90550 333 10344 20232 30/// 55099 59007;
0217763930999992008080309004+25733-100300FM-12+051599999V0201001N001012200019N0030001N1+02541+02211100931ADDAY101031AY201031GA1031+003301071GF103991031061004501001001IA1019MA1999999095461MD1010041-0031MW1051REMSYN106AAXX  03091 76393 31430 31001 10254 20221 39546 40093 50004 70500 83600 90850 333 30/// 56300 59003 83711;
0272763930999992008080312004+25733-100300FM-12+051599999V0200401N001010030019N0030001N1+02441+02161101001ADDAA124000091AY141061AY241061GA1081+003001061GF108991081051002501999999IA1019KA1240M+03741KA2120N+02401MA1999999095471MD1310011-0061MW1051REMSYN124AAXX  03121 76393 31330 80401 10244 20216 39547 40100 53001 70544 885// 91150 333 10374 20240 30162 563// 59006 70000 88610;
0223763930999992008080315004+25733-100300FM-12+051599999V0200701N00201009001CN0050001N1+02651+02131101311ADDAY141031AY241031GA1011+005101081GF107991071081004501999999IA1019MA1999999095741MD1210271+0231MW1051REMSYN112AAXX  03151 76393 31450 70702 10265 20213 39574 40131 52027 70544 878// 91455 333 008// 30/// 58023 81817 86627;
0161763930999992008080318004+25733-100300FM-12+051599999V0200601N003012200019N0050001N1+03201+02121101271ADDAY141061AY241061GF101991011011008001001001MA1999999095701MD1710041+9999MW1051REMSYN072AAXX  03181 76393 31550 10603 10320 20212 39570 40127 57004 70544 81100;
0189763930999992008080321004+25733-100300FM-12+051599999V0200901N004012200019N0140001N1+03601+01981100951ADDGA1011+015001081GF101991011011017501001001IA1019MA1999999095451MD1710151+0101REMSYN100AAXX  03211 76393 32764 10904 10360 20198 39545 40095 57015 81100 92055 333 00500 30/// 58010 81850;
0250763930999992008080400004+25733-100300FM-12+051599999V0201601N002012200019N0160001N1+03541+01531100721ADDAA124000091GA1011+015001081GF102991011021022501001011IA1019KA1120M+03731KA2180N+02401MA1999999095281MD1710171+0081REMSYN124AAXX  04001 76393 32866 21602 10354 20153 39528 40072 57017 81201 92355 333 01305 10373 20240 30/// 50851 58008 70000 81850;
0189763930999992008080403004+25733-100300FM-12+051599999V0200801N002012200019N0150001N1+03141+01811100841ADDGA1011+013201061GF101991011051012501001001IA1019MA1999999095431MD1210151+0051REMSYN100AAXX  04031 76393 32665 10802 10314 20181 39543 40084 52015 81500 90255 333 0/300 30/// 58005 81644;
0251763930999992008080406004+25733-100300FM-12+051599999V0201201N002012200019N0080001N1+02821+01901101021ADDAY101061AY201061GA1001+999999999GF100991001001999999001001GJ105709IA1019KA1240M+03721KA2240N+02401MA1999999095591MD1210161+0091MW1041REMSYN106AAXX  04061 76393 31958 01202 10282 20190 39559 40102 52016 70400 90550 333 10372 20240 30/// 55095 58009;
0199763930999992008080409004+25733-100300FM-12+051599999V0201301N001012200019N0030001N1+02501+02081101041ADDAY101031AY201031GA1001+999999999GF100991001001999999001001IA1019MA1999999095571MD1710021+0111MW1041REMSYN088AAXX  04091 76393 31930 01301 10250 20208 39557 40104 57002 70400 90850 333 30/// 58011;
0273763930999992008080412004+25733-100300FM-12+051599999V0209999C000012200019N0030001N1+02421+02111101091ADDAA124000091AY101061AY201061GA1001+999999999GF100991001001999999001001IA1019KA1240M+03731KA2120N+02361MA1999999095571MD1410001+0101MW1051REMSYN106AAXX  04121 76393 31930 00000 10242 20211 39557 40109 54000 70500 91155 333 10373 20236 30228 58010 70000;EQDQ01  00002PRCP24
0199763930999992008080415004+25733-100300FM-12+051599999V0200101N001012200019N0020001N1+02721+02071101011ADDAY141031AY201031GA1001+999999999GF100991001001999999001001IA1019MA1999999095461MD1610111-0281MW1051REMSYN088AAXX  04151 76393 31920 00101 10272 20207 39546 40101 56011 70540 91455 333 30/// 59028;
0261763930999992008080418004+25733-100300FM-12+051599999V0200501N004012200019N0050001N1+03281+01781101181ADDAY141061AY201061GA1011+015001081GF102991011021012501001091IA1019KA1120M+03421KA2240N+02361MA1999999095631MD1510171-0071MW1051REMSYN124AAXX  04181 76393 31650 20504 10328 20178 39563 40118 55017 70540 81209 91755 333 10342 20236 30/// 56105 59007 81850 81174;
0189763930999992008080421004+25733-100300FM-12+051599999V0201401N003012200019N0180001N1+03641+01541100961ADDGA1021+021001081GF102991021021022501001001IA1019MA1999999095471MD1610161+0021REMSYN100AAXX  04211 76393 32868 21403 10364 20154 39547 40096 56016 82200 92055 333 30/// 56300 58002 82857;
0234763930999992008080500004+25733-100300FM-12+051599999V0200901N004012200019N0190001N1+03501+01741100811ADDAA124000091GF103991031021017501001001IA1019KA1120M+03761KA2180N+02361MA1999999095381MD1410001+0101REMSYN124AAXX  05001 76393 32769 30904 10350 20174 39538 40081 54009 83200 92355 333 10376 20236 30/// 50771 56300 58010 70000 83856;
0217763930999992008080503004+25733-100300FM-12+051599999V0201001N004012200019N0030001N1+03081+01911100821ADDAY141031AY241031GA1021+011701081GF103991031021012501001001IA1019MA1999999095411MD1510031-0021MW1051REMSYN106AAXX  05031 76393 31630 31004 10308 20191 39541 40082 55003 70544 83200 90250 333 30/// 56300 59002 82839;
0251763930999992008080506004+25733-100300FM-12+051599999V0200901N003012200019N0030001N1+02761+01761100971ADDAY141061AY241061GA1001+999999999GF100991001001999999001001GJ106009IA1019KA1240M+03361KA2240N+02401MA1999999095541MD1210131-0051MW1051REMSYN106AAXX  05061 76393 31930 00903 10276 20176 39554 40097 52013 70544 90550 333 10336 20240 30/// 55100 59005;
0199763930999992008080509004+25733-100300FM-12+051599999V0200901N001012200019N0030001N1+02601+01911100971ADDAY101031AY201031GA1001+999999999GF100991001001999999001001IA1019MA1999999095501MD1010041-0071MW1051REMSYN088AAXX  05091 76393 31930 00901 10260 20191 39550 40097 50004 70500 90850 333 30/// 59007;
0272763930999992008080512004+25733-100300FM-12+051599999V0201101N001012200019N0060001N1+02461+02101101081ADDAA124000091AY141061AY241061GA1031+030001031GF103991031001999999011001IA1019KA1240M+03761KA2120N+02421MA1999999095551MD1210051-0021MW1051REMSYN124AAXX  05121 76393 31956 31101 10246 20210 39555 40108 52005 70544 83010 91150 333 10376 20242 30222 56050 59002 70000 83360;
0217763930999992008080515004+25733-100300FM-12+051599999V0200301N002012200019N0040001N1+02741+02061101291ADDAY141031AY241031GA1011+006601081GF101991011011008001001001IA1019MA1999999095731MD1210181+0271MW1051REMSYN106AAXX  05151 76393 31540 10302 10274 20206 39573 40129 52018 70544 81100 91455 333 00500 30/// 58027 81822;
0161763930999992008080518004+25733-100300FM-12+051599999V0200301N005012200019N0060001N1+03271+01981101261ADDAY141061AY241061GF102991021021012501001001MA1999999095721MD1710011+9999MW1051REMSYN072AAXX  05181 76393 31656 20305 10327 20198 39572 40126 57001 70544 82200;
0223763930999992008080521004+25733-100300FM-12+051599999V0200901N002012200019N0080001N1+03701+01771101001ADDAY141031AY201031GA1011+015001091GF103991031031017501001001IA1019MA1999999095511MD1710221+0041MW1051REMSYN112AAXX  05211 76393 31758 30902 10370 20177 39551 40100 57022 70540 83300 92055 333 04300 30/// 58004 81950 82656;
0256763930999992008080600004+25733-100300FM-12+051599999V0200801N00201036001CN0160001N1+03621+01681100811ADDAA124000091GA1011+015001091GF105991041031017501031001IA1019KA1120M+03821KA2180N+02421MA1999999095381MD1710131+0001REMSYN130AAXX  06001 76393 32766 50802 10362 20168 39538 40081 57013 84330 92355 333 06350 10382 20242 30/// 50861 58000 70000 81950 83656;
0189763930999992008080603004+25733-100300FM-12+051599999V0201301N002012200019N0150001N1+03061+01711100991ADDGA1041+013501061GF104991041051012501001001IA1019MA1999999095581MD1210201+0171REMSYN100AAXX  06031 76393 32665 41302 10306 20171 39558 40099 52020 84500 90255 333 0/300 30/// 58017 84645;
0161763930999992008080606004+25733-100300FM-12+051599999V0201301N001012200019N0040001N1+02701+01991101151ADDAY141061AY211061GF103991031051008001001001MA1999999095711MD1210131+9999MW1041REMSYN072AAXX  06061 76393 31540 31301 10270 20199 39571 40115 52013 70441 83500;
0199763930999992008080609004+25733-100300FM-12+051599999V0209999C000012200019N0030001N1+02481+02111101141ADDAY101031AY201031GA1001+999999999GF100991001001999999001001IA1019MA1999999095661MD1710051+0161MW1041REMSYN088AAXX  06091 76393 31930 00000 10248 20211 39566 40114 57005 70400 90850 333 30/// 58016;
0161763930999992008080612004+25733-100300FM-12+051599999V0200701N001010042019N0020001N1+02481+02141101261ADDAY141061AY221061GF107991071051004501999999MA1999999095721MD1210061+9999MW1051REMSYN072AAXX  06121 76393 31420 70701 10248 20214 39572 40126 52006 70542 875//;
0217763930999992008080615004+25733-100300FM-12+051599999V0200601N001012200019N0020001N1+02601+02061101361ADDAY141031AY221031GA1041+005401061GF104991041021004501001001IA1019MA1999999095781MD1410001+0051MW1051REMSYN106AAXX  06151 76393 31420 40601 10260 20206 39578 40136 54006 70542 84200 91455 333 30/// 56300 58005 84618;
0152763930999992008080618004+25733-100300FM-12+051599999V0200501N002012200019N0030001N1+03141+02021999999ADDGF102991999999012501999999REMSYN114AAXX  06181 76393 31630 20502 10314 20202 10322 20234 30/// 39581 40138 54003 56300 58009 70540 82200 82638 91755;
0189763930999992008080621004+25733-100300FM-12+051599999V0200901N002012200019N0180001N1+03581+01881101321ADDGA1031+018001081GF103991031021017501001001IA1019MA1999999095781MD1410001+0061REMSYN100AAXX  06211 76393 32768 30902 10358 20188 39578 40132 54003 83200 92055 333 30/// 56300 58006 83856;
0241763930999992008080706004+25733-100300FM-12+051599999V0200901N004012200019N0040001N1+02681+02001101201ADDGA1021+006901061GF102991021041008001001001GJ104389IA1019KA1240M+03681KA2240N+02341MA1999999095751MD1210131+0041REMSYN118AAXX  07061 76393 32540 20904 10268 20200 39575 40120 52013 82400 90550 333 0/399 10368 20234 30/// 55073 58004 82623;
0189763930999992008080709004+25733-100300FM-12+051599999V0201001N002012200019N0040001N1+02521+02021101191ADDGA1021+004801061GF102991021041004501001001IA1019MA1999999095691MD1710061+0031REMSYN100AAXX  07091 76393 32440 21002 10252 20202 39569 40119 57006 82400 90850 333 0/399 30/// 58003 82616;
0244763930999992008080712004+25733-100300FM-12+051599999V0200601N001012200019N0030001N1+02421+02051101261ADDAA124000091GA1021+003601061GF102991021041004501001001IA1019KA1240M+03681KA2120N+02381MA1999999095721MD1210031+0001REMSYN118AAXX  07121 76393 32430 20601 10242 20205 39572 40126 52003 82400 91150 333 0/399 10368 20238 30224 58000 70000 82612;
0217763930999992008080715004+25733-100300FM-12+051599999V0209999C000010054019N0030001N1+02561+02021101401ADDAY141031AY241031GA1061+005401061GF106991061051004501001001IA1019MA1999999095821MD1210101+0041MW1051REMSYN106AAXX  07151 76393 31430 60000 10256 20202 39582 40140 52010 70544 86500 91455 333 0/800 30/// 58004 86618;
0161763930999992008080718004+25733-100300FM-12+051599999V0201401N001010360019N0040001N1+03251+02031101351ADDAY141061AY241061GF107991011011012501051011MA1999999095781MD1710041+9999MW1051REMSYN072AAXX  07181 76393 31640 71401 10325 20203 39578 40135 57004 70544 81151;
0223763930999992008080721004+25733-100300FM-12+051599999V0201301N003012200019N0100001N1+03401+01901101051ADDAY141031AY241031GA1011+015001081GF103991011021017501031001IA1019MA1999999095531MD1710251-0251MW1051REMSYN112AAXX  07211 76393 31760 31303 10340 20190 39553 40105 57025 70544 81230 92040 333 05550 30/// 59025 81850 82356;
0256763930999992008080800004+25733-100300FM-12+051599999V0201301N004012200019N0140001N1+03451+01861100831ADDAA124000091GA1011+015001081GF104991011011017501031011IA1019KA1120M+03541KA2180N+02381MA1999999095371MD1710161-0051REMSYN130AAXX  08001 76393 32764 41304 10345 20186 39537 40083 57016 81131 92355 333 01555 10354 20238 30/// 50681 59005 70000 81850 82356;
0217763930999992008080803004+25733-100300FM-12+051599999V0201201N001012200019N0120001N1+03061+01821100921ADDAY141031AY211031GA1041+012301061GF104991041051012501001001IA1019MA1999999095481MD1210111-0141MW1041REMSYN106AAXX  08031 76393 31662 41201 10306 20182 39548 40092 52011 70441 84500 90255 333 0/300 30/// 59014 84641;
0161763930999992008080806004+25733-100300FM-12+051599999V0201301N001010042019N0060001N1+02661+02101101081ADDAY141061AY221061GF107991071051004501999999MA1999999095621MD1210141+9999MW1041REMSYN072AAXX  08061 76393 31456 71301 10266 20210 39562 40108 52014 70442 875//;
0161763930999992008080812004+25733-100300FM-12+051599999V0200601N001010042019N0030001N1+02461+02121101171ADDAY141061AY221061GF108991081051004501999999MA1999999095621MD1210021+9999MW1051REMSYN072AAXX  08121 76393 31430 80601 10246 20212 39562 40117 52002 70542 885//;
0217763930999992008080815004+25733-100300FM-12+051599999V0200201N001010048019N0050001N1+02701+02201101261ADDAY141031AY221031GA1061+004801061GF106991061041004501001001IA1019MA1999999095681MD1210061-0141MW1051REMSYN106AAXX  08151 76393 31450 60201 10270 20220 39568 40126 52006 70542 86400 91450 333 0/399 30/// 59014 86616;
0161763930999992008080818004+25733-100300FM-12+051599999V0201201N001012200019N0070001N1+03261+02221101141ADDAY141061AY221061GF103991031021012501001001MA1999999095591MD1710091+9999MW1051REMSYN072AAXX  08181 76393 31657 31201 10326 20222 39559 40114 57009 70542 83200;
0217763930999992008080821004+25733-100300FM-12+051599999V0201301N00201220001CN0100001N1+03541+02081100881ADDGA1011+014401081GA2021+015001061GF105991031021012501001041IA1019MA1999999095381MD1710211-0151REMSYN112AAXX  08211 76393 32660 51302 10354 20208 39538 40088 57021 83204 92050 333 01397 30/// 59015 81848 82650 82070;
0161763930999992008080900004+25733-100300FM-12+051599999V0203301N001010120019N0110001N1+03141+01951100771ADDAY141061AY261061GF107991051041012501021999MA1999999095321MD1710061+9999MW1051REMSYN072AAXX  09001 76393 31661 73301 10314 20195 39532 40077 57006 70546 8542/;
0156763930999992008080903004+25733-100300FM-12+051599999V0200901N006012200019N0030001N1+02921+01981999999ADDGF104991999999004501999999REMSYN118AAXX  09031 76393 21430 40906 10292 20198 09543 40087 55011 70544 84600 90250 333 30/// 56300 59005 69997 83716 81817;
0272763930999992008080906004+25733-100300FM-12+051599999V0200901N003012200019N0030001N1+02641+01981100981ADDAY141061AY241061GF102991021061008001001001GJ104569IA1019KA1240M+03041KA2240N+99999MA1999999095521MD1210091-0101MW1051REMSYN124AAXX  09061 76393 31530 20903 10264 20198 39552 40098 52009 70544 82600 90550 333 10304 20270 30/// 55076 56300 59010 82722;EQDQ01 +02702ATMN  
0217763930999992008080909004+25733-100300FM-12+051599999V0200901N001012200019N0030001N1+02481+02171101011ADDAY141031AY241031GA1011+003301081GF101991011021002501001001IA1019MA1999999095501MD1610041-0101MW1051REMSYN106AAXX  09091 76393 31330 10901 10248 20217 39550 40101 56004 70544 81200 90850 333 30/// 56300 59010 81811;
0291763930999992008080912004+25733-100300FM-12+051599999V0209999C000010030019N0030001N1+02521+02241101061ADDAA124000091AY141061AY241061GA1081+003001071GF108991081061001501999999IA1019KA1240M+03841KA2120N+02481MA1999999095511MD1010011-0111MW1051REMSYN124AAXX  09121 76393 31230 80000 10252 20224 39551 40106 50001 70544 886// 91150 333 10384 20248 30225 563// 59011 79999 88710;EQDQ01  00002PRCP24
0205763930999992008080915004+25733-100300FM-12+051599999V0200301N002012200019N0020001N1+02801+02131101211ADDAY141031AY241031GA1011+006601081GF101991011011008001001001MA1999999095641MD1210131-0041MW1051REMSYN100AAXX  09151 76393 31520 10302 10280 20213 39564 40121 52013 70544 81100 91455 333 00800 59004 81822;
0161763930999992008080918004+25733-100300FM-12+051599999V0200701N002012200019N0040001N1+03381+02171101141ADDAY141061AY241061GF101991011021012501001001MA1999999095601MD1710041+9999MW1051REMSYN072AAXX  09181 76393 31640 10702 10338 20217 39560 40114 57004 70544 81200;
0223763930999992008080921004+25733-100300FM-12+051599999V0201201N003012200019N0120001N1+03721+01981100851ADDAY101031AY201031GA1011+015001091GF102991021031017501001001IA1019MA1999999095371MD1710231-0011MW1151REMSYN112AAXX  09211 76393 31762 21203 10372 20198 39537 40085 57023 71500 82300 92055 333 07500 30/// 59001 81950 81856;
0269763930999992008081000004+25733-100300FM-12+051599999V0201801N003012200019N0140001N1+03561+01931100651ADDAA124000091GA1021+015001081GF103991021021017501031001IA1019KA1120M+03831KA2180N+02481MA1999999095231MD1710141-0091REMSYN124AAXX  10001 76393 32764 31803 10356 20193 39523 40065 57014 82230 92355 333 01350 10383 20248 30/// 50701 59009 79999 82850;EQDQ01  00002PRCP24
0251763930999992008081006004+25733-100300FM-12+051599999V0201201N001012200019N0080001N1+02841+02201100781ADDAY101061AY201061GA1001+999999999GF100991001001999999001001GJ106429IA1019KA1240M+03831KA2240N+02481MA1999999095371MD1210051-0151MW1041REMSYN106AAXX  10061 76393 31958 01201 10284 20220 39537 40078 52005 70400 90550 333 10383 20248 30/// 55107 59015;
0199763930999992008081009004+25733-100300FM-12+051599999V0201001N001012200019N0040001N1+02581+02251100811ADDAY101031AY201031GA1001+999999999GF100991001001999999001001IA1019MA1999999095351MD1710021-0151MW1041REMSYN088AAXX  10091 76393 31940 01001 10258 20225 39535 40081 57002 70400 90850 333 30/// 59015;
0273763930999992008081012004+25733-100300FM-12+051599999V0209999C000012200019N0030001N1+02501+02081100871ADDAA124000091AY101061AY201061GA1001+999999999GF100991001001999999001001IA1019KA1240M+03831KA2120N+02441MA1999999095371MD1210021-0141MW1041REMSYN106AAXX  10121 76393 31930 00000 10250 20208 39537 40087 52002 70400 91150 333 10383 20244 30236 59014 70000;EQDQ01  00002PRCP24
0199763930999992008081015004+25733-100300FM-12+051599999V0200501N002012200019N0040001N1+02741+02211100971ADDAY141031AY201031GA1001+999999999GF100991001001999999001001IA1019MA1999999095431MD1610061-0211MW1051REMSYN088AAXX  10151 76393 31940 00502 10274 20221 39543 40097 56006 70540 91455 333 30/// 59021;
0237763930999992008081018004+25733-100300FM-12+051599999V0200501N002012200019N0040001N1+03361+02151100841ADDAY141061AY201061GA1001+999999999GF100991001001999999001001IA1019KA1120M+03441KA2240N+02441MA1999999095331MD1610101-0271MW1051REMSYN100AAXX  10181 76393 31940 00502 10336 20215 39533 40084 56010 70540 91755 333 10344 20244 30/// 59027;
0189763930999992008081021004+25733-100300FM-12+051599999V0200901N005012200019N0180001N1+03761+01871100531ADDGA1011+018001081GF101991011021017501001001IA1019MA1999999095081MD1710351-0291REMSYN100AAXX  10211 76393 32768 10905 10376 20187 39508 40053 57035 81200 92055 333 30/// 56300 59029 81856;
0228763930999992008081100004+25733-100300FM-12+051599999V0201301N004012200019N0190001N1+03721+01821100321ADDAA124000091GF101991011021017501001001KA1120M+03941KA2180N+02441MA1999999094931MD1710151-0301REMSYN124AAXX  11001 76393 32769 11304 10372 20182 39493 40032 57015 81200 92355 333 10394 20244 20/// 50791 56300 59030 70000 81856;
0199763930999992008081103004+25733-100300FM-12+051599999V0201801N002012200019N0030001N1+03421+01921100351ADDAY141031AY241031GA1001+999999999GF100991001001999999001001IA1019MA1999999094991MD1010061-0331MW1051REMSYN088AAXX  11031 76393 31930 01802 10342 20192 39499 40035 50006 70544 90240 333 30/// 59033;
0251763930999992008081106004+25733-100300FM-12+051599999V0201101N003012200019N0030001N1+02881+01841100451ADDAY141061AY241061GA1001+999999999GF100991001001999999001001GJ106729IA1019KA1240M+03641KA2240N+02501MA1999999095071MD1210081-0301MW1051REMSYN106AAXX  11061 76393 31930 01103 10288 20184 39507 40045 52008 70544 90550 333 10364 20250 30/// 55112 59030;
0199763930999992008081109004+25733-100300FM-12+051599999V0201101N001012200019N0030001N1+02621+02141100551ADDAY141031AY241031GA1001+999999999GF100991001001999999001001IA1019MA1999999095111MD1110041-0241MW1051REMSYN088AAXX  11091 76393 31930 01101 10262 20214 39511 40055 51004 70544 90850 333 30/// 59024;
0278763930999992008081112004+25733-100300FM-12+051599999V0200901N001010009019N0050001N1+02521+02211100641ADDAA124000091AY141061AY241061GA1051+000901071GF106991051061002501001011IA1019KA1240M+03941KA2120N+02501MA1999999095161MD1210051-0211MW1051REMSYN130AAXX  11121 76393 31350 60901 10252 20221 39516 40064 52005 70544 85601 91150 333 10394 20250 30245 56305 59021 70000 85703 81070;
0199763930999992008081115004+25733-100300FM-12+051599999V0200201N001012200019N0030001N1+02721+02161100771ADDAY141031AY241031GA1001+999999999GF100991001001999999001001IA1019MA1999999095241MD1110081-0191MW1051REMSYN088AAXX  11151 76393 31930 00201 10272 20216 39524 40077 51008 70544 91455 333 30/// 59019;
0161763930999992008081118004+25733-100300FM-12+051599999V0200501N002012200019N0040001N1+03401+02181100791ADDAY141061AY241061GF102991011021012501001011MA1999999095271MD1210031+9999MW1051REMSYN072AAXX  11181 76393 31640 20502 10340 20218 39527 40079 52003 70544 81201;
0217763930999992008081121004+25733-100300FM-12+051599999V0200901N004012200019N0060001N1+03801+01961100431ADDAY141031AY241031GA1011+018001081GF102991011021017501001041IA1019MA1999999094981MD1710291-0101MW1051REMSYN106AAXX  11211 76393 31756 20904 10380 20196 39498 40043 57029 70544 81204 92055 333 04505 30/// 59010 81856;
0250763930999992008081200004+25733-100300FM-12+051599999V0201501N003012200019N0100001N1+03831+01721100251ADDAA124000091GA1041+060001001GF104991001001999999001041IA1019KA1120M+03931KA2180N+02421MA1999999094861MD1710121-0071REMSYN124AAXX  12001 76393 32960 41503 10383 20172 39486 40025 57012 80004 92355 333 0/005 10393 20242 30/// 50891 59007 70000 84070;
0189763930999992008081203004+25733-100300FM-12+051599999V0202001N002010600019N0120001N1+03381+01841100311ADDGA1051+060001001GF105991001001999999001041IA1019MA1999999094961MD1210101-0031REMSYN100AAXX  12031 76393 32962 52002 10338 20184 39496 40031 52010 80004 92055 333 0/800 30/// 59003 85070;
0241763930999992008081206004+25733-100300FM-12+051599999V0200901N005012200019N0060001N1+02921+01921100531ADDGA1041+015001001GF105991011001022501031041GJ106609IA1019KA1240M+03931KA2240N+02421MA1999999095161MD1210201+0091REMSYN118AAXX  12061 76393 32856 50905 10292 20192 39516 40053 52020 81034 90555 333 0/055 10393 20242 30/// 55110 58009 84050;
0195763930999992008081209004+25733-100300FM-12+051599999V0200401N002012200019N0080001N1+02601+02171100551ADDAY141031AY241031GF102991001001999999001011IA1019MA1999999095131MD1710031+0021MW1051REMSYN100AAXX  12091 76393 31958 20402 10260 20217 39513 40055 57003 70544 80001 90855 333 0/005 30/// 58002;
0161763930999992008081212004+25733-100300FM-12+051599999V0200101N003010042019N0060001N1+02481+02171100611ADDAY141061AY241061GF107991051051004501001011MA1999999095131MD1410001+9999MW1051REMSYN072AAXX  12121 76393 31456 70103 10248 20217 39513 40061 54000 70544 85501;
0236763930999992008081215004+25733-100300FM-12+051599999V0200201N002012200019N0020001N1+02721+02161100671ADDAY141031AY201031GA1011+072001001GF101991001001999999001041IA1019MA1999999095151MD1410001-0091MW1051REMSYN106AAXX  12151 76393 31920 10202 10272 20216 39515 40067 54002 70540 81004 91455 333 30/// 56005 59009 81074;EQDQ01+000012SCOTLC
0261763930999992008081218004+25733-100300FM-12+051599999V0200201N002012200019N0030001N1+03301+02011100711ADDAY141061AY201061GA1011+012901081GF102991011021012501001041IA1019KA1120M+03361KA2240N+02401MA1999999095191MD1410001-0081MW1051REMSYN124AAXX  12181 76393 31630 20202 10330 20201 39519 40071 54004 70540 81204 91755 333 10336 20240 30/// 56305 59008 81843 81074;
0195763930999992008081221004+25733-100300FM-12+051599999V0201501N00201220001CN0150001N1+03741+01771100361ADDGA1011+018001081GF106991011021017501001041IA1019MA1999999094911MD1710281-0071REMSYN106AAXX  12211 76393 32765 61502 10374 20177 39491 40036 57028 81204 92055 333 30/// 56305 59007 81856 85074;
0256763930999992008081300004+25733-100300FM-12+051599999V0200501N004012200019N0190001N1+03601+01841100241ADDAA124000091GA1031+018001081GF104991031021017501001041IA1019KA1120M+03981KA2180N+02401MA1999999094841MD1510071-0021REMSYN130AAXX  13001 76393 32769 40504 10360 20184 39484 40024 55007 83204 92355 333 10398 20240 30/// 50691 56305 59002 70000 83856 81074;
0217763930999992008081303004+25733-100300FM-12+051599999V0201201N002010300019N0050001N1+03241+01971100521ADDAY141031AY241031GA1051+030001031GF105991051001999999041001IA1019MA1999999095141MD1210301+0181MW1051REMSYN106AAXX  13031 76393 31950 51202 10324 20197 39514 40052 52030 70544 85040 90250 333 30/// 56050 58018 85360;
0251763930999992008081306004+25733-100300FM-12+051599999V0201801N001012200019N0030001N1+02881+02131100671ADDAY141061AY241061GA1001+999999999GF100991001001999999001001GJ105769IA1019KA1240M+03801KA2240N+02861MA1999999095271MD1010131+0111MW1051REMSYN106AAXX  13061 76393 31930 01801 10288 20213 39527 40067 50013 70544 90550 333 10380 20286 30/// 55096 58011;
0199763930999992008081309004+25733-100300FM-12+051599999V0200301N003012200019N0030001N1+02661+01971100541ADDAY141031AY241031GA1001+999999999GF100991001001999999001001IA1019MA1999999095111MD1510161-0021MW1051REMSYN088AAXX  13091 76393 31930 00303 10266 20197 39511 40054 55016 70544 90850 333 30/// 59002;
0278763930999992008081312004+25733-100300FM-12+051599999V0201301N001010090019N0080001N1+02781+01891100681ADDAA124000091AY141061AY241061GA1061+009001061GF107991061041008001999021IA1019KA1240M+03981KA2120N+02641MA1999999095191MD1010081+0061MW1051REMSYN130AAXX  13121 76393 31558 71301 10278 20189 39519 40068 50008 70544 864/2 91150 333 10398 20264 30244 563/5 58006 70000 86630 81070;
0195763930999992008081315004+25733-100300FM-12+051599999V0200401N00101036001CN0120001N1+02781+01871100951ADDGA1041+009001061GF107991041051008001031999IA1019MA1999999095431MD1210241+0281REMSYN106AAXX  13151 76393 32562 70401 10278 20187 39543 40095 52024 8453/ 91455 333 0/85/ 30/// 58028 84630 83356;
0161763930999992008081318004+25733-100300FM-12+051599999V0200401N002010360019N0100001N1+03201+02011100941ADDAY141061AY241061GF107991031021012501031011MA1999999095431MD1410001+9999MW1051REMSYN072AAXX  13181 76393 31660 70402 10320 20201 39543 40094 54000 70544 83231;
0217763930999992008081321004+25733-100300FM-12+051599999V0200201N003012200019N0080001N1+03601+01911100621ADDAY141031AY241031GA1031+015001081GF105991031021017501001011IA1019MA1999999095171MD1710261+0261MW1041REMSYN106AAXX  13211 76393 31758 50203 10360 20191 39517 40062 57026 70444 83201 92055 333 01305 30/// 58026 83850;
0324763930999992008081400004+25733-100300FM-12+051599999V0200901N004010042019N0050001N1+02751+02361100561ADDAA101006091AA206006191AA324006491AY121061AY221061GA1011+003901091GF108991081031004501999999IA1099KA1120M+03821KA2180N+02641MA1999999095141MD1710031+0301MW1601REMSYN154AAXX  14001 76393 01450 80904 10275 20236 39514 40056 57003 60061 76022 883// 92359 333 073// 10382 20264 31/// 50771 54110 58030 60065 70064 81913 87613;
0242763930999992008081415004+25733-100300FM-12+051599999V0201301N00101220001CN0040001N1+02921+02081101051ADDAY141031AY221031GA1041+024001031GF107991041041022501999041IA1019MA1999999095461MD1410001+0031MW1051REMSYN112AAXX  14151 76393 31840 71301 10292 20208 39546 40105 54001 70542 84404 91455 333 30/// 56395 58003 84358 83074;EQDQ01+000002SCOMCG
0233763930999992008081418004+25733-100300FM-12+051599999V0200701N00101220001CN0130001N1+03281+01951101041ADDGA1011+013201081GF107991011021017501001041IA1019KA1120M+03341KA2240N+02421MA1999999095481MD1410001+0051REMSYN118AAXX  14181 76393 32763 70701 10328 20195 39548 40104 54002 81204 91755 333 10334 20242 30/// 56305 58005 81844 86074;
0195763930999992008081421004+25733-100300FM-12+051599999V0201301N001019999999N0140001N1+03421+02031100801ADDGA1011+013801081GF107991011021012501999999IA1019MA1999999095311MD1610171+0141REMSYN106AAXX  14211 76393 32664 71301 10342 20203 39531 40080 56017 812// 92055 333 30/// 56399 58014 81846 81646;
0234763930999992008081500004+25733-100300FM-12+051599999V0200501N004010075019N0180001N1+02641+02021100841ADDAA124000091GF108991081071008001999999IA1019KA1120M+03641KA2180N+02221MA1999999095381MD1410001+0241REMSYN124AAXX  15001 76393 32568 80504 10264 20202 39538 40084 54007 887// 92355 333 10364 20222 30/// 50961 56399 58024 70000 88721;
0234763930999992008081503004+25733-100300FM-12+051599999V0200301N002010027019N0030001N1+02481+02231100931ADDAA103003091AY141031AY241031GA1081+002701071GF108991081061002501999999IA1099MA1999999095451MD1010071+0001MW1051REMSYN112AAXX  15031 76393 21330 80302 10248 20223 39545 40093 50007 70544 886// 90250 333 31/// 563// 58000 60037 88709;
0253763930999992008081506004+25733-100300FM-12+051599999V0200901N001010003019N0020001N1+02381+02271100991ADDAY141061AY241061GF108991081061000251999999GJ104809IA1019KA1240M+02641KA2240N+02351MA1999999095471MD1010021+0001MW1051REMSYN124AAXX  15061 76393 31020 80901 10238 20227 39547 40099 50002 70544 886// 90500 333 10264 20235 30/// 55080 563// 58000 88701;
0217763930999992008081509004+25733-100300FM-12+051599999V0200901N001010015019N0020001N1+02381+02241100971ADDAY141031AY241031GA1081+001501071GF108991081061001501999999IA1019MA1999999095411MD1710061+0001MW1051REMSYN106AAXX  15091 76393 31220 80901 10238 20224 39541 40097 57006 70544 886// 90850 333 30/// 563// 58000 88705;
0272763930999992008081512004+25733-100300FM-12+051599999V0200601N001010021019N0020001N1+02401+02201100981ADDAA124002691AY141061AY241061GA1081+002101071GF108991081061001501999999IA1019KA1240M+03641KA2120N+02361MA1999999095391MD1010021+0001MW1051REMSYN124AAXX  15121 76393 31220 80601 10240 20220 39539 40098 50002 70544 886// 91150 333 10364 20236 30234 563// 58000 70026 88707;
0223763930999992008081515004+25733-100300FM-12+051599999V0200601N001010039019N0030001N1+02591+02191101151ADDAY141031AY221031GA1051+003901061GF107991051041004501011999IA1019MA1999999095561MD1110171+0101MW1051REMSYN112AAXX  15151 76393 31430 70601 10259 20219 39556 40115 51017 70542 8541/ 91450 333 0/359 30/// 58010 85613 82356;
0161763930999992008081518004+25733-100300FM-12+051599999V0200801N002012200019N0050001N1+03121+02221101121ADDAY141061AY221061GF102991021041008001999999MA1999999095551MD1710011+9999MW1051REMSYN072AAXX  15181 76393 31550 20802 10312 20222 39555 40112 57001 70542 824//;
0245763930999992008081521004+25733-100300FM-12+051599999V0200801N002012200019N0080001N1+03301+02241100931ADDAY141031AY241031GA1011+010501061GA2011+018001031GF104991011041012501041041IA1019MA1999999095421MD1710131+0111MW1051REMSYN118AAXX  15211 76393 31658 40802 10330 20224 39542 40093 57013 70544 81444 92050 333 0/357 30/// 58011 81635 81356 82070;
0161763930999992008081600004+25733-100300FM-12+051599999V0201501N002010360019N0080001N1+03141+02391100891ADDAY141061AY241061GF106991041041008001041999MA1999999095411MD1510011+9999MW1051REMSYN072AAXX  16001 76393 31558 61502 10314 20239 39541 40089 55001 70544 8444/;
0217763930999992008081603004+25733-100300FM-12+051599999V0202201N001010066019N0060001N1+02861+02201100981ADDAY141031AY221031GA1071+006601061GF107991071051008001999999IA1019MA1999999095511MD1210101+0061MW1051REMSYN106AAXX  16031 76393 31556 72201 10286 20220 39551 40098 52010 70542 875// 90255 333 0/399 30/// 58006 87622;
0303763930999992008081606004+25733-100300FM-12+051599999V0200901N002010042019N0040001N1+02681+02271101131ADDAA103000991AA206001091AY141061AY221061GA1051+004201061GF105991051051004501001001GJ103789IA1019KA1240M+03481KA2240N+02361MA1999999095651MD1210141+0181MW1051REMSYN136AAXX  16061 76393 01440 50902 10268 20227 39565 40113 52014 69991 70542 85500 90555 333 0/300 10348 20236 30/// 55063 58018 69997 85614;
0217763930999992008081609004+25733-100300FM-12+051599999V0200801N001010021019N0020001N1+02521+02301101121ADDAY141031AY221031GA1081+002101061GF108991081051002501999999IA1019MA1999999095611MD1710041+0201MW1051REMSYN106AAXX  16091 76393 31320 80801 10252 20230 39561 40112 57004 70542 885// 90850 333 0/399 30/// 58020 88607;
0161763930999992008081612004+25733-100300FM-12+051599999V0201101N001010012019N0020001N1+02501+02311101111ADDAY141061AY221061GF108991081051001501999999MA1999999095611MD1410001+9999MW1051REMSYN072AAXX  16121 76393 31220 81101 10250 20231 39561 40111 54000 70542 885//;
0217763930999992008081615004+25733-100300FM-12+051599999V0200501N002010045019N0020001N1+02641+02201101181ADDAY141031AY221031GA1081+004501061GF108991081071004501999999IA1019MA1999999095621MD1410001+0061MW1051REMSYN106AAXX  16151 76393 31420 80502 10264 20220 39562 40118 54001 70542 887// 91455 333 30/// 56399 58006 88615;
0255763930999992008081618004+25733-100300FM-12+051599999V0200901N002012200019N0030001N1+03161+02291101131ADDAY141061AY201061GA1031+008701081GF103991031021008001001001IA1019KA1120M+03261KA2240N+02421MA1999999095581MD1410001+0031MW1051REMSYN118AAXX  16181 76393 31530 30902 10316 20229 39558 40113 54004 70540 83200 91755 333 10326 20242 30/// 56300 58003 83829;
0189763930999992008081621004+25733-100300FM-12+051599999V0200901N003010129019N0180001N1+03381+02081100861ADDGA1051+012901081GF105991051031012501001001IA1019MA1999999095361MD1710221-0061REMSYN100AAXX  16211 76393 32668 50903 10338 20208 39536 40086 57022 85300 92055 333 30/// 56300 59006 85843;
0256763930999992008081700004+25733-100300FM-12+051599999V0201801N004010360019N0180001N1+03061+01921100731ADDAA124000091GA1041+011401061GF108991041051012501021999IA1019KA1120M+03521KA2180N+02421MA1999999095261MD1610101-0151REMSYN130AAXX  17001 76393 32668 81804 10306 20192 39526 40073 56010 8452/ 92355 333 10352 20242 30/// 50591 56359 59015 70000 84638 84448;
0217763930999992008081703004+25733-100300FM-12+051599999V0201801N003010072019N0030001N1+02921+02221100881ADDAY141031AY241031GA1081+007201071GF108991081061008001999999IA1019MA1999999095421MD1210161-0091MW1051REMSYN106AAXX  17031 76393 31530 81803 10292 20222 39542 40088 52016 70544 886// 90250 333 30/// 563// 59009 88724;
0172763930999992008081706004+25733-100300FM-12+051599999V0200901N003019999999N0030001N1+02581+02201101031ADDAA106001091AY141061AY241061GF106991999999004501999999MA1999999095541MD1210121+9999MW1051REMSYN072AAXX  17061 76393 01430 60903 10258 20220 39554 40103 52012 60011 70544;
0223763930999992008081709004+25733-100300FM-12+051599999V0200901N00301036001CN0030001N1+02521+02341101001ADDAY141031AY241031GA1021+003001081GF106991021031002501071999IA1019MA1999999095481MD1710061-0131MW1051REMSYN112AAXX  17091 76393 31330 60903 10252 20234 39548 40100 57006 70544 8237/ 90850 333 30/// 5635/ 59013 82810 84360;
0272763930999992008081712004+25733-100300FM-12+051599999V0201201N001010021019N0030001N1+02481+02291101001ADDAA124001091AY141061AY241061GA1061+002101071GF106991061071001501999999IA1019KA1240M+03521KA2120N+02461MA1999999095451MD1710031-0211MW1051REMSYN124AAXX  17121 76393 31230 61201 10248 20229 39545 40100 57003 70544 867// 91150 333 10352 20246 30235 563// 59021 70010 86707;
0253763930999992008081715004+25733-100300FM-12+051599999V0201301N001010033019N0040001N1+02661+02321101231ADDAA103000091AY151031AY241031GA1071+003301061GF107991071051004501999999IA1099MA1999999095661MD1210211+0041MW1051REMSYN112AAXX  17151 76393 21440 71301 10266 20232 39566 40123 52021 70554 875// 91455 333 0/2// 31/// 58004 69907 87611;EQDQ01  00002PRCP03
0352763930999992008081718004+25733-100300FM-12+051599999V0201101N00201036001CN0040001N1+03051+02261101121ADDAA103999999AA206000091AY141061AY241061GA1011+007801081GA2021+012001061GF107991031081008001051041IA1099KA1120M+03151KA2240N+02461MA1999999095561MD1710101+0021MW1051REMSYN142AAXX  17181 76393 01540 71102 10305 20226 39556 40112 57010 69901 70544 83854 91755 333 00255 10315 20246 31/// 58002 69907 81826 82640 82356;EQDQ01  00002PRCP06Q02  99992PRCP03
0223763930999992008081721004+25733-100300FM-12+051599999V0201101N00101007501CN0050001N1+03141+02221100851ADDAY141031AY221031GA1021+009001081GF108991081021008001999999IA1099MA1999999095341MD1710221+0081MW1151REMSYN112AAXX  17211 76393 31550 81101 10314 20222 39534 40085 57022 71542 882// 92055 333 013// 31/// 58008 82830 86630;
0346763930999992008081800004+25733-100300FM-12+051599999V0209999C000010090019N0050001N1+02541+02241100811ADDAA103019091AA206019191AA324019891AY161061AY261061GA1011+003001081GA2051+009001061GF108991061081004501011999IA1099KA1120M+03241KA2180N+02461MA1999999095301MD1710041+0041MW1051REMSYN160AAXX  18001 76393 01450 80000 10254 20224 39530 40081 57004 60191 70566 8681/ 92355 333 0035/ 10324 20246 31/// 51011 54316 58004 60197 70198 81810 85630 82456;
0234763930999992008081803004+25733-100300FM-12+051599999V0209999C000010021019N0030001N1+02441+02221100991ADDAA103001091AY151031AY221031GA1081+002101071GF108991081071002501999999IA1099MA1999999095461MD1210161+0041MW1501REMSYN112AAXX  18031 76393 21330 80000 10244 20222 39546 40099 52016 75052 887// 90300 333 0/399 31/// 58004 60017 88707;
0303763930999992008081806004+25733-100300FM-12+051599999V0201001N001010015019N0020001N1+02441+02301101081ADDAA103000391AA206001091AY141061AY221061GA1081+001501061GF108991081051001501999999GJ102469IA1099KA1240M+03241KA2240N+02401MA1999999095531MD1210071-0011MW1051REMSYN136AAXX  18061 76393 01220 81001 10244 20230 39553 40108 52007 60011 70542 885// 90550 333 0/399 10324 20240 31/// 55041 59001 69937 88605;
0217763930999992008081809004+25733-100300FM-12+051599999V0200901N001010018019N0020001N1+02361+02191100951ADDAY141031AY221031GA1081+001801061GF108991081051002501999999IA1099MA1999999095371MD1710161-0111MW1051REMSYN106AAXX  18091 76393 31320 80901 10236 20219 39537 40095 57016 70542 885// 90850 333 0/399 31/// 59011 88606;
0161763930999992008081812004+25733-100300FM-12+051599999V0209999C000010012019N0020001N1+02381+02211100971ADDAY141061AY221061GF108991081051001501999999MA1999999095391MD1210021+9999MW1051REMSYN072AAXX  18121 76393 31220 80000 10238 20221 39539 40097 52002 70542 885//;
0217763930999992008081815004+25733-100300FM-12+051599999V0202701N001010042019N0010001N1+02641+02231100971ADDAY141031AY221031GA1081+004201061GF108991081071004501999999IA1019MA1999999095381MD1410001+0041MW1051REMSYN106AAXX  18151 76393 31410 82701 10264 20223 39538 40097 54001 70542 887// 91455 333 30/// 56399 58004 88614;
0255763930999992008081818004+25733-100300FM-12+051599999V0200901N001010069019N0010001N1+02901+02211100971ADDAY141061AY221061GA1081+006901061GF108991081071008001999999IA1019KA1120M+03001KA2240N+02321MA1999999095401MD1410001-0161MW1051REMSYN118AAXX  18181 76393 31510 80901 10290 20221 39540 40097 54002 70542 887// 91755 333 10300 20232 30/// 56399 59016 88623;
0206763930999992008081821004+25733-100300FM-12+051599999V0202201N003010015019N0030001N1+02521+02381100831ADDAA103004091GA1081+001501071GF108991081071001501999999IA1019MA1999999095281MD1610121-0061REMSYN106AAXX  18211 76393 21230 82203 10252 20238 39528 40083 56012 887// 92055 333 30/// 56399 59006 60047 88705;
0172763930999992008081900004+25733-100300FM-12+051599999V0202201N003019999999N0140001N1+02621+02081100641ADDAA106004191AY141061AY211061GF107991999999004501999999MA1999999095101MD1710181+9999MW1051REMSYN072AAXX  19001 76393 11464 72203 10262 20208 39510 40064 57018 60041 70541;
0217763930999992008081903004+25733-100300FM-12+051599999V0202001N001010042019N0030001N1+02561+02141100791ADDAY141031AY241031GA1081+004201071GF108991081061004501999999IA1019MA1999999095261MD1210161-0201MW1051REMSYN106AAXX  19031 76393 31430 82001 10256 20214 39526 40079 52016 70544 886// 90250 333 30/// 563// 59020 88714;
0270763930999992008081906004+25733-100300FM-12+051599999V0200701N001010012019N0030001N1+02421+02251100881ADDAA103000291AY141061AY241061GF108991081041001501999999GJ100909IA1099KA1240M+03061KA2240N+02401MA1999999095321MD1210061-0211MW1051REMSYN130AAXX  19061 76393 21230 80701 10242 20225 39532 40088 52006 70544 884// 90550 333 10306 20240 31/// 55015 563// 59021 69927 88606;
0217763930999992008081909004+25733-100300FM-12+051599999V0209999C000010300019N0030001N1+02381+02151100801ADDAY141031AY241031GA1061+030001031GF106991061001999999041999IA1019MA1999999095231MD1010091-0141MW1051REMSYN106AAXX  19091 76393 31930 60000 10238 20215 39523 40080 50009 70544 8604/ 90850 333 30/// 5605/ 59014 86360;
0278763930999992008081912004+25733-100300FM-12+051599999V0200501N001010018019N0020001N1+02401+02231100801ADDAA124004191AY141061AY241061GA1061+001801071GF108991061061001501041999IA1019KA1240M+03061KA2120N+02341MA1999999095231MD1010001-0161MW1051REMSYN130AAXX  19121 76393 31220 80501 10240 20223 39523 40080 50000 70544 8664/ 91150 333 10306 20234 30220 5635/ 59016 70041 86706 82360;
0217763930999992008081915004+25733-100300FM-12+051599999V0203401N001010030019N0020001N1+02531+02221101011ADDAY141031AY241031GA1071+003001061GF107991071051004501999999IA1099MA1999999095421MD1210191+0081MW1051REMSYN106AAXX  19151 76393 31420 73401 10253 20222 39542 40101 52019 70544 875// 91455 333 0/3// 31/// 58008 87610;
0161763930999992008081918004+25733-100300FM-12+051599999V0200401N001012200019N0030001N1+03121+02251100961ADDAY141061AY241061GF104991041031008001001001MA1999999095401MD1710021+9999MW1051REMSYN072AAXX  19181 76393 31530 40401 10312 20225 39540 40096 57002 70544 84300;
0223763930999992008081921004+25733-100300FM-12+051599999V0201101N00301012001CN0080001N1+03111+02001100771ADDAY141031AY241031GA1011+011101091GF105991051031012501001001IA1099MA1999999095251MD1710151+0031MW1151REMSYN112AAXX  19211 76393 31658 51103 10311 20200 39525 40077 57015 71544 85300 92055 333 06300 31/// 58003 81937 84646;
0161763930999992008082000004+25733-100300FM-12+051599999V0201801N003010360019N0080001N1+02841+02201100751ADDAY141061AY241061GF107991031031008001031999MA1999999095251MD1410001+9999MW1051REMSYN072AAXX  20001 76393 31558 71803 10284 20220 39525 40075 54000 70544 8333/;
0217763930999992008082003004+25733-100300FM-12+051599999V0209999C000010048019N0040001N1+02621+02141100891ADDAY141031AY221031GA1081+004801061GF108991081051004501999999IA1019MA1999999095401MD1210151+0141MW1051REMSYN106AAXX  20031 76393 31440 80000 10262 20214 39540 40089 52015 70542 885// 90250 333 0/399 30/// 58014 88616;
0161763930999992008082006004+25733-100300FM-12+051599999V0209999C000012200019N0030001N1+02441+02071100901ADDAY111061AY211061GF104991021051004501031001MA1999999095381MD1710021+9999MW1041REMSYN072AAXX  20061 76393 31430 40000 10244 20207 39538 40090 57002 70411 82530;
0199763930999992008082009004+25733-100300FM-12+051599999V0209999C000012200019N0030001N1+02341+02031100841ADDAY101031AY201031GA1001+999999999GF100991001001999999001001IA1019MA1999999095291MD1710091+0061MW1041REMSYN088AAXX  20091 76393 31930 00000 10234 20203 39529 40084 57009 70400 90850 333 30/// 58006;
0171763930999992008082015004+25733-100300FM-12+051599999V0202301N001012200019N0050001N1+02881+02001101011ADDGA1001+999999999GF100991001001999999001001IA1019MA1999999095431MD1610061+0011REMSYN082AAXX  20151 76393 31950 02301 10288 20200 39543 40101 56006 91455 333 30/// 58001;
0255763930999992008082018004+25733-100300FM-12+051599999V0200901N001012200019N0030001N1+03241+02041100981ADDAY141061AY201061GA1011+012001081GF101991011041012501001001IA1019KA1120M+03321KA2240N+02261MA1999999095421MD1410001+0021MW1051REMSYN118AAXX  20181 76393 31630 10901 10324 20204 39542 40098 54001 70540 81400 91755 333 10332 20226 30/// 56300 58002 81840;
0189763930999992008082021004+25733-100300FM-12+051599999V0200901N002012200019N0180001N1+03241+01871100711ADDGA1031+013501081GF103991031041012501001001IA1019MA1999999095211MD1710211-0041REMSYN100AAXX  20211 76393 32668 30902 10324 20187 39521 40071 57021 83400 92055 333 30/// 56300 59004 83845;
0256763930999992008082100004+25733-100300FM-12+051599999V0200901N002012200019N0180001N1+03241+02001100561ADDAA124000091GA1011+012301081GF103991031041012501001001IA1019KA1120M+03561KA2180N+02261MA1999999095111MD1610101-0141REMSYN130AAXX  21001 76393 32668 30902 10324 20200 39511 40056 56010 83400 92355 333 10356 20226 30/// 50491 56300 59014 70000 81841 82641;
0217763930999992008082103004+25733-100300FM-12+051599999V0202101N002012200019N0050001N1+02991+02141100711ADDAY141031AY221031GA1011+008401061GF101991011041008001001001IA1019MA1999999095271MD1210161-0131MW1051REMSYN106AAXX  21031 76393 31550 12102 10299 20214 39527 40071 52016 70542 81400 90250 333 0/399 30/// 59013 81628;
0161763930999992008082106004+25733-100300FM-12+051599999V0201101N001012200019N0050001N1+02721+02131100821ADDAY141061AY221061GF101991011041004501001001MA1999999095371MD1210101+9999MW1051REMSYN072AAXX  21061 76393 31450 11101 10272 20213 39537 40082 52010 70542 81400;
0217763930999992008082109004+25733-100300FM-12+051599999V0201201N002012200019N0040001N1+02431+01991100791ADDAY141031AY221031GA1021+004201061GF102991021041004501001001IA1019MA1999999095281MD1710091-0011MW1051REMSYN106AAXX  21091 76393 31440 21202 10243 20199 39528 40079 57009 70542 82400 90850 333 0/399 30/// 59001 82614;
0161763930999992008082112004+25733-100300FM-12+051599999V0209999C000012200019N0050001N1+02361+01991100891ADDAY141061AY221061GF102991001001999999001071MA1999999095351MD1510071+9999MW1051REMSYN072AAXX  21121 76393 31950 20000 10236 20199 39535 40089 55007 70542 80007;
0211763930999992008082115004+25733-100300FM-12+051599999V0203001N001012200019N0030001N1+99999+99999101041ADDAY141031AY241031GA1011+005401081GF103991011011004501001011IA1019MA1999999095471MD1210121+0041MW1041REMSYN100AAXX  21151 76393 31430 33001 20202 39547 40104 52012 70444 81101 91455 333 00805 30/// 58004 81818;
0161763930999992008082118004+25733-100300FM-12+051599999V0201201N002012200019N0040001N1+03101+02191101081ADDAY141061AY241061GF104991011011008001041091MA1999999095511MD1010041+9999MW1041REMSYN072AAXX  21181 76393 31540 41202 10310 20219 39551 40108 50004 70444 81149;
0217763930999992008082121004+25733-100300FM-12+051599999V0201101N002010900019N0080001N1+03401+02171100761ADDAY141031AY241031GA1031+012001081GF105991031021012501001031IA1019MA1999999095251MD1710261+0041MW1041REMSYN106AAXX  21211 76393 31658 51102 10340 20217 39525 40076 57026 70444 83203 92055 333 01305 30/// 58004 83840;
0161763930999992008082200004+25733-100300FM-12+051599999V0201101N003010360019N0080001N1+03141+02111100621ADDAY141061AY241061GF107991021031008001021999MA1999999095161MD1710091+9999MW1051REMSYN072AAXX  22001 76393 31558 71103 10314 20211 39516 40062 57009 70544 8232/;
0217763930999992008082203004+25733-100300FM-12+051599999V0200901N002010060019N0060001N1+02801+02191100841ADDAY141031AY221031GA1071+006001061GF107991071051008001999999IA1019MA1999999095381MD1210221+0111MW1041REMSYN106AAXX  22031 76393 31556 70902 10280 20219 39538 40084 52022 70442 875// 90255 333 0/399 30/// 58011 87620;
0161763930999992008082206004+25733-100300FM-12+051599999V0201001N001010021019N0040001N1+02521+02271100981ADDAY141061AY221061GF108991081051002501999999MA1999999095501MD1210121+9999MW1051REMSYN072AAXX  22061 76393 31340 81001 10252 20227 39550 40098 52012 70542 885//;
0253763930999992008082209004+25733-100300FM-12+051599999V0200801N001010018019N0020001N1+02421+02251100971ADDAA103000091AY141031AY221031GA1081+001801061GF108991081051001501999999IA1019MA1999999095451MD1710051+0171MW1051REMSYN112AAXX  22091 76393 21220 80801 10242 20225 39545 40097 57005 70542 885// 90855 333 0/399 30/// 58017 69907 88606;EQDQ01  00002PRCP03
0306763930999992008082212004+25733-100300FM-12+051599999V0201101N001010009019N0010001N1+02421+02331101041ADDAA103001091AA206001092AA324000892AY141061AY221061GA1081+000901071GF108991081061000751999999IA1019KA1240M+03471KA2120N+02321MA1999999095481MD1210031+0131MW1051REMSYN136AAXX  22121 76393 01110 81101 10242 20233 39548 40104 52003 60011 70542 886// 91155 333 0/399 10347 20232 30226 58013 60017 70008 88703;
0223763930999992008082215004+25733-100300FM-12+051599999V0200601N001010030019N0070001N1+02581+02281101201ADDAY141031AY241031GA1061+003001061GF108991061041002501021999IA1019MA1999999095611MD1110131+0141MW1051REMSYN112AAXX  22151 76393 31357 80601 10258 20228 39561 40120 51013 70544 8642/ 91450 333 0/359 30/// 58014 86610 82456;
0161763930999992008082218004+25733-100300FM-12+051599999V0203601N001010360019N0050001N1+02821+02271101161ADDAY141061AY221061GF107991041061004501021999MA1999999095581MD1710031+9999MW1051REMSYN072AAXX  22181 76393 31450 73601 10282 20227 39558 40116 57003 70542 8462/;
0262763930999992008082221004+25733-100300FM-12+051599999V0201801N00101036001CN0060001N1+03101+02191100951ADDAA103000991AY141031AY241031GA1011+009001081GA2021+009601061GF106991031021008001041999IA1019MA1999999095411MD1710171+0161MW1051REMSYN124AAXX  22211 76393 21556 61801 10310 20219 39541 40095 57017 70544 8324/ 92050 333 01359 30/// 58016 69997 81830 82632 83356;
0318763930999992008082300004+25733-100300FM-12+051599999V0200901N001010021019N0050001N1+02561+02341100921ADDAA103003092AA206001092AA324002691AY151061AY221061GA1061+002101061GF108991061041002501021999IA1099KA1120M+03151KA2180N+02321MA1999999095391MD1310021+0231MW1051REMSYN148AAXX  23001 76393 01350 80901 10256 20234 39539 40092 53002 60011 70552 8642/ 92350 333 0/359 10315 20232 31/// 50391 58023 60037 70026 86607 82456;
0234763930999992008082303004+25733-100300FM-12+051599999V0209999C000010018019N0020001N1+02481+02291101051ADDAA103000991AY141031AY241031GA1081+001801061GF108991081041001501999999IA1099MA1999999095511MD1210121+0131MW1051REMSYN112AAXX  23031 76393 21220 80000 10248 20229 39551 40105 52012 70544 884// 90250 333 31/// 563// 58013 69997 88606;
0172763930999992008082306004+25733-100300FM-12+051599999V0200501N002019999999N0020001N1+02361+02311101151ADDAA106001091AY151061AY251061GF108991999999000751999999MA1999999095591MD1210081+9999MW1501REMSYN072AAXX  23061 76393 01120 80502 10236 20231 39559 40115 52008 60011 75055;
0234763930999992008082309004+25733-100300FM-12+051599999V0203401N001010009019N0020001N1+02321+02241101151ADDAA103000491AY151031AY251031GA1081+000901071GF108991081071000751999999IA1119MA1999999095561MD1510031+0111MW1501REMSYN112AAXX  23091 76393 21120 83401 10232 20224 39556 40115 55003 75055 887// 90550 333 32/// 563// 58011 69947 88703;
0172763930999992008082312004+25733-100300FM-12+051599999V0200601N002019999999N0020001N1+02321+02181101171ADDAA106001091AY141061AY241061GF108991999999001501999999MA1999999095561MD1410001+9999MW1051REMSYN072AAXX  23121 76393 31220 80602 10232 20218 39556 40117 54000 60011 70544;
0217763930999992008082315004+25733-100300FM-12+051599999V0209999C000010021019N0030001N1+02361+02131101361ADDAY141031AY221031GA1081+002101061GF108991081051001501999999IA1099MA1999999095741MD1210151+0131MW1051REMSYN106AAXX  23151 76393 31230 80000 10236 20213 39574 40136 52015 70542 885// 91455 333 0/3// 31/// 58013 88607;
0161763930999992008082318004+25733-100300FM-12+051599999V0200601N001010360019N0040001N1+02761+02211101391ADDAY141061AY241061GF107991041081004501041999MA1999999095781MD1010041+9999MW1051REMSYN072AAXX  23181 76393 31440 70601 10276 20221 39578 40139 50004 70544 8484/;
0245763930999992008082321004+25733-100300FM-12+051599999V0200701N00201036001CN0060001N1+02961+02281101151ADDAY141031AY221031GA1021+006601081GA2021+009001061GF107991041081008001041999IA1019MA1999999095581MD1710201+0171MW1051REMSYN118AAXX  23211 76393 31556 70702 10296 20228 39558 40115 57020 70542 8484/ 92055 333 0135/ 30/// 58017 82822 82630 83356;
0312763930999992008082400004+25733-100300FM-12+051599999V0200801N006010048019N0060001N1+02671+02181101011ADDAA101999929AA206000021AA324001491AY141061AY221061GA1081+004801061GF108991081051004501999999IA1019KA1120M+03081KA2180N+02301MA1999999095471MD1710111+0081MW1501REMSYN142AAXX  24001 76393 01456 80806 10267 20218 39547 40101 57011 69901 75042 885// 92355 333 0/3// 10308 20230 30/// 50251 58008 69905 70014 88616;
0217763930999992008082403004+25733-100300FM-12+051599999V0200801N001010018019N0040001N1+02301+02131101211ADDAY141031AY221031GA1081+001801061GF108991081051001501999999IA1019MA1999999095671MD1210201+0161MW1051REMSYN106AAXX  24031 76393 31240 80801 10230 20213 39567 40121 52020 70542 885// 90255 333 0/399 30/// 58016 88606;
0303763930999992008082406004+25733-100300FM-12+051599999V0200601N001010009019N0020001N1+02301+02211101271ADDAA103001091AA206001091AY151061AY251061GA1081+000901071GF108991081071000751999999GJ101089IA1099KA1240M+03081KA2240N+02301MA1999999095711MD1210041+0121MW1501REMSYN136AAXX  24061 76393 01120 80601 10230 20221 39571 40127 52004 60011 75055 887// 90555 333 0/399 10308 20230 31/// 55018 58012 60017 88703;
0234763930999992008082409004+25733-100300FM-12+051599999V0200601N001010012019N0010001N1+02261+02151101191ADDAA103000991AY151031AY251031GA1081+001201071GF108991081071001501999999IA1099MA1999999095601MD1710111+0041MW1501REMSYN112AAXX  24091 76393 21210 80601 10226 20215 39560 40119 57011 75055 887// 90855 333 0/399 31/// 58004 69997 88704;
0161763930999992008082412004+25733-100300FM-12+051599999V0201001N001010012019N0010001N1+02261+02151101221ADDAY141061AY221061GF108991081051001501999999MA1999999095601MD1410001+9999MW1051REMSYN072AAXX  24121 76393 31210 81001 10226 20215 39560 40122 54000 70542 885//;
0234763930999992008082415004+25733-100300FM-12+051599999V0209999C000010024019N0010001N1+02361+02131101511ADDAA103000991AY151031AY221031GA1081+002401071GF108991081071002501999999IA1099MA1999999095871MD1210271+0131MW1501REMSYN112AAXX  24151 76393 21310 80000 10236 20213 39587 40151 52027 75052 887// 91455 333 31/// 56399 58013 69997 88708;
0172763930999992008082418004+25733-100300FM-12+051599999V0200901N002019999999N0020001N1+02561+02201101291ADDAA106001091AY151061AY221061GF108991999999004501999999MA1999999095671MD1710201+9999MW1501REMSYN072AAXX  24181 76393 11420 80902 10256 20220 39567 40129 57020 69991 75052;
0217763930999992008082421004+25733-100300FM-12+051599999V0201301N002010054019N0040001N1+02701+02171101061ADDAY141031AY221031GA1081+005401061GF108991081071004501999999IA1019MA1999999095471MD1710201-0111MW1051REMSYN106AAXX  24211 76393 31440 81302 10270 20217 39547 40106 57020 70542 887// 92055 333 30/// 56399 59011 88618;
0262763930999992008082500004+25733-100300FM-12+051599999V0200901N001010042019N0060001N1+02701+02171100981ADDAA124000891AY141061AY221061GF108991081071004501999999IA1019KA1120M+02921KA2180N+02221MA1999999095411MD1610061-0061MW1051REMSYN130AAXX  25001 76393 31456 80901 10270 20217 39541 40098 56006 70542 887// 92355 333 10292 20222 30/// 50191 56399 59006 70008 88618;
0234763930999992008082503004+25733-100300FM-12+051599999V0200901N002010009019N0020001N1+02341+02261101061ADDAA103002091AY151031AY251031GA1081+000901061GF108991081041000751999999IA1119MA1999999095501MD1010091+0011MW1601REMSYN112AAXX  25031 76393 01120 80902 10234 20226 39550 40106 50009 76055 884// 90250 333 32/// 563// 58001 60027 88603;
0172763930999992008082506004+25733-100300FM-12+051599999V0201001N002019999999N0020001N1+02261+02171101101ADDAA106002091AY141061AY241061GF108991999999000751999999MA1999999095521MD1210021+9999MW1051REMSYN072AAXX  25061 76393 21120 81002 10226 20217 39552 40110 52002 60021 70544;
0217763930999992008082509004+25733-100300FM-12+051599999V0200901N001010009019N0020001N1+02241+02151101021ADDAY141031AY241031GA1081+000901071GF108991081061001501999999IA1019MA1999999095431MD1710031-0171MW1051REMSYN106AAXX  25091 76393 31220 80901 10224 20215 39543 40102 57003 70544 886// 90840 333 30/// 563// 59017 88703;
0289763930999992008082512004+25733-100300FM-12+051599999V0200601N001010003019N0020001N1+02261+02231101031ADDAA103000991AA224002191AY151061AY251061GA1081+000301071GF108991081071000251999999IA1019KA1240M+02921KA2120N+02221MA1999999095421MD1510011-0181MW1501REMSYN130AAXX  25121 76393 01020 80601 10226 20223 39542 40103 55001 75055 887// 91150 333 10292 20222 30220 563// 59018 69997 70021 88701;
0234763930999992008082515004+25733-100300FM-12+051599999V0209999C000010012019N0010001N1+02281+02171101211ADDAA103000021AY151031AY241031GA1081+001201061GF108991081071001501999999IA1099MA1999999095581MD1210161-0261MW1501REMSYN112AAXX  25151 76393 21210 80000 10228 20217 39558 40121 52016 75054 887// 91455 333 0/3// 31/// 59026 69907 88604;
0260763930999992008082518004+25733-100300FM-12+051599999V0201001N001010012019N0060001N1+02311+02181101231ADDAA103011092AA206010992AY161061AY251061GF108991081051001501999999IA1019KA1120M+02371MA1999999095601MD1010021-0071MW1501REMSYN130AAXX  25181 76393 01256 81001 10231 20218 39560 40123 50002 60111 75065 885// 91755 333 0/3// 10237 30222 31/// 59007 60117 88604;
0223763930999992008082521004+25733-100300FM-12+051599999V0200901N00201009001CN0060001N1+02781+02261101011ADDAY141031AY241031GA1031+005101081GF106991061081004501001001IA1099MA1999999095411MD1710191-0061MW1051REMSYN112AAXX  25211 76393 31456 60902 10278 20226 39541 40101 57019 70544 86800 92058 333 01300 31/// 59006 83817 83624;
0161763930999992008082600004+25733-100300FM-12+051599999V0201001N002010090019N0080001N1+02681+02221100901ADDAY141061AY241061GF106991061081004501001001MA1999999095331MD1710081+9999MW1151REMSYN072AAXX  26001 76393 31458 61002 10268 20222 39533 40090 57008 71544 86800;
0217763930999992008082603004+25733-100300FM-12+051599999V0209999C000010021019N0030001N1+02421+02201100891ADDAY141031AY241031GA1081+002101061GF108991081041002501999999IA1019MA1999999095331MD1410001-0171MW1051REMSYN106AAXX  26031 76393 31330 80000 10242 20220 39533 40089 54000 70544 884// 90250 333 30/// 563// 59017 88607;
0253763930999992008082606004+25733-100300FM-12+051599999V0201201N002010021019N0020001N1+02361+02161100951ADDAY141061AY241061GF108991081041002501999999GJ101749IA1019KA1240M+02521KA2240N+02361MA1999999095381MD1010051-0141MW1051REMSYN124AAXX  26061 76393 31320 81202 10236 20216 39538 40095 50005 70544 884// 90550 333 10252 20236 30/// 55029 563// 59014 88707;
0217763930999992008082609004+25733-100300FM-12+051599999V0209999C000010021019N0030001N1+02321+02121100881ADDAY101031AY201031GA1051+002101081GF105991051031002501001001IA1019MA1999999095301MD1710081-0131MW1051REMSYN106AAXX  26091 76393 31330 50000 10232 20212 39530 40088 57008 70500 85300 90840 333 30/// 563// 59013 85807;
0272763930999992008082612004+25733-100300FM-12+051599999V0200901N001010018019N0020001N1+02321+02151100881ADDAA124000091AY141061AY241061GA1081+001801061GF108991081041001501999999IA1019KA1240M+02861KA2120N+02321MA1999999095291MD1010011-0131MW1051REMSYN124AAXX  26121 76393 31220 80901 10232 20215 39529 40088 50001 70544 884// 91140 333 10286 20232 30218 563// 59013 70000 88606;
0217763930999992008082615004+25733-100300FM-12+051599999V0200901N001010036019N0020001N1+02481+02111101041ADDAY141031AY221031GA1081+003601071GF108991081071004501999999IA1019MA1999999095441MD1310151-0141MW1051REMSYN106AAXX  26151 76393 31420 80901 10248 20211 39544 40104 53015 70542 887// 91455 333 30/// 56399 59014 88712;
0243763930999992008082618004+25733-100300FM-12+051599999V0200901N001010072019N0040001N1+02741+02031101041ADDAY141061AY211061GA1071+007201061GF107991071051008001999999KA1120M+02861KA2240N+02281MA1999999095451MD1410001-0161MW1051REMSYN112AAXX  26181 76393 31540 70901 10274 20203 39545 40104 54001 70541 875// 91755 333 10286 20228 56399 59016 87624;
0189763930999992008082621004+25733-100300FM-12+051599999V0201301N003010081019N0180001N1+02981+02181100771ADDGA1071+008101061GF107991071051008001999999IA1019MA1999999095221MD1710231-0191REMSYN100AAXX  26211 76393 32568 71303 10298 20218 39522 40077 57023 875// 92055 333 30/// 56399 59019 87627;
0234763930999992008082700004+25733-100300FM-12+051599999V0200901N004010075019N0180001N1+02821+02181100651ADDAA124000091GF108991081071008001999999IA1019KA1120M+03141KA2180N+02281MA1999999095141MD1410001-0191REMSYN124AAXX  27001 76393 32568 80904 10282 20218 39514 40065 54008 887// 92355 333 10314 20228 30/// 50351 56399 59019 70000 88721;
0234763930999992008082703004+25733-100300FM-12+051599999V0201101N003012200019N0030001N1+02521+02271100801ADDAA103000291AY101031AY201031GA1031+002701081GF103991031011002501001001IA1019MA1999999095281MD1210141-0051MW1051REMSYN112AAXX  27031 76393 21330 31103 10252 20227 39528 40080 52014 70500 83100 90250 333 30/// 563// 59005 69927 83809;
0196763930999992008082706004+25733-100300FM-12+051599999V0201101N001019999999N0030001N1+02381+02241100711ADDAY141061AY241061GF105991999999001501999999MA1999999095191MD1010091+9999MW1051REMSYN072AAXX  27061 76393 11230 51101 10238 20224 39519 40071 50009 69921 70544;EQDQ01  00002PRCP06Q02  00002PRCP06
0217763930999992008082709004+25733-100300FM-12+051599999V0201201N001010012019N0020001N1+02341+02231100841ADDAY141031AY241031GA1081+001201061GF108991081061001501999999IA1019MA1999999095291MD1710031-0011MW1051REMSYN106AAXX  27091 76393 31220 81201 10234 20223 39529 40084 57003 70544 886// 90850 333 30/// 563// 59001 88604;
0172763930999992008082712004+25733-100300FM-12+051599999V0200901N002019999999N0010001N1+02341+02231100821ADDAA106001091AY151061AY251061GF108991999999001501999999MA1999999095251MD1010041+9999MW1201REMSYN072AAXX  27121 76393 01210 80902 10234 20223 39525 40082 50004 69991 72055;
0223763930999992008082715004+25733-100300FM-12+051599999V0201101N00101009001CN0040001N1+02581+02201101061ADDAY151031AY241031GA1021+003601081GF108991081081004501999999IA1099MA1999999095461MD1210211+0021MW1051REMSYN112AAXX  27151 76393 21440 81101 10258 20220 39546 40106 52021 70554 888// 91455 333 018// 31/// 58002 82812 86613;
0161763930999992008082718004+25733-100300FM-12+051599999V0200801N001010090019N0050001N1+02731+02251101051ADDAY141061AY241061GF108991081081004501999999MA1999999095461MD1410001+9999MW1151REMSYN072AAXX  27181 76393 31450 80801 10273 20225 39546 40105 54000 71544 888//;
0223763930999992008082721004+25733-100300FM-12+051599999V0201201N00101012001CN0060001N1+02971+02181100751ADDAY141031AY241031GA1031+007801081GF106991061081008001001001IA1099MA1999999095201MD1710261-0021MW1051REMSYN112AAXX  27211 76393 31556 61201 10297 20218 39520 40075 57026 70544 86800 92055 333 01300 31/// 59002 83826 83636;
0324763930999992008082800004+25733-100300FM-12+051599999V0201101N002010060019N0040001N1+02521+02331100731ADDAA103014091AA206014091AA324014291AY161061AY251061GA1011+001801081GF107991071081001501999999IA1119KA1120M+03201KA2180N+02301MA1999999095201MD1410001+0061MW1501REMSYN154AAXX  28001 76393 01240 71102 10252 20233 39520 40073 54000 60141 75065 878// 92355 333 013// 10320 20230 32/// 50351 54216 58006 60147 70142 81806 86622;
0234763930999992008082803004+25733-100300FM-12+051599999V0201201N001010018019N0030001N1+02401+02201100801ADDAA103001091AY151031AY221031GA1061+001801061GF106991061051002501999999IA1099MA1999999095271MD1210071-0011MW1051REMSYN112AAXX  28031 76393 21330 61201 10240 20220 39527 40080 52007 70552 865// 90250 333 0/399 31/// 59001 60017 86606;
0161763930999992008082806004+25733-100300FM-12+051599999V0200701N001010012019N0020001N1+02401+02261101001ADDAY141061AY251061GF108991081061001501999999MA1999999095401MD1210131+9999MW1051REMSYN072AAXX  28061 76393 01220 80701 10240 20226 39540 40100 52013 70545 886//;
0217763930999992008082809004+25733-100300FM-12+051599999V0200701N001010012019N0020001N1+02421+02281100851ADDAY141031AY251031GA1081+001201071GF108991081061001501999999IA1099MA1999999095281MD1710121-0011MW1051REMSYN106AAXX  28091 76393 31220 80701 10242 20228 39528 40085 57012 70545 886// 90850 333 0/399 31/// 59001 88704;
0306763930999992008082812004+25733-100300FM-12+051599999V0201001N001010006019N0020001N1+02341+02281100811ADDAA103001091AA206002092AA324001592AY151061AY221061GA1081+000601071GF108991081061000751999999IA1019KA1240M+03201KA2120N+02301MA1999999095231MD1510051-0021MW1051REMSYN136AAXX  28121 76393 21120 81001 10234 20228 39523 40081 55005 60021 70552 886// 91150 333 0/399 10320 20230 30226 59002 60017 70015 88702;
0191763930999992008082818004+25733-100300FM-12+051599999V0200901N003019999999N0040001N1+02861+02231100881ADDAA106000091AY141061AY221061GF108991999999008001999999MA1999999095311MD1410001+9999MW1051REMSYN072AAXX  28181 76393 11540 80903 10286 20223 39531 40088 54004 69921 70542;EQDQ01  00002PRCP06
0217763930999992008082821004+25733-100300FM-12+051599999V0200901N004010069019N0040001N1+02881+02191100631ADDAY141031AY221031GA1081+006901071GF108991081071008001999999IA1019MA1999999095101MD1710211-0101MW1051REMSYN106AAXX  28211 76393 31540 80904 10288 20219 39510 40063 57021 70542 887// 92055 333 30/// 56399 59010 88723;
0262763930999992008082900004+25733-100300FM-12+051599999V0201301N002010075019N0060001N1+02921+02201100451ADDAA124001591AY141061AY221061GF108991081071008001999999IA1019KA1120M+03081KA2180N+02301MA1999999094951MD1710151-0251MW1051REMSYN130AAXX  29001 76393 31556 81302 10292 20220 39495 40045 57015 70542 887// 92355 333 10308 20230 30/// 50261 56399 59025 70015 88624;
0217763930999992008082903004+25733-100300FM-12+051599999V0200701N004010042019N0030001N1+02501+02091100651ADDAY141031AY241031GA1081+004201091GF108991081031004501999999IA1019MA1999999095151MD1210201-0121MW1051REMSYN106AAXX  29031 76393 31430 80704 10250 20209 39515 40065 52020 70544 883// 90250 333 30/// 563// 59012 88914;
0253763930999992008082906004+25733-100300FM-12+051599999V0209999C000010021019N0030001N1+02481+02261100751ADDAY101061AY201061GF105991051021002501001001GJ101869IA1019KA1240M+02941KA2240N+02421MA1999999095241MD1210091-0161MW1051REMSYN124AAXX  29061 76393 31330 50000 10248 20226 39524 40075 52009 70500 85200 90540 333 10294 20242 30/// 55031 563// 59016 85808;
0217763930999992008082909004+25733-100300FM-12+051599999V0200901N001010018019N0020001N1+02421+02251100811ADDAY101031AY201031GA1081+001801071GF108991081061001501999999IA1019MA1999999095271MD1210031-0011MW1051REMSYN106AAXX  29091 76393 31220 80901 10242 20225 39527 40081 52003 70500 886// 90840 333 30/// 563// 59001 88706;
0289763930999992008082912004+25733-100300FM-12+051599999V0200901N006010015019N0030001N1+02381+02241100841ADDAA103000992AA224000022AY151061AY251061GA1081+001501071GF108991081071001501999999IA1019KA1240M+03081KA2120N+02321MA1999999095281MD1010011+0051MW1501REMSYN130AAXX  29121 76393 01230 80906 10238 20224 39528 40084 50001 75055 887// 91140 333 10308 20232 30230 563// 58005 69997 79999 88705;
0223763930999992008082915004+25733-100300FM-12+051599999V0200901N00201036001CN0070001N1+02561+02231101101ADDAY141031AY221031GA1041+003301061GF106991041051004501041999IA1019MA1999999095511MD1210231+0241MW1051REMSYN112AAXX  29151 76393 31457 60902 10256 20223 39551 40110 52023 70542 8454/ 91450 333 0/359 30/// 58024 84611 82356;
0161763930999992008082918004+25733-100300FM-12+051599999V0200901N003010042019N0080001N1+02721+02371101081ADDAY151061AY221061GF107991061021004501031999MA1999999095491MD1710021+9999MW1051REMSYN072AAXX  29181 76393 21458 70903 10272 20237 39549 40108 57002 70552 8623/;
0262763930999992008082921004+25733-100300FM-12+051599999V0201301N001010045019N0120001N1+02741+02341100891ADDAA103004091AY151031AY221031GA1011+003901081GA2041+004501061GF106991051021004501041999IA1099MA1999999095331MD1710161+0021MW1051REMSYN124AAXX  29211 76393 21462 61301 10274 20234 39533 40089 57016 70552 8524/ 92050 333 01359 31/// 58002 60047 81813 84615 81356;
0312763930999992008083000004+25733-100300FM-12+051599999V0202101N00101001201CN0020001N1+02481+02341100791ADDAA103027091AA206032092AA324031592AY161061AY221061GA1021+001201071GF108991081061001501999999IA1099KA1120M+02861KA2180N+02321MA1999999095251MD1210081+9999MW1051REMSYN142AAXX  30001 76393 01220 82101 10248 20234 39525 40079 52008 60321 70562 886// 92350 333 0/399 10286 20232 31/// 50581 60277 70315 82704 86607;
0245763930999992008083015004+25733-100300FM-12+051599999V0200901N00301090001CN0080001N1+02641+02231101221ADDAY141031AY221031GA1021+003901061GA2011+018001041GF105991021051004501031041IA1099MA1999999095631MD1999999+0121MW1051REMSYN118AAXX  30151 76393 31458 50903 10264 20223 39563 40122 5//// 70542 82534 91450 333 0/357 31/// 58012 82613 81456 82070;
0277763930999992008083018004+25733-100300FM-12+051599999V0201001N002010003019N0030001N1+02301+02251101311ADDAA103006091AA218013091AY161061AY251061GA1081+000301071GF108991081061000751999999KA1120M+02881KA2240N+02271MA1999999095721MD1210231+0091MW1051REMSYN124AAXX  30181 76393 01130 81002 10230 20225 39572 40131 52023 60133 70565 886// 91750 333 0/399 10288 20227 58009 60067 88701;
0240763930999992008083021004+25733-100300FM-12+051599999V0200901N00201036001CN0050001N1+02451+02241101091ADDAA103007091AY141031AY221031GA1041+002101061GF107991041051002501021999IA1099MA1999999095511MD1710211+0181MW1051REMSYN118AAXX  30211 76393 21350 70902 10245 20224 39551 40109 57021 70542 8452/ 92050 333 0/359 31/// 58018 60077 84607 83456;
0323763930999992008083100004+25733-100300FM-12+051599999V0201301N00201090001CN0080001N1+02561+02171101041ADDAA106007191AA224020691AY141061AY221061GA1011+003901081GA2031+004501061GF107991041021004501001061IA1019KA1120M+02891KA2180N+02271MA1999999095471MD1510041+0221MW1051REMSYN148AAXX  31001 76393 11458 71302 10256 20217 39547 40104 55004 60071 70542 84206 92350 333 01207 10289 20227 30/// 50271 58022 70206 81813 83615 83070;
0223763930999992008083115004+25733-100300FM-12+051599999V0209999C00001036001CN0030001N1+02351+02041101301ADDAY141031AY221031GA1041+003001061GF106991041051004501031001IA1099MA1999999095661MD1999999+0031MW1051REMSYN112AAXX  31151 76393 31430 60000 10235 20204 39566 40130 5//// 70542 84530 91455 333 0/350 31/// 58003 84610 82356;
0161763930999992008083118004+25733-100300FM-12+051599999V0200801N002010075019N0040001N1+02861+01951101261ADDAY141061AY241061GF105991051021008001001001MA1999999095631MD1710031+9999MW1051REMSYN072AAXX  31181 76393 31540 50802 10286 20195 39563 40126 57003 70544 85200;
0245763930999992008083121004+25733-100300FM-12+051599999V0201301N002012200019N0080001N1+03101+01881100951ADDAY141031AY241031GA1011+012001091GA2011+015001081GF103991031031012501001001IA1099MA1999999095411MD1710221-0101MW1051REMSYN118AAXX  31211 76393 31658 31302 10310 20188 39541 40095 57022 70544 83300 92055 333 06300 31/// 59010 81940 81850 81650;
0161763930999992008090100004+25733-100300FM-12+051599999V0201001N002012200019N0180001N1+03011+01811100811ADDAY101061AY201061GF103991031031012501001001MA1999999095291MD1710121+9999MW1151REMSYN072AAXX  01001 76393 31668 31002 10301 20181 39529 40081 57012 71500 83300;
0189763930999992008090103004+25733-100300FM-12+051599999V0201101N002012200019N0100001N1+02731+02071100911ADDGA1031+006601061GF103991031051008001999999IA1019MA1999999095411MD1210121+9999REMSYN100AAXX  01031 76393 32560 31102 10273 20207 39541 40091 52012 835// 90250 333 0/399 30/// 58/// 83622;
0277763930999992008090106004+25733-100300FM-12+051599999V0201901N001012200019N0080001N1+02521+02191100931ADDAA103000091GA1031+003301061GF103991031051004501999999GJ105049IA1019KA1240M+03241KA2240N+02141MA1999999095431MD1010021+9999REMSYN124AAXX  01061 76393 22458 31901 10252 20219 39543 40093 50002 835// 90550 333 0/399 10324 20214 30/// 55084 58/// 69907 83611;EQDQ01  00002PRCP03
0189763930999992008090109004+25733-100300FM-12+051599999V0202501N001012200019N0040001N1+02401+02121100881ADDGA1011+002701061GF101991011051002501999999IA1019MA1999999095351MD1710081+9999REMSYN100AAXX  01091 76393 32340 12501 10240 20212 39535 40088 57008 815// 90850 333 0/399 30/// 58/// 81609;
0161763930999992008090112004+25733-100300FM-12+051599999V0209999C000012200019N0040001N1+02301+02151100881ADDAY141061AY221061GF101991011061001501999999MA1999999095321MD1210031+9999MW1051REMSYN072AAXX  01121 76393 31240 10000 10230 20215 39532 40088 52003 70542 816//;
0217763930999992008090115004+25733-100300FM-12+051599999V0209999C000012200019N0030001N1+02741+02031100961ADDAY141031AY241031GA1011+006901081GF101991011011008001001001IA1099MA1999999095391MD1210071-0271MW1051REMSYN106AAXX  01151 76393 31530 10000 10274 20203 39539 40096 52007 70544 81100 91455 333 00500 31/// 59027 81823;
0161763930999992008090118004+25733-100300FM-12+051599999V0200601N001012200019N0040001N1+03221+02051100861ADDAY141061AY241061GF101991011011012501001001MA1999999095321MD1710071+9999MW1051REMSYN072AAXX  01181 76393 31640 10601 10322 20205 39532 40086 57007 70544 81100;
0217763930999992008090121004+25733-100300FM-12+051599999V0200601N002012200019N0040001N1+03341+01891100651ADDAY141031AY201031GA1021+014401081GF102991021021012501001001IA1019MA1999999095161MD1710161-0251MW1051REMSYN106AAXX  01211 76393 31640 20602 10334 20189 39516 40065 57016 70540 82200 92055 333 01500 30/// 59025 82848;
0161763930999992008090200004+25733-100300FM-12+051599999V0200901N001012200019N0120001N1+03121+01861100501ADDAY141061AY241061GF102991021021012501001001MA1999999095051MD1710111+9999MW1041REMSYN072AAXX  02001 76393 31662 20901 10312 20186 39505 40050 57011 70444 82200;
0217763930999992008090203004+25733-100300FM-12+051599999V0201201N001012200019N0050001N1+02881+01871100661ADDAY141031AY221031GA1011+009901061GF101991011051012501999999IA1019MA1999999095211MD1210161-0201MW1051REMSYN106AAXX  02031 76393 31650 11201 10288 20187 39521 40066 52016 70542 815// 90250 333 0/399 30/// 59020 81633;
0251763930999992008090206004+25733-100300FM-12+051599999V0209999C000012200019N0040001N1+02621+02051100721ADDAY141061AY221061GA1001+999999999GF100991001001999999001001GJ106249IA1019KA1240M+03421KA2240N+02281MA1999999095251MD1010041-0181MW1051REMSYN106AAXX  02061 76393 31940 00000 10262 20205 39525 40072 50004 70542 90550 333 10342 20228 30/// 55104 59018;
0199763930999992008090209004+25733-100300FM-12+051599999V0202001N001012200019N0030001N1+02421+01991100651ADDAY141031AY221031GA1001+999999999GF100991001001999999001001IA1019MA1999999095161MD1710091-0191MW1051REMSYN088AAXX  02091 76393 31930 02001 10242 20199 39516 40065 57009 70542 90850 333 30/// 59019;
0273763930999992008090212004+25733-100300FM-12+051599999V0209999C000012200019N0040001N1+02461+01941100731ADDAA124000091AY141061AY221061GA1001+999999999GF100991001001999999001001IA1019KA1240M+03421KA2120N+02381MA1999999095191MD1210031-0131MW1051REMSYN106AAXX  02121 76393 31940 00000 10246 20194 39519 40073 52003 70542 91150 333 10342 20238 30218 59013 70000;EQDQ01  00002PRCP24
0199763930999992008090215004+25733-100300FM-12+051599999V0209999C000012200019N0040001N1+02851+01871100901ADDAY141031AY241031GA1001+999999999GF100991001001999999001001IA1019MA1999999095341MD1210151-0051MW1041REMSYN088AAXX  02151 76393 31940 00000 10285 20187 39534 40090 52015 70444 91455 333 30/// 59005;
0161763930999992008090218004+25733-100300FM-12+051599999V0200701N001012200019N0040001N1+03261+01791100861ADDAY141061AY241061GF101991011021012501001001MA1999999095331MD1710011+9999MW1041REMSYN072AAXX  02181 76393 31640 10701 10326 20179 39533 40086 57001 70444 81200;
0217763930999992008090221004+25733-100300FM-12+051599999V0200901N002012200019N0050001N1+03521+02021100621ADDAY141031AY241031GA1011+015001081GF101991011011012501001001IA1019MA1999999095121MD1710211-0041MW1051REMSYN106AAXX  02211 76393 31650 10902 10352 20202 39512 40062 57021 70544 81100 92055 333 00500 30/// 59004 81850;
0161763930999992008090300004+25733-100300FM-12+051599999V0201101N001012200019N0100001N1+03341+01961100531ADDAY141061AY241061GF101991001001999999001031MA1999999095111MD1710011+9999MW1051REMSYN072AAXX  03001 76393 31960 11101 10334 20196 39511 40053 57001 70544 80003;
0199763930999992008090315004+25733-100300FM-12+051599999V0202101N001012200019N0050001N1+03001+01921100931ADDAY141031AY241031GA1001+999999999GF100991001001999999001001IA1019MA1999999095421MD1999999+0081MW1051REMSYN088AAXX  03151 76393 31950 02101 10300 20192 39542 40093 5//// 70544 91455 333 30/// 58008;
0161763930999992008090318004+25733-100300FM-12+051599999V0200601N001012200019N0050001N1+03341+01841100881ADDAY141061AY241061GF101991011011012501001001MA1999999095411MD1710011+9999MW1051REMSYN072AAXX  03181 76393 31650 10601 10334 20184 39541 40088 57001 70544 81100;
0223763930999992008090321004+25733-100300FM-12+051599999V0200901N002012200019N0100001N1+03561+01861100631ADDAY141031AY241031GA1011+015001091GF104991031031017501001031IA1019MA1999999095201MD1710211+0081MW1051REMSYN112AAXX  03211 76393 31760 40902 10356 20186 39520 40063 57021 70544 83303 92055 333 06303 30/// 58008 81950 82850;
0161763930999992008090400004+25733-100300FM-12+051599999V0200601N002010120019N0080001N1+03201+01991100581ADDAY141061AY241061GF106991061021012501001001MA1999999095151MD1710051+9999MW1051REMSYN072AAXX  04001 76393 31658 60602 10320 20199 39515 40058 57005 70544 86200;
0223763930999992008090403004+25733-100300FM-12+051599999V0200601N00201036001CN0050001N1+02861+02171100781ADDAY141031AY221031GA1041+006901061GF106991041051008001021999IA1019MA1999999095351MD1210201+9999MW1051REMSYN112AAXX  04031 76393 31550 60602 10286 20217 39535 40078 52020 70542 8452/ 90250 333 0/359 30/// 58/// 84623 82456;
0161763930999992008090406004+25733-100300FM-12+051599999V0209999C000010360019N0030001N1+02581+02311100911ADDAY141061AY221061GF105991041051002501021001MA1999999095451MD1510101+9999MW1051REMSYN072AAXX  04061 76393 21330 50000 10258 20231 39545 40091 55010 70542 84520;
0331763930999992008090412004+25733-100300FM-12+051599999V0201601N00101036001CN0040001N1+02401+02091100961ADDAA103999999AA209000591AA324000591AY151061AY221061GA1041+003001061GF106991041051004501021999IA1019KA1240M+03711KA2120N+02381MA1999999095421MD1010041+9999MW1051REMSYN142AAXX  04121 76393 01440 61601 10240 20209 39542 40096 50004 69958 70552 8452/ 91150 333 0/359 10371 20238 30234 58/// 69907 70005 84610 82456;EQDQ01  99992PRCP03
0245763930999992008090415004+25733-100300FM-12+051599999V0203601N00201036001CN0050001N1+02741+02031101061ADDAY141031AY241031GA1011+007201081GA2021+007201061GF107991031021008001031999IA1019MA1999999095501MD1210081+0081MW1051REMSYN118AAXX  04151 76393 31550 73602 10274 20203 39550 40106 52008 70544 8323/ 91455 333 0135/ 30/// 58008 81824 82624 84356;
0161763930999992008090418004+25733-100300FM-12+051599999V0203601N002010075019N0050001N1+03071+02111100971ADDAY141061AY221061GF106991051021008001031001MA1999999095431MD1710071+9999MW1051REMSYN072AAXX  04181 76393 31550 63602 10307 20211 39543 40097 57007 70542 85230;
0240763930999992008090421004+25733-100300FM-12+051599999V0202401N001010021019N0020001N1+02501+02291100731ADDAA106015091AY141031AY221031GA1081+002101061GF108991081051002501999999IA1119MA1999999095221MD1710211+0021MW1601REMSYN118AAXX  04211 76393 21320 82401 10250 20229 39522 40073 57021 76042 885// 92058 333 0/3// 32/// 54217 58002 60151 88607;
0312763930999992008090500004+25733-100300FM-12+051599999V0201601N001010048019N0060001N1+02741+02241100721ADDAA103016091AA206016091AA324016191AY161061AY251061GA1071+004801061GF107991071051004501999999IA1099KA1120M+03321KA2180N+02381MA1999999095221MD1410001+0071MW1051REMSYN142AAXX  05001 76393 01456 71601 10274 20224 39522 40072 54000 60161 70565 875// 92355 333 0/3// 10332 20238 31/// 50571 58007 60167 70161 87616;
0223763930999992008090515004+25733-100300FM-12+051599999V0209999C000010033019N0080001N1+02581+02251101101ADDAY141031AY261031GA1051+003301061GF107991051051004501041999IA1019MA1999999095521MD1999999+0021MW1051REMSYN112AAXX  05151 76393 31458 70000 10258 20225 39552 40110 5//// 70546 8554/ 91450 333 0/359 30/// 58002 85611 82317;
0180763930999992008090518004+25733-100300FM-12+051599999V0209999C000010360019N0060001N1+02801+02311101121ADDAY141061AY201061GF107991031051004501021999MA1999999095561MD1610041+9999MW1051REMSYN072AAXX  05181 76393 31456 70000 10280 20231 39556 40112 56004 70547 8352/;EQDQ01+000072PSTWM2
0264763930999992008090521004+25733-100300FM-12+051599999V0200901N003010075019N0060001N1+02821+02121100891ADDAY141031AY201031GA1021+006901091GA2031+007501061GF107991051021008001021999IA1019MA1999999095361MD1710201+0141MW1051REMSYN118AAXX  05211 76393 31556 70903 10282 20212 39536 40089 57020 70547 8522/ 92050 333 01359 30/// 58014 82923 83625 82456;EQDQ01+000072PSTWM2
0161763930999992008090600004+25733-100300FM-12+051599999V0201901N002010360019N0040001N1+02651+02241100971ADDAY141061AY221061GF106991041031004501021999MA1999999095441MD1010081+9999MW1051REMSYN072AAXX  06001 76393 21440 61902 10265 20224 39544 40097 50008 70542 8432/;
0223763930999992008090615004+25733-100300FM-12+051599999V0200801N00101009001CN0020001N1+02511+02131101321ADDAY141031AY241031GA1021+003601081GF106991061081004501001001IA1099MA1999999095711MD1999999+0191MW1051REMSYN112AAXX  06151 76393 31420 60801 10251 20213 39571 40132 5//// 70544 86800 91455 333 01300 31/// 58019 82812 84623;
0161763930999992008090618004+25733-100300FM-12+051599999V0200901N003012200019N0040001N1+02921+02111101321ADDAY141061AY241061GF103991031021008001001001MA1999999095741MD1010031+9999MW1041REMSYN072AAXX  06181 76393 31540 30903 10292 20211 39574 40132 50003 70444 83200;
0223763930999992008090621004+25733-100300FM-12+051599999V0200901N00501007501CN0080001N1+02981+02091101101ADDAY141031AY241031GA1031+006001081GF105991051021008001001001IA1099MA1999999095561MD1710181+0201MW1041REMSYN112AAXX  06211 76393 31558 50905 10298 20209 39556 40110 57018 70444 85200 92055 333 01300 31/// 58020 83820 82630;
0161763930999992008090700004+25733-100300FM-12+051599999V0201101N001012200019N0100001N1+02901+01991101081ADDAY141061AY241061GF104991041021008001001001MA1999999095561MD1410001+9999MW1041REMSYN072AAXX  07001 76393 31560 41101 10290 20199 39556 40108 54000 70444 84200;
0223763930999992008090715004+25733-100300FM-12+051599999V0200601N00101009001CN0040001N1+02521+02191101471ADDAY141031AY241031GA1021+003301081GF107991071081004501999999IA1099MA1999999095821MD1999999+0111MW1051REMSYN112AAXX  07151 76393 31440 70601 10252 20219 39582 40147 5//// 70544 878// 91455 333 013// 31/// 58011 82811 85625;
0330763930999992008090718004+25733-100300FM-12+051599999V0200901N004012200019N0060001N1+02811+02191101381ADDAA103999999AA206000091AY151061AY241061GA1021+006001081GF104991041081008001001001IA1099KA1120M+02831KA2240N+02341MA1999999095801MD1710041+0061MW1051REMSYN136AAXX  07181 76393 01556 40904 10281 20219 39580 40138 57004 69901 70554 84800 91755 333 01300 10283 20234 31/// 58006 69907 82820 82630;EQDQ01  00002PRCP06Q02  99992PRCP03
0195763930999992008090721004+25733-100300FM-12+051599999V0201101N006012200019N0140001N1+03121+02151101081ADDGA1021+009601081GF103991031021008001001001IA1099MA1999999095541MD1710261-0021REMSYN106AAXX  07211 76393 32564 31106 10312 20215 39554 40108 57026 83200 92055 333 01300 31/// 59002 82832 81632;
0269763930999992008090800004+25733-100300FM-12+051599999V0201001N006012200019N0140001N1+02901+02091101011ADDAA124000091GA1011+008101081GF103991021021008001031001IA1099KA1120M+03181KA2180N+02341MA1999999095491MD1710051-0071REMSYN124AAXX  08001 76393 32564 31006 10290 20209 39549 40101 57005 82230 92355 333 01350 10318 20234 31/// 59007 79999 81827 81627;EQDQ01  00002PRCP24
0217763930999992008090803004+25733-100300FM-12+051599999V0201301N002012200019N0040001N1+02741+02061101061ADDAY101031AY201031GA1011+006901081GF101991011021008001001001IA1019MA1999999095561MD1210071+0001MW1051REMSYN106AAXX  08031 76393 31540 11302 10274 20206 39556 40106 52007 70500 81200 90250 333 30/// 56300 59000 81823;
0253763930999992008090806004+25733-100300FM-12+051599999V0200901N002012200019N0040001N1+02601+02091101121ADDAY101061AY201061GF104991041021004501001001GJ103669IA1019KA1240M+02861KA2240N+02601MA1999999095601MD1110041+0001MW1051REMSYN124AAXX  08061 76393 31440 40902 10260 20209 39560 40112 51004 70500 84200 90550 333 10286 20260 30/// 55061 56300 59000 84817;
0217763930999992008090809004+25733-100300FM-12+051599999V0209999C000012200019N0040001N1+02301+02161101071ADDAY101031AY201031GA1041+001501071GF104991041061001501001001IA1019MA1999999095531MD1710331+0001MW1051REMSYN106AAXX  08091 76393 31240 40000 10230 20216 39553 40107 57033 70500 84600 90850 333 30/// 56300 59000 84705;
0300763930999992008090812004+25733-100300FM-12+051599999V0200601N001010018019N0050001N1+02281+02111101111ADDAA124000091AY141061AY241061GA1021+001501081GA2031+001801061GF107991051021001501051999IA1019KA1240M+03181KA2120N+02221MA1999999095541MD1310011+0001MW1051REMSYN136AAXX  08121 76393 31250 70601 10228 20211 39554 40111 53001 70544 8525/ 91150 333 10318 20222 30220 5635/ 59000 70000 82805 83606 82360;
0217763930999992008090815004+25733-100300FM-12+051599999V0200501N001010027019N0040001N1+02361+02081101341ADDAY141031AY241031GA1081+002701061GF108991081051002501999999IA1099MA1999999095731MD1210191-0091MW1051REMSYN106AAXX  08151 76393 31340 80501 10236 20208 39573 40134 52019 70544 885// 91455 333 0/3// 31/// 59009 88609;
0161763930999992008090818004+25733-100300FM-12+051599999V0200801N003010360019N0050001N1+02701+02021101391ADDAY141061AY241061GF107991041051008001031999MA1999999095771MD1210041+9999MW1051REMSYN072AAXX  08181 76393 31550 70803 10270 20202 39577 40139 52004 70544 8453/;
0223763930999992008090821004+25733-100300FM-12+051599999V0200901N00201036001CN0060001N1+02971+02061101021ADDAY141031AY241031GA1041+009001061GF108991041051008001031999IA1099MA1999999095441MD1710331-0101MW1051REMSYN112AAXX  08211 76393 31556 80902 10297 20206 39544 40102 57033 70544 8453/ 92055 333 0/35/ 31/// 59010 84630 84356;
0161763930999992008090900004+25733-100300FM-12+051599999V0200901N003010075019N0080001N1+02801+02191100951ADDAY141061AY241061GF108991081051008001999999MA1999999095411MD1710031+9999MW1051REMSYN072AAXX  09001 76393 31558 80903 10280 20219 39541 40095 57003 70544 885//;
0217763930999992008090903004+25733-100300FM-12+051599999V0201401N001010030019N0060001N1+02541+02241101051ADDAY141031AY221031GA1071+003001061GF107991071051002501999999IA1019MA1999999095521MD1210111-0041MW1051REMSYN106AAXX  09031 76393 31356 71401 10254 20224 39552 40105 52011 70542 875// 90255 333 30/// 56399 59004 87610;
0172763930999992008090906004+25733-100300FM-12+051599999V0200601N001019999999N0040001N1+02441+02251101011ADDAA106001091AY141061AY221061GF107991999999001501999999MA1999999095481MD1710041+9999MW1051REMSYN072AAXX  09061 76393 01240 70601 10244 20225 39548 40101 57004 69991 70542;
0217763930999992008090909004+25733-100300FM-12+051599999V0200501N001010015019N0010001N1+02301+02161101061ADDAY141031AY221031GA1081+001501061GF108991081051001501999999IA1019MA1999999095501MD1210021-0031MW1051REMSYN106AAXX  09091 76393 31210 80501 10230 20216 39550 40106 52002 70542 885// 90850 333 30/// 56399 59003 88605;
0172763930999992008090912004+25733-100300FM-12+051599999V0200901N001019999999N0010001N1+02281+02171101131ADDAA106001091AY151061AY251061GF108991999999001501999999MA1999999095531MD1210031+9999MW1501REMSYN072AAXX  09121 76393 01210 80901 10228 20217 39553 40113 52003 69991 75055;
0189763930999992008090915004+25733-100300FM-12+051599999V0201201N005010036019N0160001N1+02461+02091101191ADDGA1081+003601061GF108991081071004501999999IA1099MA1999999095581MD1410001-0151REMSYN100AAXX  09151 76393 32466 81205 10246 20209 39558 40119 54005 887// 91455 333 31/// 56399 59015 88612;
0244763930999992008090918004+25733-100300FM-12+051599999V0201201N002010057019N0180001N1+02681+02121101201ADDAA103000991GA1081+005701061GF108991081071004501999999IA1099KA1120M+02781KA2240N+02241MA1999999095601MD1410001-0171REMSYN118AAXX  09181 76393 22468 81202 10268 20212 39560 40120 54002 887// 91755 333 10278 20224 31/// 563// 59017 69997 88619;
0189763930999992008090921004+25733-100300FM-12+051599999V0201301N004010081019N0200001N1+03021+02201100911ADDGA1061+008101061GF106991061031008001001001IA1019MA1999999095351MD1710251-0091REMSYN100AAXX  09211 76393 32570 61304 10302 20220 39535 40091 57025 86300 92055 333 30/// 56300 59009 86627;
0279763930999992008091000004+25733-100300FM-12+051599999V0201301N002010075019N0200001N1+02961+02191100751ADDAA103011091AA224011091AY161061AY211061GF108991081061008001999999IA1019KA1120M+03121KA2180N+02241MA1999999095231MD1610121-0181MW1601REMSYN136AAXX  10001 76393 21570 81302 10296 20219 39523 40075 56012 76061 886// 92355 333 10312 20224 30/// 50231 56399 59018 60117 70110 88726;
0240763930999992008091003004+25733-100300FM-12+051599999V0201101N003010015019N0030001N1+02441+02311100921ADDAA103003091AY141031AY241031GA1051+001501081GF106991051021001501999041IA1099MA1999999095391MD1210161-0131MW1051REMSYN118AAXX  10031 76393 21230 61103 10244 20231 39539 40092 52016 70544 852/4 90250 333 31/// 563/5 59013 60037 85805 81070;
0172763930999992008091006004+25733-100300FM-12+051599999V0201001N006019999999N0030001N1+02361+02281100961ADDAA106006191AY151061AY251061GF107991999999000751999999MA1999999095431MD1010041+9999MW1501REMSYN072AAXX  10061 76393 01130 71006 10236 20228 39543 40096 50004 60061 75055;
0217763930999992008091009004+25733-100300FM-12+051599999V0201401N001010009019N0020001N1+02321+02231100941ADDAY141031AY241031GA1081+000901071GF108991081061000751999999IA1099MA1999999095371MD1710061-0131MW1051REMSYN106AAXX  10091 76393 31120 81401 10232 20223 39537 40094 57006 70544 886// 90850 333 31/// 563// 59013 88703;
0272763930999992008091012004+25733-100300FM-12+051599999V0201301N001010015019N0030001N1+02341+02201100941ADDAA124005591AY141061AY241061GA1081+001501071GF108991081061001501999999IA1019KA1240M+03121KA2120N+02301MA1999999095351MD1010021-0181MW1051REMSYN124AAXX  10121 76393 31230 81301 10234 20220 39535 40094 50002 70544 886// 91150 333 10312 20230 30225 563// 59018 70055 88705;
0223763930999992008091015004+25733-100300FM-12+051599999V0201201N00201009001CN0050001N1+02551+02201101151ADDAY141031AY241031GA1011+003301081GF107991071081004501999999IA1099MA1999999095541MD1210191-0041MW1051REMSYN112AAXX  10151 76393 31450 71202 10255 20220 39554 40115 52019 70544 878// 91455 333 013// 31/// 59004 81811 86622;
0161763930999992008091018004+25733-100300FM-12+051599999V0201101N003010042019N0080001N1+02721+02181101061ADDAY141061AY241061GF107991071051004501999999MA1999999095471MD1710071+9999MW1051REMSYN072AAXX  10181 76393 31458 71103 10272 20218 39547 40106 57007 70544 875//;
0223763930999992008091021004+25733-100300FM-12+051599999V0201101N00301012001CN0100001N1+02861+02261100841ADDAY141031AY241031GA1021+006001081GF107991071081008001999999IA1099MA1999999095291MD1710181-0061MW1051REMSYN112AAXX  10211 76393 31560 71103 10286 20226 39529 40084 57018 70544 878// 92055 333 013// 31/// 59006 82820 85630;
0353763930999992008091100004+25733-100300FM-12+051599999V0201501N001010090019N0100001N1+02801+02221100731ADDAA103999999AA206000091AA324005591AY141061AY241061GA1011+005701081GF108991071081004501031999IA1099KA1120M+02921KA2180N+02281MA1999999095201MD1710091-0031MW1051REMSYN148AAXX  11001 76393 01460 81501 10280 20222 39520 40073 57009 69901 70544 8783/ 92355 333 0135/ 10292 20228 31/// 50481 59003 69907 70055 81819 86630;EQDQ01  00002PRCP06Q02  99992PRCP03
0217763930999992008091103004+25733-100300FM-12+051599999V0200901N001010027019N0050001N1+02561+02291100851ADDAY141031AY221031GA1061+002701061GF106991061051002501999999IA1019MA1999999095331MD1210131-0061MW1051REMSYN106AAXX  11031 76393 31350 60901 10256 20229 39533 40085 52013 70542 865// 90250 333 0/399 30/// 59006 86609;
0161763930999992008091106004+25733-100300FM-12+051599999V0201101N001010012019N0040001N1+02451+02301100921ADDAY141061AY241061GF107991071021001501999999MA1999999095391MD1010061+9999MW1051REMSYN072AAXX  11061 76393 31240 71101 10245 20230 39539 40092 50006 70544 872//;
0223763930999992008091109004+25733-100300FM-12+051599999V0201301N00201000601CN0030001N1+02401+02301100881ADDAY141031AY261031GA1031+000901071GF107991071061000751999999IA1019MA1999999095331MD1010061-0041MW1051REMSYN112AAXX  11091 76393 31130 71302 10240 20230 39533 40088 50006 70546 876// 90850 333 0/399 30/// 59004 83703 84607;
0161763930999992008091112004+25733-100300FM-12+051599999V0200701N001010021019N0040001N1+02401+02181100801ADDAY141061AY221061GF105991051051002501999999MA1999999095231MD1710101+9999MW1051REMSYN072AAXX  11121 76393 31340 50701 10240 20218 39523 40080 57010 70542 855//;
0217763930999992008091115004+25733-100300FM-12+051599999V0200901N002010030019N0040001N1+02561+02261100921ADDAY141031AY221031GA1081+003001071GF108991081071002501999999IA1019MA1999999095341MD1310111-0201MW1051REMSYN106AAXX  11151 76393 31340 80902 10256 20226 39534 40092 53011 70542 887// 91455 333 30/// 56399 59020 88710;
0255763930999992008091118004+25733-100300FM-12+051599999V0201301N002010042019N0080001N1+02661+02251100911ADDAY141061AY221061GA1081+004201061GF108991081071004501999999IA1019KA1120M+02821KA2240N+02381MA1999999095341MD1410001-0131MW1051REMSYN118AAXX  11181 76393 31458 81302 10266 20225 39534 40091 54000 70542 887// 91755 333 10282 20238 30/// 56399 59013 88614;
0217763930999992008091121004+25733-100300FM-12+051599999V0201301N003010045019N0080001N1+02781+02321100721ADDAY141031AY221031GA1081+004501061GF108991081071004501999999IA1019MA1999999095181MD1710161-0111MW1051REMSYN106AAXX  11211 76393 31458 81303 10278 20232 39518 40072 57016 70542 887// 92055 333 30/// 56399 59011 88615;
0270763930999992008091200004+25733-100300FM-12+051599999V0201401N001010042019N0120001N1+02861+02261100541ADDAA106001091AA224999999GF105991051051004501001001IA1019KA1120M+02981KA2180N+02381MA1999999095031MD1710151-0171REMSYN130AAXX  12001 76393 12462 51401 10286 20226 39503 40054 57015 69991 85500 92355 333 10298 20238 30/// 50171 56300 59017 79999 85620;EQDQ01  99992PRCP24
0217763930999992008091203004+25733-100300FM-12+051599999V0200901N003010039019N0030001N1+02621+02231100641ADDAY141031AY241031GA1081+003901061GF108991081041004501999999IA1019MA1999999095131MD1210101-0201MW1051REMSYN106AAXX  12031 76393 32430 80903 10262 20223 39513 40064 52010 70544 884// 90255 333 30/// 563// 59020 88613;
0172763930999992008091206004+25733-100300FM-12+051599999V0201101N001019999999N0030001N1+02501+02391100741ADDAA106003091AY151061AY251061GF108991999999001501999999MA1999999095221MD1010091+9999MW1501REMSYN072AAXX  12061 76393 01230 81101 10250 20239 39522 40074 50009 60031 75055;
0234763930999992008091209004+25733-100300FM-12+051599999V0209999C000010012019N0030001N1+02421+02311100581ADDAA103003091AY101031AY201031GA1071+001201061GF107991071041001501001001IA1099MA1999999095051MD1710171-0281MW1051REMSYN112AAXX  12091 76393 21230 70000 10242 20231 39505 40058 57017 70500 87400 90850 333 31/// 56300 59028 60037 87604;
0272763930999992008091212004+25733-100300FM-12+051599999V0209999C000010015019N0030001N1+02481+02341100531ADDAA124005591AY141061AY241061GA1081+001501061GF108991081041001501999999IA1019KA1240M+02981KA2120N+02401MA1999999094991MD1710061-0241MW1051REMSYN124AAXX  12121 76393 31230 80000 10248 20234 39499 40053 57006 70544 884// 91150 333 10298 20240 30230 563// 59024 70055 88605;
0236763930999992008091215004+25733-100300FM-12+051599999V0200801N001010018019N0030001N1+02561+02371100771ADDAY141031AY201031GA1081+001801071GF108991081061001501999999IA1019MA1999999095211MD1210221-0131MW1051REMSYN106AAXX  12151 76393 31230 80801 10256 20237 39521 40077 52022 70547 886// 91450 333 0/399 30/// 59013 88706;EQDQ01+000072PSTWM2
0161763930999992008091218004+25733-100300FM-12+051599999V0203001N001010360019N0080001N1+03041+02341100551ADDAY141061AY221061GF106991041031008001041041MA1999999095011MD1710201+9999MW1051REMSYN072AAXX  12181 76393 31558 63001 10304 20234 39501 40055 57020 70542 84344;
0217763930999992008091221004+25733-100300FM-12+051599999V0201201N00201036001CN0120001N1+03361+02281100221ADDGA1011+010801081GA2031+011401061GF106991031031012501041999IA1019MA1999999094741MD1710281-0441REMSYN112AAXX  12211 76393 32662 61202 10336 20228 39474 40022 57028 8334/ 92050 333 01357 30/// 59044 81836 83638 82356;
0278763930999992008091300004+25733-100300FM-12+051599999V0201901N002010063019N0150001N1+03041+02451100171ADDAA124005591GA1011+005701081GA2041+006301061GF106991051021004501041999IA1019KA1120M+03381KA2180N+02401MA1999999094721MD1210021-0311REMSYN136AAXX  13001 76393 32465 61902 10304 20245 39472 40017 52002 8524/ 92350 333 01359 10338 20240 30/// 50311 59031 70055 81819 84621 81456;
0234763930999992008091303004+25733-100300FM-12+051599999V0209999C000010015019N0040001N1+02701+02541100371ADDAA103006091AY151031AY251031GA1071+001501061GF107991071051001501999999IA1119MA1999999094921MD1210201-0211MW1501REMSYN112AAXX  13031 76393 21240 70000 10270 20254 39492 40037 52020 75055 875// 90250 333 32/// 56399 59021 60067 87605;
0263763930999992008091306004+25733-100300FM-12+051599999V0202201N001010018019N0030001N1+02581+02421100271ADDAY141061AY221061GA1061+001801061GF106991061051001501001001GJ102349IA1099KA1240M+03381KA2240N+02401MA1999999094821MD1710101-0401MW1051REMSYN118AAXX  13061 76393 31230 62201 10258 20242 39482 40027 57010 70542 86500 90555 333 10338 20240 31/// 55039 59040 86606;
0217763930999992008091309004+25733-100300FM-12+051599999V0209999C000010015019N0020001N1+02561+02401100191ADDAY141031AY221031GA1071+001501061GF107991071051001501999999IA1099MA1999999094711MD1710111-0341MW1051REMSYN106AAXX  13091 76393 31220 70000 10256 20240 39471 40019 57011 70542 875// 90855 333 31/// 56399 59034 87605;
0272763930999992008091312004+25733-100300FM-12+051599999V0201901N001010024019N0020001N1+02601+02351100341ADDAA124006491AY141061AY221061GA1081+002401061GF108991081051002501999999IA1019KA1240M+03381KA2120N+02501MA1999999094821MD1210111-0171MW1051REMSYN124AAXX  13121 76393 31320 81901 10260 20235 39482 40034 52011 70542 885// 91155 333 10338 20250 30246 56399 59017 70064 88608;
0223763930999992008091315004+25733-100300FM-12+051599999V0201101N001012200019N0030001N1+02921+02291100421ADDAY141031AY201031GA1011+006301081GF102991011041008001001041IA1019MA1999999094911MD1410001-0301MW1051REMSYN112AAXX  13151 76393 31530 21101 10292 20229 39491 40042 54009 70540 81404 91455 333 30/// 56305 59030 81821 81074;
0261763930999992008091318004+25733-100300FM-12+051599999V0201401N001012200019N0030001N1+03281+02401100371ADDAY141061AY201061GA1011+008701081GF103991011051008001041001IA1019KA1120M+03441KA2240N+02481MA1999999094881MD1410001-0131MW1051REMSYN124AAXX  13181 76393 31530 31401 10328 20240 39488 40037 54003 70540 81540 91755 333 10344 20248 30/// 56950 59013 81829 82358;
0217763930999992008091321004+25733-100300FM-12+051599999V0201301N002010087019N0080001N1+03341+02461100181ADDAY141031AY211031GA1071+008701061GF107991071061008001999999IA1019MA1999999094741MD1610141+0001MW1051REMSYN106AAXX  13211 76393 31558 71302 10334 20246 39474 40018 56014 70541 876// 92055 333 30/// 56399 59000 87629;
0234763930999992008091400004+25733-100300FM-12+051599999V0201301N002010042019N0130001N1+02741+02211100371ADDAA124006491GF108991081071004501999999IA1019KA1120M+03521KA2180N+02481MA1999999094931MD1510191+0211REMSYN124AAXX  14001 76393 32463 81302 10274 20221 39493 40037 55019 887// 92355 333 10352 20248 30/// 50361 56399 58021 70064 88618;
0217763930999992008091403004+25733-100300FM-12+051599999V0202001N002010045019N0040001N1+02601+02151100501ADDAY141031AY241031GA1081+004501061GF108991081041004501999999IA1019MA1999999095051MD1210121+0131MW1051REMSYN106AAXX  14031 76393 31440 82002 10260 20215 39505 40050 52012 70544 884// 90250 333 30/// 563// 58013 88615;
0281763930999992008091406004+25733-100300FM-12+051599999V0203301N001010012019N0030001N1+02421+02251100611ADDAA106000091AY141061AY241061GF108991081061001501999999IA1019KA1240M+02881KA2240N+02401MA1999999095121MD1010071+0301MW1051REMSYN130AAXX  14061 76393 11230 83301 10242 20225 39512 40061 50007 69901 70544 886// 90550 333 10288 20240 30/// 50531 563// 58030 88706;EQDQ01  00002PRCP06
0223763930999992008091409004+25733-100300FM-12+051599999V0203601N00101036001CN0030001N1+02401+02261100531ADDAY141031AY241031GA1031+001501071GF108991031061001501041999IA1019MA1999999095011MD1210111+0301MW1051REMSYN112AAXX  14091 76393 31230 83601 10240 20226 39501 40053 52011 70544 8364/ 90850 333 30/// 5635/ 58030 83705 85360;
0291763930999992008091412004+25733-100300FM-12+051599999V0209999C000010300019N0040001N1+02421+02201100721ADDAA124000091AY101061AY201061GA1071+030001031GF107991071001999999071999IA1019KA1240M+03521KA2120N+02401MA1999999095161MD1510151+0341MW1051REMSYN124AAXX  14121 76393 31940 70000 10242 20220 39516 40072 55015 70500 8707/ 91150 333 10352 20240 30230 5605/ 58034 79999 87360;EQDQ01  00002PRCP24
0195763930999992008091415004+25733-100300FM-12+051599999V0209999C00001036001CN0100001N1+02601+02201100921ADDGA1041+003901061GF107991041051004501021999IA1019MA1999999095391MD1210371+0481REMSYN106AAXX  14151 76393 32460 70000 10260 20220 39539 40092 52037 8452/ 91450 333 0/359 30/// 58048 84613 83456;
0255763930999992008091418004+25733-100300FM-12+051599999V0200801N00101018001CN0140001N1+02971+02211101071ADDGA1041+007501061GA2021+018001031GF108991041051008001041041IA1019KA1120M+03021KA2240N+02401MA1999999095501MD1210111+0621REMSYN124AAXX  14181 76393 32564 80801 10297 20221 39550 40107 52011 84544 91750 333 0/357 10302 20240 30/// 58062 84625 82356 82070;
0217763930999992008091421004+25733-100300FM-12+051599999V0201101N00401036001CN0170001N1+03341+02221100741ADDGA1011+011101091GA2031+012301061GF106991041031012501031999IA1019MA1999999095231MD1710271+0501REMSYN112AAXX  14211 76393 32667 61104 10334 20222 39523 40074 57027 8433/ 92050 333 01359 30/// 58050 81937 83641 82356;
0273763930999992008091500004+25733-100300FM-12+051599999V0202901N003010015019N0100001N1+02461+02301100931ADDAA103003092AA224002592GA1061+001501061GF108991061051001501021999IA1099KA1120M+03401KA2180N+02401MA1999999095431MD1010101+0501REMSYN136AAXX  15001 76393 22260 82903 10246 20230 39543 40093 50010 8652/ 92350 333 0/359 10340 20240 31/// 50371 58050 60037 70025 86605 82256;
0234763930999992008091503004+25733-100300FM-12+051599999V0203401N001010024019N0040001N1+02301+02071101351ADDAA103001091AY141031AY221031GA1071+002401061GF107991071051002501999999IA1099MA1999999095801MD1210371+0751MW1051REMSYN112AAXX  15031 76393 21340 73401 10230 20207 39580 40135 52037 70542 875// 90255 333 31/// 56399 58075 60017 87608;
0172763930999992008091506004+25733-100300FM-12+051599999V0200401N001019999999N0004001N1+02161+02071101581ADDAA106019191AY161061AY261061GF108991999999000751999999MA1999999095991MD1210191+9999MW1601REMSYN072AAXX  15061 76393 01104 80401 10216 20207 39599 40158 52019 60191 76066;
0234763930999992008091509004+25733-100300FM-12+051599999V0200201N001010009019N0010001N1+02081+01991101561ADDAA103010091AY151031AY251031GA1081+000901071GF108991081071000751999999IA1119MA1999999095921MD1710071+0911MW1501REMSYN112AAXX  15091 76393 21110 80201 10208 20199 39592 40156 57007 75055 887// 90855 333 32/// 56399 58091 60107 88703;
0234763930999992008091515004+25733-100300FM-12+051599999V0203201N002010021019N0010001N1+02021+01901101871ADDAA103011091AY161031AY221031GA1081+002101071GF108991081071001501999999IA1119MA1999999096181MD1310181+0831MW1601REMSYN112AAXX  15151 76393 21210 83202 10202 20190 39618 40187 53018 76062 887// 91455 333 32/// 56399 58083 60117 88707;
0172763930999992008091518004+25733-100300FM-12+051599999V0203201N001019999999N0010001N1+02041+01921102021ADDAA106021191AY161061AY221061GF108991999999002501999999MA1999999096311MD1310131+9999MW1601REMSYN072AAXX  15181 76393 11310 83201 10204 20192 39631 40202 53013 60211 76062;
0234763930999992008091521004+25733-100300FM-12+051599999V0203101N001010018019N0010001N1+02021+01841101941ADDAA103006091AY161031AY221031GA1081+001801071GF108991081071001501999999IA1119MA1999999096231MD1110081+1001MW1601REMSYN112AAXX  15211 76393 21210 83101 10202 20184 39623 40194 51008 76062 887// 92055 333 32/// 56399 58100 60067 88706;
0172763930999992008091600004+25733-100300FM-12+051599999V0200501N001019999999N0150001N1+02041+01711101901ADDAA106007191AY161061AY221061GF108991999999004501999999MA1999999096191MD1410001+9999MW1601REMSYN072AAXX  16001 76393 02465 80501 10204 20171 39619 40190 54004 60071 76062;
0240763930999992008091603004+25733-100300FM-12+051599999V0201801N001010012019N0030001N1+01921+01801102201ADDAA103000191AY121031AY221031GA1011+000901081GF107991071071001501999999IA1119MA1999999096451MD1210261+0651MW1051REMSYN118AAXX  16031 76393 21230 71801 10192 20180 39645 40220 52026 70522 877// 90250 333 32/// 563// 58065 69917 81803 86704;
0172763930999992008091606004+25733-100300FM-12+051599999V0209999C000019999999N0030001N1+01921+01641102241ADDAA106001091AY101061AY201061GF107991999999002501999999MA1999999096501MD1210051+9999MW1051REMSYN072AAXX  16061 76393 11330 70000 10192 20164 39650 40224 52005 60011 70500;
0189763930999992008091609004+25733-100300FM-12+051599999V0209999C000010045019N0040001N1+01881+01441102221ADDGA1051+004501061GF105991051041004501001001IA1019MA1999999096481MD1710021+0561REMSYN100AAXX  16091 76393 32440 50000 10188 20144 39648 40222 57002 85400 90850 333 30/// 56300 58056 85615;
0272763930999992008091612004+25733-100300FM-12+051599999V0209999C000010300019N0060001N1+01901+01531102241ADDAA124001091AY101061AY201061GA1071+030001031GF107991071001999999051999IA1019KA1240M+02161KA2120N+01841MA1999999096491MD1610011+0491MW1051REMSYN124AAXX  16121 76393 31956 70000 10190 20153 39649 40224 56001 70500 8705/ 91150 333 10216 20184 30165 5605/ 58049 70010 87360;
0217763930999992008091615004+25733-100300FM-12+051599999V0200401N001010300019N0080001N1+02121+01291102421ADDAY121031AY221031GA1071+030001031GF107991071001999999051999IA1019MA1999999096661MD1210171+0481MW1051REMSYN106AAXX  16151 76393 31958 70401 10212 20129 39666 40242 52017 70522 8705/ 91455 333 30/// 5609/ 58048 87360;
0283763930999992008091618004+25733-100300FM-12+051599999V0200601N00101036001CN0120001N1+02321+01151102371ADDAY121061AY221061GA1011+010801081GA2031+030001031GF107991011011012501031041IA1019KA1120M+02401KA2240N+01841MA1999999096631MD1710031+0321MW1041REMSYN130AAXX  16181 76393 31662 70601 10232 20115 39663 40237 57003 70422 81134 91750 333 10240 20184 30/// 56355 58032 81836 83360 83070;
0189763930999992008091621004+25733-100300FM-12+051599999V0200601N001010270019N0160001N1+02541+01311102031ADDGA1051+027001031GF105991051001999999051001IA1019MA1999999096331MD1710301+0101REMSYN100AAXX  16211 76393 32966 50601 10254 20131 39633 40203 57030 85050 92055 333 30/// 56050 58010 85359;
0290763930999992008091700004+25733-100300FM-12+051599999V0200301N00101010801CN0100001N1+02321+01231102001ADDAA124001091AY121061AY221061GA1061+010801061GF107991061051012501051999IA1019KA1120M+02741KA2180N+01841MA1999999096331MD1410001+0141MW1051REMSYN142AAXX  17001 76393 31660 70301 10232 20123 39633 40200 54000 70522 8655/ 92355 333 10274 20184 30/// 50321 5635/ 58014 70010 70010 86636 81360;
0161763930999992008091706004+25733-100300FM-12+051599999V0209999C000010360019N0040001N1+02101+01371102141ADDAY141061AY221061GF107991041051008001021999MA1999999096471MD1010021+9999MW1051REMSYN072AAXX  17061 76393 31540 70000 10210 20137 39647 40214 50002 70542 8452/;
0223763930999992008091709004+25733-100300FM-12+051599999V0209999C00001036001CN0040001N1+02001+01501102011ADDAY141031AY221031GA1021+004801061GF105991021051004501031999IA1019MA1999999096331MD1710151-0141MW1051REMSYN112AAXX  17091 76393 31440 50000 10200 20150 39633 40201 57015 70542 8253/ 90850 333 0/359 30/// 59014 82616 83356;
0279763930999992008091712004+25733-100300FM-12+051599999V0209999C000012200019N0060001N1+01921+01311102051ADDAA124000091AY141061AY221061GA1001+999999999GF100991001001999999001001IA1019KA1240M+02741KA2120N+01591MA1999999096341MD1210011-0151MW1051REMSYN112AAXX  17121 76393 31956 00000 10192 20131 39634 40205 52001 70542 91150 333 09999 10274 20159 30150 59015 70000;EQDQ01  00002PRCP24
0195763930999992008091715004+25733-100300FM-12+051599999V0201601N001010390019N0070001N1+02221+01331102071ADDGA1061+039001031GF107991061001999999051011IA1019MA1999999096351MD1110031-0311REMSYN106AAXX  17151 76393 32957 71601 10222 20133 39635 40207 51003 86051 91750 333 30/// 56055 59031 86363 81070;
0233763930999992008091718004+25733-100300FM-12+051599999V0200401N001012200019N0140001N1+02601+01191102021ADDGA1021+039001031GF103991031001999999041011IA1019KA1120M+02681KA2240N+01591MA1999999096321MD1810031-0311REMSYN118AAXX  17181 76393 32964 30401 10260 20119 39632 40202 58003 83041 91750 333 10268 20159 30/// 56055 59031 82363 81070;
0217763930999992008091721004+25733-100300FM-12+051599999V0201101N003012200019N0140001N1+02821+01291101711ADDAY141031AY241031GA1011+015001081GF101991011021017501001001IA1019MA1999999096071MD1710251-0261MW1051REMSYN106AAXX  17211 76393 31764 11103 10282 20129 39607 40171 57025 70544 81200 92050 333 30/// 563// 59026 81850;
0272763930999992008091800004+25733-100300FM-12+051599999V0201301N003012200019N0120001N1+02601+01191101681ADDAA124000091AY141061AY241061GA1031+030001031GF103991031001999999041001IA1019KA1120M+02901KA2180N+01961MA1999999096071MD1010001-0281MW1051REMSYN124AAXX  18001 76393 31962 31303 10260 20119 39607 40168 50000 70544 83040 92350 333 10290 20196 30/// 56050 59028 70000 83360;
0189763930999992008091803004+25733-100300FM-12+051599999V0201301N001012200019N0120001N1+02351+01261101841ADDGA1031+018001031GF103991031001022501051001IA1099MA1999999096231MD1210161-0261REMSYN100AAXX  18031 76393 32862 31301 10235 20126 39623 40184 52016 83050 92055 333 0/050 31/// 59026 83356;
0241763930999992008091806004+25733-100300FM-12+051599999V0209999C000010081019N0120001N1+02181+01361101821ADDGA1071+008101061GF107991071051008001999999GJ105889IA1099KA1240M+02901KA2240N+01591MA1999999096201MD1710031-0271REMSYN118AAXX  18061 76393 32562 70000 10218 20136 39620 40182 57003 875// 90555 333 0/3// 10290 20159 31/// 55098 59027 87627;
0189763930999992008091809004+25733-100300FM-12+051599999V0202001N001010063019N0120001N1+02061+01411101691ADDGA1071+006301061GF107991071051008001999999IA1099MA1999999096051MD1710151-0281REMSYN100AAXX  18091 76393 32562 72001 10206 20141 39605 40169 57015 875// 90855 333 0/3// 31/// 59028 87621;
0250763930999992008091812004+25733-100300FM-12+051599999V0203301N00201036001CN0140001N1+02051+01291101791ADDAA124000091GA1031+007201061GF106991031051008001051001IA1019KA1240M+02901KA2120N+02001MA1999999096111MD1210061-0231REMSYN124AAXX  18121 76393 32564 63302 10205 20129 39611 40179 52006 83550 91155 333 0/350 10290 20200 30178 59023 70000 83624 83356;
0189763930999992008091815004+25733-100300FM-12+051599999V0200401N001010300019N0160001N1+02281+01291101971ADDGA1051+030001031GF105991051001999999031001IA1019MA1999999096271MD1210161-0081REMSYN100AAXX  18151 76393 32966 50401 10228 20129 39627 40197 52016 85030 91456 333 30/// 56050 59008 85360;
0255763930999992008091818004+25733-100300FM-12+051599999V0201201N001010117019N0180001N1+02621+01451101921ADDAY141061AY221061GA1081+011701061GF108991081051012501999999IA1019KA1120M+02661KA2240N+02001MA1999999096241MD1710031-0081MW1051REMSYN118AAXX  18181 76393 31668 81201 10262 20145 39624 40192 57003 70542 885// 91800 333 10266 20200 30/// 56399 59008 88639;
0245763930999992008091821004+25733-100300FM-12+051599999V0200901N001010360019N0080001N1+02661+01391101671ADDAY141031AY241031GA1011+012001081GA2021+012601061GF106991031051012501031001IA1019MA1999999096031MD1710211-0041MW1051REMSYN118AAXX  18211 76393 31658 60901 10266 20139 39603 40167 57021 70544 83530 92055 333 30/// 56350 59004 81840 82642 83362;
0284763930999992008091900004+25733-100300FM-12+051599999V0201101N001010360019N0060001N1+02581+01401101581ADDAA124000091AY141061AY241061GA1021+011101061GF107991021051012501051999IA1019KA1120M+02801KA2180N+02001MA1999999095971MD1710061-0101MW1051REMSYN136AAXX  19001 76393 31656 71101 10258 20140 39597 40158 57006 70544 8255/ 92355 333 10280 20200 30/// 50521 5635/ 59010 70000 82637 85360;
0236763930999992008091903004+25733-100300FM-12+051599999V0201101N002010093019N0050001N1+02341+01391101691ADDAY141031AY201031GA1071+009301061GF107991071051008001999999IA1019MA1999999096091MD1210121-0141MW1051REMSYN106AAXX  19031 76393 31550 71102 10234 20139 39609 40169 52012 70547 875// 90250 333 0/399 30/// 59014 87631;EQDQ01+000072PSTWM2
0161763930999992008091906004+25733-100300FM-12+051599999V0209999C000012200019N0050001N1+02221+01481101721ADDAY141061AY221061GF103991031051008001999999MA1999999096111MD1810021+9999MW1051REMSYN072AAXX  19061 76393 31550 30000 10222 20148 39611 40172 58002 70542 835//;
0217763930999992008091909004+25733-100300FM-12+051599999V0209999C000012200019N0040001N1+01981+01451101601ADDAY141031AY221031GA1031+005101061GF103991031051004501999999IA1019MA1999999095961MD1710151-0091MW1051REMSYN106AAXX  19091 76393 31440 30000 10198 20145 39596 40160 57015 70542 835// 90850 333 0/399 30/// 59009 83617;
0161763930999992008091912004+25733-100300FM-12+051599999V0209999C000010042019N0050001N1+02061+01531101681ADDAY141061AY221061GF106991061051004501999999MA1999999096021MD1210061+9999MW1051REMSYN072AAXX  19121 76393 31450 60000 10206 20153 39602 40168 52006 70542 865//;
0167763930999992008091915004+25733-100300FM-12+051599999V0201401N001012200019N0040001N1+02401+01441101771ADDGF101991011001022501031001IA1019MA1999999096091MD1210071-0181REMSYN094AAXX  19151 76393 31840 11401 10240 20144 39609 40177 52007 81030 91455 333 0/050 30/// 59018;
0161763930999992008091918004+25733-100300FM-12+051599999V0201001N002012200019N0050001N1+02781+01511101741ADDAY141061AY241061GF103991021021012501001021MA1999999096081MD1710011+9999MW1051REMSYN072AAXX  19181 76393 31650 31002 10278 20151 39608 40174 57001 70544 82202;
0223763930999992008091921004+25733-100300FM-12+051599999V0201301N00201007501CN0060001N1+02671+01601101491ADDAY141031AY241031GA1011+010201081GF107991071021008001999999IA1019MA1999999095871MD1710211-0161MW1041REMSYN112AAXX  19211 76393 31556 71302 10267 20160 39587 40149 57021 70444 872// 92055 333 013// 30/// 59016 81834 86634;
0161763930999992008092000004+25733-100300FM-12+051599999V0201301N001010360019N0060001N1+02621+01561101431ADDAY141061AY241061GF107991031051008001031999MA1999999095851MD1610021+9999MW1041REMSYN072AAXX  20001 76393 31556 71301 10262 20156 39585 40143 56002 70444 8353/;
0189763930999992008092003004+25733-100300FM-12+051599999V0201301N001010081019N0100001N1+02461+01651101441ADDGA1071+008101061GF107991071051008001999999IA1019MA1999999095861MD1410001-0231REMSYN100AAXX  20031 76393 32560 71301 10246 20165 39586 40144 54001 875// 90255 333 30/// 56399 59023 87627;
0225763930999992008092006004+25733-100300FM-12+051599999V0202201N001010075019N0100001N1+02281+01651101501ADDGF107991071051008001999999GJ103369IA1019KA1240M+03041KA2240N+02021MA1999999095911MD1410001-0201REMSYN118AAXX  20061 76393 32560 72201 10228 20165 39591 40150 54005 875// 90555 333 10304 20202 30/// 55056 56399 59020 87621;
0217763930999992008092009004+25733-100300FM-12+051599999V0209999C000010042019N0080001N1+02081+01651101461ADDAY141031AY211031GA1051+004201061GF105991051041004501001001IA1019MA1999999095841MD1410001-0121MW1051REMSYN106AAXX  20091 76393 31458 50000 10208 20165 39584 40146 54007 70541 85400 90855 333 30/// 56300 59012 85614;
0161763930999992008092012004+25733-100300FM-12+051599999V0209999C000012200019N0020001N1+02081+01621101491ADDAY141061AY211061GF104991041041004501001001MA1999999095841MD1410001+9999MW1051REMSYN072AAXX  20121 76393 31420 40000 10208 20162 39584 40149 54000 70541 84400;
0223763930999992008092015004+25733-100300FM-12+051599999V0209999C000012200019N0020001N1+02481+01741101741ADDAY141031AY201031GA1011+007201081GF102991011011008001031001IA1019MA1999999096071MD1210231-0021MW1051REMSYN112AAXX  20151 76393 31520 20000 10248 20174 39607 40174 52023 70540 81130 91455 333 30/// 56350 59002 81824 81360;
0255763930999992008092018004+25733-100300FM-12+051599999V0200901N001012200019N0040001N1+02821+01521101661ADDAY141061AY211061GA1031+030001031GF103991031001999999031001IA1019KA1120M+02961KA2240N+02001MA1999999096011MD1710061-0071MW1051REMSYN118AAXX  20181 76393 31940 30901 10282 20152 39601 40166 57006 70541 83030 91750 333 10296 20200 30/// 56050 59007 83360;
0217763930999992008092021004+25733-100300FM-12+051599999V0200601N001010300019N0050001N1+02961+01511101391ADDAY141031AY211031GA1051+030001031GF105991051001999999031001IA1019MA1999999095801MD1710201-0071MW1051REMSYN106AAXX  20211 76393 31950 50601 10296 20151 39580 40139 57020 70541 85030 92050 333 30/// 56050 59007 85360;
0300763930999992008092100004+25733-100300FM-12+051599999V0201301N00101030001CN0040001N1+02741+01871101381ADDAA124000091AY141061AY221061GA1031+008701061GA2031+030001031GF108991999999008001999999IA1019KA1120M+03081KA2180N+02001MA1999999095821MD1210021-0031MW1051REMSYN136AAXX  21001 76393 31540 81301 10274 20187 39582 40138 52002 70542 92350 333 10308 20200 30/// 50471 56355 59003 70000 83629 83360 82070;
0223763930999992008092103004+25733-100300FM-12+051599999V0201501N00201036001CN0040001N1+02601+01681101481ADDAY141031AY241031GA1031+009001051GF107991031051008001031999IA1019MA1999999095931MD1210111+0131MW1051REMSYN112AAXX  21031 76393 31540 71502 10260 20168 39593 40148 52011 70544 8353/ 90250 333 0/359 30/// 58013 83530 84356;
0251763930999992008092106004+25733-100300FM-12+051599999V0201701N002012200019N0030001N1+02381+01791101531ADDAY141061AY221061GA1001+999999999GF100991001001999999001001GJ104569IA1019KA1240M+03081KA2240N+02001MA1999999095961MD1610031-0051MW1051REMSYN106AAXX  21061 76393 31930 01702 10238 20179 39596 40153 56003 70542 90550 333 10308 20200 30/// 55076 59005;
0199763930999992008092109004+25733-100300FM-12+051599999V0209999C000012200019N0030001N1+02201+01751101401ADDAY141031AY221031GA1001+999999999GF100991001001999999001001IA1019MA1999999095811MD1810151-0031MW1051REMSYN088AAXX  21091 76393 31930 00000 10220 20175 39581 40140 58015 70542 90850 333 30/// 59003;
0161763930999992008092112004+25733-100300FM-12+051599999V0209999C000012200019N0030001N1+02141+01721101611ADDAY141061AY261061GF103991011051004501041999MA1999999095971MD1210161+9999MW1051REMSYN072AAXX  21121 76393 31430 30000 10214 20172 39597 40161 52016 70546 8154/;
0223763930999992008092115004+25733-100300FM-12+051599999V0202101N00101036001CN0060001N1+02521+01781101671ADDAY141031AY241031GA1041+007501081GF105991041021008001031001IA1019MA1999999096051MD1110081-0021MW1051REMSYN112AAXX  21151 76393 31556 52101 10252 20178 39605 40167 51008 70544 84230 91450 333 30/// 56350 59002 84825 81360;
0261763930999992008092118004+25733-100300FM-12+051599999V0201001N001010105019N0080001N1+02761+01731101681ADDAY141061AY241061GA1061+010501081GF107991061021012501031999IA1019KA1120M+02841KA2240N+02181MA1999999096041MD1610011+0031MW1051REMSYN124AAXX  21181 76393 31658 71001 10276 20173 39604 40168 56001 70544 8623/ 91740 333 10284 20218 30/// 5635/ 58003 86835 81360;
0223763930999992008092121004+25733-100300FM-12+051599999V0201501N003010144019N0100001N1+03021+01591101431ADDAY101031AY201031GA1051+014401081GF107991051021012501031001IA1019MA1999999095841MD1710201+0041MW1051REMSYN112AAXX  21211 76393 31660 71503 10302 20159 39584 40143 57020 70500 85230 92050 333 30/// 56350 58004 85848 82360;
0319763930999992008092200004+25733-100300FM-12+051599999V0201101N003010360019N0060001N1+02761+01831101401ADDAA124000091AY101061AY201061GA1021+009301081GF106991021021008001041011IA1019KA1120M+03141KA2180N+02081MA1999999095841MD1710031+0021MW1051REMSYN136AAXX  22001 76393 31556 61103 10276 20183 39584 40140 56000 70500 82241 92350 333 10314 20208 30/// 50411 56355 58002 70000 82831 83360;EQDQ01+000062APCTENQ02+000002APC3  
0195763930999992008092203004+25733-100300FM-12+051599999V0201701N002012200019N0160001N1+02581+01821101581ADDGA1021+007501081GF104991021041008001041001IA1019MA1999999096031MD1210191+0101REMSYN106AAXX  22031 76393 32566 41702 10258 20182 39603 40158 52019 82440 90255 333 00300 30/// 58010 82825 82358;
0241763930999992008092206004+25733-100300FM-12+051599999V0201301N003012200019N0100001N1+02401+01971101601ADDGA1041+004201061GF104991041041004501001001GJ105109IA1019KA1240M+03141KA2240N+02081MA1999999096041MD1110011+0081REMSYN118AAXX  22061 76393 32460 41303 10240 20197 39604 40160 51001 84400 90555 333 0/300 10314 20208 30/// 55085 58008 84614;
0189763930999992008092209004+25733-100300FM-12+051599999V0200601N002012200019N0140001N1+02181+01951101561ADDGA1021+002401061GF102991021041002501001001IA1019MA1999999095961MD1410001+0151REMSYN100AAXX  22091 76393 32364 20602 10218 20195 39596 40156 54008 82400 90855 333 0/300 30/// 58015 82608;
0244763930999992008092212004+25733-100300FM-12+051599999V0200901N001012200019N0150001N1+02221+01931101581ADDAA124000091GA1021+003001061GF102991021041002501001001IA1019KA1240M+03141KA2120N+02141MA1999999095951MD1410001-0021REMSYN118AAXX  22121 76393 32365 20901 10222 20193 39595 40158 54001 82400 91155 333 0/300 10314 20214 30200 59002 70000 82610;
0223763930999992008092215004+25733-100300FM-12+051599999V0200301N00101004201CN0060001N1+02401+02001101831ADDAY141031AY221031GA1021+003901081GF105991051051004501001001IA1019MA1999999096171MD1210221+0121MW1051REMSYN112AAXX  22151 76393 31456 50301 10240 20200 39617 40183 52022 70542 85500 91455 333 30/// 56300 58012 82813 83615;
0283763930999992008092218004+25733-100300FM-12+051599999V0201301N001010108019N0060001N1+02941+01911101791ADDAY141061AY221061GA1011+010201081GA2041+010801061GF106991051051012501031001IA1019KA1120M+03041KA2240N+02141MA1999999096161MD1710011+0121MW1051REMSYN130AAXX  22181 76393 31656 61301 10294 20191 39616 40179 57001 70542 85530 91755 333 10304 20214 30/// 56350 58012 81834 84636 81360;
0245763930999992008092221004+25733-100300FM-12+051599999V0200901N001010111019N0050001N1+02981+01961101491ADDAY141031AY221031GA1011+010801081GA2041+011101061GF106991051021012501001011IA1019MA1999999095901MD1710261+0061MW1051REMSYN118AAXX  22211 76393 31650 60901 10298 20196 39590 40149 57026 70542 85201 92055 333 30/// 56305 58006 81836 84637 81070;
0234763930999992008092303004+25733-100300FM-12+051599999V0201201N003010027019N0040001N1+02401+02121101641ADDAA103000291AY151031AY221031GA1061+002701061GF106991061051002501999999IA1099MA1999999096081MD1210161+0051MW1051REMSYN112AAXX  23031 76393 21340 61203 10240 20212 39608 40164 52016 70552 865// 90250 333 0/399 31/// 58005 69927 86609;
0343763930999992008092306004+25733-100300FM-12+051599999V0209999C000010024019N0030001N1+02341+02081101731ADDAA103999999AY141061AY261061GA1071+002401061GF107991071051002501999999GJ104329IA1099KA1240M+03081KA2240N+02331MA1999999096141MD1110061+0101MW1051REMSYN136AAXX  23061 76393 01330 70000 10234 20208 39614 40173 51006 69921 70546 875// 90550 333 0/399 10308 20233 31/// 55072 58010 69907 87608;EQDQ01  00002PRCP06Q02  99992PRCP03Q03  00002PRCP06
0242763930999992008092309004+25733-100300FM-12+051599999V0201101N001010018019N0030001N1+02301+02111101621ADDAY141031AY201031GA1061+001801061GF108991061051001501021999IA1019MA1999999096021MD1710121+0061MW1051REMSYN112AAXX  23091 76393 31230 81101 10230 20211 39602 40162 57012 70547 8652/ 90850 333 0/359 30/// 58006 86606 82456;EQDQ01+000072PSTWM2
0180763930999992008092312004+25733-100300FM-12+051599999V0200501N002010360019N0040001N1+02381+02101101621ADDAY141061AY201061GF107991041051002501021999MA1999999095991MD1810031+9999MW1051REMSYN072AAXX  23121 76393 31340 70502 10238 20210 39599 40162 58003 70547 8452/;EQDQ01+000072PSTWM2
0234763930999992008092315004+25733-100300FM-12+051599999V0201201N001010033019N0030001N1+02461+02121101681ADDAA103000291AY141031AY241031GA1081+003301061GF108991081041004501999999IA1099MA1999999096041MD1210051-0131MW1051REMSYN112AAXX  23151 76393 21430 81201 10246 20212 39604 40168 52005 70544 884// 91440 333 0/3// 31/// 59013 69927 88611;
0313763930999992008092318004+25733-100300FM-12+051599999V0201901N001010036019N0060001N1+02641+02281101721ADDAA103999929AY151061AY251061GA1071+003601081GF107991071041004501999999IA1099KA1120M+99999KA2240N+02341MA1999999096091MD1010051-0071MW1501REMSYN130AAXX  23181 76393 01456 71901 10264 20228 39609 40172 50005 69921 75055 874// 91750 333 033// 10252 20234 31/// 59007 69907 87812;EQDQ01  00002PRCP06Q02 +02522ATMX  
0240763930999992008092321004+25733-100300FM-12+051599999V0201601N001010015019N0030001N1+02481+02311101431ADDAA103007091AY161031AY211031GA1071+001501071GF108991071071001501999999IA1119MA1999999095831MD1710161-0071MW1601REMSYN118AAXX  23211 76393 01230 81601 10248 20231 39583 40143 57016 76061 877// 92050 333 003// 32/// 59007 60077 87705 81806;
0290763930999992008092400004+25733-100300FM-12+051599999V0203601N002010042019N0050001N1+02481+02051101391ADDAA103003091AA206008991AA324009791AY101061AY201061GF108991081071004501999999IA1099KA1120M+03061KA2180N+02321MA1999999095801MD1210031-0121MW1051REMSYN136AAXX  24001 76393 01450 83602 10248 20205 39580 40139 52003 60091 70500 887// 92340 333 0/3// 10306 20232 31/// 50361 59012 60037 70097;
0234763930999992008092403004+25733-100300FM-12+051599999V0201301N002010015019N0010001N1+02181+02041101681ADDAA103014091AY161031AY221031GA1081+001501071GF108991081071001501999999IA1119MA1999999096071MD1210271-0011MW1601REMSYN112AAXX  24031 76393 21210 81302 10218 20204 39607 40168 52027 76062 887// 90255 333 0/399 32/// 59001 60147 88705;
0303763930999992008092406004+25733-100300FM-12+051599999V0201301N001010012019N0010001N1+02181+02061101701ADDAA103001091AA206015091AY151061AY221061GA1081+001201071GF108991081071001501999999GJ101209IA1119KA1240M+03061KA2240N+02101MA1999999096071MD1410001-0041MW1501REMSYN136AAXX  24061 76393 01210 81301 10218 20206 39607 40170 54000 60151 75052 887// 90555 333 0/399 10306 20210 32/// 55020 59004 60017 88704;
0306763930999992008092412004+25733-100300FM-12+051599999V0200501N001010009019N0010001N1+02161+02021101561ADDAA103002091AA206004191AA324029491AY151061AY221061GA1081+000901071GF108991081071001501999999IA1119KA1240M+03061KA2120N+02101MA1999999095901MD1410001-0091MW1501REMSYN136AAXX  24121 76393 01210 80501 10216 20202 39590 40156 54003 60041 75052 887// 91155 333 0/399 10306 20210 32208 59009 60027 70294 88703;
0234763930999992008092415004+25733-100300FM-12+051599999V0203501N001010009019N0005001N1+02161+02071101791ADDAA103006091AY151031AY251031GA1081+000901071GF108991081071000751999999IA1119MA1999999096111MD1210211+0071MW1501REMSYN112AAXX  24151 76393 21105 83501 10216 20207 39611 40179 52021 75055 887// 91455 333 0/399 32/// 58007 60067 88703;
0289763930999992008092418004+25733-100300FM-12+051599999V0209999C000010009019N0004001N1+02241+02151101801ADDAA103016091AA206023191AY151061AY261061GA1081+000901071GF108991081071000751999999IA1119KA1120M+02301KA2240N+02101MA1999999096121MD1210011+0031MW1501REMSYN130AAXX  24181 76393 01104 80000 10224 20215 39612 40180 52001 60231 75056 887// 91755 333 0/399 10230 20210 32/// 58003 60167 88703;
0234763930999992008092421004+25733-100300FM-12+051599999V0201201N001010009019N0006001N1+02261+02171101671ADDAA103016091AY151031AY251031GA1081+000901071GF108991081071000751999999IA1119MA1999999096011MD1710111+0181MW1501REMSYN112AAXX  24211 76393 21106 81201 10226 20217 39601 40167 57011 75055 887// 92055 333 0/399 32/// 58018 60167 88703;
0234763930999992008092503004+25733-100300FM-12+051599999V0202001N001010006019N0020001N1+02021+01961101961ADDAA103008091AY151031AY251031GA1081+000601071GF108991081071000751999999IA1119MA1999999096271MD1210141+0271MW1521REMSYN112AAXX  25031 76393 21120 82001 10202 20196 39627 40196 52014 75255 887// 90259 333 0/3// 32/// 58027 60087 88702;
0303763930999992008092506004+25733-100300FM-12+051599999V0209999C000010009019N0050001N1+02041+01971101931ADDAA103001091AA206008991AY151061AY221061GA1081+000901071GF108991081071000751999999GJ100009IA1119KA1240M+02421KA2240N+02021MA1999999096231MD1710041+0161MW1501REMSYN136AAXX  25061 76393 01150 80000 10204 20197 39623 40193 57004 60091 75052 887// 90555 333 0/3// 10242 20202 32/// 55000 58016 60017 88703;
0206763930999992008092509004+25733-100300FM-12+051599999V0203001N001010009019N0060001N1+01981+01911101801ADDAA103000991GA1081+000901071GF108991081071000751999999IA1099MA1999999096101MD1710131+0231REMSYN106AAXX  25091 76393 22156 83001 10198 20191 39610 40180 57013 887// 90855 333 0/3// 31/// 58023 69997 88703;
0306763930999992008092512004+25733-100300FM-12+051599999V0202201N001010009019N0010001N1+01981+01941101931ADDAA103006091AA206007191AA324072591AY151061AY251061GA1081+000901071GF108991081071000251999999IA1019KA1240M+02421KA2120N+01981MA1999999096211MD1210111+0311MW1521REMSYN136AAXX  25121 76393 01010 82201 10198 20194 39621 40193 52011 60071 75255 887// 91158 333 0/3// 10242 20198 30195 58031 60067 70725 88703;
0240763930999992008092515004+25733-100300FM-12+051599999V0203401N001010021019N0050001N1+02181+01981102041ADDAA103000291AY141031AY241031GA1061+002101081GF107991061021001501031999IA1099MA1999999096331MD1210121+0221MW1051REMSYN118AAXX  25151 76393 21250 73401 10218 20198 39633 40204 52012 70544 8623/ 91450 333 0035/ 31/// 58022 69927 86807 81360;
0280763930999992008092518004+25733-100300FM-12+051599999V0200301N001010075019N0080001N1+02521+01791101971ADDAY101061AY201061GA1071+007501081GF107991071021008001999999IA1019KA1120M+02681KA2240N+02041MA1999999096271MD1710061+0151MW1051REMSYN124AAXX  25181 76393 11558 70301 10252 20179 39627 40197 57006 69901 70500 872// 91740 333 033// 10268 20204 30/// 58015 87825;EQDQ01  00002PRCP06
0262763930999992008092521004+25733-100300FM-12+051599999V0201401N003010060019N0040001N1+02401+01811101761ADDAA103000021AY151031AY251031GA1021+005701081GA2031+006001071GF108991051071004501041999IA1099MA1999999096111MD1710161+0101MW1501REMSYN124AAXX  25211 76393 01440 81403 10240 20181 39611 40176 57016 75055 8574/ 92050 333 0335/ 31/// 58010 69907 82819 83720 83360;
0196763930999992008092600004+25733-100300FM-12+051599999V0201801N001010042019N0060001N1+02361+01771101751ADDAY101061AY201061GF108991081041004501999999MA1999999096111MD1710011+9999MW1051REMSYN072AAXX  26001 76393 31456 81801 10236 20177 39611 40175 53000 70500 884//;EQDQ01+000032APCTENQ02+000002APC3  
0189763930999992008092603004+25733-100300FM-12+051599999V0202301N001010048019N0100001N1+02201+01721101801ADDGA1081+004801061GF108991081061004501999999IA1019MA1999999096161MD1410001-0111REMSYN100AAXX  26031 76393 32460 82301 10220 20172 39616 40180 54005 886// 90255 333 0/399 30/// 59011 88616;
0241763930999992008092606004+25733-100300FM-12+051599999V0202001N001010048019N0100001N1+02201+01721101841ADDGA1081+004801061GF108991081041004501999999GJ101569IA1019KA1240M+02901KA2240N+01981MA1999999096191MD1410001-0041REMSYN118AAXX  26061 76393 32460 82001 10220 20172 39619 40184 54003 884// 90555 333 0/399 10290 20198 30/// 55026 59004 88616;
0189763930999992008092609004+25733-100300FM-12+051599999V0200901N001012200019N0020001N1+02021+01781101771ADDGA1021+002401061GF102991021041002501001001IA1019MA1999999096101MD1410001+0001REMSYN100AAXX  26091 76393 32320 20901 10202 20178 39610 40177 54009 82400 90855 333 0/300 30/// 58000 82608;
0161763930999992008092612004+25733-100300FM-12+051599999V0201801N001012200019N0020001N1+01921+01641101621ADDAY141061AY201061GF102991021041002501001001MA1999999095941MD1710161+9999MW1051REMSYN072AAXX  26121 76393 31320 21801 10192 20164 39594 40162 57016 70540 82400;
0217763930999992008092615004+25733-100300FM-12+051599999V0200901N001012200019N0040001N1+02261+01771102011ADDAY141031AY241031GA1011+004801081GF101991011011004501001001IA1099MA1999999096301MD1210361-0031MW1051REMSYN106AAXX  26151 76393 31440 10901 10226 20177 39630 40201 52036 70544 81100 91455 333 01500 31/// 59003 81816;
0161763930999992008092618004+25733-100300FM-12+051599999V0201201N002012200019N0050001N1+02621+01511101921ADDAY141061AY241061GF101991011021012501001001MA1999999096231MD1710071+9999MW1051REMSYN072AAXX  26181 76393 31650 11202 10262 20151 39623 40192 57007 70544 81200;
0161763930999992008092700004+25733-100300FM-12+051599999V0201401N003012200019N0080001N1+02551+01341101541ADDAY141061AY241061GF103991011051012501031001MA1999999095941MD1710041+9999MW1041REMSYN072AAXX  27001 76393 31658 31403 10255 20134 39594 40154 57004 70444 81530;
0195763930999992008092703004+25733-100300FM-12+051599999V0201401N001012200019N0060001N1+02341+01461101611ADDAY141031AY241031GF101991001001999999001011IA1099MA1999999096021MD1210081-0141MW1051REMSYN100AAXX  27031 76393 31956 11401 10234 20146 39602 40161 52008 70544 80001 90255 333 0/005 31/// 59014;
0260763930999992008092706004+25733-100300FM-12+051599999V0202301N001012200019N0020001N1+02041+01511101631ADDGA1021+072001001GF102991001001999999001041GJ105529IA1019KA1240M+02951KA2240N+01801MA1999999096021MD1410001-0171REMSYN118AAXX  27061 76393 32920 22301 10204 20151 39602 40163 54000 82004 90555 333 0/005 10295 20180 30/// 55092 59017 82074;EQDQ01+000022SCOTLC
0208763930999992008092709004+25733-100300FM-12+051599999V0202301N001012200019N0140001N1+01901+01431101571ADDGA1021+072001001GF102991001001999999001041IA1019MA1999999095921MD1610101-0181REMSYN100AAXX  27091 76393 32964 22301 10190 20143 39592 40157 56010 82004 90855 333 0/005 30/// 59018 82074;EQDQ01+000022SCOTLC
0253763930999992008092712004+25733-100300FM-12+051599999V0201801N001012200019N0160001N1+01841+01431101561ADDAA124000091GF101991001001999999001041IA1019KA1240M+02951KA2120N+01701MA1999999095891MD1410001-0051REMSYN124AAXX  27121 76393 32966 11801 10184 20143 39589 40156 54002 81004 91155 333 0/005 10295 20170 30/// 30150 59005 70000 81074;EQDQ01+000012SCOTLC
0223763930999992008092715004+25733-100300FM-12+051599999V0209999C000012200019N0080001N1+02221+01401101701ADDAY141031AY241031GA1011+008401081GF102991011011008001001011IA1019MA1999999096001MD1210061-0301MW1051REMSYN112AAXX  27151 76393 31558 20000 10222 20140 39600 40170 52006 70544 81101 91450 333 0/305 30/// 59030 81828 81070;
0196763930999992008092718004+25733-100300FM-12+051599999V0200901N001012200019N0060001N1+02701+01481101691ADDAY141061AY241061GF104991041021012501001001MA1999999096001MD1710011+9999MW1051REMSYN072AAXX  27181 76393 31656 40901 10270 20148 39600 40169 56000 70544 84200;EQDQ01+000062APCTENQ02+000002APC3  
0217763930999992008092721004+25733-100300FM-12+051599999V0200901N001012200019N0060001N1+02841+01431101511ADDAY141031AY241031GA1041+014101081GF104991041021012501001001IA1019MA1999999095881MD1710121-0101MW1051REMSYN106AAXX  27211 76393 31656 40901 10284 20143 39588 40151 57012 70544 84200 92050 333 0/300 30/// 59010 84847;
0161763930999992008092800004+25733-100300FM-12+051599999V0201201N002010900019N0050001N1+02541+01391101461ADDAY141061AY241061GF105991021041012501031011MA1999999095871MD1810011+9999MW1051REMSYN072AAXX  28001 76393 31650 51202 10254 20139 39587 40146 58001 70544 82431;
0245763930999992008092803004+25733-100300FM-12+051599999V0201401N001012200019N0060001N1+02421+01321101551ADDAY141031AY201031GA1011+011101061GA2011+024001031GF103991011051012501031041IA1019MA1999999095971MD1310101-0051MW1051REMSYN118AAXX  28031 76393 31656 31401 10242 20132 39597 40155 53010 70540 81534 90255 333 0/355 30/// 59005 81637 81358 81074;
0158763930999992008092806004+25733-100300FM-12+051599999V0201901N001012200019N0100001N1+02161+01481999999ADDGF101991999999999999999999REMSYN120AAXX  28061 76393 31960 11901 10216 20148 0/355 10292 20170 30/// 39601 40165 54004 55085 59001 70540 81004 81074 90555;
0217763930999992008092809004+25733-100300FM-12+051599999V0201801N001012200019N0020001N1+01981+01341101571ADDAY141031AY201031GA1011+072001001GF101991001001999999001041IA1019MA1999999095941MD1410001+0021MW1051REMSYN106AAXX  28091 76393 31920 11801 10198 20134 39594 40157 54007 70540 81004 90855 333 0/005 30/// 58002 81074;
0161763930999992008092812004+25733-100300FM-12+051599999V0202301N001012200019N0020001N1+01921+01271101611ADDAY141061AY201061GF102991021001022501041001MA1999999095941MD1410001+9999MW1051REMSYN072AAXX  28121 76393 31820 22301 10192 20127 39594 40161 54000 70540 82040;
0199763930999992008092815004+25733-100300FM-12+051599999V0209999C000012200019N0020001N1+02301+01321101851ADDAY141031AY201031GA1001+999999999GF100991001001999999001001IA1019MA1999999096151MD1210211+0151MW1051REMSYN088AAXX  28151 76393 31920 00000 10230 20132 39615 40185 52021 70540 91455 333 30/// 58015;
0161763930999992008092818004+25733-100300FM-12+051599999V0201101N001012200019N0040001N1+02841+01241101821ADDAY141061AY201061GF101991011011012501001001MA1999999096151MD1410001+9999MW1051REMSYN072AAXX  28181 76393 31640 11101 10284 20124 39615 40182 54000 70540 81100;
0223763930999992008092821004+25733-100300FM-12+051599999V0200901N001012200019N0040001N1+02921+01381101551ADDAY141031AY201031GA1031+015001081GF104991031011017501031001IA1019MA1999999095931MD1710221-0051MW1051REMSYN112AAXX  28211 76393 31740 40901 10292 20138 39593 40155 57022 70540 83130 92055 333 00350 30/// 59005 83850 81365;
0161763930999992008092900004+25733-100300FM-12+051599999V0201401N001010360019N0040001N1+02641+01371101511ADDAY141061AY221061GF105991011011012501021001MA1999999095931MD1410001+9999MW1051REMSYN072AAXX  29001 76393 31640 51401 10264 20137 39593 40151 54000 70542 81120;
0217763930999992008092915004+25733-100300FM-12+051599999V0203401N001012200019N0100001N1+02301+01431101801ADDAY141031AY241031GA1011+060001001GF101991001001999999001011IA1019MA1999999096101MD1210051-0051MW1051REMSYN106AAXX  29151 76393 31960 13401 10230 20143 39610 40180 52005 70544 80001 91450 333 0/005 30/// 59005 81070;
0217763930999992008092921004+25733-100300FM-12+051599999V0200901N001010150019N0060001N1+02901+01391101561ADDAY141031AY241031GA1061+015001081GF106991061021012501001001IA1019MA1999999095931MD1210221+0001MW1051REMSYN106AAXX  29211 76393 31656 60901 10290 20139 39593 40156 52022 70544 86200 92050 333 0/300 30/// 58000 86850;
0161763930999992008093000004+25733-100300FM-12+051599999V0201201N003012200019N0100001N1+02621+01421101551ADDAY141061AY241061GF104991021021012501011011MA1999999095961MD1510031+9999MW1051REMSYN072AAXX  30001 76393 31660 41203 10262 20142 39596 40155 55003 70544 82211;
0208763930999992008093003004+25733-100300FM-12+051599999V0202201N001012200019N0100001N1+02321+01451101731ADDGA1011+072001001GF101991001001999999001041IA1019MA1999999096151MD1310191+0001REMSYN100AAXX  30031 76393 32960 12201 10232 20145 39615 40173 53019 81004 90255 333 0/005 30/// 58000 81074;EQDQ01+000012SCOTLC
0252763930999992008093006004+25733-100300FM-12+051599999V0202201N002012200019N0100001N1+02101+01331101791ADDGA1011+072001001GF101991001001999999001041IA1019KA1240M+03021KA2240N+01681MA1999999096411MD1110041+0001REMSYN118AAXX  30061 76393 32960 12202 10210 20133 39641 40179 51004 81004 90555 333 0/005 10302 20168 30/// 55/// 59000 81074;EQDQ01+000012SCOTLC
0208763930999992008093009004+25733-100300FM-12+051599999V0202301N002012200019N0010001N1+01941+01261101841ADDGA1011+072001001GF101991001001999999001041IA1019MA1999999096191MD1410001+0001REMSYN100AAXX  30091 76393 32910 12302 10194 20126 39619 40184 54004 81004 90855 333 0/005 30/// 59000 81074;EQDQ01+000012SCOTLC
0253763930999992008093012004+25733-100300FM-12+051599999V0202301N002012200019N0100001N1+01901+01251101881ADDAA124000091GF101991001001999999001041IA1019KA1240M+03021KA2120N+01681MA1999999096221MD1410001+0171REMSYN124AAXX  30121 76393 32960 12302 10190 20125 39622 40188 54003 81004 91155 333 0/005 10302 20168 30/// 30145 58017 70000 81074;EQDQ01+000012SCOTLC
0199763930999992008093015004+25733-100300FM-12+051599999V0202501N001012200019N0100001N1+02501+01261102111ADDAY141031AY241031GA1001+999999999GF100991001001999999001001IA1019MA1999999096401MD1210181+0301MW1051REMSYN088AAXX  30151 76393 31960 02501 10250 20126 39640 40211 52018 70544 91455 333 30/// 58030;
0237763930999992008093018004+25733-100300FM-12+051599999V0200601N001012200019N0120001N1+02981+00961102041ADDAY101061AY201061GA1001+999999999GF100991001001999999001001IA1019KA1120M+03081KA2240N+01681MA1999999096381MD1710021+0231MW1051REMSYN100AAXX  30181 76393 31962 00601 10298 20096 39638 40204 57002 70500 91755 333 10308 20168 30/// 58023;
0171763930999992008093021004+25733-100300FM-12+051599999V0203601N001012200019N0140001N1+02981+01091101721ADDGA1001+999999999GF100991001001999999001001IA1019MA1999999096111MD1710271+0181REMSYN082AAXX  30211 76393 32964 03601 10298 20109 39611 40172 57027 92055 333 30/// 58018;
0279763930999992008100100004+25733-100300FM-12+051599999V0200101N001012200019N0080001N1+02801+01241101641ADDAA124000091AY101061AY201061GA1001+999999999GF100991001001999999001001IA1019KA1120M+03201KA2180N+01681MA1999999096071MD1710041+0111MW1051REMSYN112AAXX  01001 76393 31958 00101 10280 20124 39607 40164 57004 70500 92355 333 10320 20168 30/// 50451 58011 70000;EQDQ01  00002PRCP24
0199763930999992008100115004+25733-100300FM-12+051599999V0202701N003012200019N0120001N1+02501+00841101831ADDAY141031AY241031GA1001+999999999GF100991001001999999001001IA1019MA1999999096151MD1310071-0251MW1051REMSYN088AAXX  01151 76393 31962 02703 10250 20084 39615 40183 53007 70544 91450 333 30/// 59025;
0237763930999992008100118004+25733-100300FM-12+051599999V0200901N003012200019N0120001N1+02921+01001101701ADDAY141061AY241061GA1001+999999999GF100991001001999999001001IA1019KA1120M+03161KA2240N+02041MA1999999096051MD1710101-0231MW1051REMSYN100AAXX  01181 76393 31962 00903 10292 20100 39605 40170 57010 70544 91750 333 10316 20204 30/// 59023;
0223763930999992008100121004+25733-100300FM-12+051599999V0201301N003012200019N0120001N1+03161+01231101471ADDAY141031AY241031GA1011+030001031GF103991031001999999011011IA1019MA1999999095881MD1710171-0231MW1051REMSYN112AAXX  01211 76393 31962 31303 10316 20123 39588 40147 57017 70544 83011 92050 333 0/055 30/// 59023 81360 82070;
0180763930999992008100200004+25733-100300FM-12+051599999V0201301N003012200019N0140001N1+02901+01321101371ADDAY141061AY241061GF104991001001999999001011MA1999999095831MD1510051+9999MW1051REMSYN072AAXX  02001 76393 31964 41303 10290 20132 39583 40137 55005 70544 84001;EQDQ01+000042SCOTLC
0171763930999992008100203004+25733-100300FM-12+051599999V0201901N001012200019N0100001N1+02551+01361101491ADDGA1001+999999999GF100991001001999999001001IA1019MA1999999095961MD1210131-0181REMSYN082AAXX  02031 76393 32960 01901 10255 20136 39596 40149 52013 90255 333 30/// 59018;
0223763930999992008100206004+25733-100300FM-12+051599999V0202201N001012200019N0100001N1+02281+01371101491ADDGA1001+999999999GF100991001001999999001001GJ106489IA1019KA1240M+03321KA2240N+01931MA1999999095941MD1710021-0451REMSYN100AAXX  02061 76393 32960 02201 10228 20137 39594 40149 57002 90555 333 10332 20193 30/// 55108 59045;
0171763930999992008100209004+25733-100300FM-12+051599999V0202001N001012200019N0100001N1+02011+01341101451ADDGA1001+999999999GF100991001001999999001001IA1019MA1999999095861MD1710081-0531REMSYN082AAXX  02091 76393 32960 02001 10201 20134 39586 40145 57008 90850 333 30/// 59053;
0245763930999992008100212004+25733-100300FM-12+051599999V0202101N001012200019N0100001N1+02051+01141101481ADDAA124000091GA1001+999999999GF100991001001999999001001IA1019KA1240M+03321KA2120N+01851MA1999999095831MD1710031-0391REMSYN100AAXX  02121 76393 32960 02101 10205 20114 39583 40148 57003 91155 333 10332 20185 30147 59039 70000;EQDQ01  00002PRCP24
0171763930999992008100215004+25733-100300FM-12+051599999V0202501N001012200019N0140001N1+02601+01151101561ADDGA1001+999999999GF100991001001999999001001IA1019MA1999999095901MD1210071-0251REMSYN082AAXX  02151 76393 32964 02501 10260 20115 39590 40156 52007 91455 333 30/// 59025;
0209763930999992008100218004+25733-100300FM-12+051599999V0201401N001012200019N0140001N1+03121+01381101461ADDGA1001+999999999GF100991001001999999001001IA1019KA1120M+03221KA2240N+01851MA1999999095841MD1710061-0211REMSYN094AAXX  02181 76393 32964 01401 10312 20138 39584 40146 57006 91755 333 10322 20185 30/// 59021;
0171763930999992008100221004+25733-100300FM-12+051599999V0200901N002012200019N0160001N1+03121+01381101131ADDGA1001+999999999GF100991001001999999001001IA1019MA1999999095571MD1710271-0311REMSYN082AAXX  02211 76393 32966 00902 10312 20138 39557 40113 57027 92055 333 30/// 59031;
0279763930999992008100300004+25733-100300FM-12+051599999V0201401N001012200019N0080001N1+02941+01491101041ADDAA124000091AY101061AY201061GA1001+999999999GF100991001001999999001001IA1019KA1120M+03301KA2180N+01851MA1999999095531MD1710041-0301MW1051REMSYN112AAXX  03001 76393 31958 01401 10294 20149 39553 40104 57004 70500 92355 333 10330 20185 30/// 50641 59030 70000;EQDQ01  00002PRCP24
0199763930999992008100303004+25733-100300FM-12+051599999V0200601N002012200019N0050001N1+02641+01441101141ADDAY141031AY241031GA1001+999999999GF100991001001999999001001IA1019MA1999999095641MD1210111-0321MW1051REMSYN088AAXX  03031 76393 31950 00602 10264 20144 39564 40114 52011 70544 90250 333 30/// 59032;
0251763930999992008100306004+25733-100300FM-12+051599999V0203501N001012200019N0040001N1+02421+01501101171ADDAY141061AY241061GA1001+999999999GF100991001001999999001001GJ106249IA1019KA1240M+03301KA2240N+01851MA1999999095651MD1710011-0291MW1051REMSYN106AAXX  03061 76393 31940 03501 10242 20150 39565 40117 57001 70544 90550 333 10330 20185 30/// 55104 59029;
0199763930999992008100309004+25733-100300FM-12+051599999V0200501N001012200019N0040001N1+02061+01761101201ADDAY141031AY241031GA1001+999999999GF100991001001999999001001IA1019MA1999999095631MD1710021-0231MW1051REMSYN088AAXX  03091 76393 31940 00501 10206 20176 39563 40120 57002 70544 90850 333 30/// 59023;
0289763930999992008100312004+25733-100300FM-12+051599999V0203101N001012200019N0020001N1+01981+01931101251ADDAA124000091AY141061AY241061GA1001+999999999GF100991001001999999001001IA1019KA1240M+03301KA2120N+01881MA1999999095631MD1110051-0201MW1051REMSYN106AAXX  03121 76393 31920 03101 10198 20193 39563 40125 51000 70544 91150 333 10330 20188 30168 59020 70000;EQDQ01+000002APC3  Q02  00002PRCP24
0199763930999992008100315004+25733-100300FM-12+051599999V0203101N002012200019N0030001N1+02311+01781101431ADDAY141031AY241031GA1001+999999999GF100991001001999999001001IA1019MA1999999095781MD1210151-0121MW1051REMSYN088AAXX  03151 76393 31930 03102 10231 20178 39578 40143 52015 70544 91455 333 30/// 59012;
0161763930999992008100318004+25733-100300FM-12+051599999V0201201N002012200019N0040001N1+02741+01811101411ADDAY141061AY241061GF101991011011008001001001MA1999999095781MD1710021+9999MW1051REMSYN072AAXX  03181 76393 31540 11202 10274 20181 39578 40141 57002 70544 81100;
0217763930999992008100321004+25733-100300FM-12+051599999V0200901N006012200019N0050001N1+02961+01751101171ADDAY141031AY241031GA1011+012001081GF101991011011012501001001IA1019MA1999999095571MD1710191+0001MW1051REMSYN106AAXX  03211 76393 31650 10906 10296 20175 39557 40117 57019 70544 81100 92055 333 00500 30/// 58000 81840;
0161763930999992008100400004+25733-100300FM-12+051599999V0201101N003012200019N0080001N1+02831+01591101131ADDAY141061AY241061GF102991021001022501051001MA1999999095581MD1210011+9999MW1051REMSYN072AAXX  04001 76393 31858 21103 10283 20159 39558 40113 52001 70544 82050;
0189763930999992008100403004+25733-100300FM-12+051599999V0201301N006012200019N0100001N1+02621+01531101191ADDGA1021+024001031GF102991021001022501081001IA1019MA1999999095661MD1110081+0021REMSYN100AAXX  04031 76393 32860 21306 10262 20153 39566 40119 51008 82080 90255 333 0/050 30/// 58002 82358;
0254763930999992008100406004+25733-100300FM-12+051599999V0201301N003012200019N0120001N1+02201+01911101331ADDGA1021+072001001GF102991001001999999001041GJ106069IA1019KA1240M+03101KA2240N+01881MA1999999095781MD1310121+0131REMSYN112AAXX  04061 76393 32962 21303 10220 20191 39578 40133 53012 82004 90555 333 10310 20188 30/// 55101 58013 82074;EQDQ01+000022SCOTLC
0161763930999992008100412004+25733-100300FM-12+051599999V0200701N001010021019N0020001N1+02021+01811101381ADDAY141061AY221061GF108991081061002501999999MA1999999095741MD1410001+9999MW1051REMSYN072AAXX  04121 76393 31320 80701 10202 20181 39574 40138 54002 70542 886//;
0217763930999992008100415004+25733-100300FM-12+051599999V0200201N001010033019N0020001N1+02141+01811101621ADDAY141031AY221031GA1071+003301061GF107991071051004501999999IA1019MA1999999095951MD1210211+0171MW1051REMSYN106AAXX  04151 76393 31420 70201 10214 20181 39595 40162 52021 70542 875// 91455 333 0/399 30/// 58017 87611;
0161763930999992008100418004+25733-100300FM-12+051599999V0201201N001010075019N0030001N1+02701+01831101571ADDAY141061AY221061GF105991051061008001001001MA1999999095911MD1710041+9999MW1051REMSYN072AAXX  04181 76393 31530 51201 10270 20183 39591 40157 57004 70542 85600;
0223763930999992008100421004+25733-100300FM-12+051599999V0201001N00201012001CN0050001N1+02821+01831101271ADDAY141031AY221031GA1041+009601081GF106991061011012501001001IA1019MA1999999095651MD1710261+0081MW1051REMSYN112AAXX  04211 76393 31650 61002 10282 20183 39565 40127 57026 70542 86100 92050 333 00300 30/// 58008 84832 82633;
0161763930999992008100500004+25733-100300FM-12+051599999V0200901N001010075019N0050001N1+02641+01791101211ADDAY141061AY221061GF106991061051008001001001MA1999999095631MD1710021+9999MW1051REMSYN072AAXX  05001 76393 31550 60901 10264 20179 39563 40121 57002 70542 86500;
0217763930999992008100503004+25733-100300FM-12+051599999V0201401N001012200019N0040001N1+02521+01821101271ADDAY141031AY221031GA1041+006901061GF104991041051008001001001IA1019MA1999999095711MD1210081-0241MW1051REMSYN106AAXX  05031 76393 31540 41401 10252 20182 39571 40127 52008 70542 84500 90250 333 0/399 30/// 59024 84623;
0161763930999992008100506004+25733-100300FM-12+051599999V0200601N001012200019N0030001N1+02321+01781101331ADDAY141061AY221061GF102991021051004501001001MA1999999095751MD1510041+9999MW1051REMSYN072AAXX  05061 76393 31430 20601 10232 20178 39575 40133 55004 70542 82500;
0180763930999992008100512004+25733-100300FM-12+051599999V0200901N001010021019N0020001N1+02001+01791101271ADDAY141061AY201061GF108991081061002501999999MA1999999095631MD1610051+9999MW1051REMSYN072AAXX  05121 76393 31320 80901 10200 20179 39563 40127 56005 70547 886//;EQDQ01+000072PSTWM2
0217763930999992008100515004+25733-100300FM-12+051599999V0209999C000010033019N0080001N1+02061+01731101321ADDAY141031AY241031GA1081+003301061GF108991081061004501999999IA1019MA1999999095661MD1210031-0291MW1051REMSYN106AAXX  05151 76393 31458 80000 10206 20173 39566 40132 52003 70544 886// 91450 333 0/3// 30/// 59029 88611;
0161763930999992008100518004+25733-100300FM-12+051599999V0200501N002010075019N0030001N1+02501+01761101271ADDAY141061AY241061GF106991061011008001999999MA1999999095611MD1710051+9999MW1051REMSYN072AAXX  05181 76393 31530 60502 10250 20176 39561 40127 57005 70544 861//;
0217763930999992008100521004+25733-100300FM-12+051599999V0201601N003012200019N0060001N1+02761+01901100911ADDAY141031AY241031GA1041+009601081GF104991041021008001001001IA1019MA1999999095301MD1710311-0351MW1051REMSYN106AAXX  05211 76393 31556 41603 10276 20190 39530 40091 57031 70544 84200 92050 333 0/300 30/// 59035 84832;
0161763930999992008100600004+25733-100300FM-12+051599999V0201201N003012200019N0100001N1+02721+01501100771ADDAY141061AY241061GF101991011021012501001001MA1999999095211MD1310091+9999MW1051REMSYN072AAXX  06001 76393 31660 11203 10272 20150 39521 40077 53009 70544 81200;
0189763930999992008100603004+25733-100300FM-12+051599999V0200201N002012200019N0120001N1+02541+01671100811ADDGA1011+008701081GF101991011011008001001001IA1019MA1999999095271MD1410001-0441REMSYN100AAXX  06031 76393 32562 10202 10254 20167 39527 40081 54006 81100 90255 333 0/300 30/// 59044 81829;
0260763930999992008100606004+25733-100300FM-12+051599999V0200901N002012200019N0130001N1+02241+01731100871ADDGA1011+072001001GF101991001001999999001041GJ104569IA1019KA1240M+02941KA2240N+01921MA1999999095331MD1410001-0421REMSYN118AAXX  06061 76393 32963 10902 10224 20173 39533 40087 54006 81004 90555 333 0/005 10294 20192 30/// 55076 59042 81074;EQDQ01+000012SCOTLC
0189763930999992008100609004+25733-100300FM-12+051599999V0201201N001012200019N0140001N1+02041+01831100901ADDGA1011+002101081GF101991011011002501001001IA1019MA1999999095231MD1610101-0451REMSYN100AAXX  06091 76393 32364 11201 10204 20183 39523 40090 56010 81100 90855 333 0/300 30/// 59045 81807;
0238763930999992008100612004+25733-100300FM-12+051599999V0200501N001010021019N0100001N1+02081+01871100801ADDAA124000091GA1081+002101061GF108991081071002501999999IA1019KA1240M+02941KA2120N+01921MA1999999095191MD1410001-0441REMSYN112AAXX  06121 76393 32360 80501 10208 20187 39519 40080 54004 887// 91155 333 10294 20192 30175 59044 70000 88607;
0199763930999992008100615004+25733-100300FM-12+051599999V0203501N001012200019N0030001N1+02361+01831101051ADDAY141031AY201031GA1001+999999999GF100991001001999999001001IA1019MA1999999095411MD1210221-0251MW1051REMSYN088AAXX  06151 76393 31930 03501 10236 20183 39541 40105 52022 70540 91455 333 30/// 59025;
0161763930999992008100618004+25733-100300FM-12+051599999V0201401N001012200019N0040001N1+02881+01971101011ADDAY141061AY201061GF101991011011008001001001MA1999999095401MD1710011+9999MW1051REMSYN072AAXX  06181 76393 31540 11401 10288 20197 39540 40101 57001 70540 81100;
0223763930999992008100621004+25733-100300FM-12+051599999V0200901N002012200019N0040001N1+03241+01971100791ADDAY141031AY201031GA1021+012001081GF104991041051017501001001IA1019MA1999999095231MD1710171+0001MW1051REMSYN112AAXX  06211 76393 31740 40902 10324 20197 39523 40079 57017 70540 84500 92055 333 01300 30/// 58000 82840 82642;
0161763930999992008100700004+25733-100300FM-12+051599999V0201001N001010360019N0050001N1+02821+02031100851ADDAY141061AY221061GF105991031051008001031001MA1999999095331MD1210101+9999MW1051REMSYN072AAXX  07001 76393 31550 51001 10282 20203 39533 40085 52010 70542 83530;
0199763930999992008100703004+25733-100300FM-12+051599999V0202301N001012200019N0040001N1+02641+02051101021ADDAY141031AY221031GA1001+999999999GF100991001001999999001001IA1019MA1999999095521MD1210191+0251MW1051REMSYN088AAXX  07031 76393 31940 02301 10264 20205 39552 40102 52019 70542 90250 333 30/// 58025;
0251763930999992008100706004+25733-100300FM-12+051599999V0200101N001012200019N0030001N1+02481+01901101121ADDAY141061AY221061GA1001+999999999GF100991001001999999001001GJ104389IA1019KA1240M+03361KA2240N+01921MA1999999095611MD1210091+0281MW1051REMSYN106AAXX  07061 76393 31930 00101 10248 20190 39561 40112 52009 70542 90550 333 10336 20192 30/// 55073 58028;
0199763930999992008100709004+25733-100300FM-12+051599999V0200201N001012200019N0030001N1+02321+02061101231ADDAY141031AY241031GA1001+999999999GF100991001001999999001001IA1019MA1999999095671MD1110061+0441MW1051REMSYN088AAXX  07091 76393 31930 00201 10232 20206 39567 40123 51006 70544 90850 333 30/// 58044;
0180763930999992008100712004+25733-100300FM-12+051599999V0209999C000012200019N0040001N1+02321+02061101431ADDAY141061AY201061GF103991031041002501001001MA1999999095831MD1210161+9999MW1051REMSYN072AAXX  07121 76393 31340 30000 10232 20206 39583 40143 52016 70547 83400;EQDQ01+000072PSTWM2
0217763930999992008100715004+25733-100300FM-12+051599999V0203301N001010072019N0030001N1+02741+02031101611ADDAY141031AY241031GA1051+007201081GF105991051021008001001001IA1019MA1999999095991MD1210161-0581MW1051REMSYN106AAXX  07151 76393 31530 53301 10274 20203 39599 40161 52016 70544 85200 91450 333 0/300 30/// 59058 85824;
0161763930999992008100718004+25733-100300FM-12+051599999V0203601N005010075019N0050001N1+02881+01901101601ADDAY141061AY241061GF107991071021008001999999MA1999999095991MD1010001+9999MW1051REMSYN072AAXX  07181 76393 31550 73605 10288 20190 39599 40160 50000 70544 872//;
0240763930999992008100721004+25733-100300FM-12+051599999V0201901N003010057019N0040001N1+02581+02011101431ADDAA103000191AY151031AY251031GA1061+005701081GF107991061021004501031999IA1019MA1999999095851MD1710141+0621MW1501REMSYN118AAXX  07211 76393 21440 71903 10258 20201 39585 40143 57014 75055 8623/ 92050 333 0335/ 30/// 58062 69917 86819 81360;
0161763930999992008100800004+25733-100300FM-12+051599999V0202401N001010042019N0050001N1+02561+02021101471ADDAY141061AY241061GF107991051021004501031001MA1999999095901MD1010051+9999MW1051REMSYN072AAXX  08001 76393 31450 72401 10256 20202 39590 40147 50005 70544 85230;
0189763930999992008100803004+25733-100300FM-12+051599999V0203601N001010099019N0100001N1+02541+01541101671ADDGA1071+009901061GF107991071041008001999999IA1019MA1999999096091MD1210191+0571REMSYN100AAXX  08031 76393 32560 73601 10254 20154 39609 40167 52019 874// 90255 333 0/399 30/// 58057 87633;
0241763930999992008100806004+25733-100300FM-12+051599999V0200901N001012200019N0100001N1+02281+01811101751ADDGA1031+004801061GF103991031041004501001001GJ102049IA1019KA1240M+03051KA2240N+02251MA1999999096141MD1110051+0531REMSYN118AAXX  08061 76393 32460 30901 10228 20181 39614 40175 51005 83400 90555 333 0/300 10305 20225 30/// 55034 58053 83616;
0217763930999992008100809004+25733-100300FM-12+051599999V0209999C000010036019N0080001N1+02141+01781101711ADDAY141031AY211031GA1051+003601061GF105991051041004501001001IA1019MA1999999096081MD1410001+0411MW1051REMSYN106AAXX  08091 76393 31458 50000 10214 20178 39608 40171 54006 70541 85400 90855 333 0/300 30/// 58041 85612;
0161763930999992008100812004+25733-100300FM-12+051599999V0201801N001010042019N0030001N1+02201+01781101731ADDAY141061AY221061GF108991081061004501999999MA1999999096081MD1410001+9999MW1051REMSYN072AAXX  08121 76393 21430 81801 10220 20178 39608 40173 54000 70542 886//;
0234763930999992008100815004+25733-100300FM-12+051599999V0201101N001010033019N0020001N1+02001+01671102041ADDAA103000291AY141031AY251031GA1081+003301061GF108991081061004501999999IA1099MA1999999096351MD1210271+0361MW1501REMSYN112AAXX  08151 76393 21420 81101 10200 20167 39635 40204 52027 75045 886// 91455 333 0/399 31/// 58036 69927 88611;
0297763930999992008100818004+25733-100300FM-12+051599999V0201901N001010045019N0100001N1+02201+01751101991ADDAA103999929AY141061AY221061GA1081+004501061GF108991081051004501999999IA1099KA1120M+02241KA2240N+02101MA1999999096301MD1710051+0311MW1051REMSYN130AAXX  08181 76393 01460 81901 10220 20175 39630 40199 57005 69921 70542 885// 91800 333 0/399 10224 20210 31/// 58031 69907 88615;EQDQ01  00002PRCP06
0239763930999992008100821004+25733-100300FM-12+051599999V0201701N001010300019N0140001N1+02641+01761101651ADDGA1011+007201081GA2021+009001061GA3021+030001031GF106991031051008001031021IA1019MA1999999095991MD1710311+0141REMSYN118AAXX  08211 76393 32564 61701 10264 20176 39599 40165 57031 83532 92055 333 01355 30/// 58014 81824 82630 82360 81070;
0250763930999992008100900004+25733-100300FM-12+051599999V0201801N00101036001CN0140001N1+02401+01811101501ADDAA124000291GA1021+005701061GF106991021051004501051001IA1019KA1120M+02761KA2180N+02101MA1999999095871MD1710121-0031REMSYN124AAXX  09001 76393 32464 61801 10240 20181 39587 40150 57012 82550 92350 333 0/350 10276 20210 30/// 59003 70002 82619 84358;
0241763930999992008100906004+25733-100300FM-12+051599999V0209999C000012200019N0120001N1+02041+01711101591ADDGA1021+024001031GF102991021001022501041001GJ100729IA1019KA1240M+02761KA2240N+02001MA1999999095901MD1210131-0241REMSYN118AAXX  09061 76393 32862 20000 10204 20171 39590 40159 52013 82040 90555 333 0/050 10276 20200 30/// 55012 59024 82358;
0189763930999992008100909004+25733-100300FM-12+051599999V0200501N001012200019N0140001N1+01961+01561101461ADDGA1021+072001001GF102991021001022501001041IA1019MA1999999095771MD1610131-0311REMSYN100AAXX  09091 76393 32864 20501 10196 20156 39577 40146 56013 82004 90855 333 0/005 30/// 59031 82074;
0161763930999992008100912004+25733-100300FM-12+051599999V0209999C000012200019N0100001N1+01841+01531101511ADDAY141061AY211061GF104991021051004501041001MA1999999095821MD1210051+9999MW1041REMSYN072AAXX  09121 76393 31460 40000 10184 20153 39582 40151 52005 70441 82540;
0223763930999992008100915004+25733-100300FM-12+051599999V0201601N001012200019N0060001N1+02341+02091101611ADDAY141031AY201031GA1011+000901081GF102991011011002501031001IA1019MA1999999095911MD1210091-0441MW1051REMSYN112AAXX  09151 76393 31356 21601 10234 20209 39591 40161 52009 70540 81130 91455 333 00350 30/// 59044 81803 81360;
0246763930999992008100918004+25733-100300FM-12+051599999V0201301N001012200019N0080001N1+02761+01281101411ADDGA1051+014701081GF199999021011012501001001IA1019KA1120M+02861KA2240N+01821MA1999999095751MD1710161-0551REMSYN112AAXX  09181 76393 32658 21301 10276 20128 39575 40141 57016 82100 91750 333 0/300 10286 20182 30/// 59055 85849;EQDQ01+000022SCOTCV
0195763930999992008100921004+25733-100300FM-12+051599999V0200901N004012200019N0120001N1+02901+01231101031ADDGA1031+015001081GF104991031021017501011001IA1019MA1999999095441MD1710311-0451REMSYN106AAXX  09211 76393 32762 40904 10290 20123 39544 40103 57031 83210 92050 333 0/350 30/// 59045 83850 81360;
0161763930999992008101000004+25733-100300FM-12+051599999V0201101N002010360019N0090001N1+02681+01301101021ADDAY141061AY241061GF106991031051012501041021MA1999999095461MD1210021+9999MW1051REMSYN072AAXX  10001 76393 31659 61102 10268 20130 39546 40102 52002 70544 83542;
0217763930999992008101003004+25733-100300FM-12+051599999V0201101N002012200019N0030001N1+02441+01491101051ADDAY141031AY241031GA1011+009301061GF101991011041008001001001IA1019MA1999999095511MD1010051-0261MW1051REMSYN106AAXX  10031 76393 31530 11102 10244 20149 39551 40105 50005 70544 81400 90250 333 0/399 30/// 59026 81631;
0161763930999992008101018004+25733-100300FM-12+051599999V0201201N002012200019N0020001N1+02541+01901101131ADDAY141061AY241061GF104991041011008001001001MA1999999095481MD1710031+9999MW1051REMSYN072AAXX  10181 76393 31520 41202 10254 20190 39548 40113 57003 70544 84100;
0217763930999992008101021004+25733-100300FM-12+051599999V0200701N003010087019N0030001N1+02861+02011100921ADDAY141031AY241031GA1071+008701081GF107991071021008001999999IA1019MA1999999095321MD1710161-0121MW1051REMSYN106AAXX  10211 76393 31530 70703 10286 20201 39532 40092 57016 70544 872// 92050 333 0/3// 30/// 59012 87829;
0161763930999992008101100004+25733-100300FM-12+051599999V0200901N002012200019N0060001N1+02801+01981100901ADDAY141061AY241061GF104991031051008001041001MA1999999095341MD1510021+9999MW1051REMSYN072AAXX  11001 76393 31556 40902 10280 20198 39534 40090 55002 70544 83540;
0217763930999992008101103004+25733-100300FM-12+051599999V0200901N001012200019N0040001N1+02601+01941101021ADDAY141031AY241031GA1041+006601061GF104991041051008001001001IA1019MA1999999095481MD1210141-0031MW1051REMSYN106AAXX  11031 76393 31540 40901 10260 20194 39548 40102 52014 70544 84500 90250 333 0/399 30/// 59003 84622;
0235763930999992008101106004+25733-100300FM-12+051599999V0200901N002010030019N0100001N1+02341+02031101021ADDGA1051+003001061GF105991051031004501001001GJ105589IA1019KA1240M+02941KA2240N+01821MA1999999095471MD1410001-0101REMSYN112AAXX  11061 76393 32460 50902 10234 20203 39547 40102 54001 85300 90555 333 10294 20182 30/// 55093 59010 85610;
0189763930999992008101109004+25733-100300FM-12+051599999V0201201N002010024019N0100001N1+02281+02051100981ADDGA1061+002401061GF106991061031002501001001IA1019MA1999999095421MD1410001+9999REMSYN100AAXX  11091 76393 32360 61202 10228 20205 39542 40098 54005 86300 90855 333 0/300 30/// 59/// 86608;
0161763930999992008101112004+25733-100300FM-12+051599999V0200901N001010012019N0020001N1+02241+02101101121ADDAY141061AY221061GF108991081061001501999999MA1999999095521MD1210101+9999MW1051REMSYN072AAXX  11121 76393 31220 80901 10224 20210 39552 40112 52010 70542 886//;
0217763930999992008101115004+25733-100300FM-12+051599999V0201201N001010027019N0020001N1+02321+02091101371ADDAY141031AY221031GA1081+002701061GF108991081051002501999999IA1019MA1999999095741MD1210221+9999MW1051REMSYN106AAXX  11151 76393 31320 81201 10232 20209 39574 40137 52022 70542 885// 91455 333 0/399 30/// 58/// 88609;
0147763930999992008101200004+25733-100300FM-12+051599999V0200901N002010042019N0060001N1+02721+02071100901ADDAY141061AY261061GF107991071051004501999999MA1999999095341MW1051REMSYN072AAXX  12001 76393 31456 70902 10272 20207 39534 40090 5//// 70546 875//;
0240763930999992008101203004+25733-100300FM-12+051599999V0201101N002010006019N0020001N1+02381+02301101051ADDAA103005091AY161031AY221031GA1061+000601071GF108991081061000751999999IA1119MA1999999095491MD1210151+0011MW1581REMSYN118AAXX  12031 76393 21120 81102 10238 20230 39549 40105 52015 75862 886// 90250 333 01399 32/// 58001 60057 86702 82604;
0265763930999992008101206004+25733-100300FM-12+051599999V0200901N006010012019N0020001N1+02321+02211100961ADDAA103011091AA206016091AY161061AY221061GA1081+001201071GF108991081071001501999999GJ102349IA1119MA1999999095401MD1410001-0071MW1601REMSYN124AAXX  12061 76393 01220 80906 10232 20221 39540 40096 54009 60161 76062 887// 90555 333 0/399 32/// 55039 59007 60117 88704;
0234763930999992008101209004+25733-100300FM-12+051599999V0200901N003010012019N0010001N1+02281+02171100861ADDAA103004091AY161031AY221031GA1081+001201071GF108991081071001501999999IA1119MA1999999095291MD1610111-0131MW1601REMSYN112AAXX  12091 76393 21210 80903 10228 20217 39529 40086 56011 76062 887// 90855 333 0/399 32/// 59013 60047 88704;
0249763930999992008101218004+25733-100300FM-12+051599999V0201301N003010045019N0040001N1+02701+02261101071ADDAY141061AY241061GA1071+004501081GF107991071021002501999999IA1019KA1120M+02801KA2240N+02281MA1999999095471MD1010011+0001MW1051REMSYN112AAXX  12181 76393 31340 71303 10270 20226 39547 40107 50001 70544 872// 91750 333 10280 20228 30/// 59000 87815;
0161763930999992008101300004+25733-100300FM-12+051599999V0201001N002012200019N0060001N1+02761+02161100891ADDAY141061AY241061GF103991031021008001999999MA1999999095351MD1210031+9999MW1051REMSYN072AAXX  13001 76393 31556 31002 10276 20216 39535 40089 52003 70544 832//;
0217763930999992008101303004+25733-100300FM-12+051599999V0201101N002010039019N0030001N1+02641+02251101041ADDAY141031AY261031GA1061+003901061GF106991061051004501999999IA1019MA1999999095491MD1210141+0001MW1051REMSYN106AAXX  13031 76393 31430 61102 10264 20225 39549 40104 52014 70546 865// 90250 333 0/399 30/// 58000 86613;
0161763930999992008101306004+25733-100300FM-12+051599999V0201201N003010012019N0010001N1+02461+02241101101ADDAY151061AY221061GF108991081071001501999999MA1999999095551MD1410001+9999MW1501REMSYN072AAXX  13061 76393 21210 81203 10246 20224 39555 40110 54006 75052 887//;
0234763930999992008101309004+25733-100300FM-12+051599999V0200901N004010006019N0010001N1+02321+02261101061ADDAA103001091AY151031AY221031GA1081+000601071GF108991081071000751999999IA1099MA1999999095501MD1410001+0211MW1501REMSYN112AAXX  13091 76393 21110 80904 10232 20226 39550 40106 54005 75052 887// 90855 333 0/399 31/// 58021 60017 88702;
0306763930999992008101312004+25733-100300FM-12+051599999V0201201N001010009019N0010001N1+02301+02191101181ADDAA103000591AA206001091AA324002991AY151061AY251061GA1081+000901071GF108991081071000751999999IA1019KA1240M+02841KA2120N+02181MA1999999095591MD1210091+9999MW1501REMSYN136AAXX  13121 76393 01110 81201 10230 20219 39559 40118 52009 60011 75055 887// 91155 333 0/399 10284 20218 30208 58/// 69957 70029 88703;
0172763930999992008101318004+25733-100300FM-12+051599999V0201301N003019999999N0030001N1+02601+02211101281ADDAA106000021AY141061AY241061GF108991999999004501999999MA1999999095671MD1710131+9999MW1051REMSYN072AAXX  13181 76393 11430 81303 10260 20221 39567 40128 57013 69901 70544;
0223763930999992008101321004+25733-100300FM-12+051599999V0201201N003010051019N0040001N1+02761+02271101091ADDAY141031AY241031GA1061+005101081GF107991061021004501011001IA1019MA1999999095511MD1710171+0191MW1051REMSYN112AAXX  13211 76393 31440 71203 10276 20227 39551 40109 57017 70544 86210 92050 333 0/350 30/// 58019 86817 81360;
0161763930999992008101400004+25733-100300FM-12+051599999V0201201N002010075019N0060001N1+02801+02131101041ADDAY141061AY261061GF107991051021008001001041MA1999999095481MD1510031+9999MW1051REMSYN072AAXX  14001 76393 31556 71202 10280 20213 39548 40104 55003 70546 85204;
0253763930999992008101403004+25733-100300FM-12+051599999V0201201N002012200019N0030001N1+02551+02171101281ADDAA103000091AY141031AY221031GA1031+003601061GF103991031051004501001001IA1019MA1999999095711MD1210231+0221MW1051REMSYN112AAXX  14031 76393 21430 31202 10255 20217 39571 40128 52023 70542 83500 90250 333 0/399 30/// 58022 69907 83612;EQDQ01  00002PRCP03
0161763930999992008101406004+25733-100300FM-12+051599999V0200901N005010012019N0100001N1+02301+02161101271ADDAY151061AY221061GF107991071071001501999999MA1999999095701MD1410001+9999MW1501REMSYN072AAXX  14061 76393 21260 70905 10230 20216 39570 40127 54001 75052 877//;
0251763930999992008101409004+25733-100300FM-12+051599999V0201301N006010009019N0010001N1+02221+02131101231ADDAA103002091AA206019191AY151031AY221031GA1081+000901071GF108991081071000751999999IA1119MA1999999095641MD1410001+0141MW1501REMSYN118AAXX  14091 76393 01110 81306 10222 20213 39564 40123 54006 60191 75052 887// 90855 333 0/399 32/// 58014 60027 88703;
0306763930999992008101412004+25733-100300FM-12+051599999V0201101N002010006019N0003001N1+02221+02161101371ADDAA103005091AA206007191AA324024291AY151061AY251061GA1081+000601071GF108991081071000751999999IA1019KA1240M+02941KA2120N+02161MA1999999095751MD1210111+0161MW1501REMSYN136AAXX  14121 76393 01103 81102 10222 20216 39575 40137 52011 60071 75055 887// 91155 333 0/399 10294 20216 30206 58016 60057 70242 88702;
0240763930999992008101415004+25733-100300FM-12+051599999V0201201N001012200019N0050001N1+02381+02131101511ADDAA103000991AY141031AY211031GA1021+002401081GF104991041051002501001001IA1099MA1999999095871MD1210121+0111MW1051REMSYN118AAXX  14151 76393 21350 41201 10238 20213 39587 40151 52012 70541 84500 91450 333 01300 31/// 58011 69997 82808 82610;
0227763930999992008101418004+25733-100300FM-12+051599999V0200901N005012200019N0060001N1+02881+02061101361ADDGA1041+008401081GF104991041021008001001001IA1019KA1120M+02961KA2240N+02241MA1999999095751MD1710121+0071REMSYN112AAXX  14181 76393 32556 40905 10288 20206 39575 40136 57012 84200 91750 333 0/300 10296 20224 30/// 58007 84828;
0206763930999992008101421004+25733-100300FM-12+051599999V0201201N005010078019N0070001N1+02801+02041101061ADDAA103000191GA1071+007801081GF107991071021008001999999IA1019MA1999999095491MD1710261-0121REMSYN106AAXX  14211 76393 32557 71205 10280 20204 39549 40106 57026 872// 92050 333 023// 30/// 59012 69917 87826;
0347763930999992008101500004+25733-100300FM-12+051599999V0201801N003010075019N0060001N1+02681+01971101101ADDAA124024291AY141061AY221061GA1021+006901081GA2041+007501061GF107991061021008001031999IA1019KA1120M+03061KA2180N+02161MA1999999095561MD1710071+0081MW1051REMSYN148AAXX  15001 76393 11556 71803 10268 20197 39556 40110 57007 69901 70542 8623/ 92350 333 01350 10306 20216 30/// 50651 58008 70242 82823 84625 81356;EQDQ01  00002PRCP06Q02  00002PRCP06
0217763930999992008101503004+25733-100300FM-12+051599999V0200201N001012200019N0030001N1+02421+01991101251ADDAY141031AY221031GA1011+004201061GF102991021051004501001001IA1019MA1999999095701MD1210141-0011MW1051REMSYN106AAXX  15031 76393 31430 20201 10242 20199 39570 40125 52014 70542 82500 90250 333 0/399 30/// 59001 81614;
0263763930999992008101506004+25733-100300FM-12+051599999V0201301N002012200019N0100001N1+02221+01931101291ADDAY141061AY201061GA1021+003001061GF102991999999002501999999GJ103849IA1019KA1240M+03061KA2240N+02161MA1999999095711MD1410001+0011MW1051REMSYN118AAXX  15061 76393 31360 21302 10222 20193 39571 40129 54001 70540 90555 333 0/300 10306 20216 30/// 55064 58001 82610;
0217763930999992008101509004+25733-100300FM-12+051599999V0201001N001010015019N0060001N1+02121+01981101291ADDAY141031AY201031GA1081+001501061GF108991081051001501999999IA1019MA1999999095681MD1410001+0041MW1051REMSYN106AAXX  15091 76393 31256 81001 10212 20198 39568 40129 54003 70540 885// 90855 333 0/399 30/// 58004 88605;
0161763930999992008101512004+25733-100300FM-12+051599999V0209999C000010006019N0010001N1+02121+02031101341ADDAY151061AY251061GF108991081071000751999999MA1999999095701MD1210021+9999MW1501REMSYN072AAXX  15121 76393 01110 80000 10212 20203 39570 40134 52002 75055 887//;
0161763930999992008101518004+25733-100300FM-12+051599999V0200901N001010075019N0030001N1+02661+02001101631ADDAY141061AY221061GF107991051021008001031999MA1999999095971MD1210071+9999MW1051REMSYN072AAXX  15181 76393 31530 70901 10266 20200 39597 40163 52007 70542 8523/;
0223763930999992008101521004+25733-100300FM-12+051599999V0201201N001010102019N0040001N1+02961+01871101391ADDAY141031AY221031GA1051+010201061GF106991061051012501001001IA1019MA1999999095781MD1710191+0291MW1051REMSYN112AAXX  15211 76393 31640 61201 10296 20187 39578 40139 57019 70542 86500 92055 333 03300 30/// 58029 85634 81950;
0318763930999992008101600004+25733-100300FM-12+051599999V0201801N00201002101CN0080001N1+02471+02231101461ADDAA103001091AA206001091AA324001891AY151061AY221061GA1041+002401061GF106991051031002501001011IA1099KA1120M+03021KA2180N+02121MA1999999095871MD1210091+0311MW1051REMSYN148AAXX  16001 76393 01358 61802 10247 20223 39587 40146 52009 60011 70552 85301 92355 333 06305 10302 20212 31/// 50301 58031 60017 70018 84608 81930;
0217763930999992008101603004+25733-100300FM-12+051599999V0202001N002010030019N0060001N1+02261+01941101741ADDAY141031AY221031GA1071+003001061GF107991071051004501999999IA1099MA1999999096131MD1210261+0431MW1051REMSYN106AAXX  16031 76393 31456 72002 10226 20194 39613 40174 52026 70542 875// 90255 333 0/3// 31/// 58043 87610;
0165763930999992008101606004+25733-100300FM-12+051599999V0201001N001010006019N0020001N1+02171+02081101821ADDAY151061AY201061GF108991081061000751999999MD1010071+9999MW1051REMSYN072AAXX  16061 76393 21120 81001 10217 20208 39520 40182 50007 70550 886//;EQDQ01+095203APOSP 
0259763930999992008101609004+25733-100300FM-12+051599999V0202901N00101000601CN0020001N1+01981+01891101871ADDAA103004091AY151031AY281031GA1041+000901071GF108991081061000751999999IA1119MA1999999096201MD1710051+0521MW1051REMSYN118AAXX  16091 76393 21120 82901 10198 20189 39620 40187 57000 70558 886// 90850 333 0/399 32/// 58052 60047 84703 84606;EQDQ01+000002APC3  
0289763930999992008101612004+25733-100300FM-12+051599999V0209999C000010012019N0020001N1+01881+01761101931ADDAA103000591AA224013091AY151061AY251061GA1081+001201071GF108991081071001501999999IA1019KA1240M+03021KA2120N+01901MA1999999096231MD1310031+0531MW1501REMSYN130AAXX  16121 76393 01220 80000 10188 20176 39623 40193 53003 69947 75055 887// 91150 333 0/3// 10302 20190 30185 58053 70130 88704;
0217763930999992008101615004+25733-100300FM-12+051599999V0200301N003010015019N0030001N1+01861+01711102151ADDGA1061+001501071GA2011+001801081GF108991071071001501011999IA1099MA1999999096421MD1210191+0521REMSYN112AAXX  16151 76393 32230 80303 10186 20171 39642 40215 52019 8771/ 91450 333 0/35/ 31/// 58052 86705 81806 81360;
0297763930999992008101618004+25733-100300FM-12+051599999V0200401N001010033019N0050001N1+02021+01691102241ADDAA103000991AY141061AY221061GA1081+003301061GF108991081051004501999999IA1019KA1120M+02081KA2240N+01901MA1999999096501MD1210081+0531MW1051REMSYN130AAXX  16181 76393 01450 80401 10202 20169 39650 40224 52008 69911 70542 885// 91750 333 0/399 10208 20190 30/// 58053 69997 88611;EQDQ01  00002PRCP06
0234763930999992008101621004+25733-100300FM-12+051599999V0203601N001010015019N0020001N1+01941+01791102111ADDAA103001091AY151031AY221031GA1081+001501071GF108991081071001501999999IA1099MA1999999096371MD1710131+0591MW1501REMSYN112AAXX  16211 76393 21220 83601 10194 20179 39637 40211 57013 75052 887// 92055 333 0/399 31/// 58059 60017 88705;
0295763930999992008101700004+25733-100300FM-12+051599999V0203401N001010018019N0010001N1+01921+01711102111ADDAA103000591AA206001091AY151061AY221061GA1081+001801071GF108991081071002501999999IA1119KA1120M+02121KA2180N+01901MA1999999096371MD1410001+0501MW1501REMSYN136AAXX  17001 76393 01310 83401 10192 20171 39637 40211 54000 60011 75052 887// 92355 333 0/399 10212 20190 32/// 50151 58050 69957 88706;
0234763930999992008101703004+25733-100300FM-12+051599999V0201801N001010015019N0010001N1+01921+01741102281ADDAA103002091AY151031AY221031GA1081+001501071GF108991081071001501999999IA1119MA1999999096531MD1210161+0401MW1501REMSYN112AAXX  17031 76393 21210 81801 10192 20174 39653 40228 52016 75052 887// 90255 333 0/399 32/// 58040 60027 88705;
0303763930999992008101706004+25733-100300FM-12+051599999V0202101N002010006019N0020001N1+01841+01781102281ADDAA103003091AA206005191AY151061AY251061GA1081+000601071GF108991081071000751999999GJ100009IA1099KA1240M+02121KA2240N+01841MA1999999096531MD1410001+0331MW1501REMSYN136AAXX  17061 76393 01120 82102 10184 20178 39653 40228 54000 60051 75055 887// 90555 333 0/3// 10212 20184 31/// 55000 58033 60037 88702;
0217763930999992008101709004+25733-100300FM-12+051599999V0202101N001010015019N0050001N1+01881+01731102161ADDAY141031AY221031GA1081+001501061GF108991081051001501999999IA1099MA1999999096411MD1710121+0211MW1051REMSYN106AAXX  17091 76393 32250 82101 10188 20173 39641 40216 57012 70542 885// 90855 333 0/3// 31/// 58021 88605;
0180763930999992008101712004+25733-100300FM-12+051599999V0200301N001010042019N0030001N1+01941+01631102161ADDAY101061AY201061GF108991081071004501999999MA1999999096411MD1410001+9999MW1051REMSYN072AAXX  17121 76393 31430 80301 10194 20163 39641 40216 58000 70500 887//;EQDQ01+000082APCTEN
0217763930999992008101715004+25733-100300FM-12+051599999V0201001N001010045019N0050001N1+02081+01651102281ADDAY101031AY201031GA1081+004501061GF108991081051004501999999IA1019MA1999999096521MD1210111+0101MW1051REMSYN106AAXX  17151 76393 31450 81001 10208 20165 39652 40228 52011 70500 885// 91740 333 0/3// 30/// 58010 88615;
0161763930999992008101718004+25733-100300FM-12+051599999V0200501N001010075019N0030001N1+02241+01711102281ADDAY141061AY221061GF108991081051008001999999MA1999999096551MD1210031+9999MW1051REMSYN072AAXX  17181 76393 31530 80501 10224 20171 39655 40228 52003 70542 885//;
0217763930999992008101721004+25733-100300FM-12+051599999V0203601N001010081019N0030001N1+02441+01631102021ADDAY141031AY241031GA1081+008101061GF108991081051008001999999IA1019MA1999999096321MD1710231-0051MW1051REMSYN106AAXX  17211 76393 31530 83601 10244 20163 39632 40202 57023 70544 885// 92050 333 0/399 30/// 59005 88627;
0161763930999992008101800004+25733-100300FM-12+051599999V0201801N002010075019N0020001N1+02441+01761101991ADDAY141061AY221061GF108991081061008001999999MA1999999096331MD1410001+9999MW1051REMSYN072AAXX  18001 76393 31520 81802 10244 20176 39633 40199 54001 70542 886//;
0217763930999992008101803004+25733-100300FM-12+051599999V0202301N001010042019N0020001N1+02261+01821102041ADDAY141031AY211031GA1071+004201061GF107991071051004501999999IA1019MA1999999096391MD1410001-0141MW1051REMSYN106AAXX  18031 76393 31420 72301 10226 20182 39639 40204 54006 70541 875// 90255 333 0/399 30/// 59014 87614;
0161763930999992008101806004+25733-100300FM-12+051599999V0201801N001012200019N0020001N1+02081+01751102161ADDAY141061AY221061GF101991011041004501999999MA1999999096501MD1210111+9999MW1051REMSYN072AAXX  18061 76393 31420 11801 10208 20175 39650 40216 52011 70542 814//;
0199763930999992008101809004+25733-100300FM-12+051599999V0209999C000012200019N0020001N1+01901+01751102141ADDAY141031AY221031GA1001+999999999GF100991001001999999001001IA1019MA1999999096461MD1610041+0051MW1051REMSYN088AAXX  18091 76393 31920 00000 10190 20175 39646 40214 56004 70542 90850 333 30/// 58005;
0161763930999992008101812004+25733-100300FM-12+051599999V0209999C000012200019N0040001N1+01901+01721102231ADDAY141061AY241061GF101991001001999999001011MA1999999096511MD1210051+9999MW1051REMSYN072AAXX  18121 76393 31940 10000 10190 20172 39651 40223 52005 70544 80001;
0217763930999992008101815004+25733-100300FM-12+051599999V0203001N001012200019N0040001N1+02161+01391102451ADDAY141031AY241031GA1011+007501061GF101991011051008001001001IA1099MA1999999096701MD1210191+0181MW1051REMSYN106AAXX  18151 76393 31540 13001 10216 20139 39670 40245 52019 70544 81500 91455 333 0/500 31/// 58018 81625;
0161763930999992008101818004+25733-100300FM-12+051599999V0200201N001012200019N0080001N1+02501+01381102391ADDAY141061AY201061GF102991021051012501001001MA1999999096651MD1710051+9999MW1051REMSYN072AAXX  18181 76393 31658 20201 10250 20138 39665 40239 57005 70540 82500;
0223763930999992008101821004+25733-100300FM-12+051599999V0203501N001012200019N0100001N1+02761+01481102031ADDAY141031AY211031GA1021+012001081GF104991041011012501001001IA1019MA1999999096351MD1710301+0031MW1051REMSYN112AAXX  18211 76393 31660 43501 10276 20148 39635 40203 57030 70541 84100 92050 333 01300 30/// 58003 82840 82643;
0256763930999992008101900004+25733-100300FM-12+051599999V0200501N003012200019N0120001N1+02461+00871101971ADDAA124000091GA1011+013501061GF102991011041012501001041IA1019KA1120M+02841KA2180N+01801MA1999999096321MD1410001-0011REMSYN130AAXX  19001 76393 32662 20503 10246 20087 39632 40197 54003 81404 92355 333 0/305 10284 20180 30/// 50321 59001 70000 81645 81074;
0189763930999992008101903004+25733-100300FM-12+051599999V0202701N001012200019N0020001N1+02101+01411102111ADDGA1021+006901061GF102991021041008001001001IA1019MA1999999096461MD1310141+0071REMSYN100AAXX  19031 76393 32520 22701 10210 20141 39646 40211 53014 82400 90255 333 0/300 30/// 58007 82623;
0287763930999992008101906004+25733-100300FM-12+051599999V0202101N001012200019N0030001N1+01981+01481102161ADDAA124000091AY141061AY221061GA1001+999999999GF100991001001999999001001GJ105589IA1019KA1240M+02841KA2240N+01801MA1999999096501MD1110041+0001MW1051REMSYN112AAXX  19061 76393 31930 02101 10198 20148 39650 40216 51004 70542 90550 333 10284 20180 30/// 55093 58000 70000;EQDQ01  00002PRCP24
0199763930999992008101909004+25733-100300FM-12+051599999V0201801N001012200019N0030001N1+01741+01391102091ADDAY141031AY221031GA1001+999999999GF100991001001999999001001IA1019MA1999999096391MD1710111-0071MW1051REMSYN088AAXX  19091 76393 31930 01801 10174 20139 39639 40209 57011 70542 90850 333 30/// 59007;
0273763930999992008101912004+25733-100300FM-12+051599999V0202401N001012200019N0040001N1+01661+01231102151ADDAA124000091AY101061AY201061GA1001+999999999GF100991001001999999001001IA1019KA1240M+02841KA2120N+01661MA1999999096411MD1310021-0101MW1051REMSYN106AAXX  19121 76393 31940 02401 10166 20123 39641 40215 53002 70500 91150 333 10284 20166 30133 59010 70000;EQDQ01  00002PRCP24
0199763930999992008101915004+25733-100300FM-12+051599999V0201901N001012200019N0120001N1+02061+01291102181ADDAY101031AY201031GA1001+999999999GF100991001001999999001001IA1019MA1999999096421MD1110011-0281MW1051REMSYN088AAXX  19151 76393 31962 01901 10206 20129 39642 40218 51001 70500 91440 333 30/// 59028;
0217763930999992008101918004+25733-100300FM-12+051599999V0201101N003012200019N0080001N1+02501+01371102191ADDAY141061AY241061GA1011+006901081GF101991011011008001001001IA1099MA1999999096451MD1210031-0201MW1051REMSYN106AAXX  19181 76393 31558 11103 10250 20137 39645 40219 52003 70544 81100 91755 333 00500 31/// 59020 81823;
0223763930999992008101921004+25733-100300FM-12+051599999V0201201N003012200019N0120001N1+02561+01301101901ADDAY141031AY241031GA1011+012601081GF102991021021012501001001IA1099MA1999999096211MD1710241-0141MW1041REMSYN112AAXX  19211 76393 31662 21203 10256 20130 39621 40190 57024 70444 82200 92058 333 00500 31/// 59014 81842 81642;
0269763930999992008102000004+25733-100300FM-12+051599999V0201301N004012200019N0180001N1+02341+01211101851ADDAA124000091GA1011+060001001GF101991001001999999001041IA1019KA1120M+02661KA2180N+01601MA1999999096201MD1410001-0121REMSYN124AAXX  20001 76393 32968 11304 10234 20121 39620 40185 54001 81004 92355 333 0/005 10266 20160 30/// 50421 59012 70000 81070;EQDQ01+000012SCOTLC
0208763930999992008102003004+25733-100300FM-12+051599999V0201401N001012200019N0180001N1+02141+01311101951ADDGA1011+072001001GF101991001001999999001041IA1019MA1999999096301MD1310101-0161REMSYN100AAXX  20031 76393 32968 11401 10214 20131 39630 40195 53010 81004 90255 333 0/005 30/// 59016 81074;EQDQ01+000012SCOTLC
0293763930999992008102006004+25733-100300FM-12+051599999V0201601N001012200019N0030001N1+01921+01461101991ADDAA124000091AY141061AY221061GA1001+999999999GF100991001001999999001001GJ106129IA1019KA1240M+02661KA2240N+01601MA1999999096331MD1010031-0171MW1051REMSYN118AAXX  20061 76393 31930 01601 10192 20146 39633 40199 50003 70542 90550 333 0/999 10266 20160 30/// 55102 59017 70000;EQDQ01  00002PRCP24
0205763930999992008102009004+25733-100300FM-12+051599999V0209999C000012200019N0040001N1+01661+01441101981ADDAY141031AY221031GA1001+999999999GF100991001001999999001001IA1019MA1999999096271MD1710061-0121MW1051REMSYN094AAXX  20091 76393 31940 00000 10166 20144 39627 40198 57006 70542 90850 333 0/999 30/// 59012;
0267763930999992008102012004+25733-100300FM-12+051599999V0202501N001012200019N0050001N1+01641+99999101931ADDAA124000091AY141061AY241061GA1001+999999999GF100991001001999999001001IA1019KA1240M+02661KA2120N+01621MA1999999096201MD1310071-0211MW1051REMSYN100AAXX  20121 76393 31950 02501 10164 39620 40193 53007 70544 91140 333 10266 20162 30132 59021 70000;EQDQ01  00002PRCP24
0199763930999992008102015004+25733-100300FM-12+051599999V0209999C000012200019N0080001N1+01961+01281102091ADDAY141031AY241031GA1001+999999999GF100991001001999999001001IA1019MA1999999096321MD1510121-0101MW1051REMSYN088AAXX  20151 76393 31958 00000 10196 20128 39632 40209 55012 70544 91440 333 30/// 59010;
0217763930999992008102021004+25733-100300FM-12+051599999V0200901N001012200019N0040001N1+02661+01621101831ADDAY141031AY201031GA1031+010201081GF103991031011012501001001IA1019MA1999999096151MD1710261-0031MW1051REMSYN106AAXX  20211 76393 31640 30901 10266 20162 39615 40183 57026 70540 83100 92050 333 01300 30/// 59003 83834;
0250763930999992008102100004+25733-100300FM-12+051599999V0201301N004012200019N0140001N1+02441+01491101751ADDAA124000091GA1021+009601061GF102991021021008001999999IA1019KA1120M+02761KA2180N+01621MA1999999096101MD1410001-0101REMSYN124AAXX  21001 76393 32564 21304 10244 20149 39610 40175 54003 822// 92355 333 0/300 10276 20162 30/// 50341 59010 70000 82632;
0189763930999992008102103004+25733-100300FM-12+051599999V0200901N003012200019N0140001N1+02261+01451101821ADDGA1031+008101061GF103991031041008001001001IA1019MA1999999096191MD1410001-0111REMSYN100AAXX  21031 76393 32564 30903 10226 20145 39619 40182 54009 83400 90255 333 0/300 30/// 59011 83627;
0161763930999992008102106004+25733-100300FM-12+051599999V0201101N001012200019N0040001N1+02101+01551101861ADDAY141061AY221061GF102991021041004501001001MA1999999096221MD1210031+9999MW1051REMSYN072AAXX  21061 76393 31440 21101 10210 20155 39622 40186 52003 70542 82400;
0217763930999992008102109004+25733-100300FM-12+051599999V0209999C000012200019N0030001N1+01801+01551101781ADDAY141031AY261031GA1031+002401061GF103991031041002501001001IA1019MA1999999096111MD1710111+0161MW1051REMSYN106AAXX  21091 76393 31330 30000 10180 20155 39611 40178 57011 70546 83400 90850 333 0/399 30/// 58016 83608;
0289763930999992008102112004+25733-100300FM-12+051599999V0209999C000012200019N0030001N1+01681+01461101771ADDAA124000091AY141061AY241061GA1001+999999999GF100991001001999999001001IA1019KA1240M+02761KA2120N+99999MA1999999096061MD1710051-0141MW1051REMSYN106AAXX  21121 76393 31930 00000 10168 20146 39606 40177 57005 70544 91140 333 10276 20174 30146 59014 70000;EQDQ01  00002PRCP24Q02 +01742ATMN  
0217763930999992008102115004+25733-100300FM-12+051599999V0203601N002010027019N0010001N1+01841+01561101921ADDAY141031AY241031GA1071+002701071GF107991071061002501999999IA1019MA1999999096171MD1210111-0151MW1051REMSYN106AAXX  21151 76393 31310 73602 10184 20156 39617 40192 52011 70544 876// 91450 333 0/3// 30/// 59015 87709;
0250763930999992008102200004+25733-100300FM-12+051599999V0201301N003012200019N0140001N1+02441+01631101481ADDAA124000091GA1031+008101061GF103991031041008001001001IA1019KA1120M+02721KA2180N+01641MA1999999095831MD1410001-0271REMSYN124AAXX  22001 76393 32564 31303 10244 20163 39583 40148 54008 83400 92355 333 0/300 10272 20164 30/// 50281 59027 70000 83627;
0189763930999992008102203004+25733-100300FM-12+051599999V0201401N001012200019N0120001N1+02161+01581101501ADDGA1021+005701061GF102991021041004501001001IA1019MA1999999095881MD1410001-0311REMSYN100AAXX  22031 76393 32462 21401 10216 20158 39588 40150 54005 82400 90255 333 0/300 30/// 59031 82619;
0269763930999992008102206004+25733-100300FM-12+051599999V0200301N001012200019N0050001N1+01981+01611101451ADDAY141061AY221061GA1021+003601061GF102991021041004501001001GJ103309IA1019KA1240M+02721KA2240N+01641MA1999999095821MD1710061-0401MW1051REMSYN124AAXX  22061 76393 31450 20301 10198 20161 39582 40145 57006 70542 82400 90550 333 0/399 10272 20164 30/// 55055 59040 82612;
0199763930999992008102209004+25733-100300FM-12+051599999V0209999C000012200019N0030001N1+01761+01581101371ADDAY141031AY221031GA1001+999999999GF100991001001999999001001IA1019MA1999999095711MD1710111-0441MW1051REMSYN088AAXX  22091 76393 31930 00000 10176 20158 39571 40137 57011 70542 90850 333 30/// 59044;
0279763930999992008102212004+25733-100300FM-12+051599999V0209999C000010006019N0000001N1+01681+01621101481ADDAA124000091AY141061AY241061GA1081+000601071GF108991081071000751999999KA1240M+02721KA2120N+01631MA1999999095781MD1210081-0281MW1421REMSYN118AAXX  22121 76393 31100 80000 10168 20162 39578 40148 52008 74344 887// 91155 333 0/399 10272 20163 59028 70000 88702;EQDQ01+000432PRSWM1
0199763930999992008102215004+25733-100300FM-12+051599999V0209999C000012200019N0010001N1+02061+01631101601ADDAY101031AY201031GA1001+999999999GF100991001001999999001001IA1019MA1999999095871MD1210071-0301MW1101REMSYN088AAXX  22151 76393 31910 00000 10206 20163 39587 40160 52007 71000 91455 333 30/// 59030;
0161763930999992008102218004+25733-100300FM-12+051599999V0203101N001012200019N0030001N1+02681+01701101381ADDAY141061AY241061GF101991011011008001001001MA1999999095681MD1710191+9999MW1051REMSYN072AAXX  22181 76393 31530 13101 10268 20170 39568 40138 57019 70544 81100;
0199763930999992008102221004+25733-100300FM-12+051599999V0200901N001012200019N0030001N1+02841+01791101131ADDAY141031AY241031GA1001+999999999GF100991001001999999001001IA1019MA1999999095461MD1710191-0421MW1051REMSYN088AAXX  22211 76393 31930 00901 10284 20179 39546 40113 57019 70544 92040 333 30/// 59042;
0279763930999992008102300004+25733-100300FM-12+051599999V0201201N002012200019N0050001N1+02601+01711101211ADDAA124000091AY141061AY241061GA1001+999999999GF100991001001999999001001IA1019KA1120M+03001KA2180N+01631MA1999999095621MD1210131-0211MW1051REMSYN112AAXX  23001 76393 31950 01202 10260 20171 39562 40121 52013 70544 92355 333 10300 20163 30/// 50361 59021 70000;EQDQ01  00002PRCP24
0217763930999992008102303004+25733-100300FM-12+051599999V0201701N001010063019N0040001N1+02481+01841101591ADDAY141031AY241031GA1081+006301061GF108991081051008001999999IA1019MA1999999096011MD1210391+0131MW1051REMSYN106AAXX  23031 76393 31540 81701 10248 20184 39601 40159 52039 70544 885// 90250 333 0/8// 30/// 58013 88621;
0258763930999992008102306004+25733-100300FM-12+051599999V0203501N003010084019N0110001N1+02201+01201101811ADDAA124000091GA1081+008401061GF108991081051008001999999GJ105769IA1019KA1240M+03001KA2240N+01631MA1999999096201MD1210191+0381REMSYN124AAXX  23061 76393 32561 83503 10220 20120 39620 40181 52019 885// 90555 333 0/399 10300 20163 30/// 55096 58038 70000 88628;
0189763930999992008102309004+25733-100300FM-12+051599999V0200301N003010108019N0100001N1+01901+00811102001ADDGA1081+010801061GF108991081051012501999999IA1019MA1999999096341MD1210141+0631REMSYN100AAXX  23091 76393 32660 80303 10190 20081 39634 40200 52014 885// 90255 333 0/399 30/// 58063 88636;
0161763930999992008102312004+25733-100300FM-12+051599999V0200201N002010075019N0100001N1+01761+00851102181ADDAY141061AY221061GF108991081051008001999999MA1999999096471MD1210131+9999MW1051REMSYN072AAXX  23121 76393 31560 80202 10176 20085 39647 40218 52013 70542 885//;
0161763930999992008102318004+25733-100300FM-12+051599999V0200601N003012200019N0100001N1+02141+00921102121ADDAY101061AY201061GF104991041051012501001001MA1999999096371MD1710151+9999MW1051REMSYN072AAXX  23181 76393 31660 40603 10214 20092 39637 40212 57015 70500 84500;
0217763930999992008102321004+25733-100300FM-12+051599999V0201301N003010102019N0100001N1+02241+01211101841ADDAY101031AY201031GA1061+010201081GF106991061021012501001001IA1019MA1999999096121MD1710251+0631MW1051REMSYN106AAXX  23211 76393 31660 61303 10224 20121 39612 40184 57025 70500 86200 92040 333 0/300 30/// 58063 86834;
0161763930999992008102400004+25733-100300FM-12+051599999V0201101N002012200019N0120001N1+01981+01121101851ADDAY141061AY241061GF101991011051008001001001MA1999999096411MD1210021+9999MW1051REMSYN072AAXX  24001 76393 31562 11102 10198 20112 39641 40185 52002 70544 81500;
0199763930999992008102403004+25733-100300FM-12+051599999V0201901N001012200019N0080001N1+01821+01231101931ADDAY141031AY241031GA1001+999999999GF100991001001999999001001IA1019MA1999999096221MD1210081+0211MW1051REMSYN088AAXX  24031 76393 31958 01901 10182 20123 39622 40193 52008 70544 90252 333 30/// 58021;
0147763930999992008102412004+25733-100300FM-12+051599999V0209999C000010360019N0020001N1+01541+01171101851ADDAY141061AY211061GF106991021051004501051001MA1999999096081MW1051REMSYN072AAXX  24121 76393 31420 60000 10154 20117 39608 40185 5//// 70541 82550;
0217763930999992008102415004+25733-100300FM-12+051599999V0209999C000010600019N0030001N1+01801+01211101961ADDAY141031AY221031GA1071+060001001GF107991001001999999001011IA1019MA1999999096171MD1210091-0351MW1051REMSYN106AAXX  24151 76393 31930 70000 10180 20121 39617 40196 52009 70542 80001 91450 333 0/005 30/// 59035 87070;
0161763930999992008102418004+25733-100300FM-12+051599999V0200401N001010120019N0050001N1+02261+01231101761ADDAY141061AY241061GF108991081061012501999999MA1999999096011MD1710161+9999MW1051REMSYN072AAXX  24181 76393 31650 80401 10226 20123 39601 40176 57016 70544 886//;
0217763930999992008102421004+25733-100300FM-12+051599999V0201001N003010096019N0100001N1+02561+01451101411ADDAY141031AY241031GA1071+009601071GF107991071061012501999999IA1019MA1999999095711MD1710301-0411MW1051REMSYN106AAXX  24211 76393 31660 71003 10256 20145 39571 40141 57030 70544 876// 92040 333 0/3// 30/// 59041 87732;
0161763930999992008102500004+25733-100300FM-12+051599999V0201201N002010900019N0060001N1+02301+01501101411ADDAY141061AY241061GF107991031001022501031061MA1999999095751MD1210041+9999MW1051REMSYN072AAXX  25001 76393 31856 71202 10230 20150 39575 40141 52004 70544 83036;
0223763930999992008102503004+25733-100300FM-12+051599999V0201401N00101090001CN0060001N1+02081+01451101511ADDAY141031AY241031GA1031+018001031GF107991031001022501031061IA1019MA1999999095881MD1210131-0341MW1051REMSYN112AAXX  25031 76393 31856 71401 10208 20145 39588 40151 52013 70544 83036 90255 333 0/055 30/// 59034 83356 84070;
0277763930999992008102506004+25733-100300FM-12+051599999V0201801N001010720019N0120001N1+01921+01551101481ADDAA124000091GA1051+072001001GF105991001001999999001041GJ105529IA1019KA1240M+02661KA2240N+01441MA1999999095831MD1410001-0331REMSYN124AAXX  25061 76393 32962 51801 10192 20155 39583 40148 54005 85004 90555 333 0/005 10266 20144 30/// 55092 59033 70000 85074;EQDQ01+000052SCOTLC
0208763930999992008102509004+25733-100300FM-12+051599999V0209999C000012200019N0120001N1+01741+01521101401ADDGA1041+072001001GF104991001001999999001041IA1019MA1999999095721MD1610111-0361REMSYN100AAXX  25091 76393 32962 40000 10174 20152 39572 40140 56011 84004 90855 333 0/005 30/// 59036 84074;EQDQ01+000042SCOTLC
0227763930999992008102518004+25733-100300FM-12+051599999V0200401N003012200019N0030001N1+02581+01581101631ADDGA1041+030001031GF104991041001999999041001IA1019KA1120M+02601KA2240N+02441MA1999999095921MD1010001-0091REMSYN112AAXX  25181 76393 32930 40403 10258 20158 39592 40163 50000 84040 91750 333 0/050 10260 20244 30/// 59009 84360;
0217763930999992008102521004+25733-100300FM-12+051599999V0201201N003012200019N0080001N1+02881+01811101381ADDAY141031AY241031GA1011+010801081GF101991011011012501001001IA1019MA1999999095741MD1710181+0031MW1051REMSYN106AAXX  25211 76393 31658 11203 10288 20181 39574 40138 57018 70544 81100 92040 333 0/300 30/// 58003 81836;
0161763930999992008102600004+25733-100300FM-12+051599999V0201001N002012200019N0050001N1+02481+01771101461ADDAY141061AY241061GF101991001001999999001011MA1999999095851MD1210111+9999MW1051REMSYN072AAXX  26001 76393 31950 11002 10248 20177 39585 40146 52011 70544 80001;
0217763930999992008102603004+25733-100300FM-12+051599999V0202101N001012200019N0050001N1+02221+01801101631ADDAY141031AY241031GA1031+060001001GF103991001001999999001011IA1019MA1999999096031MD1210181+0141MW1051REMSYN106AAXX  26031 76393 31950 32101 10222 20180 39603 40163 52018 70544 80001 90255 333 0/005 30/// 58014 83070;
0260763930999992008102606004+25733-100300FM-12+051599999V0209999C000012200019N0100001N1+02141+01751101581ADDGA1021+072001001GF102991001001999999001041GJ105469IA1019KA1240M+02981KA2240N+01581MA1999999095961MD1410001+0131REMSYN118AAXX  26061 76393 32960 20000 10214 20175 39596 40158 54007 82004 90555 333 0/005 10298 20158 30/// 55091 58013 82074;EQDQ01+000022SCOTLC
0217763930999992008102609004+25733-100300FM-12+051599999V0209999C000012200019N0080001N1+01941+01601101551ADDAY141031AY201031GA1041+003301061GF104991041031004501001001IA1019MA1999999095901MD1410001+0181MW1051REMSYN106AAXX  26091 76393 31458 40000 10194 20160 39590 40155 54006 70540 84300 90855 333 0/300 30/// 58018 84611;
0161763930999992008102612004+25733-100300FM-12+051599999V0209999C000012200019N0020001N1+01801+01551101601ADDAY141061AY201061GF102991021041002501001001MA1999999095911MD1410001+9999MW1051REMSYN072AAXX  26121 76393 31320 20000 10180 20155 39591 40160 54001 70540 82400;
0189763930999992008102615004+25733-100300FM-12+051599999V0209999C000010063019N0020001N1+02161+01551101861ADDGA1071+006301061GF107991071051008001999999IA1019MA1999999096151MD1210241+9999REMSYN100AAXX  26151 76393 31520 70000 10216 20155 39615 40186 52024 875// 91450 333 0/399 30/// 58/// 87621;
0161763930999992008102618004+25733-100300FM-12+051599999V0200901N001010900019N0200001N1+02541+01841101751ADDAY141061AY241061GF107991011011008001001071MA1999999096061MD1210091+9999MW1051REMSYN072AAXX  26181 76393 31570 70901 10254 20184 39606 40175 52009 70544 81107;
0217763930999992008102621004+25733-100300FM-12+051599999V0201001N002010600019N0040001N1+02771+01961101491ADDAY141031AY241031GA1061+060001021GF107991011031022501001081IA1019MA1999999095851MD1710291+0111MW1051REMSYN106AAXX  26211 76393 31840 71002 10277 20196 39585 40149 57029 70544 81308 92055 333 0/055 30/// 58011 86270;
0161763930999992008102700004+25733-100300FM-12+051599999V0200901N001012200019N0050001N1+02561+01961101641ADDAY141061AY261061GF104991011051008001021061MA1999999096021MD1210171+9999MW1051REMSYN072AAXX  27001 76393 31550 40901 10256 20196 39602 40164 52017 70546 81526;
0223763930999992008102703004+25733-100300FM-12+051599999V0200601N001012200019N0030001N1+02441+01891101911ADDAY141031AY261031GA1011+005401061GF103991011051004501021999IA1019MA1999999096291MD1210271+0261MW1051REMSYN112AAXX  27031 76393 31430 30601 10244 20189 39629 40191 52027 70546 8152/ 90250 333 0/359 30/// 58026 81618 82456;
0161763930999992008102706004+25733-100300FM-12+051599999V0200901N002012200019N0030001N1+02161+01961102101ADDAY141061AY261061GF101991011051999999001001MA1999999096501MD1210211+9999MW1051REMSYN072AAXX  27061 76393 31930 10902 10216 20196 39650 40210 52021 70546 81500;
0217763930999992008102709004+25733-100300FM-12+051599999V0200901N002010021019N0020001N1+02101+01981102381ADDAY141031AY221031GA1081+002101061GF108991081051001501999999IA1019MA1999999096671MD1310171+0971MW1051REMSYN106AAXX  27091 76393 32220 80902 10210 20198 39667 40238 53017 70542 885// 90855 333 0/399 30/// 58097 88607;
0165763930999992008102712004+25733-100300FM-12+051599999V0200301N001010012019N0030001N1+02121+01951102641ADDAY141061AY221061GF108991081051001501999999MD1210221+9999MW1051REMSYN072AAXX  27121 76393 31230 80301 10212 20195 39389 40264 52022 70542 885//;EQDQ01+093893APOSP 
0234763930999992008102715004+25733-100300FM-12+051599999V0203501N001010024019N0020001N1+02201+01971103041ADDAA103000991AY141031AY221031GA1081+002401061GF108991081051002501999999IA1019MA1999999097291MD1210401+1141MW1051REMSYN112AAXX  27151 76393 21320 83501 10220 20197 39729 40304 52040 70542 885// 91750 333 0/399 30/// 58114 69997 88608;
0253763930999992008102721004+25733-100300FM-12+051599999V0203301N001010042019N0040001N1+01481+01071103241ADDAA103000091AY141031AY241031GA1081+004201061GF108991081041004501999999IA1099MA1999999097431MD1610011+1581MW1051REMSYN112AAXX  27211 76393 21440 83301 10148 20107 39743 40324 56001 70544 884// 92040 333 0/3// 31/// 58158 69907 88614;EQDQ01  00002PRCP03
0161763930999992008102800004+25733-100300FM-12+051599999V0200301N001010042019N0060001N1+01461+00971103301ADDAY141061AY241061GF108991081061004501999999MA1999999097461MD1210031+9999MW1051REMSYN072AAXX  28001 76393 31456 80301 10146 20097 39746 40330 52003 70544 886//;
0217763930999992008102803004+25733-100300FM-12+051599999V0200401N001012200019N0030001N1+01341+01031103541ADDAY141031AY221031GA1031+003001061GF103991031041004501001001IA1019MA1999999097641MD1210181+1361MW1051REMSYN106AAXX  28031 76393 31430 30401 10134 20103 39764 40354 52018 70542 83400 90250 333 0/399 30/// 58136 83610;
0161763930999992008102806004+25733-100300FM-12+051599999V0202001N001012200019N0030001N1+01321+00971103491ADDAY141061AY221061GF101991011041004501001001MA1999999097571MD1710071+9999MW1051REMSYN072AAXX  28061 76393 31430 12001 10132 20097 39757 40349 57007 70542 81400;
0189763930999992008102809004+25733-100300FM-12+051599999V0202601N001012200019N0130001N1+01161+00871103331ADDGA1021+003001061GF102991021041002501001001IA1019MA1999999097411MD1610161+0741REMSYN100AAXX  28091 76393 32363 22601 10116 20087 39741 40333 56016 82400 90855 333 0/300 30/// 58074 82610;
0263763930999992008102812004+25733-100300FM-12+051599999V0202701N001012200019N0120001N1+01081+00901103371ADDAA124000091GA1011+072001001GF101991001001999999001041IA1019KA1240M+02361KA2120N+01001MA1999999097421MD1410001+0751REMSYN118AAXX  28121 76393 32962 12701 10108 20090 39742 40337 54001 81004 91155 333 0/005 10236 20100 30090 58075 70000 81074;EQDQ01+000012SCOTLC
0199763930999992008102815004+25733-100300FM-12+051599999V0201301N001012200019N0150001N1+01601+00451103541ADDAY101031AY201031GA1001+999999999GF100991001001999999001001IA1019MA1999999097541MD1210121+0251MW1041REMSYN088AAXX  28151 76393 31965 01301 10160 20045 39754 40354 52012 70400 91450 333 30/// 58025;
0161763930999992008102818004+25733-100300FM-12+051599999V0201101N002012200019N0100001N1+01861+00531103291ADDAY101061AY201061GF101991011001999999031001MA1999999097381MD1710161+9999MW1041REMSYN072AAXX  28181 76393 31960 11102 10186 20053 39738 40329 57016 70400 81030;
0217763930999992008102821004+25733-100300FM-12+051599999V0201201N004010300019N0120001N1+02061+00711102851ADDAY101031AY201031GA1051+030001031GF105991051001999999041001IA1019MA1999999097001MD1710381-0431MW1051REMSYN106AAXX  28211 76393 31962 51204 10206 20071 39700 40285 57038 70500 85040 92040 333 0/050 30/// 59043 85360;
0161763930999992008102900004+25733-100300FM-12+051599999V0201001N003012200019N0120001N1+01881+00871102841ADDAY101061AY201061GF103991031001999999041001MA1999999097031MD1310031+9999MW1051REMSYN072AAXX  29001 76393 31962 31003 10188 20087 39703 40284 53003 70500 83040;
0217763930999992008102903004+25733-100300FM-12+051599999V0201901N002012200019N0040001N1+01661+00891102931ADDAY141031AY221031GA1031+007501061GF103991031041008001001001IA1019MA1999999097131MD1210101-0511MW1051REMSYN106AAXX  29031 76393 31540 31902 10166 20089 39713 40293 52010 70542 83400 90250 333 0/399 30/// 59051 83625;
0251763930999992008102906004+25733-100300FM-12+051599999V0202701N001012200019N0030001N1+01501+00781102831ADDAY141061AY221061GA1001+999999999GF100991001001999999001001GJ106129IA1019KA1240M+02341KA2240N+01001MA1999999097021MD1010111-0551MW1051REMSYN106AAXX  29061 76393 31930 02701 10150 20078 39702 40283 50011 70542 90550 333 10234 20100 30/// 55102 59055;
0208763930999992008102909004+25733-100300FM-12+051599999V0209999C000012200019N0010001N1+01201+00801102661ADDGA1011+072001001GF101991001001999999001041IA1019MA1999999096821MD1710201-0591REMSYN100AAXX  29091 76393 32910 10000 10120 20080 39682 40266 57020 81004 90855 333 0/005 30/// 59059 81074;EQDQ01+000012SCOTLC
0263763930999992008102912004+25733-100300FM-12+051599999V0209999C000012200019N0140001N1+01181+00731102641ADDAA124000091GA1021+072001001GF102991001001999999001041IA1019KA1240M+02341KA2120N+01061MA1999999096771MD1410001-0651REMSYN118AAXX  29121 76393 32964 20000 10118 20073 39677 40264 54005 82004 91155 333 0/005 10234 20106 30082 59065 70000 82074;EQDQ01+000022SCOTLC
0217763930999992008102915004+25733-100300FM-12+051599999V0203501N001012200019N0120001N1+01541+00701102721ADDAY101031AY201031GA1021+030001031GF102991021001999999031001IA1019MA1999999096821MD1210051-0721MW1051REMSYN106AAXX  29151 76393 31962 23501 10154 20070 39682 40272 52005 70500 82030 91450 333 0/050 30/// 59072 82360;
0161763930999992008102918004+25733-100300FM-12+051599999V0201001N003012200019N0100001N1+02121+00891102631ADDAY101061AY201061GF102991021001999999041001MA1999999096811MD1710011+9999MW1051REMSYN072AAXX  29181 76393 31960 21003 10212 20089 39681 40263 57001 70500 82040;
0250763930999992008103000004+25733-100300FM-12+051599999V0201201N002012200019N0160001N1+02151+01191102231ADDAA124000091GA1011+009601081GF101991011021008001001001IA1019KA1120M+02441KA2180N+01061MA1999999096491MD1710011-0541REMSYN124AAXX  30001 76393 32566 11202 10215 20119 39649 40223 57001 81200 92355 333 01400 10244 20106 30/// 50321 59054 70000 81832;
0193763930999992008103003004+25733-100300FM-12+051599999V0202701N001012200019N0120001N1+01881+01211102271ADDGA1011+006601081GF101991011011008001001001IA1019MD1110071-0571REMSYN100AAXX  30031 76393 32562 12701 10188 20121 39565 40227 51007 81100 90255 333 00500 30/// 59057 81822;EQDQ01+095653APOSP 
0241763930999992008103006004+25733-100300FM-12+051599999V0201201N002012200019N0100001N1+01801+01351102261ADDGA1031+004501061GF103991031051004501001001GJ106009IA1019KA1240M+02441KA2240N+01061MA1999999096541MD1710021-0481REMSYN118AAXX  30061 76393 32460 31202 10180 20135 39654 40226 57002 83500 90555 333 0/300 10244 20106 30/// 55100 59048 83615;
0199763930999992008103009004+25733-100300FM-12+051599999V0209999C000012200019N0030001N1+01581+01421102191ADDAY141031AY221031GA1001+999999999GF100991001001999999001001IA1019MA1999999096441MD1810101-0381MW1051REMSYN088AAXX  30091 76393 31930 00000 10158 20142 39644 40219 58010 70542 90850 333 30/// 59038;
0260763930999992008103012004+25733-100300FM-12+051599999V0209999C000010015019N0030001N1+01621+01461102361ADDAA124000091AY141061AY271061GA1071+001501071GF107991071071001501999999KA1240M+02441KA2120N+01501MA1999999096571MD1110031-0201MW1051REMSYN118AAXX  30121 76393 31230 70000 10162 20146 39657 40236 51003 70547 877// 91150 333 0/399 10244 20150 59020 70000 87705;
0217763930999992008103015004+25733-100300FM-12+051599999V0209999C000010036019N0030001N1+01701+01341102491ADDAY141031AY241031GA1081+003601061GF108991081061004501999999IA1019MA1999999096681MD1010111-0141MW1051REMSYN106AAXX  30151 76393 31430 80000 10170 20134 39668 40249 50011 70544 886// 91440 333 0/3// 30/// 59014 88612;
0161763930999992008103018004+25733-100300FM-12+051599999V0209999C000010042019N0030001N1+02001+01431102501ADDAY141061AY241061GF108991081041004501999999MA1999999096711MD1010031+9999MW1051REMSYN072AAXX  30181 76393 31430 80000 10200 20143 39671 40250 50003 70544 884//;
0217763930999992008103021004+25733-100300FM-12+051599999V0203401N001010075019N0030001N1+02241+01501102381ADDAY141031AY221031GA1081+007501061GF108991081051008001999999IA1019MA1999999096601MD1710111+0101MW1051REMSYN106AAXX  30211 76393 31530 83401 10224 20150 39660 40238 57011 70542 885// 92050 333 0/399 30/// 58010 88625;
0161763930999992008103100004+25733-100300FM-12+051599999V0200901N001010900019N0040001N1+02301+01461102361ADDAY141061AY221061GF107991041051008001001021MA1999999096621MD1210021+9999MW1051REMSYN072AAXX  31001 76393 31540 70901 10230 20146 39662 40236 52002 70542 84502;
0217763930999992008103103004+25733-100300FM-12+051599999V0200501N002010075019N0040001N1+02161+01401102421ADDAY141031AY211031GA1051+007501061GF105991051041008001001001IA1019MA1999999096701MD1410001+0141MW1051REMSYN106AAXX  31031 76393 31540 50502 10216 20140 39670 40242 54008 70541 85400 90255 333 0/300 30/// 58014 85625;
0161763930999992008103106004+25733-100300FM-12+051599999V0200901N003010042019N0080001N1+01881+01571102471ADDAY141061AY211061GF107991071051004501999999MA1999999096751MD1410001+9999MW1051REMSYN072AAXX  31061 76393 31458 70903 10188 20157 39675 40247 54005 70541 875//;
0161763930999992008103112004+25733-100300FM-12+051599999V0209999C000010021019N0020001N1+01761+01541102551ADDAY141061AY241061GF108991081061002501999999MA1999999096751MD1010001+9999MW1051REMSYN072AAXX  31121 76393 31320 80000 10176 20154 39675 40255 50000 70544 886//;
0217763930999992008103115004+25733-100300FM-12+051599999V0209999C000010027019N0030001N1+01861+01611102691ADDAY101031AY201031GA1081+002701061GF108991081041002501999999IA1019MA1999999096891MD1210141+0211MW1051REMSYN106AAXX  31151 76393 31330 80000 10186 20161 39689 40269 52014 70500 884// 91440 333 0/3// 30/// 58021 88609;
0161763930999992008103118004+25733-100300FM-12+051599999V0203001N001010042019N0030001N1+02101+01581102701ADDAY101061AY201061GF107991071021004501999999MA1999999096901MD1010011+9999MW1051REMSYN072AAXX  31181 76393 31430 73001 10210 20158 39690 40270 50001 70500 872//;
0223763930999992008103121004+25733-100300FM-12+051599999V0201001N00201007501CN0060001N1+02441+01561102451ADDAY141031AY241031GA1011+008401081GF106991061021008001001001IA1019MA1999999096711MD1710191+0111MW1051REMSYN112AAXX  31211 76393 31556 61002 10244 20156 39671 40245 57019 70544 86200 92055 333 01400 30/// 58011 81828 85628;
0161763930999992008110100004+25733-100300FM-12+051599999V0201101N002010075019N0060001N1+02311+01611102401ADDAY141061AY241061GF105991051051008001001001MA1999999096691MD1710021+9999MW1051REMSYN072AAXX  01001 76393 31556 51102 10231 20161 39669 40240 57002 70544 85500;
0195763930999992008110103004+25733-100300FM-12+051599999V0200601N001012200019N0140001N1+02201+01551102441ADDGA1021+006601061GF103991021041008001001031IA1019MA1999999096741MD1410001+0041REMSYN106AAXX  01031 76393 32564 30601 10220 20155 39674 40244 54005 82403 90255 333 0/305 30/// 58004 82622 81074;
0241763930999992008110106004+25733-100300FM-12+051599999V0200901N002010045019N0120001N1+02041+01581102431ADDGA1081+004501061GF108991081051004501999999GJ101869IA1019KA1240M+02481KA2240N+01701MA1999999096731MD1410001-0021REMSYN118AAXX  01061 76393 31462 80902 10204 20158 39673 40243 54001 885// 90555 333 0/399 10248 20170 30/// 55031 59002 88615;
0242763930999992008110109004+25733-100300FM-12+051599999V0200401N001010018019N0030001N1+01821+01641102521ADDAY141031AY201031GA1051+001801061GF108991051041999999021999IA1019MA1999999096741MD1710011+9999MW1051REMSYN112AAXX  01091 76393 31930 80401 10182 20164 39674 40252 57001 70547 8542/ 90850 333 0/359 30/// 58/// 85606 83456;EQDQ01+000072PSTWM2
0297763930999992008110112004+25733-100300FM-12+051599999V0209999C00001001201CN0030001N1+01841+01661102491ADDAA124052291AY141061AY201061GA1031+001801071GF106991061061001501999999IA1019KA1240M+02481KA2120N+01781MA1999999096711MD1010031-0041MW1051REMSYN130AAXX  01121 76393 31230 60000 10184 20166 39671 40249 50003 70547 866// 91150 333 0/399 10248 20178 30174 59004 70522 83706 83608;EQDQ01+000072PSTWM2
0223763930999992008110115004+25733-100300FM-12+051599999V0200701N00101009001CN0030001N1+02001+01671102651ADDAY141031AY241031GA1011+003301081GF106991061081004501001001IA1019MA1999999096871MD1210161+0121MW1051REMSYN112AAXX  01151 76393 31430 60701 10200 20167 39687 40265 52016 70544 86800 91455 333 00400 30/// 58012 81811 85622;
0161763930999992008110118004+25733-100300FM-12+051599999V0200901N003010075019N0050001N1+02261+01661102581ADDAY141061AY241061GF107991071051008001999999MA1999999096811MD1710061+9999MW1051REMSYN072AAXX  01181 76393 31550 70903 10226 20166 39681 40258 57006 70544 875//;
0189763930999992008110203004+25733-100300FM-12+051599999V0201801N001010078019N0140001N1+02281+01511102211ADDGA1061+007801061GF106991061041008001001001IA1019MA1999999096511MD1410001-0231REMSYN100AAXX  02031 76393 32564 61801 10228 20151 39651 40221 54007 86400 90255 333 0/300 30/// 59023 86626;
0258763930999992008110206004+25733-100300FM-12+051599999V0201101N002010063019N0140001N1+02101+01481102211ADDAA124000091GA1071+006301061GF107991071041008001999999GJ101209IA1019KA1240M+02621KA2240N+01781MA1999999096511MD1410001-0221REMSYN124AAXX  02061 76393 32564 71102 10210 20148 39651 40221 54000 874// 90555 333 0/399 10262 20178 30/// 55020 59022 70000 87621;
0161763930999992008110212004+25733-100300FM-12+051599999V0209999C000010012019N0020001N1+01661+01501102001ADDAY141061AY241061GF106991061021001501999999MA1999999096301MD1710061+9999MW1051REMSYN072AAXX  02121 76393 31220 60000 10166 20150 39630 40200 57006 70544 862//;
0217763930999992008110215004+25733-100300FM-12+051599999V0203101N001010036019N0030001N1+01861+01521102171ADDAY141031AY241031GA1051+003601081GF105991051021004501001001IA1019MA1999999096431MD1210131-0441MW1051REMSYN106AAXX  02151 76393 31430 53101 10186 20152 39643 40217 52013 70544 85200 91440 333 0/300 30/// 59044 85812;
0161763930999992008110218004+25733-100300FM-12+051599999V0201101N003010075019N0040001N1+02441+01731102131ADDAY141061AY241061GF107991071021008001999999MA1999999096401MD1710031+9999MW1051REMSYN072AAXX  02181 76393 31540 71103 10244 20173 39640 40213 57003 70544 872//;
0208763930999992008110303004+25733-100300FM-12+051599999V0202901N001012200019N0190001N1+02181+01571101771ADDGA1041+006001061GF104991041041008001001001IA1019MA1999999096101MD1710502-0411REMSYN100AAXX  03031 76393 32569 42901 10218 20157 39610 40177 57050 84400 90255 333 0/300 30/// 59041 84620;EQDQ01+000502APC3  
0241763930999992008110306004+25733-100300FM-12+051599999V0200901N003010051019N0180001N1+02001+01501101801ADDGA1061+005101061GF106991061041004501001001GJ104989IA1019KA1240M+02621KA2240N+01621MA1999999096111MD1410001-0401REMSYN118AAXX  03061 76393 32468 60903 10200 20150 39611 40180 54001 86400 90555 333 0/300 10262 20162 30/// 55083 59040 86617;
0161763930999992008110312004+25733-100300FM-12+051599999V0201601N001010021019N0020001N1+01801+01551101801ADDAY141061AY241061GF108991081061002501999999MA1999999096091MD1010001+9999MW1051REMSYN072AAXX  03121 76393 31320 81601 10180 20155 39609 40180 50000 70544 886//;
0217763930999992008110315004+25733-100300FM-12+051599999V0209999C000010030019N0020001N1+01881+01571101811ADDAY141031AY241031GA1081+003001081GF108991081051004501999999IA1019MA1999999096071MD1010021-0361MW1051REMSYN106AAXX  03151 76393 31420 80000 10188 20157 39607 40181 50002 70544 885// 91440 333 0/3// 30/// 59036 88810;
0161763930999992008110318004+25733-100300FM-12+051599999V0201001N003010075019N0030001N1+02341+01611101691ADDAY141061AY241061GF106991061051008001051061MA1999999095971MD1810101+9999MW1051REMSYN072AAXX  03181 76393 31530 61003 10234 20161 39597 40169 58010 70544 86556;
0217763930999992008110321004+25733-100300FM-12+051599999V0201201N001010084019N0030001N1+02521+01681101551ADDAY141031AY221031GA1071+008401061GF107991071051008001999999IA1019MA1999999095841MD1710131+9999MW1051REMSYN106AAXX  03211 76393 31530 71201 10252 20168 39584 40155 57013 70542 875// 92045 333 0/399 30/// 58/// 87628;
0195763930999992008110403004+25733-100300FM-12+051599999V0209999C000012200019N0120001N1+02081+01651101531ADDGA1011+003301061GF102991011041004501001041IA1019MA1999999095891MD1410001-0211REMSYN106AAXX  04031 76393 32462 20000 10208 20165 39589 40153 54006 81404 90255 333 0/305 30/// 59021 81611 81074;
0264763930999992008110406004+25733-100300FM-12+051599999V0200601N002012200019N0140001N1+01961+01591101551ADDAA124000091GA1011+003601061GF102991011041004501001041GJ103549IA1019KA1240M+02641KA2240N+01701MA1999999095901MD1410001-0211REMSYN130AAXX  04061 76393 32464 20602 10196 20159 39590 40155 54001 81404 90555 333 0/305 10264 20170 30/// 55059 59021 70000 81612 81074;
0161763930999992008110412004+25733-100300FM-12+051599999V0202901N001010012019N0020001N1+01761+01611101431ADDAY141061AY241061GF108991081061001501999999MA1999999095761MD1010001+9999MW1051REMSYN072AAXX  04121 76393 31220 82901 10176 20161 39576 40143 50000 70544 886//;
0217763930999992008110415004+25733-100300FM-12+051599999V0203401N001010024019N0020001N1+01841+01591101591ADDAY141031AY241031GA1081+002401071GF108991081061002501999999IA1019MA1999999095861MD1210121-0211MW1051REMSYN106AAXX  04151 76393 31320 83401 10184 20159 39586 40159 52012 70544 886// 91440 333 0/3// 30/// 59021 88708;
0161763930999992008110418004+25733-100300FM-12+051599999V0203601N001010075019N0020001N1+02241+01641101491ADDAY141061AY241061GF108991081061008001999999MA1999999095771MD1710091+9999MW1051REMSYN072AAXX  04181 76393 31520 83601 10224 20164 39577 40149 57009 70544 886//;
0189763930999992008110503004+25733-100300FM-12+051599999V0202201N001012200019N0150001N1+02161+01611101251ADDGA1011+005401061GF101991011041004501001001IA1019MA1999999095631MD1410001-0261REMSYN100AAXX  05031 76393 32465 12201 10216 20161 39563 40125 54002 81400 90255 333 0/300 30/// 59026 81618;
0260763930999992008110506004+25733-100300FM-12+051599999V0200501N001012200019N0160001N1+01921+01451101231ADDGA1011+072001001GF101991001001999999001041GJ104029IA1019KA1240M+02701KA2240N+01621MA1999999095611MD1410001-0291REMSYN118AAXX  05061 76393 32966 10501 10192 20145 39561 40123 54002 81004 90555 333 0/005 10270 20162 30/// 55067 59029 81074;EQDQ01+000012SCOTLC
0147763930999992008110518004+25733-100300FM-12+051599999V0200601N002012200019N0030001N1+02621+01701101451ADDAY141061AY241061GF101991011021008001001001MA1999999095351MW1051REMSYN072AAXX  05181 76393 31530 10602 10262 20170 39535 40145 5//// 70544 81200;
0217763930999992008110521004+25733-100300FM-12+051599999V0201101N003012200019N0080001N1+02881+01841100731ADDAY141031AY241031GA1031+010501081GF103991031021012501001001IA1019MA1999999095121MD1710231+9999MW1051REMSYN106AAXX  05211 76393 31658 31103 10288 20184 39512 40073 57023 70544 83200 92040 333 0/300 30/// 59/// 83835;
0161763930999992008110600004+25733-100300FM-12+051599999V0202601N001012200019N0100001N1+02601+01681100691ADDAY101061AY201061GF103991031021008001001001MA1999999095131MD1010011+9999MW1051REMSYN072AAXX  06001 76393 31560 32601 10260 20168 39513 40069 50001 70500 83200;
0171763930999992008110609004+25733-100300FM-12+051599999V0203101N001012200019N0120001N1+01841+01661100871ADDGA1001+999999999GF100991001001999999001001IA1019MA1999999095251MD1410001-0231REMSYN082AAXX  06091 76393 32962 03101 10184 20166 39525 40087 54009 90855 333 30/// 59023;
0245763930999992008110612004+25733-100300FM-12+051599999V0202701N001012200019N0120001N1+01781+01501100961ADDAA124000091GA1001+999999999GF100991001001999999001001IA1019KA1240M+02961KA2120N+01561MA1999999095301MD1410001-0051REMSYN100AAXX  06121 76393 32962 02701 10178 20150 39530 40096 54005 91155 333 10296 20156 30144 59005 70000;EQDQ01  00002PRCP24
0237763930999992008110618004+25733-100300FM-12+051599999V0200401N003012200019N0050001N1+02481+02141101311ADDAY101061AY201061GA1001+999999999GF100991001001999999001001IA1019KA1120M+02581KA2240N+01781MA1999999095641MD1999999-0291MW1051REMSYN100AAXX  06181 76393 31950 00403 10248 20214 39564 40131 5//// 70500 91740 333 10258 20178 30/// 59029;
0217763930999992008110621004+25733-100300FM-12+051599999V0200401N003012200019N0060001N1+02561+01181101151ADDAY101031AY201031GA1011+030001041GF101991011001999999011001IA1019MA1999999095521MD1710121-0401MW1051REMSYN106AAXX  06211 76393 31956 10403 10256 20118 39552 40115 57012 70500 81010 92040 333 0/050 30/// 59040 81460;
0180763930999992008110700004+25733-100300FM-12+051599999V0200401N003012200019N0060001N1+02261+01031101191ADDAY101061AY201061GF102991001001999999001041MA1999999095591MD1210071+9999MW1051REMSYN072AAXX  07001 76393 31956 20403 10226 20103 39559 40119 52007 70500 82004;EQDQ01+000022SCOTLC
0217763930999992008110721004+25733-100300FM-12+051599999V0201001N003012200019N0120001N1+02421+00901101561ADDAY101031AY201031GA1041+015001061GF104991041041017501001001IA1019MA1999999095871MD1710111-0351MW1051REMSYN106AAXX  07211 76393 31762 41003 10242 20090 39587 40156 57011 70500 84400 92040 333 0/300 30/// 59035 84650;
0180763930999992008110800004+25733-100300FM-12+051599999V0201201N005012200019N0120001N1+02221+01091101561ADDAY101061AY201061GF102991001001999999001051MA1999999095901MD1010031+9999MW1051REMSYN072AAXX  08001 76393 31962 21205 10222 20109 39590 40156 50003 70500 82005;EQDQ01+000022SCOTLC
0263763930999992008110812004+25733-100300FM-12+051599999V0202201N002012200019N0180001N1+01481+01111101781ADDAA124000091GA1011+072001001GF101991001001999999001041IA1019KA1240M+02661KA2120N+01301MA1999999096011MD1410001+0181REMSYN118AAXX  08121 76393 32968 12202 10148 20111 39601 40178 54001 81004 91155 333 0/005 10266 20130 30120 58018 70000 81074;EQDQ01+000012SCOTLC
0161763930999992008110818004+25733-100300FM-12+051599999V0200901N003012200019N0100001N1+02301+01241101811ADDAY101061AY201061GF102991021021012501031001MA1999999096061MD1010011+9999MW1051REMSYN072AAXX  08181 76393 31660 20903 10230 20124 39606 40181 50001 70500 82230;
0245763930999992008110821004+25733-100300FM-12+051599999V0200901N003010300019N0080001N1+02281+01291101411ADDAY101031AY201031GA1041+009901081GA2021+030001031GF107991071021008001021011IA1019MA1999999095711MD1710351-0161MW1051REMSYN118AAXX  08211 76393 31558 70903 10228 20129 39571 40141 57035 70500 87221 92050 333 0/355 30/// 59016 84833 82360 81070;
0189763930999992008110909004+25733-100300FM-12+051599999V0203201N001010027019N0140001N1+01801+01521101271ADDGA1081+002701061GF108991081051002501999999IA1019MA1999999095581MD1710171-0451REMSYN100AAXX  09091 76393 32364 83201 10180 20152 39558 40127 57017 885// 90855 333 0/399 30/// 59045 88609;
0161763930999992008110912004+25733-100300FM-12+051599999V0200901N001010006019N0030001N1+01641+99999101261ADDAY151061AY221061GF108991081051000751999999MA1999999095551MD1410001+9999MW1501REMSYN072AAXX  09121 76393 21130 80901 10164 20168 39555 40126 54003 75052 885//;
0289763930999992008111012004+25733-100300FM-12+051599999V0209999C000010012019N0020001N1+01901+01781100931ADDAA106001092AA224000022AY141061AY221061GA1081+001201061GF108991081051001501999999IA1019KA1240M+02061KA2120N+01781MA1999999095241MD1410001-0311MW1051REMSYN130AAXX  10121 76393 31220 80000 10190 20178 39524 40093 54001 69991 70542 885// 91155 333 0/399 10206 20178 30172 59031 79999 88604;
0147763930999992008111018004+25733-100300FM-12+051599999V0201001N002012200019N0030001N1+02601+01811100871ADDAY141061AY241061GF107991041061008001001011MA1999999095221MW1051REMSYN072AAXX  10181 76393 31530 71002 10260 20181 39522 40087 5//// 70544 84601;
0217763930999992008111021004+25733-100300FM-12+051599999V0200901N003010300019N0060001N1+02781+01951100651ADDAY141031AY241031GA1061+030001041GF106991061001999999041001IA1019MA1999999095061MD1710161+9999MW1051REMSYN106AAXX  10211 76393 31956 60903 10278 20195 39506 40065 57016 70544 86040 92040 333 0/005 30/// 59/// 86460;
0180763930999992008111100004+25733-100300FM-12+051599999V0201401N001012200019N0100001N1+02521+01751100591ADDAY141061AY241061GF104991001001999999001011MA1999999095031MD1610031+9999MW1051REMSYN072AAXX  11001 76393 31960 41401 10252 20175 39503 40059 56003 70544 84001;EQDQ01+000042SCOTLC
0199763930999992008111109004+25733-100300FM-12+051599999V0203201N001012200019N0060001N1+01821+01671100921ADDAY141031AY201031GA1001+999999999GF100991001001999999001001IA1019MA1999999095301MD1410001+0051MW1051REMSYN088AAXX  11091 76393 31956 03201 10182 20167 39530 40092 54004 70540 90255 333 30/// 58005;
0273763930999992008111112004+25733-100300FM-12+051599999V0203101N002012200019N0030001N1+01801+01681100991ADDAA124000091AY141061AY201061GA1001+999999999GF100991001001999999001001IA1019KA1240M+02881KA2120N+01621MA1999999095331MD1410001+0091MW1051REMSYN106AAXX  11121 76393 31930 03102 10180 20168 39533 40099 54003 70540 91155 333 10288 20162 30150 58009 70000;EQDQ01  00002PRCP24
0237763930999992008111118004+25733-100300FM-12+051599999V0201301N001012200019N0060001N1+02941+01671101021ADDAY101061AY201061GA1001+999999999GF100991001001999999001001IA1019KA1120M+03021KA2240N+01701MA1999999095371MD1999999-0151MW1051REMSYN100AAXX  11181 76393 31956 01301 10294 20167 39537 40102 5//// 70500 91740 333 10302 20170 30/// 59015;
0199763930999992008111121004+25733-100300FM-12+051599999V0200401N001012200019N0080001N1+03261+01361100671ADDAY101031AY201031GA1001+999999999GF100991001001999999001001IA1019MA1999999095101MD1710271+0041MW1051REMSYN088AAXX  11211 76393 31958 00401 10326 20136 39510 40067 57027 70500 92040 333 30/// 58004;
0161763930999992008111200004+25733-100300FM-12+051599999V0201101N003012200019N0060001N1+02601+01781100691ADDAY101061AY201061GF101991011021008001001001MA1999999095171MD1610071+9999MW1051REMSYN072AAXX  12001 76393 31556 11103 10260 20178 39517 40069 56007 70500 81200;
0189763930999992008111209004+25733-100300FM-12+051599999V0201801N001012200019N0130001N1+02001+01541100881ADDGA1031+004501061GF103991031041004501001001IA1019MA1999999095301MD1610121+0001REMSYN100AAXX  12091 76393 32463 31801 10200 20154 39530 40088 56012 83400 90855 333 0/300 30/// 59000 83615;
0161763930999992008111212004+25733-100300FM-12+051599999V0202201N001010042019N0060001N1+02001+01541100971ADDAY141061AY201061GF107991071051004501999999MA1999999095351MD1410001+9999MW1051REMSYN072AAXX  12121 76393 31456 72201 10200 20154 39535 40097 54005 70540 875//;
0147763930999992008111218004+25733-100300FM-12+051599999V0200201N003010360019N0040001N1+02401+01361101121ADDAY141061AY241061GF105991031021012501031001MA1999999095461MW1051REMSYN072AAXX  12181 76393 31640 50203 10240 20136 39546 40112 5//// 70544 83230;
0217763930999992008111221004+25733-100300FM-12+051599999V0200401N001010132019N0050001N1+02561+01261100781ADDAY101031AY201031GA1051+013201081GF105991051021012501001001IA1019MA1999999095181MD1710281-0081MW1051REMSYN106AAXX  12211 76393 31650 50401 10256 20126 39518 40078 57028 70500 85200 92040 333 0/300 30/// 59008 85844;
0161763930999992008111300004+25733-100300FM-12+051599999V0201701N001010075019N0040001N1+02441+01591100821ADDAY101061AY201061GF107991061021008001051999MA1999999095241MD1210061+9999MW1051REMSYN072AAXX  13001 76393 31540 71701 10244 20159 39524 40082 52006 70500 8625/;
0147763930999992008111318004+25733-100300FM-12+051599999V0200201N001010075019N0040001N1+02001+01181101131ADDAY141061AY241061GF108991081041008001999999MA1999999095461MW1051REMSYN072AAXX  13181 76393 31540 80201 10200 20118 39546 40113 5//// 70544 884//;
0223763930999992008111321004+25733-100300FM-12+051599999V0200901N00201036001CN0060001N1+02301+01431100831ADDAY101031AY201031GA1021+008701081GF105991021021008001041001IA1019MA1999999095191MD1710271-0011MW1051REMSYN112AAXX  13211 76393 31556 50902 10230 20143 39519 40083 57027 70500 82240 92040 333 0/350 30/// 59001 82829 83460;
0161763930999992008111400004+25733-100300FM-12+051599999V0201601N001012200019N0060001N1+02181+01131100791ADDAY141061AY201061GF104991011021012501051001MA1999999095161MD1610031+9999MW1051REMSYN072AAXX  14001 76393 31656 41601 10218 20113 39516 40079 56003 70540 81250;
0217763930999992008111403004+25733-100300FM-12+051599999V0201601N002012200019N0100001N1+01861+01411100961ADDAY141031AY201031GA1011+004501061GF101991011041004501001001IA1019MA1999999095321MD1310161-0181MW1051REMSYN106AAXX  14031 76393 31460 11602 10186 20141 39532 40096 53016 70540 81400 90255 333 0/300 30/// 59018 81615;
0161763930999992008111406004+25733-100300FM-12+051599999V0202301N001012200019N0100001N1+01741+01321100841ADDAY141061AY201061GF101991011051004501001001MA1999999095191MD1010131+9999MW1051REMSYN072AAXX  14061 76393 31460 12301 10174 20132 39519 40084 50013 70540 81500;
0166763930999992008111418004+25733-100300FM-12+051599999V0200901N002012200019N0100001N1+02841+01211100761ADDAY141061AY201061GF103991001001999999001051MA1999999095091MW1051REMSYN072AAXX  14181 76393 31960 30902 10284 20121 39509 40076 5//// 70540 83005;EQDQ01+000032SCOTLC
0236763930999992008111421004+25733-100300FM-12+051599999V0201001N001012200019N0100001N1+03001+01171100471ADDAY141031AY201031GA1011+060001001GF101991001001999999001011IA1019MA1999999094881MD1710211-0311MW1051REMSYN106AAXX  14211 76393 31960 11001 10300 20117 39488 40047 57021 70540 81001 92040 333 0/005 30/// 59031 81070;EQDQ01+000012SCOTLC
0180763930999992008111500004+25733-100300FM-12+051599999V0201601N002012200019N0120001N1+02641+01371100701ADDAY141061AY201061GF102991001001999999001011MA1999999095151MD1510271+9999MW1051REMSYN072AAXX  15001 76393 31962 21602 10264 20137 39515 40070 55027 70540 82001;EQDQ01+000022SCOTLC
0208763930999992008111503004+25733-100300FM-12+051599999V0202301N001012200019N0150001N1+02261+01231101111ADDGA1021+072001001GF102991001001999999001041IA1019MA1999999095561MD1210411+0241REMSYN100AAXX  15031 76393 32965 22301 10226 20123 39556 40111 52041 82004 90255 333 0/005 30/// 58024 82074;EQDQ01+000022SCOTLC
0241763930999992008111506004+25733-100300FM-12+051599999V0203601N004012200019N0140001N1+02181+00701101631ADDGA1021+072001001GF102991021001022501001041GJ105709IA1019KA1240M+03161KA2240N+01451MA1999999096031MD1210471+0741REMSYN118AAXX  15061 76393 32864 23604 10218 20070 39603 40163 52047 82004 90555 333 0/005 10316 20145 30/// 55095 58074 82074;
0189763930999992008111521004+25733-100300FM-12+051599999V0200401N003012200019N0140001N1+01841+00111102641ADDGA1021+018001061GF102991021051017501001001IA1019MA1999999096821MD1710251-1941REMSYN100AAXX  15211 76393 32764 20403 10184 20011 39682 40264 57025 82500 92040 333 0/300 30/// 59194 82656;
0259763930999992008111600004+25733-100300FM-12+051599999V0200201N003012200019N0140001N1+01661-00011102661ADDAA124000091GA1001+999999999GF100991001001999999001001GJ103069IA1019KA1120M+02021KA2180N+01401MA1999999096831MD1510011-0681REMSYN106AAXX  16001 76393 32964 00203 10166 21001 39683 40266 55001 92340 333 10202 20140 30/// 55051 59068 70000;EQDQ01  00002PRCP24
0171763930999992008111603004+25733-100300FM-12+051599999V0203601N001012200019N0140001N1+01361-00181102881ADDGA1001+999999999GF100991001001999999001001IA1019MA1999999097041MD1210211+1481REMSYN082AAXX  16031 76393 32964 03601 10136 21018 39704 40288 52021 90255 333 30/// 58148;
0275763930999992008111606004+25733-100300FM-12+051599999V0201901N001012200019N0150001N1+01241-00161102921ADDAA124000091GA1001+999999999GF100991001001999999001001GJ102169IA1019KA1240M+02021KA2240N+99999MA1999999097071MD1410001+1041REMSYN106AAXX  16061 76393 32965 01901 10124 21016 39707 40292 54003 90855 333 10202 20130 30/// 55036 58104 70000;EQDQ01  00002PRCP24Q02 +01302ATMN  
0171763930999992008111703004+25733-100300FM-12+051599999V0201301N001012200019N0160001N1+01421+00141102671ADDGA1001+999999999GF100991001001999999001001IA1019MA1999999096841MD1310121-0201REMSYN082AAXX  17031 76393 32966 01301 10142 20014 39684 40267 53012 90255 333 30/// 59020;
0223763930999992008111706004+25733-100300FM-12+051599999V0201301N001012200019N0160001N1+01221+00781102681ADDGA1001+999999999GF100991001001999999001001GJ105709IA1019KA1240M+02021KA2240N+00861MA1999999096841MD1410001-0131REMSYN100AAXX  17061 76393 32966 01301 10122 20078 39684 40268 54000 90555 333 10202 20086 30/// 55095 59013;
0199763930999992008111721004+25733-100300FM-12+051599999V0201101N003012200019N0080001N1+02141+00591102511ADDAY141031AY201031GA1001+999999999GF100991001001999999001001IA1019MA1999999096671MD1710151+9999MW1051REMSYN088AAXX  17211 76393 31958 01103 10214 20059 39667 40251 57015 70540 92040 333 30/// 59///;
0180763930999992008111800004+25733-100300FM-12+051599999V0200901N002012200019N0120001N1+01921+00661102481ADDAY141061AY201061GF101991001001999999001011MA1999999096691MD1510021+9999MW1051REMSYN072AAXX  18001 76393 31962 10902 10192 20066 39669 40248 55002 70540 81001;EQDQ01+000012SCOTLC
0171763930999992008111803004+25733-100300FM-12+051599999V0202301N001012200019N0170001N1+01621+00671102581ADDGA1001+999999999GF100991001001999999001001IA1019MA1999999096801MD1310141-0041REMSYN082AAXX  18031 76393 32967 02301 10162 20067 39680 40258 53014 90255 333 30/// 59004;
0259763930999992008111809004+25733-100300FM-12+051599999V0200901N002012200019N0160001N1+01361+00611102661ADDAA124000091GA1001+999999999GF100991001001999999001001GJ105649IA1019KA1999M+02261KA2999N+00801MA1999999096861MD1410001+0021REMSYN106AAXX  18091 76393 32966 00902 10136 20061 39686 40266 54006 90555 333 10226 20080 30/// 55094 58002 70000;EQDQ01  00002PRCP24
0237763930999992008111818004+25733-100300FM-12+051599999V0200701N003012200019N0060001N1+02121+00461102981ADDAY141061AY201061GA1001+999999999GF100991001001999999001001IA1019KA1120M+02261KA2240N+01001MA1999999097091MD1999999-0271MW1051REMSYN100AAXX  18181 76393 31956 00703 10212 20046 39709 40298 5//// 70540 91740 333 10226 20100 30/// 59027;
0199763930999992008111821004+25733-100300FM-12+051599999V0200701N003012200019N0080001N1+02281+00791102651ADDAY141031AY201031GA1001+999999999GF100991001001999999001001IA1019MA1999999096821MD1710271-0151MW1051REMSYN088AAXX  18211 76393 31958 00703 10228 20079 39682 40265 57027 70540 92040 333 30/// 59015;
0319763930999992008111900004+25733-100300FM-12+051599999V0201101N003012200019N0120001N1+02001+00811102601ADDAA124000091AY141061AY201061GA1001+999999999GF100991001001999999001001GJ101869IA1019KA1120M+02401KA2180N+01001MA1999999096821MD1710051-0131MW1051REMSYN112AAXX  19001 76393 31962 01103 10200 20081 39682 40260 53000 70540 92340 333 10240 20100 30/// 55031 59013 70000;EQDQ01+000032APCTENQ02+000002APC3  Q03  00002PRCP24
0171763930999992008111903004+25733-100300FM-12+051599999V0201501N002012200019N0160001N1+01781+00561102711ADDGA1001+999999999GF100991001001999999001001IA1019MA1999999096961MD1310141+0161REMSYN082AAXX  19031 76393 32966 01502 10178 20056 39696 40271 53014 90255 333 30/// 58016;
0223763930999992008111906004+25733-100300FM-12+051599999V0209999C000012200019N0150001N1+01301+00581102751ADDGA1001+999999999GF100991001001999999001001GJ105649IA1019KA1240M+02401KA2240N+01001MA1999999096971MD1410001+0111REMSYN100AAXX  19061 76393 32965 00000 10130 20058 39697 40275 54001 90555 333 10240 20100 30/// 55094 58011;
0211763930999992008111918004+25733-100300FM-12+051599999V0202601N001012200019N0040001N1+01981+00871102451ADDAY141061AY201061GA1001+999999999GF100991001001999999001001IA1019MA1999999096581MD1999999-0511MW1051REMSYN100AAXX  19181 76393 31940 02601 10198 20087 39658 40245 5//// 70540 91740 333 1//// 2//// 30/// 59051;
0236763930999992008111921004+25733-100300FM-12+051599999V0201701N002012200019N0100001N1+02361+00951102161ADDAY141031AY201031GA1041+060001001GF104991001001999999001011IA1019MA1999999096351MD1710231-0471MW1051REMSYN106AAXX  19211 76393 31960 41702 10236 20095 39635 40216 57023 70540 84001 92040 333 0/005 30/// 59047 84070;EQDQ01+000042SCOTLC
0180763930999992008112000004+25733-100300FM-12+051599999V0200901N003012200019N0140001N1+02061+00811101951ADDAY141061AY201061GF103991001001999999001011MA1999999096211MD1510141+9999MW1051REMSYN072AAXX  20001 76393 31964 30903 10206 20081 39621 40195 55014 70540 83001;EQDQ01+000032SCOTLC
0171763930999992008112003004+25733-100300FM-12+051599999V0202401N001012200019N0080001N1+01791+00941102081ADDGA1001+999999999GF100991001001999999001001IA1019MA1999999096371MD1210161-0591REMSYN082AAXX  20031 76393 32958 02401 10179 20094 39637 40208 52016 90255 333 30/// 59059;
0223763930999992008112006004+25733-100300FM-12+051599999V0209999C000012200019N0080001N1+01541+00951102081ADDGA1001+999999999GF100991001001999999001001GJ105649IA1019KA1240M+02481KA2240N+01101MA1999999096351MD1710021-0621REMSYN100AAXX  20061 76393 32958 00000 10154 20095 39635 40208 57002 90550 333 10248 20110 30/// 55094 59062;
0165763930999992008112009004+25733-100300FM-12+051599999V0209999C000012200019N0140001N1+01281+99999101941ADDGA1001+999999999GF100991001001999999001001IA1019MA1999999096171MD1610181-0741REMSYN076AAXX  20091 76393 32964 00000 10128 39617 40194 56018 90855 333 30/// 59074;
0161763930999992008112012004+25733-100300FM-12+051599999V0203101N001012200019N0080001N1+01221+00821101971ADDAY141061AY201061GF101991011011004501001001MA1999999096151MD1410001+9999MW1051REMSYN072AAXX  20121 76393 31458 13101 10122 20082 39615 40197 54002 70540 81100;
0166763930999992008112018004+25733-100300FM-12+051599999V0203601N001012200019N0080001N1+02301+01041101981ADDAY141061AY201061GF101991001001999999001011MA1999999096171MW1051REMSYN072AAXX  20181 76393 31958 13601 10230 20104 39617 40198 5//// 70540 81001;EQDQ01+000012SCOTLC
0236763930999992008112021004+25733-100300FM-12+051599999V0201501N001012200019N0080001N1+02621+01141101781ADDAY141031AY201031GA1021+060001001GF102991001001999999001011IA1019MA1999999096041MD1710131-0311MW1051REMSYN106AAXX  20211 76393 31958 21501 10262 20114 39604 40178 57013 70540 81001 92040 333 0/005 30/// 59031 82070;EQDQ01+000012SCOTLC
0180763930999992008112100004+25733-100300FM-12+051599999V0201201N001012200019N0100001N1+02321+01111101771ADDAY141061AY201061GF101991001001999999001011MA1999999096091MD1310051+9999MW1051REMSYN072AAXX  21001 76393 31960 11201 10232 20111 39609 40177 53005 70540 81001;EQDQ01+000012SCOTLC
0244763930999992008112112004+25733-100300FM-12+051599999V0203501N002010102019N0100001N1+01201-00041102941ADDAA124000091GA1081+010201061GF108991081051008001999999IA1019KA1240M+02721KA2120N+01201MA1999999097011MD1999999+0061REMSYN118AAXX  21121 76393 32560 83502 10120 21004 39701 40294 5//// 885// 91200 333 0/8// 10272 20120 30116 58006 70000 88634;
0189763930999992008112115004+25733-100300FM-12+051599999V0200901N002010099019N0120001N1+01161+00101103251ADDGA1081+009901061GF108991081051008001999999IA1019MA1999999097301MD1210291+9999REMSYN100AAXX  21151 76393 32562 80902 10116 20010 39730 40325 52029 885// 91455 333 0/8// 30/// 58/// 88633;
0161763930999992008112118004+25733-100300FM-12+051599999V0201001N002010120019N0100001N1+01261-00041103301ADDAY141061AY241061GF108991081051012501999999MA1999999097341MD1010041+9999MW1041REMSYN072AAXX  21181 76393 31660 81002 10126 21004 39734 40330 50004 70444 885//;
0217763930999992008112121004+25733-100300FM-12+051599999V0200601N002010099019N0080001N1+01241+00261102981ADDAY141031AY201031GA1081+009901071GF108991081061008001999999IA1019MA1999999097051MD1710291-1011MW1051REMSYN106AAXX  21211 76393 31558 80602 10124 20026 39705 40298 57029 70540 886// 92040 333 0/3// 30/// 59101 88733;
0161763930999992008112200004+25733-100300FM-12+051599999V0200901N003010042019N0060001N1+01181+00691102921ADDAY141061AY201061GF107991071041004501999999MA1999999096991MD1510061+9999MW1051REMSYN072AAXX  22001 76393 31456 70903 10118 20069 39699 40292 55006 70540 874//;
0217763930999992008112209004+25733-100300FM-12+051599999V0209999C000010030019N0080001N1+00901+00591102851ADDAY141031AY221031GA1081+003001061GF108991081061004501999999IA1019MA1999999096911MD1710241+0041MW1051REMSYN106AAXX  22091 76393 31458 80000 10090 20059 39691 40285 57024 70542 886// 90855 333 0/399 30/// 58004 88610;
0161763930999992008112212004+25733-100300FM-12+051599999V0200901N001010012019N0030001N1+00901+00711102811ADDAY141061AY221061GF108991081061001501999999MA1999999096851MD1410001+9999MW1051REMSYN072AAXX  22121 76393 31230 80901 10090 20071 39685 40281 54006 70542 886//;
0147763930999992008112218004+25733-100300FM-12+051599999V0201301N001010075019N0020001N1+01601+00821102731ADDAY141061AY241061GF107991071061008001999999MA1999999096181MW1051REMSYN072AAXX  22181 76393 31520 71301 10160 20082 39618 40273 5//// 70544 876//;
0245763930999992008112221004+25733-100300FM-12+051599999V0200901N003010075019N0030001N1+01861+01131102331ADDAY141031AY241031GA1041+007201071GA2021+007501081GF107991061061008001001011IA1019MA1999999096451MD1710331-0601MW1051REMSYN118AAXX  22211 76393 31530 70903 10186 20113 39645 40233 57033 70544 86601 92040 333 0/305 30/// 59060 84724 82825 81070;
0161763930999992008112300004+25733-100300FM-12+051599999V0200901N004012200019N0030001N1+01541+01061102321ADDAY141061AY241061GF106991031021004501001011MA1999999096471MD1510021+9999MW1051REMSYN072AAXX  23001 76393 31430 60904 10154 20106 39647 40232 55002 70544 83201;
0217763930999992008112309004+25733-100300FM-12+051599999V0203001N001010024019N0040001N1+01361+01121102251ADDAY141031AY221031GA1081+002401061GF108991081061002501999999IA1019MA1999999096421MD1710211-0491MW1051REMSYN106AAXX  23091 76393 31340 83001 10136 20112 39642 40225 57021 70542 886// 90855 333 0/399 30/// 59049 88608;
0161763930999992008112312004+25733-100300FM-12+051599999V0201501N001010042019N0030001N1+01361+01051102181ADDAY141061AY221061GF108991081061004501999999MA1999999096341MD1410001+9999MW1051REMSYN072AAXX  23121 76393 31430 81501 10136 20105 39634 40218 54008 70542 886//;
0217763930999992008112315004+25733-100300FM-12+051599999V0209999C00001220001CN0030001N1+01561+01121102271ADDAY141031AY241031GA1011+004201081GF107991011011004501001041IA1019MA1999999096421MD1210081+9999MW1041REMSYN106AAXX  23151 76393 31430 70000 10156 20112 39642 40227 52008 70444 81104 91458 333 00805 30/// 81814 86070;
0237763930999992008112318004+25733-100300FM-12+051599999V0201101N001012200019N0020001N1+01961+01241102171ADDAY141061AY241061GA1001+999999999GF100991001001999999001001IA1019KA1120M+01981KA2240N+01241MA1999999096341MD1710081-0041MW1041REMSYN100AAXX  23181 76393 31920 01101 10196 20124 39634 40217 57008 70444 81750 333 10198 20124 30/// 59004;
0161763930999992008112412004+25733-100300FM-12+051599999V0202501N001012200019N0030001N1+01501+01201101721ADDAY141061AY211061GF102991021031002501001001MA1999999095971MD1410001+9999MW1051REMSYN072AAXX  24121 76393 31330 22501 10150 20120 39597 40172 54005 70541 82300;
0161763930999992008112418004+25733-100300FM-12+051599999V0202701N001012200019N0040001N1+02521+01351102191ADDAY141061AY241061GF101991001001999999001011MA1999999096421MD1010091+9999MW1051REMSYN072AAXX  24181 76393 31940 12701 10252 20135 39642 40219 50009 70544 80001;
0223763930999992008112421004+25733-100300FM-12+051599999V0200401N006012200019N0080001N1+02701+01361101891ADDAY141031AY241031GA1031+014101081GF104991031021012501001011IA1019MA1999999096191MD1710241+9999MW1051REMSYN112AAXX  24211 76393 31658 40406 10270 20136 39619 40189 57024 70544 83201 91740 333 0/305 30/// 59/// 83847 81070;
0161763930999992008112500004+25733-100300FM-12+051599999V0200601N003010075019N0040001N1+02161+01401102051ADDAY141061AY201061GF106991061031008001999999MA1999999096381MD1110191+9999MW1051REMSYN072AAXX  25001 76393 31540 60603 10216 20140 39638 40205 51019 70540 863//;
0189763930999992008112509004+25733-100300FM-12+051599999V0200301N001010057019N0160001N1+01721+01151102511ADDGA1071+005701061GF107991071061004501999999IA1019MA1999999096771MD1610111+0751REMSYN100AAXX  25091 76393 32466 70301 10172 20115 39677 40251 56011 876// 90855 333 0/399 30/// 58075 87619;
0244763930999992008112512004+25733-100300FM-12+051599999V0200901N001010090019N0130001N1+01621+00711102531ADDAA124000091GA1071+009001061GF107991071061002501999999IA1019KA1240M+02801KA2120N+01541MA1999999096751MD1410001+0781REMSYN118AAXX  25121 76393 32363 70901 10162 20071 39675 40253 54002 876// 91155 333 0/399 10280 20154 30142 58078 70000 87630;
0217763930999992008112515004+25733-100300FM-12+051599999V0203301N001012200019N0080001N1+01651+00341102781ADDAY141031AY241031GA1011+012901061GF102991011051012501031001IA1019MA1999999096691MD1210211+0061MW1051REMSYN106AAXX  25151 76393 31658 23301 10165 20034 39669 40278 52021 70544 81530 91458 333 0/550 30/// 58006 81643;
0161763930999992008112518004+25733-100300FM-12+051599999V0200901N001012200019N0080001N1+02111+00671102611ADDAY141061AY241061GF101991001001999999001011MA1999999096811MD1710151+9999MW1051REMSYN072AAXX  25181 76393 31958 10901 10211 20067 39681 40261 57015 70544 80001;
0223763930999992008112521004+25733-100300FM-12+051599999V0201001N005012200019N0080001N1+02341+01011102111ADDAY141031AY201031GA1011+013201081GF104991011021012501001011IA1019MA1999999096351MD1710461-0161MW1051REMSYN112AAXX  25211 76393 31658 41005 10234 20101 39635 40211 57046 70540 81201 92040 333 0/305 30/// 59016 81844 83070;
0161763930999992008112600004+25733-100300FM-12+051599999V0201101N003019999999N0120001N1+01941+00991102011ADDAY141061AY201061GF105991041001999999051011MA1999999096281MD1510071+9999MW1051REMSYN072AAXX  26001 76393 31962 51103 10194 20099 39628 40201 55007 70540 84051;
0189763930999992008112609004+25733-100300FM-12+051599999V0202501N001012200019N0160001N1+01381+01031101991ADDGA1021+003601061GF102991021021004501001001IA1019MA1999999096221MD1410001-0551REMSYN100AAXX  26091 76393 32466 22501 10138 20103 39622 40199 54000 82200 90855 333 0/300 30/// 59055 82612;
0161763930999992008112612004+25733-100300FM-12+051599999V0202301N001012200019N0100001N1+01261+01021101891ADDAY141061AY201061GF102991021021002501001001MA1999999096091MD1610131+9999MW1051REMSYN072AAXX  26121 76393 31360 22301 10126 20102 39609 40189 56013 70540 82200;
0236763930999992008112615004+25733-100300FM-12+051599999V0202501N001012200019N0100001N1+01721+01121101991ADDAY141031AY201031GA1041+060001001GF104991001001999999001011IA1019MA1999999096161MD1210071-0801MW1051REMSYN106AAXX  26151 76393 31960 42501 10172 20112 39616 40199 52007 70540 84001 91440 333 0/005 30/// 59080 84070;EQDQ01+000042SCOTLC
0180763930999992008112618004+25733-100300FM-12+051599999V0200901N001019999999N0040001N1+02161+01221101931ADDAY141061AY201061GF105991001001999999001011MA1999999096061MD1710101+9999MW1051REMSYN072AAXX  26181 76393 31940 50901 10216 20122 39606 40193 57010 70540 85001;EQDQ01+000052SCOTLC
0217763930999992008112621004+25733-100300FM-12+051599999V0201201N002010600019N0040001N1+02641+01371101511ADDAY141031AY241031GA1061+060001001GF106991001001999999001041IA1019MA1999999095781MD1710281-0571MW1051REMSYN106AAXX  26211 76393 31940 61202 10264 20137 39578 40151 57028 70544 80004 92055 333 0/005 30/// 59057 86070;
0161763930999992008112700004+25733-100300FM-12+051599999V0201301N001012200019N0050001N1+02351+01431101511ADDAY141061AY241061GF101991001001999999001011MA1999999095851MD1210071+9999MW1051REMSYN072AAXX  27001 76393 31950 11301 10235 20143 39585 40151 52007 70544 80001;
0147763930999992008112712004+25733-100300FM-12+051599999V0202701N001012200019N0020001N1+01581+01101101521ADDAY141061AY241061GF103991031061004501001001MA1999999095801MW1051REMSYN072AAXX  27121 76393 31420 32701 10158 20110 39580 40152 5//// 70544 83600;
0199763930999992008112715004+25733-100300FM-12+051599999V0202501N001012200019N0050001N1+02021+01311101651ADDAY141031AY201031GA1001+999999999GF100991001001999999001001IA1019MA1999999095301MD1210101-0261MW1051REMSYN088AAXX  27151 76393 31950 02501 10202 20131 39530 40165 52010 70540 91440 333 30/// 59026;
0180763930999992008112718004+25733-100300FM-12+051599999V0201101N001012200019N0040001N1+02561+01421101441ADDAY141061AY201061GF101991001001999999001011MA1999999095731MD1710171+9999MW1051REMSYN072AAXX  27181 76393 31940 11101 10256 20142 39573 40144 57017 70540 81001;EQDQ01+000012SCOTLC
0195763930999992008112721004+25733-100300FM-12+051599999V0201201N002012200019N0050001N1+02861+01571101191ADDAY141031AY241031GF101991011001022501031001IA1019MA1999999095541MD1710191-0291MW1051REMSYN100AAXX  27211 76393 31850 11202 10286 20157 39554 40119 57019 70544 81030 92055 333 0/050 30/// 59029;
0161763930999992008112800004+25733-100300FM-12+051599999V0201001N002012200019N0100001N1+02541+01641101181ADDAY141061AY241061GF101991011011008001001001MA1999999095581MD1210041+9999MW1051REMSYN072AAXX  28001 76393 31560 11002 10254 20164 39558 40118 52004 70544 81100;
0189763930999992008112803004+25733-100300FM-12+051599999V0202701N002012200019N0120001N1+02141+01491101171ADDGA1011+006601061GF101991011021008001001001IA1019MA1999999095591MD1410001-0341REMSYN100AAXX  28031 76393 32562 12702 10214 20149 39559 40117 54001 81200 90255 333 0/300 30/// 59034 81622;
0258763930999992008112806004+25733-100300FM-12+051599999V0209999C000012200019N0130001N1+01881+01571101131ADDAA124000091GA1011+003301061GF101991011021004501001001GJ105589IA1019KA1240M+02951KA2240N+01381MA1999999095541MD1410001-0321REMSYN124AAXX  28061 76393 32463 10000 10188 20157 39554 40113 54005 81200 90555 333 0/300 10295 20138 30/// 55093 59032 70000 81611;
0147763930999992008112812004+25733-100300FM-12+051599999V0202801N001012200019N0020001N1+01681+01421100981ADDAY141061AY241061GF103991031061002501001001MA1999999095311MW1051REMSYN072AAXX  28121 76393 31320 32801 10168 20142 39531 40098 5//// 70544 83600;
0217763930999992008112815004+25733-100300FM-12+051599999V0209999C000010180019N0120001N1+01901+01281101101ADDAY141031AY201031GA1051+018001031GF105991051001999999051001IA1019MA1999999095401MD1210091-0501MW1051REMSYN106AAXX  28151 76393 31962 50000 10190 20128 39540 40110 52009 70540 85050 91440 333 0/050 30/// 59050 85356;
0161763930999992008112818004+25733-100300FM-12+051599999V0201301N001012200019N0100001N1+02741+01531101041ADDAY141061AY201061GF103991031001999999041001MA1999999095371MD1710031+9999MW1051REMSYN072AAXX  28181 76393 31960 31301 10274 20153 39537 40104 57003 70540 83040;
0217763930999992008112821004+25733-100300FM-12+051599999V0201101N003012200019N0050001N1+02721+01721100711ADDAY141031AY241031GA1031+018001031GF105991031001022501051011IA1019MA1999999095101MD1710271-0441MW1051REMSYN106AAXX  28211 76393 31850 51103 10272 20172 39510 40071 57027 70544 83051 92055 333 0/055 30/// 59044 83356;
0161763930999992008112900004+25733-100300FM-12+051599999V0201001N003012200019N0060001N1+02381+01671100751ADDAY141061AY241061GF103991011051008001001031MA1999999095171MD1210071+9999MW1051REMSYN072AAXX  29001 76393 31556 31003 10238 20167 39517 40075 52007 70544 81503;
0217763930999992008112903004+25733-100300FM-12+051599999V0202701N001012200019N0100001N1+02141+01661100711ADDAY141031AY201031GA1011+004801061GF101991011021004501001001IA1019MA1999999095141MD1410001-0451MW1051REMSYN106AAXX  29031 76393 31460 12701 10214 20166 39514 40071 54003 70540 81200 90255 333 0/300 30/// 59045 81616;
0161763930999992008112906004+25733-100300FM-12+051599999V0202301N002012200019N0130001N1+02041+01641100681ADDAY141061AY201061GF101991011021004501001001MA1999999095101MD1410001+9999MW1051REMSYN072AAXX  29061 76393 31463 12302 10204 20164 39510 40068 54004 70540 81200;
0147763930999992008112918004+25733-100300FM-12+051599999V0201001N001019999999N0040001N1+02451+01711100671ADDAY141061AY241061GF105991001001999999001041MA1999999095101MW1051REMSYN072AAXX  29181 76393 31940 51001 10245 20171 39510 40067 5//// 70544 80004;
0195763930999992008112921004+25733-100300FM-12+051599999V0209999C000012200019N0080001N1+02751+01321100321ADDAY141031AY241031GF104991021001022501031011IA1019MA1999999094801MD1710311-0301MW1051REMSYN100AAXX  29211 76393 31858 40000 10275 20132 39480 40032 57031 70544 82031 92055 333 0/055 30/// 59030;
0161763930999992008113000004+25733-100300FM-12+051599999V0200901N002010360019N0080001N1+02301+01411100491ADDAY141061AY241061GF106991021051008001031011MA1999999094951MD1210151+9999MW1051REMSYN072AAXX  30001 76393 31558 60902 10230 20141 39495 40049 52015 70544 82531;
0189763930999992008113003004+25733-100300FM-12+051599999V0202501N001010720019N0120001N1+02001+01181100741ADDGA1061+072001001GF106991061001008001001041IA1019MA1999999095161MD1310211+0021REMSYN100AAXX  30031 76393 32562 62501 10200 20118 39516 40074 53021 86004 90255 333 0/005 30/// 58002 86074;
0258763930999992008113006004+25733-100300FM-12+051599999V0203601N003012200019N0130001N1+01721+00751101111ADDAA124000091GA1031+009601061GF103991031021008001001001GJ104329IA1019KA1240M+02811KA2240N+01601MA1999999095481MD1210321+0381REMSYN124AAXX  30061 76393 32563 33603 10172 20075 39548 40111 52032 83200 90555 333 0/300 10281 20160 30/// 55072 58038 70000 83632;
0259763930999992008113012004+25733-100300FM-12+051599999V0209999C000012200019N0030001N1+01261+00431101281ADDAA124000091AY141061AY201061GA1001+999999999GF100991001001999999001001IA1019KA1240M+02811KA2120N+00801MA1999999095551MW1051REMSYN106AAXX  30121 76393 31930 00000 10126 20043 39555 40128 5//// 70540 91140 333 10281 20080 30076 59/// 70000;EQDQ01  00002PRCP24
0199763930999992008113015004+25733-100300FM-12+051599999V0202101N001012200019N0120001N1+01541+00611101391ADDAY141031AY201031GA1001+999999999GF100991001001999999001001IA1019MA1999999095611MD1210061+9999MW1051REMSYN088AAXX  30151 76393 31962 02101 10154 20061 39561 40139 52006 70540 91440 333 30/// 59///;
0237763930999992008113018004+25733-100300FM-12+051599999V0201401N002012200019N0100001N1+02001+00631101341ADDAY141061AY201061GA1001+999999999GF100991001001999999001001IA1019KA1120M+02061KA2240N+00801MA1999999095581MD1710031+0471MW1051REMSYN100AAXX  30181 76393 31960 01402 10200 20063 39558 40134 57003 70540 91740 333 10206 20080 30/// 58047;
0171763930999992008120103004+25733-100300FM-12+051599999V0200601N001012200019N0150001N1+01701+00771101341ADDGA1001+999999999GF100991001001999999001001IA1019MA1999999095681MD1210421+0521REMSYN082AAXX  01031 76393 32965 00601 10170 20077 39568 40134 52042 90255 333 30/// 58052;
0223763930999992008120106004+25733-100300FM-12+051599999V0209999C000012200019N0150001N1+01521+00811101521ADDGA1001+999999999GF100991001001999999001001GJ105529IA1019KA1240M+02481KA2240N+00801MA1999999095821MD1210141+0341REMSYN100AAXX  01061 76393 32965 00000 10152 20081 39582 40152 52014 90555 333 10248 20080 30/// 55092 58034;
0147763930999992008120112004+25733-100300FM-12+051599999V0201801N001012200019N0030001N1+01201+00311102131ADDAY141061AY201061GF102991021001999999031001MA1999999096311MW1051REMSYN072AAXX  01121 76393 31930 21801 10120 20031 39631 40213 5//// 70540 82030;
0217763930999992008120115004+25733-100300FM-12+051599999V0203601N001012200019N0120001N1+01241+00161102401ADDAY141031AY201031GA1021+018001041GF102991021001999999031001IA1019MA1999999096531MD1210221-0921MW1051REMSYN106AAXX  01151 76393 31962 23601 10124 20016 39653 40240 52022 70540 82030 91440 333 30/// 56050 59092 82456;
0237763930999992008120118004+25733-100300FM-12+051599999V0202001N001012200019N0120001N1+01641+00101102451ADDAY141061AY201061GA1001+999999999GF100991001001999999001001IA1019KA1120M+01901KA2240N+01201MA1999999096581MD1710051-1001MW1051REMSYN100AAXX  01181 76393 31962 02001 10164 20010 39658 40245 57005 70540 91740 333 10190 20120 30/// 59100;
0199763930999992008120121004+25733-100300FM-12+051599999V0201001N002012200019N0140001N1+01921+00131102291ADDAY141031AY241031GA1001+999999999GF100991001001999999001001IA1019MA1999999096451MD1710131+9999MW1041REMSYN088AAXX  01211 76393 31964 01002 10192 20013 39645 40229 57013 70444 92055 333 30/// 58///;
0251763930999992008120200004+25733-100300FM-12+051599999V0201601N001012200019N0160001N1+01851+00541102341ADDAA124000091GA1001+999999999GF100991001001999999001001IA1019KA1120M+02121KA2180N+01161MA1999999096531MD1210081+9999REMSYN106AAXX  02001 76393 32966 01601 10185 20054 39653 40234 52008 92350 333 10212 20116 30/// 5//// 58/// 70000;EQDQ01  00002PRCP24
0171763930999992008120203004+25733-100300FM-12+051599999V0202501N001012200019N0160001N1+01481+00491102431ADDGA1001+999999999GF100991001001999999001001IA1019MA1999999096641MD1310111+0961REMSYN082AAXX  02031 76393 32966 02501 10148 20049 39664 40243 53011 90255 333 30/// 58096;
0259763930999992008120206004+25733-100300FM-12+051599999V0202001N001012200019N0160001N1+01281+00511102511ADDAA124000091GA1001+999999999GF100991001001999999001001GJ105589IA1019KA1240M+02121KA2240N+01161MA1999999096701MD1110061+0881REMSYN106AAXX  02061 76393 32966 02001 10128 20051 39670 40251 51006 90555 333 10212 20116 30/// 55093 58088 70000;EQDQ01  00002PRCP24
0273763930999992008120212004+25733-100300FM-12+051599999V0202401N001012200019N0030001N1+01061+00471102381ADDAA124000091AY141061AY201061GA1001+999999999GF100991001001999999001001IA1019KA1240M+02121KA2120N+01001MA1999999096501MD1999999+0191MW1051REMSYN106AAXX  02121 76393 31930 02401 10106 20047 39650 40238 5//// 70540 91140 333 10212 20100 30052 58019 70000;EQDQ01  00002PRCP24
0218763930999992008120215004+25733-100300FM-12+051599999V0202501N001012200019N0080001N1+01501+00351102401ADDAY141031AY201031GA1001+999999999GF100991001001999999001001IA1019MA1999999096501MD1110021-0031MW1051REMSYN088AAXX  02151 76393 31958 02501 10150 20035 39650 40240 51000 70540 91440 333 30/// 59003;EQDQ01+000002APC3  
0237763930999992008120218004+25733-100300FM-12+051599999V0200401N001012200019N0060001N1+02021+00561102201ADDAY141061AY201061GA1001+999999999GF100991001001999999001001IA1019KA1120M+02161KA2240N+01121MA1999999096331MD1710171-0251MW1051REMSYN100AAXX  02181 76393 31956 00401 10202 20056 39633 40220 57017 70540 91740 333 10216 20112 30/// 59025;
0199763930999992008120221004+25733-100300FM-12+051599999V0201101N003012200019N0040001N1+02471+00661101851ADDAY141031AY241031GA1001+999999999GF100991001001999999001001IA1019MA1999999096061MD1710271-0391MW1051REMSYN088AAXX  02211 76393 31940 01103 10247 20066 39606 40185 57027 70544 92055 333 30/// 59039;
0217763930999992008120300004+25733-100300FM-12+051599999V0202801N002012200019N0140001N1+02041+00731101681ADDGF101991001001999999001011IA1019KA1120M+02541KA2180N+01001MA1999999095961MD1710101-0571REMSYN118AAXX  03001 76393 32964 12802 10204 20073 39596 40168 57010 80001 92350 333 10254 20100 30/// 50231 56005 59057 70000;
0171763930999992008120303004+25733-100300FM-12+051599999V0202301N002012200019N0180001N1+01801+00861101591ADDGA1001+999999999GF100991001001999999001001IA1019MA1999999095901MD1410001-0741REMSYN082AAXX  03031 76393 32968 02302 10180 20086 39590 40159 54006 90255 333 30/// 59074;
0254763930999992008120306004+25733-100300FM-12+051599999V0202701N001012200019N0180001N1+01521+00761101571ADDGA1011+072001001GF101991001001999999001041GJ105589IA1019KA1240M+02541KA2240N+01001MA1999999095871MD1410001-0831REMSYN112AAXX  03061 76393 32968 12701 10152 20076 39587 40157 54003 81004 90555 333 10254 20100 30/// 55093 59083 81074;EQDQ01+000012SCOTLC
0171763930999992008120309004+25733-100300FM-12+051599999V0202501N001012200019N0040001N1+01341+00751101401ADDGA1001+999999999GF100991001001999999001001IA1019MA1999999095671MD1010201+9999REMSYN082AAXX  03091 76393 32940 02501 10134 20075 39567 40140 50020 90850 333 30/// 59///;
0245763930999992008120312004+25733-100300FM-12+051599999V0202001N002012200019N0050001N1+01301+00631101341ADDAA124000091GA1001+999999999GF100991001001999999001001IA1019KA1240M+02541KA2120N+01221MA1999999095571MD1710101-0031REMSYN100AAXX  03121 76393 32950 02002 10130 20063 39557 40134 57010 91150 333 10254 20122 30075 59003 70000;EQDQ01  00002PRCP24
0261763930999992008120318004+25733-100300FM-12+051599999V0201301N00101220001CN0040001N1+02481+00851101241ADDAY141061AY241061GA1021+018001031GF105991021001022501031011IA1019KA1120M+02551KA2240N+01221MA1999999095651MD1999999-0681MW1041REMSYN124AAXX  03181 76393 31840 51301 10248 20085 39565 40124 5//// 70444 82031 91759 333 10255 20122 30/// 56055 59068 82356 83070;
0223763930999992008120321004+25733-100300FM-12+051599999V0201101N00201036001CN0050001N1+02871+00831100971ADDAY141031AY241031GA1031+018001061GF107991031051022501031011IA1019MA1999999095441MD1710211-0601MW1041REMSYN112AAXX  03211 76393 31850 71102 10287 20083 39544 40097 57021 70444 83531 92055 333 30/// 56555 59060 83656 83368;
0306763930999992008120400004+25733-100300FM-12+051599999V0201001N00301018001CN0060001N1+02361+01021101141ADDAA124000091AY141061AY241061GA1021+012901061GA2031+018001031GF107991021051012501031031IA1019KA1120M+03001KA2180N+01221MA1999999095591MD1210151-0371MW1041REMSYN142AAXX  04001 76393 31656 71003 10236 20102 39559 40114 52015 70444 82533 92350 333 10300 20122 30/// 50221 56555 59037 70000 82643 83356 82070;
0217763930999992008120415004+25733-100300FM-12+051599999V0203601N001012200019N0100001N1+01021+00071102731ADDAY101031AY201031GA1011+036001031GF101991011001999999031001IA1019MA1999999096791MD1210221+9999MW1051REMSYN106AAXX  04151 76393 31960 13601 10102 20007 39679 40273 52022 70500 81030 91448 333 30/// 56050 58/// 81362;
0227763930999992008120418004+25733-100300FM-12+051599999V0203601N001012200019N0150001N1+01641+00411102611ADDGA1011+024001031GF101991011001999999031001IA1019KA1120M+01761KA2240N+00901MA1999999096701MD1710091+1051REMSYN112AAXX  04181 76393 32965 13601 10164 20041 39670 40261 57009 81030 91750 333 10176 20090 30/// 56050 58105 81358;
0199763930999992008120421004+25733-100300FM-12+051599999V0203001N001012200019N0120001N1+01861+00141102271ADDAY141031AY241031GA1001+999999999GF100991001001999999001001IA1019MA1999999096421MD1710281+0981MW1051REMSYN088AAXX  04211 76393 31962 03001 10186 20014 39642 40227 57028 70544 92055 333 30/// 58098;
0245763930999992008120500004+25733-100300FM-12+051599999V0201101N004012200019N0140001N1+01661+00491102281ADDAY141061AY241061GF101991001001999999001011IA1019KA1120M+02071KA2180N+00901MA1999999096461MD1210041+0871MW1051REMSYN124AAXX  05001 76393 31964 11104 10166 20049 39646 40228 52004 70544 80001 92350 333 10207 20090 30/// 50181 56005 58087 70000;
0171763930999992008120503004+25733-100300FM-12+051599999V0201101N003012200019N0050001N1+01361+00271102451ADDGA1001+999999999GF100991001001999999001001IA1019MA1999999096631MD1210181+9999REMSYN082AAXX  05031 76393 32950 01103 10136 20027 39663 40245 52018 90250 333 30/// 58///;
0246763930999992008120506004+25733-100300FM-12+051599999V0200901N005012200019N0040001N1+01181+00331102551ADDGA1011+021001041GF102991999001999999011011IA1019KA1240M+02071KA2240N+00801MA1999999096721MD1010091+9999REMSYN112AAXX  05061 76393 32940 20905 10118 20033 39672 40255 50009 80011 90550 333 10207 20080 30/// 58/// 81457 81070;EQDQ01+000002SCOTLC
0272763930999992008120512004+25733-100300FM-12+051599999V0200101N001012200019N0040001N1+00861+00071102691ADDAA124000091AY101061AY201061GA1031+060001001GF103991001001999999001011IA1019KA1240M+02071KA2120N+00781MA1999999096771MD1999999+0201MW1041REMSYN124AAXX  05121 76393 31940 30101 10086 20007 39677 40269 5//// 70400 80001 91155 333 10207 20078 30064 56005 58020 70000 83070;
0217763930999992008120515004+25733-100300FM-12+051599999V0200401N001012200019N0060001N1+00941+00121102881ADDAY101031AY201031GA1021+036001031GF102991021001999999031001IA1019MA1999999096921MD1210151+0131MW1041REMSYN106AAXX  05151 76393 31956 20401 10094 20012 39692 40288 52015 70400 82030 91450 333 30/// 56050 58013 82362;
0255763930999992008120518004+25733-100300FM-12+051599999V0200501N001012200019N0080001N1+01401+00381102841ADDAY101061AY201061GA1011+010501061GF101991011051012501001001IA1019KA1120M+01581KA2240N+00781MA1999999096871MD1710051+0171MW1041REMSYN118AAXX  05181 76393 31658 10501 10140 20038 39687 40284 57005 70400 81500 91745 333 10158 20078 30/// 56300 58017 81635;
0223763930999992008120521004+25733-100300FM-12+051599999V0201301N00201090001CN0100001N1+01721+00371102401ADDAY141031AY241031GA1011+012901061GF105991011051012501001021IA1019MA1999999096501MD1710371+0081MW1041REMSYN112AAXX  05211 76393 31660 51302 10172 20037 39650 40240 57037 70444 81502 92055 333 30/// 56505 58008 81643 84070;
0284763930999992008120600004+25733-100300FM-12+051599999V0201201N003012200019N0120001N1+01521+00391102311ADDAA124000091AY141061AY241061GA1011+010801061GF107991011051012501001041IA1019KA1120M+01911KA2180N+00781MA1999999096451MD1710051+9999MW1041REMSYN136AAXX  06001 76393 31662 71203 10152 20039 39645 40231 57005 70444 81504 92355 333 10191 20078 30/// 50351 56505 57000 70000 81636 86070;
0217763930999992008120603004+25733-100300FM-12+051599999V0203401N00101036001CN0040001N1+01241+00511102411ADDGA1011+007201061GA2031+018001041GF107991011041008001011041IA1019MA1999999096551MD1110101-0081REMSYN112AAXX  06031 76393 32540 73401 10124 20051 39655 40241 51010 81414 90250 333 0/557 30/// 59008 81624 83456 83070;
0217763930999992008120606004+25733-100300FM-12+051599999V0202001N001012200019N0040001N1+01121+00401102321ADDGA1001+999999999GF100991001001999999001001GJ104929IA1019KA1240M+02071KA2240N+00781MA1999999096451MD1810101-0771REMSYN094AAXX  06061 76393 32940 02001 10112 20040 39645 40232 58010 333 10207 20078 30/// 55082 59077;
0237763930999992008120618004+25733-100300FM-12+051599999V0201201N002012200019N0030001N1+02101+00851102041ADDAY141061AY241061GA1001+999999999GF100991001001999999001001IA1019KA1120M+02171KA2240N+00781MA1999999096341MD1999999-0531MW1041REMSYN100AAXX  06181 76393 31930 01202 10210 20085 39634 40204 5//// 70444 91750 333 10217 20078 30/// 59053;
0199763930999992008120621004+25733-100300FM-12+051599999V0201301N002012200019N0050001N1+02501+00721101761ADDAY141031AY241031GA1001+999999999GF100991001001999999001001IA1019MA1999999096101MD1710241-0401MW1051REMSYN088AAXX  06211 76393 31950 01302 10250 20072 39610 40176 57024 70544 92050 333 30/// 59040;
0279763930999992008120700004+25733-100300FM-12+051599999V0201101N003012200019N0060001N1+02021+00701101831ADDAA124000091AY141061AY241061GA1001+999999999GF100991001001999999001001IA1019KA1120M+02591KA2180N+00781MA1999999096171MD1210071-0281MW1041REMSYN112AAXX  07001 76393 31956 01103 10202 20070 39617 40183 52007 70444 92350 333 10259 20078 30/// 50301 59028 70000;EQDQ01  00002PRCP24
0171763930999992008120703004+25733-100300FM-12+051599999V0201001N001012200019N0040001N1+01701+00771102071ADDGA1001+999999999GF100991001001999999001001IA1019MA1999999096381MD1210221-0171REMSYN082AAXX  07031 76393 32940 01001 10170 20077 39638 40207 52022 90250 333 30/// 59017;
0223763930999992008120706004+25733-100300FM-12+051599999V0202701N001012200019N0040001N1+01441+00831102171ADDGA1001+999999999GF100991001001999999001001GJ105469IA1019KA1240M+02591KA2240N+00781MA1999999096441MD1110061-0011REMSYN100AAXX  07061 76393 32940 02701 10144 20083 39644 40217 51006 90550 333 10259 20078 30/// 55091 59001;
0185763930999992008120715004+25733-100300FM-12+051599999V0209999C000012200019N0060001N1+01381+00801102441ADDAY101031AY201031GA1001+999999999GF100991001001999999001001IA1019MA1999999096561MW1041REMSYN088AAXX  07151 76393 31956 00000 10138 20080 39656 40244 5//// 70400 91445 333 30/// 58///;
0237763930999992008120718004+25733-100300FM-12+051599999V0201101N001012200019N0060001N1+01921+00961102341ADDAY101061AY201061GA1001+999999999GF100991001001999999001001IA1019KA1120M+02061KA2240N+00921MA1999999096461MD1710101+0121MW1041REMSYN100AAXX  07181 76393 31956 01101 10192 20096 39646 40234 57010 70400 91745 333 10206 20092 30/// 58012;
0223763930999992008120803004+25733-100300FM-12+051599999V0201201N005010039019N0040001N1+01881+01481101721ADDAY121031AY211031GA1061+003901061GF107991061051004501021091IA1019MA1999999096021MD1410001-0361MW1051REMSYN112AAXX  08031 76393 31440 71205 10188 20148 39602 40172 54000 70521 86529 90250 333 0/359 30/// 59036 86613 81456;
0161763930999992008120806004+25733-100300FM-12+051599999V0200901N002010021019N0040001N1+01681+01461101641ADDAY141061AY221061GF105991051051002501001001MA1999999095951MD1710071+9999MW1051REMSYN072AAXX  08061 76393 31340 50902 10168 20146 39595 40164 57007 70542 85500;
0217763930999992008120815004+25733-100300FM-12+051599999V0202701N001012200019N0020001N1+01781+01291101301ADDAY101031AY201031GA1021+060001001GF102991001001999999001041IA1019MA1999999095551MD1999999-1011MW1051REMSYN106AAXX  08151 76393 31920 22701 10178 20129 39555 40130 5//// 70500 80004 91450 333 30/// 56005 59101 82070;
0195763930999992008120821004+25733-100300FM-12+051599999V0201201N002012200019N0040001N1+02521+01491100631ADDAY141031AY241031GF102991001001999999001011IA1019MA1999999094961MD1710431+9999MW1051REMSYN100AAXX  08211 76393 31940 21202 10252 20149 39496 40063 57043 70544 80001 92055 333 30/// 56005 58///;
0245763930999992008120900004+25733-100300FM-12+051599999V0201201N002012200019N0080001N1+02311+01461100491ADDAY141061AY241061GF103991011001022501031091IA1019KA1120M+02651KA2180N+01481MA1999999094881MD1610081+9999MW1051REMSYN124AAXX  09001 76393 31858 31202 10231 20146 39488 40049 56008 70544 81039 92350 333 10265 20148 30/// 5//// 56055 58/// 70000;
0171763930999992008120903004+25733-100300FM-12+051599999V0203001N001012200019N0050001N1+02081+01531100531ADDGA1001+999999999GF100991001001999999001001IA1019MA1999999094931MD1010051-1091REMSYN082AAXX  09031 76393 32950 03001 10208 20153 39493 40053 50005 90250 333 30/// 59109;
0223763930999992008120906004+25733-100300FM-12+051599999V0203301N001012200019N0050001N1+01761+01481100421ADDGA1001+999999999GF100991001001999999001001GJ105169IA1019KA1240M+02651KA2240N+01481MA1999999094841MD1710091-1111REMSYN100AAXX  09061 76393 32950 03301 10176 20148 39484 40042 57009 90550 333 10265 20148 30/// 55086 59111;
0217763930999992008120915004+25733-100300FM-12+051599999V0202101N001012200019N0080001N1+02221+00991100631ADDAY101031AY201031GA1011+060001001GF101991001001999999001011IA1019MA1999999094931MD1710201-0621MW1041REMSYN106AAXX  09151 76393 31958 12101 10222 20099 39493 40063 57020 70400 80001 91450 333 30/// 56005 59062 81070;
0255763930999992008120918004+25733-100300FM-12+051599999V0201301N001010600019N0100001N1+03141+00721100511ADDAY141061AY221061GA1061+060001001GF106991001001999999001041IA1019KA1120M+03281KA2240N+01441MA1999999094851MD1710081-0541MW1041REMSYN118AAXX  09181 76393 31960 61301 10314 20072 39485 40051 57008 70442 80004 91450 333 10328 20144 30/// 56005 59054 86070;
0167763930999992008120921004+25733-100300FM-12+051599999V0201301N002012200019N0140001N1+03261+00581100111ADDGF101991001001999999001011IA1019MA1999999094571MD1710281-0391REMSYN094AAXX  09211 76393 32964 11302 10326 20058 39457 40011 57028 80001 92055 333 30/// 56005 59039;
0217763930999992008121000004+25733-100300FM-12+051599999V0202301N001012200019N0160001N1+02661+00841100211ADDGF102991001001999999001011IA1019KA1120M+03391KA2180N+01441MA1999999094721MD1210151-0161REMSYN118AAXX  10001 76393 32966 22301 10266 20084 39472 40021 52015 80001 92350 333 10339 20144 30/// 50381 56005 59016 70000;
0242763930999992008121003004+25733-100300FM-12+051599999V0200501N003012200019N0030001N1+01881+00651100961ADDAY131031AY201031GA1011+012301061GF102991011051012501011001IA1019MA1999999095451MD1710732+0521MW1051REMSYN112AAXX  10031 76393 31630 20503 10188 20065 39545 40096 57073 70530 81510 90250 333 0/779 30/// 58052 81641 81456;EQDQ01+000732APC3  
0196763930999992008121006004+25733-100300FM-12+051599999V0200501N003010360019N0040001N1+01461+00691101642ADDAY141061AY271061GF107991021051008001021999MA1999999096062MD1210611+9999MW1051REMSYN072AAXX  10061 76393 31540 70503 10146 20069 39606 40164 52061 70547 8252/;EQDQ01+096063APOSP Q02+101643APOSLP
0234763930999992008121015004+25733-100300FM-12+051599999V0201601N001010042019N0100001N1+00761+00341102621ADDAA103000991AY121031AY221031GA1071+004201061GF107991071051004501999999IA1019MA1999999096681MD1210131+1751MW1041REMSYN112AAXX  10151 76393 21460 71601 10076 20034 39668 40262 52013 70422 875// 91450 333 30/// 56399 58175 69997 87614;
0255763930999992008121018004+25733-100300FM-12+051599999V0203101N003012200019N0100001N1+01421+00251102611ADDAY111061AY211061GA1031+011701061GF103991031051012501001001IA1019KA1120M+01621KA2240N+00441MA1999999096631MD1710051+1781MW1041REMSYN118AAXX  10181 76393 31660 33103 10142 20025 39663 40261 57005 70411 83500 91750 333 10162 20044 30/// 56300 58178 83639;
0199763930999992008121021004+25733-100300FM-12+051599999V0202901N006012200019N0100001N1+01771-00101102101ADDAY141031AY241031GA1001+999999999GF100991001001999999001001IA1019MA1999999096181MD1710451+1611MW1051REMSYN088AAXX  10211 76393 31960 02906 10177 21010 39618 40210 57045 70544 92055 333 30/// 58161;
0251763930999992008121100004+25733-100300FM-12+051599999V0203001N004012200019N0160001N1+01571-00151102081ADDAA124000091GA1001+999999999GF100991001001999999001001IA1019KA1120M+01871KA2180N+00441MA1999999096211MD1210031+1491REMSYN106AAXX  11001 76393 32966 03004 10157 21015 39621 40208 52003 92350 333 10187 20044 30/// 50431 58149 79999;EQDQ01  00002PRCP24
0171763930999992008121109004+25733-100300FM-12+051599999V0201301N001012200019N0040001N1+00841+00161102441ADDGA1001+999999999GF100991001001999999001001IA1019MA1999999096481MD1010121+9999REMSYN082AAXX  11091 76393 32940 01301 10084 20016 39648 40244 50012 90850 333 30/// 58///;
0209763930999992008121112004+25733-100300FM-12+051599999V0203101N001012200019N0040001N1+00721+00251102361ADDGA1001+999999999GF100991001001999999001001KA1240M+01871KA2120N+00681MA1999999096391MD1610091+9999REMSYN100AAXX  11121 76393 32940 03101 10072 20025 39639 40236 56009 91150 333 10187 20068 20022 58/// 70000;
0195763930999992008121115004+25733-100300FM-12+051599999V0201601N001012200019N0060001N1+01161+00041102531ADDAY141031AY241031GF101991001001999999001011IA1019MA1999999096551MD1210161-0131MW1051REMSYN100AAXX  11151 76393 31956 11601 10116 20004 39655 40253 52016 70544 80001 91455 333 30/// 56005 59013;
0233763930999992008121118004+25733-100300FM-12+051599999V0203101N003012200019N0080001N1+01941-00091102431ADDAY141061AY241061GF101991001001999999001011IA1019KA1120M+01981KA2240N+00681MA1999999096501MD1710051-0131MW1051REMSYN112AAXX  11181 76393 31958 13103 10194 21009 39650 40243 57005 70544 80001 91750 333 10198 20068 30/// 56005 59013;
0199763930999992008121121004+25733-100300FM-12+051599999V0200201N001012200019N0120001N1+02041-00301101991ADDAY101031AY201031GA1001+999999999GF100991001001999999001001IA1019MA1999999096141MD1710361-0041MW1041REMSYN088AAXX  11211 76393 31962 00201 10204 21030 39614 40199 57036 70400 92055 333 30/// 59004;
0279763930999992008121200004+25733-100300FM-12+051599999V0200801N001012200019N0100001N1+01901-00091102001ADDAA124000091AY101061AY201061GA1001+999999999GF100991001001999999001001IA1019KA1120M+02381KA2180N+00681MA1999999096201MD1210061-0011MW1041REMSYN112AAXX  12001 76393 31960 00801 10190 21009 39620 40200 52006 70400 92355 333 10238 20068 30/// 50211 59001 70000;EQDQ01  00002PRCP24
0241763930999992008121212004+25733-100300FM-12+051599999V0201501N001012200019N0080001N1+00901+00391102481ADDAA124000091GF102991001001999999001011IA1019KA1240M+02381KA2120N+00851MA1999999096511MD1999999+0121REMSYN112AAXX  12121 76393 32958 21501 10090 20039 39651 40248 5//// 80001 91158 333 10238 20085 30080 56005 58012 70000;EQDQ01  00002PRCP24
0195763930999992008121215004+25733-100300FM-12+051599999V0209999C000012200019N0080001N1+01241+00311102621ADDAY141031AY241031GF102991001001999999001011IA1019MA1999999096681MD1210171+0131MW1051REMSYN100AAXX  12151 76393 31958 20000 10124 20031 39668 40262 52017 70544 80001 91455 333 30/// 56005 58013;
0233763930999992008121218004+25733-100300FM-12+051599999V0201301N004012200019N0080001N1+01981+00231102451ADDAY141061AY241061GF101991001001999999001011IA1019KA1120M+02041KA2240N+00851MA1999999096581MD1710101+0081MW1041REMSYN112AAXX  12181 76393 31958 11304 10198 20023 39658 40245 57010 70444 80001 91750 333 10204 20085 30/// 56005 58008;
0189763930999992008121221004+25733-100300FM-12+051599999V0201201N002012200019N0150001N1+02021+00241102121ADDGA1041+060001001GF104991001001999999001011IA1019MA1999999096301MD1710291+0161REMSYN100AAXX  12211 76393 32965 41202 10202 20024 39630 40212 57029 80001 92050 333 30/// 56005 58016 84070;
0244763930999992008121300004+25733-100300FM-12+051599999V0201101N002012200019N0150001N1+01761+00381102071ADDAA124000091GA1031+060001001GF103991001001999999001011IA1019KA1120M+02141KA2180N+00851MA1999999096271MD1710031+0071REMSYN118AAXX  13001 76393 32965 31102 10176 20038 39627 40207 57003 80001 92345 333 10214 20085 30/// 50481 58007 70000 83070;
0171763930999992008121309004+25733-100300FM-12+051599999V0200701N001012200019N0040001N1+01041+00661101711ADDGA1001+999999999GF100991001001999999001001IA1019MA1999999095911MD1710111+9999REMSYN082AAXX  13091 76393 32940 00701 10104 20066 39591 40171 57011 90850 333 30/// 59///;
0250763930999992008121312004+25733-100300FM-12+051599999V0203001N001012200019N0050001N1+00821+00581101631ADDAA124000091GA1021+060001001GF102991001001999999001091IA1019IA2999+00429KA1240M+02141KA2120N+00791MA1999999095801MD1610111-0711REMSYN112AAXX  13121 76393 32950 23001 10082 20058 39580 40163 56011 80009 91150 333 10214 20079 30042 59071 70000 82070;
0217763930999992008121321004+25733-100300FM-12+051599999V0201001N001010600019N0080001N1+02121+00841101121ADDAY121031AY221031GA1061+060001001GF106991001001999999001011IA1019MA1999999095311MD1999999-0991MW1041REMSYN106AAXX  13211 76393 31958 61001 10212 20084 39531 40112 5//// 70422 80001 92050 333 30/// 56005 59099 86070;
0284763930999992008121400004+25733-100300FM-12+051599999V0201101N001019999999N0100001N1+01841+00861101011ADDAA124000091AY121061AY221061GA1021+030001031GF105991021001999999031011IA1019KA1120M+02321KA2180N+00791MA1999999095261MD1710051-1011MW1041REMSYN136AAXX  14001 76393 31960 51101 10184 20086 39526 40101 57005 70422 82031 92345 333 10232 20079 30/// 50231 56055 59101 70000 82360 83070;
0189763930999992008121409004+25733-100300FM-12+051599999V0203001N001012200019N0030001N1+01201+00841100871ADDGA1021+003601031GF102991021001004501041001IA1019MA1999999095141MD1710051-0771REMSYN100AAXX  14091 76393 32430 23001 10120 20084 39514 40087 57005 82040 90850 333 0/959 30/// 59077 82312;
0245763930999992008121412004+25733-100300FM-12+051599999V0202101N001012200019N0040001N1+01141+00811100841ADDAA124000091GA1001+999999999GF100991001001999999001001IA1019KA1240M+02321KA2120N+01101MA1999999095081MD1210061-0721REMSYN100AAXX  14121 76393 32940 02101 10114 20081 39508 40084 52006 91150 333 10232 20110 30070 59072 70000;EQDQ01  00002PRCP24
0195763930999992008121415004+25733-100300FM-12+051599999V0202001N001012200019N0060001N1+01781+00581101011ADDAY141031AY241031GF102991001001999999001011IA1019MA1999999095211MD1210131+9999MW1041REMSYN100AAXX  14151 76393 31956 22001 10178 20058 39521 40101 52013 70444 80001 91455 333 30/// 56005 58///;
0224763930999992008121418004+25733-100300FM-12+051599999V0201201N002012200019N0080001N1+02932+00731100931ADDGF102991001001999999001021IA1019KA1120M+02981KA2240N+01101MA1999999095201MD1710011+9999REMSYN106AAXX  14181 76393 31958 21202 10293 20073 39520 40093 57001 80002 91755 333 10298 20110 30/// 56005 58///;EQDQ01+002933ATOT  
0171763930999992008121509004+25733-100300FM-12+051599999V0203101N001012200019N0040001N1+01621+00921101031ADDGA1001+999999999GF100991001001999999001001IA1019MA1999999095421MD1210021+0281REMSYN082AAXX  15091 76393 32940 03101 10162 20092 39542 40103 52002 90850 333 30/// 58028;
0245763930999992008121512004+25733-100300FM-12+051599999V0202401N002012200019N0040001N1+01821+00851101201ADDAA124000091GA1001+999999999GF100991001001999999001001IA1019KA1240M+03441KA2120N+01601MA1999999095521MD1210101+0441REMSYN100AAXX  15121 76393 32940 02402 10182 20085 39552 40120 52010 91150 333 10344 20160 30110 58044 70000;EQDQ01  00002PRCP24
0189763930999992008121515004+25733-100300FM-12+051599999V0202001N002012200019N0080001N1+02411+00781101491ADDGA1041+060001001GF104991001001999999001061IA1019MA1999999095771MD1210251+0561REMSYN100AAXX  15151 76393 31958 42002 10241 20078 39577 40149 52025 80006 91455 333 30/// 56005 58056 84070;
0234763930999992008121518004+25733-100300FM-12+051599999V0201001N003010600019N0060001N1+02471+00991101711ADDAY141061AY241061GA1071+060001001GF107991001001999999001041IA1019KA1120M+02791KA2240N+01601MD1210231+0811MW1051REMSYN112AAXX  15181 76393 31956 71003 10247 20099 40171 52023 70544 80004 91750 333 10279 20160 30/// 56005 58081 87070;
0217763930999992008121521004+25733-100300FM-12+051599999V0200301N001010600019N0080001N1+02241+01281101641ADDAY121031AY221031GA1071+060001001GF107991001001999999001011IA1019MA1999999095971MD1710041+9999MW1041REMSYN106AAXX  15211 76393 31958 70301 10224 20128 39597 40164 57004 70422 80001 92050 333 30/// 56005 58/// 87070;
0262763930999992008121600004+25733-100300FM-12+051599999V0200201N001019999999N0080001N1+01901+01211101751ADDAA124000091AY141061AY221061GF107991001001999999001011IA1019KA1120M+02781KA2180N+01601MA1999999096091MD1710121+9999MW1051REMSYN130AAXX  16001 76393 31958 70201 10190 20121 39609 40175 57012 70542 80001 92350 333 10278 20160 30/// 50291 56005 58/// 70000 87070;
0245763930999992008121609004+25733-100300FM-12+051599999V0201101N002010018019N0030001N1+00901+00711102111ADDAY141031AY221031GA1011+000901071GA2041+001801061GF108991051061001501021999IA1019MA1999999096321MD1510091+1101MW1051REMSYN118AAXX  16091 76393 31230 81102 10090 20071 39632 40211 55009 70542 8562/ 90850 333 0/359 30/// 58110 81703 84606 83456;
0161763930999992008121612004+25733-100300FM-12+051599999V0201001N001010012019N0030001N1+00861+00741102101ADDAY141061AY221061GF108991051061001501021999MA1999999096241MD1510081+9999MW1051REMSYN072AAXX  16121 76393 21230 81001 10086 20074 39624 40210 55008 70542 8562/;
0234763930999992008121615004+25733-100300FM-12+051599999V0200701N002010009019N0030001N1+00631+00531102271ADDAA103000021AY151031AY241031GA1081+000901071GF108991081071000751999999IA1019MA1999999096331MD1210091+0561MW1501REMSYN112AAXX  16151 76393 21130 80702 10063 20053 39633 40227 52009 75054 887// 91455 333 30/// 563// 58056 69907 88703;
0250763930999992008121712004+25733-100300FM-12+051599999V0202601N002012200019N0060001N1+00781+00661101961ADDAA124000021AY141061AY241061GF101991001001999999001011IA1019KA1240M+01021KA2120N+00601MA1999999096001MD1999999-0241MW1051REMSYN118AAXX  17121 76393 31956 12602 10078 20066 39600 40196 5//// 70544 80001 91155 333 10102 20060 30056 56005 59024 79999;
0223763930999992008121715004+25733-100300FM-12+051599999V0202501N001012200019N0030001N1+00981+00761102151ADDAY141031AY201031GA1011+002101061GF104991011051002501051999IA1019MA1999999096111MD1210091-0221MW1051REMSYN112AAXX  17151 76393 31330 42501 10098 20076 39611 40215 52009 70540 8155/ 91450 333 30/// 5655/ 59022 81607 83456;
0290763930999992008121718004+25733-100300FM-12+051599999V0200301N001012200019N0030001N1+01581+00791102011ADDAY141061AY221061GA1011+018001041GF101991011001008001011999IA1019KA1120M+01681KA2240N+00651MA1999999096111MD1710141+9999MW1051REMSYN118AAXX  17181 76393 32530 10301 10158 20079 39611 40201 58000 70542 8101/ 91750 333 10168 20065 30/// 5605/ 58/// 81456;EQDQ01+000082APCTENQ02+000002APC3  
0199763930999992008121721004+25733-100300FM-12+051599999V0201201N003012200019N0040001N1+01771+01101101661ADDAY141031AY241031GA1001+999999999GF100991001001999999001001IA1019MA1999999095831MD1710281+9999MW1051REMSYN088AAXX  17211 76393 31940 01203 10177 20110 39583 40166 57028 70544 92055 333 30/// 58///;
0262763930999992008121800004+25733-100300FM-12+051599999V0201101N002019999999N0050001N1+01461+01121101701ADDAA124000091AY141061AY241061GF106991001001999999001081IA1019KA1120M+02031KA2180N+00651MA1999999095891MD1210261+9999MW1051REMSYN130AAXX  18001 76393 31950 61102 10146 20112 39589 40170 52026 70544 80008 92350 333 10203 20065 30/// 5//// 56005 58/// 70000 86270;
0217763930999992008121809004+25733-100300FM-12+051599999V0209999C000010015019N0020001N1+01401+01261101811ADDAY141031AY221031GA1081+001501061GF108991081051001501999999IA1019MA1999999096011MD1710091+9999MW1051REMSYN106AAXX  18091 76393 31220 80000 10140 20126 39601 40181 57009 70542 885// 90845 333 30/// 56399 58/// 88605;
0272763930999992008121812004+25733-100300FM-12+051599999V0202401N001010018019N0010001N1+01461+01291101821ADDAA124000091AY141061AY221061GA1081+001801061GF108991081051001501999999IA1019KA1240M+02031KA2120N+01361MA1999999095991MD1710021+9999MW1051REMSYN124AAXX  18121 76393 31210 82401 10146 20129 39599 40182 57002 70542 885// 91150 333 10203 20136 30128 56399 58/// 70000 88606;
0223763930999992008121815004+25733-100300FM-12+051599999V0202301N00101036001CN0010001N1+01661+01271101931ADDAY141031AY221031GA1041+003901061GF106991041051004501021999IA1019MA1999999096131MD1210141+0111MW1051REMSYN112AAXX  18151 76393 31410 62301 10166 20127 39613 40193 52014 70542 8452/ 91450 333 30/// 5635/ 58011 84613 82456;
0233763930999992008121818004+25733-100300FM-12+051599999V0201201N001012200019N0030001N1+02081+01351101861ADDGA1021+007201061GF104991021041008001011999IA1019KA1120M+02221KA2240N+01361MA1999999096101MD1710031-0011REMSYN118AAXX  18181 76393 31530 41201 10208 20135 39610 40186 57003 8241/ 91750 333 10222 20136 30/// 5635/ 59001 82624 82456;
0199763930999992008121821004+25733-100300FM-12+051599999V0201101N001012200019N0040001N1+02261+01491101301ADDAY141031AY241031GA1001+999999999GF100991001001999999001001IA1019MA1999999095581MD1710521-0251MW1051REMSYN088AAXX  18211 76393 31940 01101 10226 20149 39558 40130 57052 70544 92050 333 30/// 59025;
0262763930999992008121900004+25733-100300FM-12+051599999V0201101N001012200019N0040001N1+02111+01561101491ADDAA124000091AY141061AY241061GF102991001001999999001011IA1019KA1120M+02461KA2180N+01361MA1999999095791MD1210011-0101MW1041REMSYN130AAXX  19001 76393 31940 21101 10211 20156 39579 40149 52001 70444 80001 92350 333 10246 20136 30/// 50131 56005 59010 70000 82070;
0223763930999992008121915004+25733-100300FM-12+051599999V0202601N00101220001CN0020001N1+01621+01361101931ADDAY141031AY221031GA1021+002401061GF105991021041002501001011IA1019MA1999999096131MD1210211+0001MW1051REMSYN112AAXX  19151 76393 32320 52601 10162 20136 39613 40193 52021 70542 82401 91450 333 30/// 56305 58000 82608 84070;
0233763930999992008121918004+25733-100300FM-12+051599999V0203401N00101036001CN0020001N1+01981+01581101951ADDGA1031+004501061GF106991031041004501021999IA1019KA1120M+02001KA2240N+01381MA1999999096171MD1710041+0071REMSYN118AAXX  19181 76393 31420 63401 10198 20158 39617 40195 57004 8342/ 91750 333 10200 20138 30/// 5635/ 58007 83615 83456;
0195763930999992008121921004+25733-100300FM-12+051599999V0201301N001012200019N0040001N1+02461+01511101601ADDAY141031AY241031GF101991001001999999001011IA1019MA1999999095881MD1710291+0111MW1051REMSYN100AAXX  19211 76393 31940 11301 10246 20151 39588 40160 57029 70544 80001 92045 333 30/// 56005 58011;
0217763930999992008122009004+25733-100300FM-12+051599999V0201601N001010024019N0010001N1+01941+01701101501ADDAY141031AY221031GA1081+002401061GF108991081051002501999999IA1019MA1999999095851MD1710101+9999MW1051REMSYN106AAXX  20091 76393 31310 81601 10194 20170 39585 40150 57010 70542 885// 90850 333 30/// 56399 58/// 88608;
0272763930999992008122012004+25733-100300FM-12+051599999V0202301N001012200019N0010001N1+01741+01521101461ADDAA124000091AY141061AY221061GA1031+002101051GF103991031051002501001001IA1019KA1240M+02641KA2120N+01621MA1999999095781MD1710071-0141MW1051REMSYN124AAXX  20121 76393 31310 32301 10174 20152 39578 40146 57007 70542 83500 91145 333 10264 20162 30145 56300 59014 70000 83507;
0233763930999992008122018004+25733-100300FM-12+051599999V0202401N001012200019N0020001N1+02461+01511101461ADDAY141061AY241061GF101991001001999999001011IA1019KA1120M+02581KA2240N+01621MA1999999095761MD1999999+0411MW1041REMSYN112AAXX  20181 76393 31920 12401 10246 20151 39576 40146 5//// 70444 80001 91755 333 10258 20162 30/// 56005 58041;
0217763930999992008122021004+25733-100300FM-12+051599999V0201201N002010600019N0040001N1+02881+01771101061ADDAY141031AY241031GA1061+060001001GF106991001001999999001081IA1019MA1999999095421MD1710341-0041MW1051REMSYN106AAXX  20211 76393 31940 61202 10288 20177 39542 40106 57034 70544 80008 92058 333 30/// 56005 59004 86070;
0262763930999992008122100004+25733-100300FM-12+051599999V0201201N002019999999N0060001N1+02601+01781101081ADDAA124000091AY141061AY241061GF106991001001999999001081IA1019KA1120M+02941KA2180N+01621MA1999999095481MD1210061+9999MW1051REMSYN130AAXX  21001 76393 31956 61202 10260 20178 39548 40108 52006 70544 80008 92350 333 10294 20162 30/// 5//// 56005 58/// 70000 86070;
0217763930999992008122109004+25733-100300FM-12+051599999V0202401N001012200019N0020001N1+01861+01481101351ADDAY141031AY211031GA1041+003901061GF104991041051004501001001IA1019MA1999999095651MD1710031-0201MW1051REMSYN106AAXX  21091 76393 31420 42401 10186 20148 39565 40135 57003 70541 84500 90850 333 30/// 56300 59020 84613;
0272763930999992008122112004+25733-100300FM-12+051599999V0202101N001012200019N0020001N1+01681+01221101421ADDAA124000091AY141061AY201061GA1031+060001001GF103991001001999999001011IA1019KA1240M+02941KA2120N+01541MA1999999095701MD1210051-0081MW1051REMSYN124AAXX  21121 76393 31920 32101 10168 20122 39570 40142 52005 70540 80001 91145 333 10294 20154 30130 56005 59008 70000 83070;
0223763930999992008122115004+25733-100300FM-12+051599999V0201601N00101036001CN0030001N1+01941+01641101791ADDAY141031AY221031GA1031+003001061GF107991041041004501021999IA1019MA1999999096041MD1210341+9999MW1051REMSYN112AAXX  21151 76393 32430 71601 10194 20164 39604 40179 52034 70542 8442/ 91450 333 30/// 5635/ 58/// 83610 84456;
0261763930999992008122118004+25733-100300FM-12+051599999V0200301N00301036001CN0030001N1+01861+01421101911ADDAY141061AY221061GA1041+004201061GF108991041041004501021999IA1019KA1120M+02141KA2240N+01541MA1999999096161MD1010121+0401MW1051REMSYN124AAXX  21181 76393 32430 80303 10186 20142 39616 40191 50012 70542 8442/ 91750 333 10214 20154 30/// 5635/ 58040 84614 84456;
0172763930999992008122212004+25733-100300FM-12+051599999V0203601N001019999999N0010001N1+00281+00001103041ADDAA106000021AY151061AY251061GF108991999999002501999999MA1999999096961MD1410001+9999MW1501REMSYN072AAXX  22121 76393 01310 83601 10028 20000 39696 40304 54000 69901 75055;
0234763930999992008122215004+25733-100300FM-12+051599999V0203601N001010012019N0010001N1+00221-00101103141ADDAA103000291AY151031AY211031GA1081+001201071GF108991081061001501999999IA1099MA1999999097041MD1110081+1001MW1051REMSYN112AAXX  22151 76393 21210 83601 10022 21010 39704 40314 51008 70551 886// 91450 333 31/// 568// 58100 69927 88704;
0292763930999992008122218004+25733-100300FM-12+051599999V0209999C000019999999N0010001N1+00321+00181103031ADDAA103001091AA206002091AY151061AY251061GF108991999041001501001011KA1120M+00681KA2240N+00221MA1999999096921MD1710121+0761MW1501REMSYN136AAXX  22181 76393 01210 80400 10032 20018 39692 40303 57012 60021 75055 80401 886// 91750 333 10068 20022 31/// 568// 58076 60017 88704;EQDQ01+000002SCOTLC
0234763930999992008122221004+25733-100300FM-12+051599999V0201001N002010001519N0008001N1+00411+00391102501ADDAA103002091AY151031AY251031GA1081+000151071GF108991081071000251999999IA1099MA1999999096411MD1710511+9999MW1501REMSYN112AAXX  22211 76393 21008 81002 10041 20039 39641 40250 57051 75055 887// 92055 333 31/// 568// 58/// 60027 88700;
0172763930999992008122300004+25733-100300FM-12+051599999V0201101N002019999999N0008001N1+00431+00371102351ADDAA106004191AY151061AY251061GF108991999999000751999999MA1999999096271MD1710141+9999MW1501REMSYN072AAXX  23001 76393 01108 81102 10043 20037 39627 40235 57014 60041 75055;
0217763930999992008122309004+25733-100300FM-12+051599999V0209999C000010012019N0010001N1+00581+00451101871ADDAY141031AY241031GA1081+001201071GF108991081071001501999999IA1099MA1999999095851MD1710141-1111MW1051REMSYN106AAXX  23091 76393 31210 80000 10058 20045 39585 40187 57014 70544 887// 90850 333 31/// 56399 59111 88704;
0284763930999992008122312004+25733-100300FM-12+051599999V0201401N001010012019N0010001N1+00661+00541101701ADDAA124005691AY141061AY241061GA1081+001201071GF108991081071001501999999IA1019IA2999+00409KA1240M+00681KA2120N+00441MA1999999095701MD1710151-1261MW1051REMSYN124AAXX  23121 76393 31210 81401 10066 20054 39570 40170 57015 70544 887// 91145 333 10068 20044 30040 56399 59126 70056 88704;
0283763930999992008122318004+25733-100300FM-12+051599999V0201401N00101018001CN0030001N1+01361+01001101651ADDAY121061AY211061GA1031+003601061GA2021+018001041GF106991031041004501011041IA1019KA1120M+01441KA2240N+00441MA1999999095691MD1710091-1231MW1051REMSYN130AAXX  23181 76393 32430 61401 10136 20100 39569 40165 57009 70521 83414 91750 333 10144 20044 30/// 56357 59123 83612 82456 81070;
0217763930999992008122321004+25733-100300FM-12+051599999V0201101N002010600019N0050001N1+01841+01101101171ADDAY141031AY241031GA1051+060001001GF105991001001999999001041IA1099MA1999999095321MD1710371-1091MW1041REMSYN106AAXX  23211 76393 31950 51102 10184 20110 39532 40117 57037 70444 80004 92055 333 31/// 56005 59109 85070;
0251763930999992008122400004+25733-100300FM-12+051599999V0201201N002019999999N0060001N1+01701+01071101111ADDAY141061AY241061GF105991001001999999001041IA1099KA1120M+02031KA2180N+00441MA1999999095321MD1410001-0951MW1051REMSYN130AAXX  24001 76393 31956 51202 10170 20107 39532 40111 54000 70544 80004 92350 333 10203 20044 31/// 50101 56005 59095 7//// 85070;
0199763930999992008122409004+25733-100300FM-12+051599999V0209999C000012200019N0010001N1+01101+00991101261ADDAY101031AY201031GA1001+999999999GF100991001001999999001001IA1019MA1999999095431MD1710031-0421MW1051REMSYN088AAXX  24091 76393 31910 00000 10110 20099 39543 40126 57003 70500 90850 333 30/// 59042;
0273763930999992008122412004+25733-100300FM-12+051599999V0202301N001012200019N0010001N1+01141+00891101361ADDAA124000091AY101061AY201061GA1001+999999999GF100991001001999999001001IA1019KA1240M+02031KA2120N+01021MA1999999095511MD1710081-0191MW1051REMSYN106AAXX  24121 76393 31910 02301 10114 20089 39551 40136 57008 70500 91145 333 10203 20102 30085 59019 70000;EQDQ01  00002PRCP24
0195763930999992008122415004+25733-100300FM-12+051599999V0202401N002012200019N0060001N1+01921+00821101711ADDAY141031AY241031GF101991001001999999001011IA1099MA1999999095871MD1210361+0091MW1051REMSYN100AAXX  24151 76393 31956 12402 10192 20082 39587 40171 52036 70544 80001 91455 333 31/// 56005 58009;
0233763930999992008122418004+25733-100300FM-12+051599999V0201201N002012200019N0100001N1+02971+01041101711ADDAY141061AY241061GF102991001001999999001011IA1019KA1120M+03041KA2240N+01021MA1999999095931MD1210061+0241MW1051REMSYN112AAXX  24181 76393 31960 21202 10297 20104 39593 40171 52006 70544 80001 91750 333 10304 20102 30/// 56005 58024;
0199763930999992008122515004+25733-100300FM-12+051599999V0209999C000012200019N0040001N1+01441+01021102141ADDAY141031AY241031GA1001+999999999GF100991001001999999001001IA1019MA1999999096261MD1210131+0391MW1051REMSYN088AAXX  25151 76393 31940 00000 10144 20102 39626 40214 52013 70544 91450 333 30/// 58039;
0218763930999992008122518004+25733-100300FM-12+051599999V0201101N001012200019N0040001N1+01941+01131102011ADDAY141061AY241061GA1001+999999999GF100991001001999999001001KA1120M+02031MA1999999096181MD1710081+9999MW1041REMSYN100AAXX  25181 76393 31940 01101 10194 20113 39618 40201 57008 70444 91750 333 10203 10100 30/// 58025;
0205763930999992008122521004+25733-100300FM-12+051599999V0200901N003012200019N0049001N1+02361+01351101531ADDAY141031AY241031GA1001+999999999GF100991001001999999001001IA1019MA1999999095781MD1710401-0031MW1051REMSYN094AAXX  25211 76393 31949 00903 10236 20135 39578 40153 57040 70544 92050 333 30/// 56999 59003;
0255763930999992008122600004+25733-100300FM-12+051599999V0201001N003012200019N0050001N1+02161+01551101451ADDAY141061AY241061GA1001+999999999GF100991001001999999001001IA1019KA1120M+02451KA2180N+01001MA1999999095721MD1510161-0301MW1051REMSYN118AAXX  26001 76393 31950 01003 10216 20155 39572 40145 55016 70544 92350 333 10245 20100 30/// 50221 56999 59030 70000;
0266763930999992008122612004+25733-100300FM-12+051599999V0202501N001012200019N0020001N1+01441+01211101261ADDAA124000091AY141061AY211061GA1031+002401061GF103991031051002501001001IA1019KA1240M+02451KA2120N+01261MA1999999095501MD1710111-0631MW1041REMSYN118AAXX  26121 76393 31320 32501 10144 20121 39550 40126 57011 70441 83500 91145 333 10245 20126 30112 59063 70000 83608;
0217763930999992008122615004+25733-100300FM-12+051599999V0201801N001010600019N0040001N1+01771+01301101391ADDAY141031AY241031GA1051+060001001GF105991001001999999001041IA1019MA1999999095651MD1210111-0651MW1041REMSYN106AAXX  26151 76393 31940 51801 10177 20130 39565 40139 52011 70444 80004 91455 333 30/// 56005 59065 85070;
0255763930999992008122618004+25733-100300FM-12+051599999V0201201N002010600019N0040001N1+02041+01471101291ADDAY141061AY241061GA1051+060001001GF105991001001999999001041IA1019KA1120M+02551KA2240N+01261MA1999999095551MD1710061-0631MW1041REMSYN118AAXX  26181 76393 31940 51202 10204 20147 39555 40129 57006 70444 80004 91755 333 10255 20126 30/// 56005 59063 85070;
0253763930999992008122700004+25733-100300FM-12+051599999V0203401N001012200019N0040001N1+02541+01501100771ADDAA124000091GF103991001001999999001041IA1019KA1120M+02941KA2180N+01261MA1999999095151MD1810081-0571REMSYN124AAXX  27001 76393 32840 33401 10254 20150 39515 40077 58008 80004 92350 333 10294 20126 30/// 50171 56995 59057 70000 83070;EQDQ01+022502SCOLCB
0199763930999992008122709004+25733-100300FM-12+051599999V0209999C000012200019N0040001N1+01681+01491100961ADDAY101031AY201031GA1001+999999999GF100991001001999999001001IA1019MA1999999095271MD1710041-0401MW1041REMSYN088AAXX  27091 76393 31940 00000 10168 20149 39527 40096 57004 70400 90845 333 30/// 59040;
0236763930999992008122721004+25733-100300FM-12+051599999V0201201N001012200019N0120001N1+03361+01021100851ADDAY141031AY221031GA1021+018001041GF103991999001022501041001IA1019MA1999999095261MD1010191+0031MW1051REMSYN106AAXX  27211 76393 31862 31201 10336 20102 39526 40085 50019 70542 80040 92050 333 30/// 56959 58003 82456;EQDQ01+000002SCOTLC
0284763930999992008122800004+25733-100300FM-12+051599999V0202301N002012200019N0090001N1+02381+00751101161ADDAA124000091AY141061AY221061GA1011+015001061GF103991011031017501031001IA1019KA1120M+03421KA2180N+01521MA1999999095601MD1210341+0451MW1051REMSYN136AAXX  28001 76393 31759 32302 10238 20075 39560 40116 52034 70542 81330 92350 333 10342 20152 30/// 50311 56359 58045 70000 81650 81356;
0272763930999992008122812004+25733-100300FM-12+051599999V0203601N001010117019N0030001N1+01401-00241102251ADDAA124000091AY141061AY221061GA1081+011701061GF108991081071012501999999IA1019KA1240M+03421KA2120N+01321MA1999999096431MD1210081+1171MW1051REMSYN124AAXX  28121 76393 31630 83601 10140 21024 39643 40225 52008 70542 887// 91150 333 10342 20132 30120 56399 58117 70000 88639;
0189763930999992008122815004+25733-100300FM-12+051599999V0203101N001012200019N0100001N1+01441-00511102441ADDGA1021+018001031GF103991021001022501031011IA1019MA1999999096601MD1210171+9999REMSYN100AAXX  28151 76393 32860 33101 10144 21051 39660 40244 52017 82031 91450 333 30/// 56055 58/// 82356;
0255763930999992008122818004+25733-100300FM-12+051599999V0203201N001010600019N0140001N1+01791-00261102451ADDAY141061AY241061GA1051+060001001GF105991001001999999001041IA1019KA1120M+01911KA2240N+01321MA1999999096611MD1210011+1161MW1041REMSYN118AAXX  28181 76393 31964 53201 10179 21026 39661 40245 52001 70444 80004 91750 333 10191 20132 30/// 56005 58116 85070;
0217763930999992008122903004+25733-100300FM-12+051599999V0200701N001012200019N0060001N1+01381+00021102441ADDAY101031AY201031GA1031+075001001GF103991001001999999001011IA1019MA1999999096651MD1210251+9999MW1041REMSYN106AAXX  29031 76393 31956 30701 10138 20002 39665 40244 52025 70400 80001 90545 333 30/// 56005 58/// 83075;
0281763930999992008122912004+25733-100300FM-12+051599999V0202001N001012200019N0050001N1+01001+00391102691ADDAA124000091AY141061AY241061GF102991001001999999001011IA1019IA2999+00059KA1240M+02181KA2120N+00761MA1999999096811MD1999999+0381MW1051REMSYN118AAXX  29121 76393 31950 22001 10100 20039 39681 40269 5//// 70544 80001 91158 333 10218 20076 30005 56005 58038 70000;EQDQ01  00002PRCP24
0217763930999992008122915004+25733-100300FM-12+051599999V0201501N001010600019N0060001N1+01261+00241102901ADDAY141031AY241031GA1061+060001001GF106991001001999999001041IA1019MA1999999096991MD1210181+0391MW1051REMSYN106AAXX  29151 76393 31956 61501 10126 20024 39699 40290 52018 70544 80004 91455 333 30/// 56005 58039 86070;
0261763930999992008122918004+25733-100300FM-12+051599999V0201101N001012200019N0060001N1+01861+00001102811ADDAY141061AY241061GA1011+018001061GF103991011051017501001021IA1019KA1120M+01931KA2240N+00761MA1999999096911MD1710081+0301MW1041REMSYN124AAXX  29181 76393 31756 31101 10186 20000 39691 40281 57008 70444 81502 91750 333 10193 20076 30/// 56309 58030 81656 82070;
0214763930999992008122921004+25733-100300FM-12+051599999V0200501N002012200019N0120001N1+02081+00221102471ADDGA1031+018001031GF103991999001022501041041IA1019MA1999999096631MD1710291+9999REMSYN106AAXX  29211 76393 32862 30502 10208 20022 39663 40247 57029 80044 92050 333 30/// 56955 58/// 83356 81070;EQDQ01+000002SCOTLC
0256763930999992008123000004+25733-100300FM-12+051599999V0201101N003010360019N0100001N1+01841+00301102441ADDAA124000091GA1021+015001061GF105991021041017501041001IA1019KA1120M+02151KA2180N+00761MA1999999096611MD1510021+9999REMSYN130AAXX  30001 76393 32760 51103 10184 20030 39661 40244 55002 82440 92350 333 10215 20076 30/// 50361 56359 58/// 70000 82650 83356;
0217763930999992008123003004+25733-100300FM-12+051599999V0201801N001010132019N0040001N1+01561+00241102551ADDAY121031AY221031GA1071+013201061GF107991071051012501999999IA1019MA1999999096751MD1210141+0101MW1041REMSYN106AAXX  30031 76393 31640 71801 10156 20024 39675 40255 52014 70422 875// 90250 333 30/// 56399 58010 87644;
0269763930999992008123012004+25733-100300FM-12+051599999V0209999C000012200019N0080001N1+01101+00551102251ADDAA124000091AY141061AY241061GF102991001001999999001011IA1019KA1240M+02151KA2120N+00901MA1999999096411MD1999999-0401MW1051REMSYN118AAXX  30121 76393 31958 20000 10110 20055 39641 40225 5//// 70544 80001 91159 333 10215 20090 30070 56005 59040 70000;EQDQ01  00002PRCP24
0217763930999992008123015004+25733-100300FM-12+051599999V0201801N001012200019N0060001N1+01431+00341102311ADDAY141031AY241031GA1041+060001001GF104991001001999999001041IA1019MA1999999096451MD1210041-0541MW1041REMSYN106AAXX  30151 76393 31956 41801 10143 20034 39645 40231 52004 70444 80004 91455 333 30/// 56005 59054 84070;
0233763930999992008123018004+25733-100300FM-12+051599999V0200901N001012200019N0080001N1+02081+00501102161ADDAY141061AY241061GF101991001001999999001011IA1019KA1120M+02161KA2240N+00901MA1999999096331MD1710121-0591MW1041REMSYN112AAXX  30181 76393 31958 10901 10208 20050 39633 40216 57012 70444 80001 91750 333 10216 20090 30/// 56005 59059;
0214763930999992008123021004+25733-100300FM-12+051599999V0201201N001012200019N0100001N1+02321+00861101771ADDGA1021+018001041GF103991999001022501011041IA1019MA1999999095991MD1710341-0741REMSYN106AAXX  30211 76393 32860 31201 10232 20086 39599 40177 57034 80014 92050 333 30/// 56955 59074 82456 81070;EQDQ01+000002SCOTLC
0253763930999992008123100004+25733-100300FM-12+051599999V0200701N002012200019N0090001N1+02201+00821101711ADDAA124000091GF102991001001999999001041IA1019KA1120M+02381KA2180N+00901MA1999999095961MD1210031-0661REMSYN124AAXX  31001 76393 32859 20702 10220 20082 39596 40171 52003 80004 92350 333 10238 20090 30/// 50241 56995 59066 70000 82070;EQDQ01+022502SCOLCB
0217763930999992008123103004+25733-100300FM-12+051599999V0200701N001012200019N0060001N1+01801+00851101771ADDAY101031AY201031GA1021+075001001GF102991001001999999001011IA1019MA1999999096071MD1210111-0681MW1041REMSYN106AAXX  31031 76393 31956 20701 10180 20085 39607 40177 52011 70400 80001 90245 333 30/// 56005 59068 82075;
0253763930999992008123106004+25733-100300FM-12+051599999V0209999C000010075019N0040001N1+01701+01021101741ADDAY121061AY221061GF106991061051008001001001GJ103309IA1019KA1240M+02381KA2240N+00901MA1999999096041MD1710031-0631MW1041REMSYN124AAXX  31061 76393 31540 60000 10170 20102 39604 40174 57003 70422 86500 90545 333 10238 20090 30/// 55055 56300 59063 86522;
0189763930999992008123115004+25733-100300FM-12+051599999V0201801N001012200019N0100001N1+01761+01011102041ADDGA1021+060001001GF102991001001999999001041IA1019MA1999999096241MD1210251-0211REMSYN100AAXX  31151 76393 32960 21801 10176 20101 39624 40204 52025 80004 91450 333 30/// 56995 59021 82070;
0233763930999992008123118004+25733-100300FM-12+051599999V0200501N002012200019N0120001N1+02341+00971102131ADDGA1011+013501061GF103991011041012501001041IA1019KA1120M+02441KA2240N+00951MA1999999096341MD1810101+0011REMSYN118AAXX  31181 76393 32662 30502 10234 20097 39634 40213 58010 81404 91750 333 10244 20095 30/// 56359 58001 81645 82070;
0223763930999992008123121004+25733-100300FM-12+051599999V0203501N00101036001CN0120001N1+02421+00971101861ADDAY141031AY241031GA1011+014701061GF106991011051012501031011IA1019MA1999999096141MD1710201+0151MW1041REMSYN112AAXX  31211 76393 31662 63501 10242 20097 39614 40186 57020 70444 81531 92055 333 30/// 56555 58015 81649 83356;
