0262763930999992011010100004+25733-100300FM-12+051599999V0201201N002010210019N0020001N1+02441+00311100401ADDAA124000091AY141061AY221061GF108991081001022501021999IA1019KA1120M+03081KA2180N+01421MA1999999094851MD1410001+0561MW1051REMSYN130AAXX  01001 76393 31820 81202 10244 20031 39485 40040 54006 70542 8802/ 92355 333 10308 20142 30/// 5//// 56059 58056 70000 88458;
0245763930999992011010200004+25733-100300FM-12+051599999V0201101N003012200019N0020001N1+01701+00341101941ADDAY101061AY201061GF103991001001999999001061IA1019KA1120M+01841KA2180N+01341MA1999999096151MD1999999+1301MW1051REMSYN124AAXX  02001 76393 31920 31103 10170 20034 39615 40194 5//// 70500 80006 92355 333 10184 20134 30/// 50481 56005 58130 70000;
0171763930999992011010203004+25733-100300FM-12+051599999V0201101N002012200019N0010001N1+01441-00111102181ADDGA1001+999999999GF100991001001999999001001IA1019MA1999999096371MD1210221+1221REMSYN082AAXX  02031 76393 32910 01102 10144 21011 39637 40218 52022 90245 333 30/// 58122;
0251763930999992011010206004+25733-100300FM-12+051599999V0209999C000012200019N0020001N1+01261+00071102351ADDAY101061AY201061GA1001+999999999GF100991001001999999001001GJ103669IA1019KA1240M+01841KA2240N+01221MA1999999096521MD1210151+1251MW1051REMSYN106AAXX  02061 76393 31920 00000 10126 20007 39652 40235 52015 70500 90545 333 10184 20122 30/// 55061 58125;
0265763930999992011010300004+25733-100300FM-12+051599999V0201201N005012200019N0020001N1+01681+00521102091ADDAA124000091AY101061AY201061GA1001+999999999GF100991001001999999001001IA1019KA1120M+01921KA2180N+01101MA1999999096301MW1051REMSYN112AAXX  03001 76393 31920 01205 10168 20052 39630 40209 5//// 70500 92355 333 10192 20110 30/// 50631 58/// 70000;EQDQ01  00002PRCP24
0217763930999992011010303004+25733-100300FM-12+051599999V0201501N005010102019N0020001N1+01581+00751102241ADDAY121031AY221031GA1061+010201061GF106991061051012501001001IA1019MA1999999096431MD1210131+0061MW1051REMSYN106AAXX  03031 76393 31620 61505 10158 20075 39643 40224 52013 70522 86500 90255 333 30/// 56300 58006 86634;
0253763930999992011010306004+25733-100300FM-12+051599999V0201101N004012200019N0020001N1+01361+00741102211ADDAY101061AY201061GF104991041051008001001001GJ105169IA1019KA1240M+01921KA2240N+01101MA1999999096381MD1710051-0141MW1051REMSYN124AAXX  03061 76393 31520 41104 10136 20074 39638 40221 57005 70500 84500 90550 333 10192 20110 30/// 55086 56300 59014 84625;
0211763930999992011010315004+25733-100300FM-12+051599999V0201601N001010060019N0010001N1+01361+00861102271ADDAY121031AY201031GA1061+006001061GF106991061051999999001001IA1019MA1999999096251MD1410001+9999MW1041REMSYN100AAXX  03151 76393 31910 61601 10136 20086 39625 40227 54001 70420 86500 91450 333 30/// 56300 86620;
0211763930999992011010321004+25733-100300FM-12+051599999V0201201N002012200019N0010001N1+02281+01101101551ADDAY111031AY201031GA1031+014701061GF103991031061999999001001IA1019MA1999999095791MD1710351+9999MW1051REMSYN100AAXX  03211 76393 31910 31202 10228 20110 39579 40155 57035 70510 83600 92050 333 30/// 56500 83649;
0262763930999992011010400004+25733-100300FM-12+051599999V0200601N002019999999N0040001N1+02081+01091101481ADDAA124000091AY121061AY221061GF106991001001999999001021IA1019KA1120M+02381KA2180N+00641MA1999999095751MD1710041-0551MW1051REMSYN130AAXX  04001 76393 31940 60602 10208 20109 39575 40148 57004 70522 80002 92350 333 10238 20064 30/// 50191 56005 59055 70000 86070;
0234763930999992011010403004+25733-100300FM-12+051599999V0203001N002010060019N0020001N1+01821+01341101541ADDAA103001091AY121031AY221031GA1081+006001061GF108991081051004501999999IA1099MA1999999095841MD1210091-0591MW1051REMSYN112AAXX  04031 76393 21420 83002 10182 20134 39584 40154 52009 70522 885// 90255 333 31/// 565// 59059 60017 88620;
0274763930999992011010406004+25733-100300FM-12+051599999V0201201N002012200019N0020001N1+01681+01421101511ADDAA106001091AY101061AY201061GA1001+999999999GF100991001001999999001001GJ105289IA1099KA1240M+02381KA2240N+00641MA1999999095821MD1710021-0561MW1051REMSYN118AAXX  04061 76393 01920 01202 10168 20142 39582 40151 57002 60011 70500 90550 333 10238 20064 31/// 55088 59056 60007;
0217763930999992011010409004+25733-100300FM-12+051599999V0209999C000010015019N0010001N1+01501+01371101491ADDAY141031AY241031GA1051+001501071GF105991051071001501001001IA1019MA1999999095761MD1710061+9999MW1051REMSYN106AAXX  04091 76393 31210 50000 10150 20137 39576 40149 57006 70544 85700 90850 333 30/// 56300 58/// 85705;
0272763930999992011010412004+25733-100300FM-12+051599999V0202501N001012200019N0006001N1+01461+01191101501ADDAA124000891AY141061AY241061GA1031+003301071GF103991031071004501001001IA1019KA1240M+02381KA2120N+01301MA1999999095741MD1710021+9999MW1051REMSYN124AAXX  04121 76393 31406 32501 10146 20119 39574 40150 57002 70544 83700 91145 333 10238 20130 30124 56300 58/// 70008 83711;
0199763930999992011010503004+25733-100300FM-12+051599999V0201301N001012200019N0020001N1+02021+01491101361ADDAY101031AY201031GA1001+999999999GF100991001001999999001001IA1019MA1999999095711MD1210071-0131MW1051REMSYN088AAXX  05031 76393 31920 01301 10202 20149 39571 40136 52007 70500 90250 333 30/// 59013;
0251763930999992011010506004+25733-100300FM-12+051599999V0202001N001012200019N0020001N1+01801+01421101351ADDAY101061AY201061GA1001+999999999GF100991001001999999001001GJ104389IA1019KA1240M+02661KA2240N+01301MA1999999095701MD1710011-0121MW1051REMSYN106AAXX  05061 76393 31920 02001 10180 20142 39570 40135 57001 70500 90550 333 10266 20130 30/// 55073 59012;
0189763930999992011010515004+25733-100300FM-12+051599999V0200501N002012200019N0010001N1+01841+01361101901ADDAY101031AY201031GF102991001001999999031011IA1019MA1999999095911MD1210171+9999MW1041REMSYN094AAXX  05151 76393 31910 20502 10184 20136 39591 40190 52017 70400 80031 91450 333 30/// 56051;
0237763930999992011010518004+25733-100300FM-12+051599999V0200201N001012200019N0010001N1+02501+01301101691ADDAY101061AY201061GA1001+999999999GF100991001001999999001001IA1019KA1120M+02661KA2240N+01021MA1999999095961MD1210051+0051MW1041REMSYN100AAXX  05181 76393 31910 00201 10250 20130 39596 40169 52005 70400 91750 333 10266 20102 30/// 58005;
0193763930999992011010521004+25733-100300FM-12+051599999V0200301N002012200019N0010001N1+02621+01131101331ADDAY101031AY201031GA1001+999999999GF100991001001999999001001IA1019MA1999999095681MD1710281+9999MW1041REMSYN082AAXX  05211 76393 31910 00302 10262 20113 39568 40133 57028 70400 92050 333 30///;
0279763930999992011010600004+25733-100300FM-12+051599999V0200601N001012200019N0030001N1+02421+01081101431ADDAA124000091AY101061AY201061GA1001+999999999GF100991001001999999001001IA1019KA1120M+02801KA2180N+01101MA1999999095791MD1210111+0151MW1051REMSYN112AAXX  06001 76393 31930 00601 10242 20108 39579 40143 52011 70500 92355 333 10280 20110 30/// 50191 58015 70000;EQDQ01  00002PRCP24
0199763930999992011010603004+25733-100300FM-12+051599999V0202201N001012200019N0020001N1+02101+01261101571ADDAY101031AY201031GA1001+999999999GF100991001001999999001001IA1019MA1999999095941MD1210151+0231MW1051REMSYN088AAXX  06031 76393 31920 02201 10210 20126 39594 40157 52015 70500 90250 333 30/// 58023;
0247763930999992011010606004+25733-100300FM-12+051599999V0201801N001012200019N0020001N1+01881+01191101641ADDAY101061AY201061GF103991031001999999041001GJ105109IA1019KA1240M+02801KA2240N+01101MA1999999096001MD1210061+9999MW1051REMSYN118AAXX  06061 76393 31920 31801 10188 20119 39600 40164 52006 70500 83040 90550 333 10280 20110 30/// 55085 56070 58030;
0199763930999992011010615004+25733-100300FM-12+051599999V0201801N001012200019N0010001N1+01821+01081102211ADDAY101031AY201031GA1001+999999999GF100991001001999999001001IA1019MA1999999096201MD1210101+0291MW1041REMSYN088AAXX  06151 76393 31910 01801 10182 20108 39620 40221 52010 70400 91450 333 30/// 58029;
0274763930999992011010618004+25733-100300FM-12+051599999V0201201N001012200019N0010001N1+02341+01181101831ADDAY101061AY201061GA1011+014401031GF101991999001999999031001IA1019KA1120M+02781KA2240N+01461MA1999999096111MD1710091+0151MW1041REMSYN118AAXX  06181 76393 31910 11201 10234 20118 39611 40183 57009 70400 80030 91750 333 10278 20146 30/// 56010 58015 81348;EQDQ01+000002SCOTLC
0211763930999992011010621004+25733-100300FM-12+051599999V0200901N002010300019N0010001N1+02621+01141101501ADDAY121031AY221031GA1051+030001041GF105991051001999999011001IA1019MA1999999095841MD1710261+9999MW1041REMSYN100AAXX  06211 76393 31910 50902 10262 20114 39584 40150 57026 70422 85010 92050 333 30/// 56010 85460;
0262763930999992011010700004+25733-100300FM-12+051599999V0201101N003019999999N0010001N1+02461+00871101441ADDAA124000091AY121061AY221061GF107991001001999999001061IA1019KA1120M+02761KA2180N+01461MA1999999095811MD1710031+0021MW1051REMSYN130AAXX  07001 76393 31910 71103 10246 20087 39581 40144 57003 70522 80006 92350 333 10276 20146 30/// 50481 56605 58002 70000 87070;
0195763930999992011010703004+25733-100300FM-12+051599999V0200701N002012200019N0020001N1+02101+00721101601ADDAY101031AY201031GF102991021001999999041001IA1019MA1999999095971MD1210161+0031MW1051REMSYN100AAXX  07031 76393 31920 20702 10210 20072 39597 40160 52016 70500 82040 90250 333 30/// 56070 58003;
0251763930999992011010706004+25733-100300FM-12+051599999V0200701N001012200019N0020001N1+01801+00771101551ADDAY101061AY201061GA1001+999999999GF100991001001999999001001GJ104689IA1019KA1240M+02761KA2240N+01461MA1999999095921MD1710051-0081MW1051REMSYN106AAXX  07061 76393 31920 00701 10180 20077 39592 40155 57005 70500 90550 333 10276 20146 30/// 55078 59008;
0189763930999992011010715004+25733-100300FM-12+051599999V0202001N001012200019N0010001N1+01801+00941101351ADDAY101031AY201031GF102991021001999999041001IA1019MA1999999095621MD1710061+9999MW1041REMSYN094AAXX  07151 76393 31910 22001 10180 20094 39562 40135 57006 70400 82040 91450 333 30/// 56070;
0255763930999992011010718004+25733-100300FM-12+051599999V0200801N001012200019N0010001N1+02281+01061101151ADDAY101061AY201061GA1041+030001031GF104991041001999999041001IA1019KA1120M+02421KA2240N+01501MA1999999095421MD1710201-0681MW1041REMSYN118AAXX  07181 76393 31910 40801 10228 20106 39542 40115 57020 70400 84040 91750 333 10242 20150 30/// 56070 59068 84360;
0217763930999992011010721004+25733-100300FM-12+051599999V0201201N003019999999N0010001N1+02821+01081100631ADDAY121031AY221031GA1011+021001081GF106991011011999999001081IA1019MA1999999094981MD1710441+9999MW1041REMSYN106AAXX  07211 76393 31910 61203 10282 20108 39498 40063 57044 70422 81108 92050 333 30/// 56507 81857 85260;
0262763930999992011010800004+25733-100300FM-12+051599999V0200901N003019999999N0010001N1+02601+00981100571ADDAA124000091AY121061AY221061GF107991001001999999001061IA1019KA1120M+02901KA2180N+01501MA1999999094981MD1410001-0831MW1051REMSYN130AAXX  08001 76393 31910 70903 10260 20098 39498 40057 54000 70522 80006 92345 333 10290 20150 30/// 50471 56005 59083 70000 86070;
0195763930999992011010803004+25733-100300FM-12+051599999V0209999C000012200019N0010001N1+02221+01141100621ADDAY101031AY201031GF103991031001999999011001IA1019MA1999999095061MD1210081-0911MW1051REMSYN100AAXX  08031 76393 31910 30000 10222 20114 39506 40062 52008 70500 83010 90250 333 30/// 56070 59091;
0251763930999992011010806004+25733-100300FM-12+051599999V0203501N001012200019N0010001N1+01921+01341100661ADDAY101061AY201061GA1001+999999999GF100991001001999999001001GJ104989IA1019KA1240M+02901KA2240N+01501MA1999999095091MD1410001-0831MW1051REMSYN106AAXX  08061 76393 31910 03501 10192 20134 39509 40066 54000 70500 90550 333 10290 20150 30/// 55083 59083;
0261763930999992011010818004+25733-100300FM-12+051599999V0201201N00601220001CN0010001N1+02441+01411100771ADDAY121061AY221061GA1011+012601081GF107991011011012501001011IA1019KA1120M+02581KA2240N+01581MA1999999095111MD1999999-0321MW1051REMSYN124AAXX  08181 76393 31610 71206 10244 20141 39511 40077 5//// 70522 81101 91750 333 10258 20158 30/// 56305 59032 81842 86070;
0195763930999992011010821004+25733-100300FM-12+051599999V0201101N00501036001CN0010001N1+02581+01441100301ADDGA1011+014101081GF107991011021012501011081IA1019MA1999999094701MD1710411-0281REMSYN106AAXX  08211 76393 32610 71105 10258 20144 39470 40030 57041 81218 92050 333 30/// 56355 59028 81847 85270;
0262763930999992011010900004+25733-100300FM-12+051599999V0200901N003010075019N0010001N1+02221+01541100241ADDAA124000091AY121061AY221061GF107991051051008001001011IA1019KA1120M+02721KA2180N+01581MA1999999094671MD1710031-0311MW1051REMSYN130AAXX  09001 76393 31510 70903 10222 20154 39467 40024 57003 70522 85501 92350 333 10272 20158 30/// 50411 56305 59031 70000 85628;
0217763930999992011010903004+25733-100300FM-12+051599999V0201201N006010057019N0010001N1+02101+01641100211ADDAY121031AY221031GA1071+005701061GF107991071051004501001001IA1019MA1999999094661MD1710011-0431MW1051REMSYN106AAXX  09031 76393 31410 71206 10210 20164 39466 40021 57001 70522 87500 90250 333 30/// 56300 59043 87619;
0253763930999992011010906004+25733-100300FM-12+051599999V0201201N003012200019N0010001N1+01921+01611100151ADDAY101061AY201061GF102991021041004501001001GJ104149IA1019KA1240M+02721KA2240N+01581MA1999999094591MD1710071-0501MW1051REMSYN124AAXX  09061 76393 31410 21203 10192 20161 39459 40015 57007 70500 82400 90550 333 10272 20158 30/// 55069 56300 59050 82613;
0199763930999992011011003004+25733-100300FM-12+051599999V0201001N001012200019N0020001N1+01981+01021101011ADDAY101031AY201031GA1001+999999999GF100991001001999999001001IA1019MA1999999095371MD1210231+0711MW1051REMSYN088AAXX  10031 76393 31920 01001 10198 20102 39537 40101 52023 70500 90250 333 30/// 58071;
0251763930999992011011006004+25733-100300FM-12+051599999V0202101N001012200019N0020001N1+01661+00541101051ADDAY101061AY201061GA1001+999999999GF100991001001999999001001GJ105229IA1019KA1240M+02801KA2240N+01661MA1999999095371MD1410001+0781MW1051REMSYN106AAXX  10061 76393 31920 02101 10166 20054 39537 40105 54000 70500 90550 333 10280 20166 30/// 55087 58078;
0193763930999992011011015004+25733-100300FM-12+051599999V0203001N002012200019N0010001N1+99999+99999101431ADDAY101031AY201031GA1001+999999999GF100991001001999999001001IA1019MA1999999095621MD1210141+9999MW1041REMSYN082AAXX  10151 76393 31910 03002 20054 39562 40143 52014 70400 91450 333 30/// 58///;
0237763930999992011011018004+25733-100300FM-12+051599999V0203501N002012200019N0010001N1+02101+00681101331ADDAY101061AY201061GA1001+999999999GF100991001001999999001001IA1019KA1120M+02261KA2240N+01121MA1999999095561MD1710061+9999MW1041REMSYN100AAXX  10181 76393 31910 03502 10210 20068 39556 40133 57006 70400 91750 333 10226 20112 30/// 58///;
0199763930999992011011021004+25733-100300FM-12+051599999V0200901N003012200019N0010001N1+02401+01081101111ADDAY101031AY201031GA1001+999999999GF100991001001999999001001IA1019MA1999999095381MD1710181+9999MW1041REMSYN088AAXX  10211 76393 31910 00903 10240 20108 39538 40111 57018 70400 92050 333 30/// 58///;
0207763930999992011011100004+25733-100300FM-12+051599999V0200901N002012200019N0010001N1+02481+00711999999ADDGA1001+999999999GF100991001001999999001001KA1120M+02781KA2180N+01121MD1999999+0401REMSYN113AAXX  11001 76393 31910 00902 10248 20071 3 39554 40120 52016 7040 92350 333 10278 20112 30/// 50381 58040 70000;
0251763930999992011011106004+25733-100300FM-12+051599999V0201201N004012200019N0010001N1+01721+01151101741ADDAY101061AY201061GA1001+999999999GF100991001001999999001001GJ105229IA1019KA1240M+02781KA2240N+01121MA1999999096081MD1210291+0711MW1051REMSYN106AAXX  11061 76393 31910 01204 10172 20115 39608 40174 52029 70500 90550 333 10278 20112 30/// 55087 58071;
0172763930999992011011200004+25733-100300FM-12+051599999V0203301N001019999999N0003001N1+00581+00451103381ADDAA106001091AY141061AY241061GF108991999999001501999999MA1999999097301MD1210091+9999MW1051REMSYN072AAXX  12001 76393 01203 83301 10058 20045 39730 40338 52009 60011 70544;
0234763930999992011011203004+25733-100300FM-12+051599999V0200401N001010009019N0003001N1+00561+00481103531ADDAA103000991AY151031AY221031GA1081+000901071GF108991081071000751999999IA1099MA1999999097441MD1210141+1651MW1501REMSYN112AAXX  12031 76393 21103 80401 10056 20048 39744 40353 52014 75052 887// 90250 333 31/// 568// 58165 69997 88703;
0172763930999992011011206004+25733-100300FM-12+051599999V0201201N002019999999N0003001N1+00521+00481103491ADDAA106000591AY151061AY221061GF108991999999000251999999MA1999999097401MD1710041+9999MW1501REMSYN072AAXX  12061 76393 01003 81202 10052 20048 39740 40349 57004 69941 75052;
0172763930999992011011218004+25733-100300FM-12+051599999V0200801N002019999999N0003001N1+00361+00311103811ADDAA106002091AY151061AY251061GF108991999999000751999999MA1999999097671MD1410001+9999MW1501REMSYN072AAXX  12181 76393 01103 80802 10036 20031 39767 40381 54000 60021 75055;
0234763930999992011011221004+25733-100300FM-12+051599999V0200901N002010012019N0003001N1+00401+00311103471ADDAA103002091AY151031AY251031GA1081+001201071GF108991081071001501999999IA1119MA1999999097331MD1710031+0121MW1501REMSYN112AAXX  12211 76393 21203 80902 10040 20031 39733 40347 57003 75055 887// 92050 333 32/// 568// 58012 60027 88704;
0172763930999992011011300004+25733-100300FM-12+051599999V0200701N003019999999N0002001N1+00421+00381103491ADDAA106003091AY151061AY251061GF108991999999000251999999MA1999999097361MD1210031+9999MW1501REMSYN072AAXX  13001 76393 01002 80703 10042 20038 39736 40349 52003 60031 75055;
0234763930999992011011303004+25733-100300FM-12+051599999V0201201N003010006019N0002001N1+00401+00351103531ADDAA103000191AY151031AY251031GA1081+000601071GF108991081071000751999999IA1119MA1999999097401MD1210041-0041MW1051REMSYN112AAXX  13031 76393 21102 81203 10040 20035 39740 40353 52004 70555 887// 90250 333 32/// 563// 59004 69917 88702;
0172763930999992011011306004+25733-100300FM-12+051599999V0201201N002019999999N0002001N1+00321+00271103531ADDAA106000391AY151061AY251061GF108991999999000751999999MA1999999097401MD1410001+9999MW1501REMSYN072AAXX  13061 76393 01102 81202 10032 20027 39740 40353 54000 69931 75055;
0234763930999992011011321004+25733-100300FM-12+051599999V0200401N001010042019N0005001N1+00801+00481103201ADDAA103000021AY121031AY221031GA1081+004201061GF108991081061004501999999IA1099MA1999999097081MD1710381-0251MW1501REMSYN112AAXX  13211 76393 21405 80401 10080 20048 39708 40320 57038 75022 886// 92050 333 31/// 568// 59025 69907 88614;
0262763930999992011011400004+25733-100300FM-12+051599999V0200901N002010042019N0005001N1+00701+00531103131ADDAA124005291AY121061AY221061GF108991081071004501999999IA1099KA1120M+00851KA2180N+00201MA1999999097051MD1710041-0311MW1021REMSYN130AAXX  14001 76393 31405 80902 10070 20053 39705 40313 57004 70222 887// 92350 333 10085 20020 31/// 50031 568// 59031 70052 88705;
0231763930999992011011403004+25733-100300FM-12+051599999V0201201N002019999999N0003001N1+00621+00541103131ADDAA103000991AY151031AY251031GF108991999021000751051001MA1999999097071MD1210021-0331MW1501REMSYN112AAXX  14031 76393 21103 81202 10062 20054 39707 40313 52002 75055 80250 887// 333 31/// 568// 59033 69997 88703;EQDQ01+000002SCOTLC
0180763930999992011011406004+25733-100300FM-12+051599999V0200901N001019999999N0001001N1+00521+00481103051ADDAY151061AY251061GF108991999999000251999999MA1999999097001MD1710071+9999MW1501REMSYN072AAXX  14061 76393 01001 80901 10052 20048 39700 40305 57007 69911 75055;EQDQ01  00002PRCP06
0234763930999992011011415004+25733-100300FM-12+051599999V0201101N002010006019N0003001N1+00781+00661102681ADDAA106000991AY151031AY251031GA1081+000601071GF108991081071000751999999IA1099MA1999999096641MD1999999-0921MW1501REMSYN112AAXX  14151 76393 21103 81102 10078 20066 39664 40268 5//// 75055 887// 91450 333 31/// 568// 59092 69991 88702;
0255763930999992011011418004+25733-100300FM-12+051599999V0200801N002010036019N0003001N1+01061+00761102471ADDAY141061AY241061GA1081+003601071GF108991081071004501999999IA1099KA1120M+01101KA2240N+00521MA1999999096451MD1710191-1011MW1051REMSYN118AAXX  14181 76393 31403 80802 10106 20076 39645 40247 57019 70544 887// 91750 333 10110 20052 31/// 568// 59101 88712;
0217763930999992011011421004+25733-100300FM-12+051599999V0201201N001010048019N0003001N1+01241+00841102011ADDAY141031AY241031GA1071+004801061GF107991071061004501999999IA1019MA1999999096051MD1710411-1041MW1051REMSYN106AAXX  14211 76393 31403 71201 10124 20084 39605 40201 57041 70544 876// 92050 333 30/// 561// 59104 87616;
0262763930999992011011500004+25733-100300FM-12+051599999V0200401N003010021019N0001001N1+01041+00821101941ADDAA124000191AY141061AY241061GF108991081061002501999999IA1019KA1120M+01321KA2180N+00551MA1999999096021MD1710031-1031MW1051REMSYN130AAXX  15001 76393 31301 80403 10104 20082 39602 40194 57003 70544 886// 92350 333 10132 20055 30/// 50071 561// 59103 70001 88709;
0253763930999992011011521004+25733-100300FM-12+051599999V0200101N001010024019N0008001N1+01201+00991101881ADDAA103000091AY141031AY241031GA1081+002401071GF108991081071002501999999IA1099MA1999999095971MD1710261-0081MW1051REMSYN112AAXX  15211 76393 21308 80101 10120 20099 39597 40188 57026 70544 887// 92050 333 31/// 568// 59008 69907 88708;EQDQ01  00002PRCP03
0262763930999992011011600004+25733-100300FM-12+051599999V0203601N001010042019N0008001N1+01241+00921101861ADDAA124001891AY141061AY241061GF108991081071004501999999IA1019KA1120M+01341KA2180N+00801MA1999999095971MD1410001-0051MW1051REMSYN130AAXX  16001 76393 31408 83601 10124 20092 39597 40186 54000 70544 887// 92350 333 10134 20080 30/// 50031 568// 59005 70018 88713;
0217763930999992011011603004+25733-100300FM-12+051599999V0200201N001010030019N0008001N1+01181+00931101951ADDAY141031AY241031GA1081+003001071GF108991081071004501999999IA1019MA1999999096071MD1210101+9999MW1051REMSYN106AAXX  16031 76393 31408 80201 10118 20093 39607 40195 52010 70544 887// 90250 333 30/// 568// 58/// 88710;
0253763930999992011011606004+25733-100300FM-12+051599999V0201601N001010021019N0010001N1+01141+00921101821ADDAY121061AY221061GF108991081071002501999999GJ100009IA1019KA1240M+01341KA2240N+00801MA1999999095951MD1710121+9999MW1051REMSYN124AAXX  16061 76393 31310 81601 10114 20092 39595 40182 57012 70522 887// 90550 333 10134 20080 30/// 55000 568// 58/// 88709;
0237763930999992011011618004+25733-100300FM-12+051599999V0201901N001012200019N0005001N1+01561+01081101701ADDAY141061AY241061GA1001+999999999GF100991001001999999001001IA1019KA1120M+01701KA2240N+00841MA1999999095831MD1210021-0401MW1051REMSYN100AAXX  16181 76393 31905 01901 10156 20108 39583 40170 52002 70544 91745 333 10170 20084 30/// 59040;
0195763930999992011011703004+25733-100300FM-12+051599999V0209999C000012200019N0010001N1+01461+01191101371ADDAY101031AY201031GF103991031001999999011001IA1019MA1999999095611MD1210131-0461MW1051REMSYN100AAXX  17031 76393 31910 30000 10146 20119 39561 40137 52013 70500 83010 90250 333 30/// 56050 59046;
0251763930999992011011706004+25733-100300FM-12+051599999V0201901N001012200019N0010001N1+01361+01081101451ADDAY101061AY201061GA1001+999999999GF100991001001999999001001GJ104629IA1019KA1240M+02181KA2240N+00841MA1999999095691MD1210081-0261MW1051REMSYN106AAXX  17061 76393 31910 01901 10136 20108 39569 40145 52008 70500 90550 333 10218 20084 30/// 55077 59026;
0183763930999992011011715004+25733-100300FM-12+051599999V0201701N001012200019N0003001N1+01421+00811101361ADDAY141031AY241031GF102991001001999999001081MA1999999095501MD1210061-0321MW1051REMSYN094AAXX  17151 76393 31903 21701 10142 20081 39550 40136 52006 70544 80008 91450 333 56700 59032;
0233763930999992011011718004+25733-100300FM-12+051599999V0200401N001012200019N0003001N1+02101+01031101191ADDAY141061AY241061GF102991021001999999021001IA1019KA1120M+02201KA2240N+00111MA1999999095381MD1710121-0451MW1041REMSYN112AAXX  17181 76393 31903 20401 10210 20103 39538 40119 57012 70444 82020 91750 333 10220 20011 30/// 56070 59045;
0199763930999992011011721004+25733-100300FM-12+051599999V0201201N002012200019N0010001N1+02601+00981100611ADDAY141031AY241031GA1001+999999999GF100991001001999999001001IA1019MA1999999094891MD1710491-0551MW1051REMSYN088AAXX  17211 76393 31910 01202 10260 20098 39489 40061 57049 70544 92050 333 30/// 59055;
0279763930999992011011800004+25733-100300FM-12+051599999V0201201N001012200019N0030001N1+02401+00961100421ADDAA124000091AY101061AY201061GA1001+999999999GF100991001001999999001001IA1019KA1120M+02741KA2180N+01101MA1999999094781MD1710111-0701MW1051REMSYN112AAXX  18001 76393 31930 01201 10240 20096 39478 40042 57011 70500 92350 333 10274 20110 30/// 50201 59070 70000;EQDQ01  00002PRCP24
0199763930999992011011803004+25733-100300FM-12+051599999V0202101N001012200019N0010001N1+01941+00781100521ADDAY101031AY201031GA1001+999999999GF100991001001999999001001IA1019MA1999999094921MD1210141-0691MW1051REMSYN088AAXX  18031 76393 31910 02101 10194 20078 39492 40052 52014 70500 90250 333 30/// 59069;
0251763930999992011011806004+25733-100300FM-12+051599999V0202901N001012200019N0010001N1+01521+00841100571ADDAY101061AY201061GA1001+999999999GF100991001001999999001001GJ104989IA1019KA1240M+02741KA2240N+01101MA1999999094951MD1210031-0741MW1051REMSYN106AAXX  18061 76393 31910 02901 10152 20084 39495 40057 52003 70500 90550 333 10274 20110 30/// 55083 59074;
0199763930999992011011815004+25733-100300FM-12+051599999V0202501N002012200019N0003001N1+01901+00581101101ADDAY141031AY241031GA1001+999999999GF100991001001999999001001IA1019MA1999999095311MD1210391-0191MW1041REMSYN088AAXX  18151 76393 31903 02502 10190 20058 39531 40110 52039 70444 91750 333 30/// 59019;
0199763930999992011011821004+25733-100300FM-12+051599999V0200501N002012200019N0020001N1+03001+00411100971ADDAY101031AY201031GA1001+999999999GF100991001001999999001001IA1019MA1999999095331MD1710081+0441MW1041REMSYN088AAXX  18211 76393 31920 00502 10300 20041 39533 40097 57008 70400 92050 333 30/// 58044;
0279763930999992011011900004+25733-100300FM-12+051599999V0200601N002012200019N0030001N1+02441+00381101171ADDAA124000091AY101061AY201061GA1001+999999999GF100991001001999999001001IA1019KA1120M+03141KA2180N+01481MA1999999095581MD1210251+0801MW1051REMSYN112AAXX  19001 76393 31930 00602 10244 20038 39558 40117 52025 70500 92355 333 10314 20148 30/// 50611 58080 70000;EQDQ01  00002PRCP24
0199763930999992011011903004+25733-100300FM-12+051599999V0209999C000012200019N0020001N1+02021+00801101441ADDAY101031AY201031GA1001+999999999GF100991001001999999001001IA1019MA1999999095851MD1210271+0931MW1051REMSYN088AAXX  19031 76393 31920 00000 10202 20080 39585 40144 52027 70500 90250 333 30/// 58093;
0251763930999992011011906004+25733-100300FM-12+051599999V0201401N006012200019N0020001N1+01901+00631101571ADDAY101061AY201061GA1001+999999999GF100991001001999999001001GJ105289IA1019KA1240M+03141KA2240N+01481MA1999999095931MD1210081+0981MW1051REMSYN106AAXX  19061 76393 31920 01406 10190 20063 39593 40157 52008 70500 90550 333 10314 20148 30/// 55088 58098;
0217763930999992011011915004+25733-100300FM-12+051599999V0200501N002012200019N0003001N1+01421+01181101711ADDAY141031AY241031GA1031+002701041GF103991031001002501011001IA1019MA1999999095921MD1210051+0611MW1041REMSYN106AAXX  19151 76393 31303 30502 10142 20118 39592 40171 52005 70444 83010 91450 333 30/// 56010 58061 83409;
0255763930999992011011918004+25733-100300FM-12+051599999V0200901N003012200019N0003001N1+01641+01171101571ADDAY141061AY241061GA1041+005701061GF104991041061004501001001IA1019KA1120M+01761KA2240N+01221MA1999999095791MD1710131+0381MW1041REMSYN118AAXX  19181 76393 31403 40903 10164 20117 39579 40157 57013 70444 84600 91750 333 10176 20122 30/// 56100 58038 84619;
0199763930999992011011921004+25733-100300FM-12+051599999V0201101N002012200019N0005001N1+01861+01241101111ADDAY141031AY241031GA1001+999999999GF100991001001999999001001IA1019MA1999999095361MD1710431+0031MW1041REMSYN088AAXX  19211 76393 31905 01102 10186 20124 39536 40111 57043 70444 92050 333 30/// 58003;
0218763930999992011012003004+25733-100300FM-12+051599999V0200201N001012200019N0010001N1+01681+01221999999ADDAY101031AY201031GA1001+999999999GF100991001001999999001001IA1019MA1999999095261MD1210031-0591MW1051REMSYN088AAXX  20031 76393 31910 00201 10168 20122 39526 40521 52003 70500 90250 333 30/// 59059;EQDQ01 105213APOSLP
0270763930999992011012006004+25733-100300FM-12+051599999V0209999C000012200019N0010001N1+01501+01201100932ADDAY101061AY201061GA1001+999999999GF100991001001999999001001GJ105289IA1019KA1240M+02021KA2240N+01221MA1999999095221MD1710041-0711MW1051REMSYN106AAXX  20061 76393 31910 00000 10150 20120 39522 40093 57004 70500 90550 333 10202 20122 30/// 55088 59071;EQDQ01+100933APOSLP
0195763930999992011012015004+25733-100300FM-12+051599999V0203401N002012200019N0010001N1+01621+01001101181ADDAY141031AY241031GF103991001001999999001091IA1019MA1999999095411MD1210351-0511MW1051REMSYN100AAXX  20151 76393 31910 33402 10162 20100 39541 40118 52035 70544 80009 91450 333 30/// 56007 59051;
0237763930999992011012018004+25733-100300FM-12+051599999V0201101N001012200019N0003001N1+02681+00731101191ADDAY101061AY201061GA1001+999999999GF100991001001999999001001IA1019KA1120M+02861KA2240N+01281MA1999999095461MD1210051-0341MW1051REMSYN100AAXX  20181 76393 31903 01101 10268 20073 39546 40119 52005 70500 91750 333 10286 20128 30/// 59034;
0217763930999992011012021004+25733-100300FM-12+051599999V0200101N005012200019N0010001N1+02081+01161101431ADDAY111031AY211031GA1021+011401081GF102991021011012501001001IA1019MA1999999095721MD1210261+0361MW1051REMSYN106AAXX  20211 76393 31610 20105 10208 20116 39572 40143 52026 70511 82100 92045 333 30/// 56300 58036 82838;
0262763930999992011012100004+25733-100300FM-12+051599999V0203601N002012200019N0005001N1+01341+00631101791ADDAA124000091AY121061AY221061GF104991011051008001021001IA1019KA1120M+03021KA2180N+01281MA1999999096071MD1210351+0841MW1051REMSYN130AAXX  21001 76393 31505 43602 10134 20063 39607 40179 52035 70522 81520 92350 333 10302 20128 30/// 50251 56830 58084 70000 81629;
0217763930999992011012103004+25733-100300FM-12+051599999V0200401N001012200019N0010001N1+01001+00191102211ADDAY101031AY201031GA1021+009901061GF102991021041008001001001IA1019MA1999999096451MD1210381+1191MW1051REMSYN106AAXX  21031 76393 31510 20401 10100 20019 39645 40221 52038 70500 82400 90250 333 30/// 56800 58119 82633;
0251763930999992011012106004+25733-100300FM-12+051599999V0203201N002012200019N0010001N1+00821+00171102391ADDAY101061AY201061GA1001+999999999GF100991001001999999001001GJ104449IA1019KA1240M+03021KA2240N+00821MA1999999096541MD1210091+1321MW1051REMSYN106AAXX  21061 76393 31910 03202 10082 20017 39654 40239 52009 70500 90550 333 10302 20082 30/// 55074 58132;
0199763930999992011012115004+25733-100300FM-12+051599999V0209999C000012200019N0010001N1+00721-00211102061ADDAY141031AY241031GA1001+999999999GF100991001001999999001001IA1019MA1999999096091MD1710191+0681MW1051REMSYN088AAXX  21151 76393 31910 00600 10072 21021 39609 40206 57019 70544 91450 333 30/// 58068;
0237763930999992011012118004+25733-100300FM-12+051599999V0203001N002012200019N0010001N1+01181-00041101971ADDAY101061AY201061GA1001+999999999GF100991001001999999001001IA1019KA1120M+01321KA2240N+00541MA1999999096021MD1710071+0561MW1061REMSYN100AAXX  21181 76393 31910 03002 10118 21004 39602 40197 57007 70600 91750 333 10132 20054 30/// 58056;
0199763930999992011012121004+25733-100300FM-12+051599999V0201301N003012200019N0010001N1+01761+00211101351ADDAY101031AY201031GA1001+999999999GF100991001001999999001001IA1019MA1999999095481MD1710541-0241MW1061REMSYN088AAXX  21211 76393 31910 01303 10176 20021 39548 40135 57054 70600 92050 333 30/// 59024;
0279763930999992011012200004+25733-100300FM-12+051599999V0201101N002012200019N0010001N1+01621+00331101271ADDAA124000091AY101061AY201061GA1001+999999999GF100991001001999999001001IA1019KA1120M+01921KA2180N+00541MA1999999095451MD1710031-0621MW1051REMSYN112AAXX  22001 76393 31910 01102 10162 20033 39545 40127 57003 70500 92350 333 10192 20054 30/// 50331 59062 70000;EQDQ01  00002PRCP24
0199763930999992011012215004+25733-100300FM-12+051599999V0209999C000012200019N0005001N1+01001+00251102071ADDAY141031AY241031GA1001+999999999GF100991001001999999001001IA1019MA1999999096141MD1210071+0051MW1051REMSYN088AAXX  22151 76393 31905 00000 10100 20025 39614 40207 52007 70544 91445 333 30/// 58005;
0237763930999992011012218004+25733-100300FM-12+051599999V0201201N006012200019N0010001N1+01821+00141101911ADDAY101061AY201061GA1001+999999999GF100991001001999999001001IA1019KA1120M+01941KA2240N+00641MA1999999096021MD1710121+0001MW1061REMSYN100AAXX  22181 76393 31910 01206 10182 20014 39602 40191 57012 70600 91745 333 10194 20064 30/// 58000;
0279763930999992011012300004+25733-100300FM-12+051599999V0201301N005012200019N0030001N1+01821+00201101241ADDAA124000091AY101061AY201061GA1001+999999999GF100991001001999999001001IA1019KA1120M+02141KA2180N+00641MA1999999095431MD1999999-0021MW1051REMSYN112AAXX  23001 76393 31930 01305 10182 20020 39543 40124 5//// 70500 92355 333 10214 20064 30/// 50551 59002 70000;EQDQ01  00002PRCP24
0199763930999992011012303004+25733-100300FM-12+051599999V0201201N005012200019N0010001N1+01521+00341101191ADDAY101031AY201031GA1001+999999999GF100991001001999999001001IA1019MA1999999095461MD1210031+9999MW1051REMSYN088AAXX  23031 76393 31910 01205 10152 20034 39546 40119 52003 70500 90250 333 30/// 58///;
0251763930999992011012306004+25733-100300FM-12+051599999V0200901N002012200019N0010001N1+01141+00371101151ADDAY101061AY201061GA1001+999999999GF100991001001999999001001GJ105289IA1019KA1240M+02141KA2240N+00641MA1999999095411MD1710051+9999MW1051REMSYN106AAXX  23061 76393 31910 00902 10114 20037 39541 40115 57005 70500 90550 333 10214 20064 30/// 55088 58///;
0279763930999992011012400004+25733-100300FM-12+051599999V0200201N003012200019N0020001N1+01881+00501101141ADDAA124000091AY101061AY201061GA1001+999999999GF100991001001999999001001IA1019KA1120M+02601KA2180N+00701MA1999999095451MD1999999+0021MW1051REMSYN112AAXX  24001 76393 31920 00203 10188 20050 39545 40114 5//// 70500 92355 333 10260 20070 30/// 50351 58002 70000;EQDQ01  00002PRCP24
0199763930999992011012403004+25733-100300FM-12+051599999V0200201N002012200019N0010001N1+01481+00741101621ADDAY101031AY201031GA1001+999999999GF100991001001999999001001IA1019MA1999999095861MD1210411+0401MW1051REMSYN088AAXX  24031 76393 31910 00202 10148 20074 39586 40162 52041 70500 90250 333 30/// 58040;
0251763930999992011012406004+25733-100300FM-12+051599999V0209999C000012200019N0010001N1+01361+00611101611ADDAY101061AY201061GA1001+999999999GF100991001001999999001001GJ105349IA1019KA1240M+02601KA2240N+00701MA1999999095821MD1710041+0411MW1051REMSYN106AAXX  24061 76393 31910 00000 10136 20061 39582 40161 57004 70500 90550 333 10260 20070 30/// 55089 58041;
0203763930999992011012415004+25733-100300FM-12+051599999V0200501N001012200019N0010001N1+01261+00551101711ADDAY121031AY221031GA1041+030001031GF104991041001999999041001IA1019MA1999999095851MW1051REMSYN106AAXX  24151 76393 31910 40501 10126 20055 39585 40171 5//// 70522 84040 91450 333 30/// 56070 58/// 84360;
0237763930999992011012418004+25733-100300FM-12+051599999V0201101N002012200019N0010001N1+01761+00581101581ADDAY101061AY201061GA1001+999999999GF100991001001999999001001IA1019KA1120M+01881KA2240N+01101MA1999999095761MD1710091+9999MW1051REMSYN100AAXX  24181 76393 31910 01102 10176 20058 39576 40158 57009 70500 91750 333 10188 20110 30/// 58///;
0199763930999992011012421004+25733-100300FM-12+051599999V0201001N002012200019N0010001N1+02041+00781101151ADDAY101031AY201031GA1001+999999999GF100991001001999999001001IA1019MA1999999095391MD1710371+9999MW1061REMSYN088AAXX  24211 76393 31910 01002 10204 20078 39539 40115 57037 70600 92050 333 30/// 58///;
0272763930999992011012500004+25733-100300FM-12+051599999V0201101N003012200019N0020001N1+01941+00821101081ADDAA124000091AY101061AY201061GA1011+013801081GF102991011011012501031001IA1019KA1120M+02001KA2180N+01101MA1999999095351MD1710041+9999MW1051REMSYN124AAXX  25001 76393 31620 21103 10194 20082 39535 40108 57004 70500 81130 92350 333 10200 20110 30/// 50401 58/// 70000 81846;
0199763930999992011012503004+25733-100300FM-12+051599999V0201601N001012200019N0010001N1+01601+01051101251ADDAY101031AY201031GA1001+999999999GF100991001001999999001001IA1019MA1999999095541MD1210191-0321MW1051REMSYN088AAXX  25031 76393 31910 01601 10160 20105 39554 40125 52019 70500 90250 333 30/// 59032;
0251763930999992011012506004+25733-100300FM-12+051599999V0209999C000012200019N0010001N1+01321+00931101381ADDAY101061AY201061GA1001+999999999GF100991001001999999001001GJ105229IA1019KA1240M+02181KA2240N+01101MA1999999095651MD1210111-0171MW1051REMSYN106AAXX  25061 76393 31910 00000 10132 20093 39565 40138 52011 70500 90550 333 10218 20110 30/// 55087 59017;
0217763930999992011012515004+25733-100300FM-12+051599999V0203601N001012200019N0005001N1+01121+00541102111ADDAY101031AY201031GA1031+007201071GF103991031071008001001001IA1019MA1999999096251MD1210391+0401MW1051REMSYN106AAXX  25151 76393 31505 33601 10112 20054 39625 40211 52039 70500 83700 91450 333 30/// 56500 58040 83724;
0232763930999992011012518004+25733-100300FM-12+051599999V0203601N001012200019N0010001N1+01641+00411102061ADDAY101061AY201061GF101991011001999999011001IA1019KA1120M+01741KA2240N+01021MA1999999096211MD1710041+9999MW1051REMSYN111AAXX  25181 76393 31910 13601 10164 20041 39621 40206 57004 70500 81010 92050 333 10174 20102 30/// 5050 58045;
0134763930999992011012521004+25733-100300FM-12+051599999V0200401N002012200019N0010001N1+01921+00131999999ADDGF101991999999999999999999REMSYN096AAXX  25211 76393 31910 10402 10192 20013 30/// 39592 40173 56050 57029 58053 70500 81010 92050;
0279763930999992011012600004+25733-100300FM-12+051599999V0203601N003012200019N0040001N1+01661-00131101761ADDAA124000091AY101061AY201061GA1001+999999999GF100991001001999999001001IA1019KA1120M+02101KA2180N+01021MA1999999095981MD1210061+0631MW1041REMSYN112AAXX  26001 76393 31940 03603 10166 21013 39598 40176 52006 70400 92350 333 10210 20102 30/// 50421 58063 70000;EQDQ01  00002PRCP24
0199763930999992011012603004+25733-100300FM-12+051599999V0200201N002012200019N0010001N1+01321-00191102011ADDAY101031AY201031GA1001+999999999GF100991001001999999001001IA1019MA1999999096221MD1210241+0681MW1051REMSYN088AAXX  26031 76393 31910 00202 10132 21019 39622 40201 52024 70500 90250 333 30/// 58068;
0251763930999992011012606004+25733-100300FM-12+051599999V0209999C000012200019N0010001N1+01101+00551102111ADDAY101061AY201061GA1001+999999999GF100991001001999999001001GJ104749IA1019KA1240M+02101KA2240N+01021MA1999999096301MD1210081+0651MW1051REMSYN106AAXX  26061 76393 31910 00000 10110 20055 39630 40211 52008 70500 90550 333 10210 20102 30/// 55079 58065;
0195763930999992011012615004+25733-100300FM-12+051599999V0200601N001012200019N0010001N1+00941-00091102331ADDAY101031AY201031GF102991001001999999001091IA1019MA1999999096401MD1210081+0151MW1051REMSYN100AAXX  26151 76393 31910 20601 10094 21009 39640 40233 52008 70500 80009 91450 333 30/// 56005 58015;
0217763930999992011012621004+25733-100300FM-12+051599999V0201101N005010600019N0040001N1+01881+00181101821ADDAY121031AY221031GA1081+060001001GF108991001001999999001011IA1019MA1999999095971MD1710351+0051MW1051REMSYN106AAXX  26211 76393 31940 81105 10188 20018 39597 40182 57035 70522 80001 92050 333 30/// 56008 58005 88070;
0233763930999992011012700004+25733-100300FM-12+051599999V0201201N003012200019N0040001N1+01761+00211101731ADDAY121061AY221061GF104991001001999999001011IA1019KA1120M+02001KA2180N+00761MA1999999095931MD1710041-0051MW1041REMSYN112AAXX  27001 76393 31940 41203 10176 20021 39593 40173 57004 70422 80001 92350 333 10200 20076 30/// 50571 59005;
0199763930999992011012703004+25733-100300FM-12+051599999V0201101N002012200019N0010001N1+01501+00461101941ADDAY101031AY201031GA1001+999999999GF100991001001999999001001IA1019MA1999999096151MD1210221-0071MW1051REMSYN088AAXX  27031 76393 31910 01102 10150 20046 39615 40194 52022 70500 90250 333 30/// 59007;
0253763930999992011012706004+25733-100300FM-12+051599999V0201101N003012200019N0010001N1+01181+00571102121ADDAY121061AY221061GF104991041051008001001001GJ105469IA1019KA1240M+02001KA2240N+00761MA1999999096321MD1210171+0021MW1051REMSYN124AAXX  27061 76393 31510 41103 10118 20057 39632 40212 52017 70522 84500 90550 333 10200 20076 30/// 55091 56300 58002 84625;
0217763930999992011012715004+25733-100300FM-12+051599999V0209999C000010027019N0005001N1+01101+00881102551ADDAY121031AY221031GA1081+002701071GF108991081071002501999999IA1019MA1999999096641MD1210181+0241MW1051REMSYN106AAXX  27151 76393 31305 80700 10110 20088 39664 40255 52018 70522 887// 91450 333 30/// 561// 58024 88709;
0217763930999992011012721004+25733-100300FM-12+051599999V0201701N001010060019N0005001N1+01481+00991102291ADDAY121031AY221031GA1081+006001071GF108991081071008001999999IA1019MA1999999096411MD1710221+0441MW1501REMSYN106AAXX  27211 76393 31505 81701 10148 20099 39641 40229 57022 75022 887// 92050 333 30/// 568// 58044 88720;
0281763930999992011012800004+25733-100300FM-12+051599999V0201101N003019999999N0005001N1+01401+01021102191ADDAA124999929AY121061AY221061GF107991999051004501999999IA1019KA1120M+01561KA2180N+01061MA1999999096331MD1710081+0401MW1051REMSYN130AAXX  28001 76393 31405 71103 10140 20102 39633 40219 57008 70522 885// 92350 333 10156 20106 30/// 50201 568// 58040 79999 88615;EQDQ01+000082SCOTLC
0217763930999992011012803004+25733-100300FM-12+051599999V0201101N001010039019N0008001N1+01301+00981102321ADDAY121031AY221031GA1061+003901061GF106991061051004501001001IA1019MA1999999096451MD1210121+0301MW1051REMSYN106AAXX  28031 76393 31408 61101 10130 20098 39645 40232 52012 70522 86500 90250 333 30/// 56800 58030 86613;
0253763930999992011012806004+25733-100300FM-12+051599999V0209999C000019999999N0008001N1+01161+00981102341ADDAY121061AY221061GF108991081001999999021999GJ100069IA1019KA1240M+01561KA2240N+01061MA1999999096471MD1210021+0151MW1051REMSYN124AAXX  28061 76393 31908 80000 10116 20098 39647 40234 52002 70522 8802/ 90550 333 10156 20106 30/// 55001 5605/ 58015 88460;
0217763930999992011012815004+25733-100300FM-12+051599999V0200601N001010030019N0005001N1+01181+00931102531ADDAY121031AY221031GA1061+003001071GF106991061071004501999999IA1019MA1999999096441MD1210121-0201MW1051REMSYN106AAXX  28151 76393 31405 60601 10118 20093 39644 40253 52012 70522 867// 91450 333 30/// 561// 59020 86710;
0233763930999992011012818004+25733-100300FM-12+051599999V0200601N001012200019N0003001N1+01881+01071102221ADDAY141061AY241061GF101991011001999999021001IA1019KA1120M+01941KA2240N+01061MA1999999096351MD1710091-0281MW1051REMSYN112AAXX  28181 76393 31903 10601 10188 20107 39635 40222 57009 70544 81020 91750 333 10194 20106 30/// 56030 59028;
0217763930999992011012821004+25733-100300FM-12+051599999V0200601N002010600019N0005001N1+02181+00841101851ADDAY121031AY221031GA1081+060001001GF108991001001999999001011IA1019MA1999999096041MD1710311-0531MW1051REMSYN106AAXX  28211 76393 31905 80602 10218 20084 39604 40185 57031 70522 80001 92050 333 30/// 56007 59053 88070;
0199763930999992011013003004+25733-100300FM-12+051599999V0203601N002012200019N0010001N1+02061+01251101221ADDAY101031AY201031GA1001+999999999GF100991001001999999001001IA1019MA1999999095591MD1210141+9999MW1051REMSYN088AAXX  30031 76393 31910 03602 10206 20125 39559 40122 52014 70500 90250 333 30/// 58///;
0243763930999992011013006004+25733-100300FM-12+051599999V0209999C000012200019N0010001N1+01841+01361101331ADDAY101061AY201061GA1001+999999999GF100991001001999999001001IA1019KA1240M+02741KA2240N+01451MA1999999095661MD1210071+9999MW1051REMSYN106AAXX  30061 76393 31910 00000 10184 20136 39566 40133 52007 70500 90550 333 10274 20145 30/// 55/// 58///;
0195763930999992011013015004+25733-100300FM-12+051599999V0202401N003012200019N0005001N1+01921+00961101671ADDAY101031AY201031GF102991001001999999001011IA1019MA1999999095911MD1210171+9999MW1051REMSYN100AAXX  30151 76393 31905 22403 10192 20096 39591 40167 52017 70500 80001 91450 333 30/// 56005 58///;
0255763930999992011013018004+25733-100300FM-12+051599999V0203501N003010600019N0020001N1+02581+00541101631ADDAY121061AY221061GA1081+060001001GF108991001001999999001011IA1019KA1120M+02661KA2240N+01441MA1999999095901MD1710011+9999MW1051REMSYN118AAXX  30181 76393 31920 83503 10258 20054 39590 40163 57001 70522 80001 91745 333 10266 20144 30/// 56005 58/// 88070;
0245763930999992011013100004+25733-100300FM-12+051599999V0202001N002012200019N0030001N1+02661+00891101161ADDAY101061AY201061GF102991001001999999001021IA1019KA1120M+03001KA2180N+01441MA1999999095541MD1999999+0091MW1051REMSYN124AAXX  31001 76393 31930 22002 10266 20089 39554 40116 5//// 70500 80002 92355 333 10300 20144 30/// 50471 56005 58009 70000;
0199763930999992011013103004+25733-100300FM-12+051599999V0203001N001012200019N0010001N1+02161+01191101271ADDAY101031AY201031GA1001+999999999GF100991001001999999001001IA1019MA1999999095691MD1210151+0101MW1051REMSYN088AAXX  31031 76393 31910 03001 10216 20119 39569 40127 52015 70500 90250 333 30/// 58010;
0251763930999992011013106004+25733-100300FM-12+051599999V0202301N001012200019N0010001N1+01901+01181101351ADDAY101061AY201061GA1001+999999999GF100991001001999999001001GJ105529IA1019KA1240M+03001KA2240N+01441MA1999999095741MD1210051+0081MW1051REMSYN106AAXX  31061 76393 31910 02301 10190 20118 39574 40135 52005 70500 90550 333 10300 20144 30/// 55092 58008;
0195763930999992011013115004+25733-100300FM-12+051599999V0201901N001012200019N0003001N1+01761+00671101541ADDAY101031AY201031GF103991001001999999001011IA1019MA1999999095611MD1210021-0301MW1051REMSYN100AAXX  31151 76393 31903 31901 10176 20067 39561 40154 52002 70500 80001 91450 333 30/// 56007 59030;
0255763930999992011013118004+25733-100300FM-12+051599999V0202801N002010600019N0003001N1+02401+01091101121ADDAY121061AY221061GA1081+060001001GF108991001001999999001011IA1019KA1120M+02541KA2240N+01361MA1999999095431MD1710181-0471MW1051REMSYN118AAXX  31181 76393 31903 82802 10240 20109 39543 40112 57018 70522 80001 91450 333 10254 20136 30/// 56007 59047 88070;
0217763930999992011013121004+25733-100300FM-12+051599999V0200601N002019999999N0010001N1+02821+01081100611ADDAY121031AY221031GA1041+030001041GF108991041001999999021011IA1019MA1999999094971MD1710371+9999MW1051REMSYN106AAXX  31211 76393 31910 80602 10282 20108 39497 40061 57037 70522 84021 92050 333 30/// 56077 58/// 84460;
0262763930999992011020100004+25733-100300FM-12+051599999V0201101N003019999999N0010001N1+02621+01141100421ADDAA124000091AY121061AY221061GF108991061001999999011011IA1019KA1120M+02941KA2180N+01361MA1999999094851MD1710121-0691MW1051REMSYN130AAXX  01001 76393 31910 81103 10262 20114 39485 40042 57012 70522 86011 92350 333 10294 20136 30/// 50521 56077 59069 70000 86460;
0217763930999992011020103004+25733-100300FM-12+051599999V0200601N002012200019N0010001N1+02201+01451100381ADDAY101031AY201031GA1041+030001041GF104991041001999999011001IA1019MA1999999094841MD1710011-0851MW1051REMSYN106AAXX  01031 76393 31910 40602 10220 20145 39484 40038 57001 70500 84010 90250 333 30/// 56070 59085 84460;
0253763930999992011020106004+25733-100300FM-12+051599999V0200701N001010042019N0010001N1+01881+01541100391ADDAY121061AY221061GF105991051051004501001001GJ104749IA1019KA1240M+02941KA2240N+01361MA1999999094841MD1410001-0901MW1051REMSYN124AAXX  01061 76393 31410 50701 10188 20154 39484 40039 54000 70522 85500 90550 333 10294 20136 30/// 55079 56700 59090 85614;
0236763930999992011020115004+25733-100300FM-12+051599999V0203501N002010600019N0005001N1+01341+00391101271ADDAY121031AY221031GA1081+060001001GF108991001001999999001011IA1019MA1999999095541MD1210562-0071MW1051REMSYN106AAXX  01151 76393 31905 83502 10134 20039 39554 40127 52056 70522 80001 91450 333 30/// 56008 59007 88070;EQDQ01+000562APC3  
0255763930999992011020118004+25733-100300FM-12+051599999V0203601N001010600019N0010001N1+01921+00301101431ADDAY121061AY221061GA1081+060001001GF108991001001999999001011IA1019KA1120M+01981KA2240N+01341MA1999999095701MD1210161+0271MW1051REMSYN118AAXX  01181 76393 31910 83601 10192 20030 39570 40143 52016 70522 80001 91750 333 10198 20134 30/// 56007 58027 88070;
0217763930999992011020121004+25733-100300FM-12+051599999V0200901N005010600019N0010001N1+02181+00441101031ADDAY121031AY221031GA1081+060001001GF108991001001999999001011IA1019MA1999999095321MD1710381+0351MW1051REMSYN106AAXX  01211 76393 31910 80905 10218 20044 39532 40103 57038 70522 80001 92050 333 30/// 56007 58035 88070;
0262763930999992011020200004+25733-100300FM-12+051599999V0201201N006019999999N0010001N1+01581+00271101391ADDAA124000091AY121061AY221061GF108991041001999999011011IA1019KA1120M+02301KA2180N+01341MA1999999095661MD1210251+0821MW1051REMSYN130AAXX  02001 76393 31910 81206 10158 20027 39566 40139 52025 70522 84011 92345 333 10230 20134 30/// 50461 56077 58082 70000 84460;
0217763930999992011020203004+25733-100300FM-12+051599999V0201201N004012200019N0010001N1+01181+00071101821ADDAY101031AY201031GA1031+030001041GF103991031001999999021001IA1019MA1999999096051MD1210391+1211MW1051REMSYN106AAXX  02031 76393 31910 31204 10118 20007 39605 40182 52039 70500 83020 90250 333 30/// 56070 58121 83460;
0253763930999992011020206004+25733-100300FM-12+051599999V0203201N004019999999N0010001N1+00721-00301102161ADDAY121061AY221061GF108991081001999999021001GJ104509IA1019KA1240M+02301KA2240N+00721MA1999999096331MD1210281+1491MW1051REMSYN124AAXX  02061 76393 31910 83204 10072 21030 39633 40216 52028 70522 88020 90550 333 10230 20072 30/// 55075 56070 58149 88460;
0284763930999992011020312004+25733-100300FM-12+051599999V0203601N003010300019N0005001N1-00301-01121103161ADDAA124000091AY121061AY221061GA1081+030001031GF108991081001999999071999IA1099IA2999-00489KA1240M-00161KA2120N-00301MA1999999096941MD1710061+9999MW1051REMSYN124AAXX  03121 76393 31905 83603 11030 21112 39694 40316 57006 70522 8807/ 91145 333 11016 21030 31048 5608/ 58/// 70000 88360;
0255763930999992011020318004+25733-100300FM-12+051599999V0203501N003010300019N0010001N1-00041-00811103171ADDAY121061AY221061GA1081+030001041GF108991081001999999071999IA1019KA1120M-00021KA2240N-00301MA1999999096921MD1710131-0061MW1051REMSYN118AAXX  03181 76393 31910 83503 11004 21081 39692 40317 57013 70522 8807/ 91750 333 11002 21030 30/// 56080 59006 88460;
0217763930999992011020321004+25733-100300FM-12+051599999V0200501N002010300019N0020001N1+00101-00311102711ADDAY111031AY211031GA1051+030001031GF105991051001999999071001IA1019MA1999999096511MD1710411-0211MW1051REMSYN106AAXX  03211 76393 31920 50502 10010 21031 39651 40271 57041 70511 85070 92050 333 30/// 56070 59021 85360;
0217763930999992011020403004+25733-100300FM-12+051599999V0200401N002010300019N0010001N1-00301-00871102931ADDAY121031AY221031GA1081+030001031GF108991081001999999071999IA1149MA1999999096741MD1210281-0221MW1051REMSYN106AAXX  04031 76393 31910 80402 11030 21087 39674 40293 52028 70522 8807/ 90250 333 34/// 5608/ 59022 88360;
0285763930999992011020412004+25733-100300FM-12+051599999V0203601N002012200019N0005001N1-00381-01141102971ADDAA124000091AY101061AY201061GA1001+999999999GF100991001001999999001001IA1099IA2999-00509KA1240M+00181KA2120N-00381MA1999999096721MD1710011-0221MW1051REMSYN106AAXX  04121 76393 31905 03602 11038 21114 39672 40297 57001 70500 91145 333 10018 21038 31050 59022 70000;EQDQ01  00002PRCP24
0237763930999992011020418004+25733-100300FM-12+051599999V0201201N001012200019N0010001N1+00741-01521102791ADDAY101061AY201061GA1001+999999999GF100991001001999999001001IA1019KA1120M+00801KA2240N-00381MA1999999096611MD1710181-0311MW1051REMSYN100AAXX  04181 76393 31910 01201 10074 21152 39661 40279 57018 70500 91750 333 10080 21038 30/// 59031;
0199763930999992011020421004+25733-100300FM-12+051599999V0202601N001012200019N0010001N1+01241-00561102211ADDAY101031AY201031GA1001+999999999GF100991001001999999001001IA1019MA1999999096121MD1710491-0391MW1051REMSYN088AAXX  04211 76393 31910 02601 10124 21056 39612 40221 57049 70500 92050 333 30/// 59039;
0279763930999992011020500004+25733-100300FM-12+051599999V0200601N003012200019N0040001N1+01161-00831102081ADDAA124000091AY101061AY201061GA1001+999999999GF100991001001999999001001IA1019KA1120M+01361KA2180N-00381MA1999999096091MD1710031-0371MW1041REMSYN112AAXX  05001 76393 31940 00603 10116 21083 39609 40208 57003 70400 92345 333 10136 21038 30/// 50251 59037 70000;EQDQ01  00002PRCP24
0171763930999992011020503004+25733-100300FM-12+051599999V0200901N003012200019N0010001N1+00581-00531102281ADDGA1001+999999999GF100991001001999999001001IA1019MA1999999096321MD1210231-0421REMSYN082AAXX  05031 76393 32910 00903 10058 21053 39632 40228 52023 90245 333 30/// 59042;
0259763930999992011020506004+25733-100300FM-12+051599999V0209999C000012200019N0010001N1+00421-00611102341ADDAA124000091GA1001+999999999GF100991001001999999001001GJ105589IA1019KA1240M+01361KA2240N-00381MA1999999096371MD1210051-0441REMSYN106AAXX  05061 76393 32910 00000 10042 21061 39637 40234 52005 90545 333 10136 21038 30/// 55093 59044 70000;EQDQ01  00002PRCP24
0171763930999992011020509004+25733-100300FM-12+051599999V0201801N001012200019N0005001N1+00281-00691102261ADDGA1001+999999999GF100991001001999999001001IA1019MA1999999096261MD1710211+0471REMSYN082AAXX  05091 76393 32905 01801 10028 21069 39626 40226 57021 90845 333 30/// 58047;
0257763930999992011020512004+25733-100300FM-12+051599999V0202301N001012200019N0005001N1+00321-00861102191ADDAA124000091GA1001+999999999GF100991001001999999001001IA1019IA2999+00169KA1240M+01361KA2120N+00281MA1999999096141MD1710121-0581REMSYN100AAXX  05121 76393 32905 02301 10032 21086 39614 40219 57012 91145 333 10136 20028 30016 59058 70000;EQDQ01  00002PRCP24
0199763930999992011020515004+25733-100300FM-12+051599999V0202801N001012200019N0005001N1+00741-00791102221ADDAY101031AY201031GA1001+999999999GF100991001001999999001001IA1019MA1999999096151MD1210011-0641MW1051REMSYN088AAXX  05151 76393 31905 02801 10074 21079 39615 40222 52001 70500 91450 333 30/// 59064;
0237763930999992011020518004+25733-100300FM-12+051599999V0200901N002012200019N0005001N1+01501-00631101891ADDAY101061AY201061GA1001+999999999GF100991001001999999001001IA1019KA1120M+01601KA2240N+00281MA1999999095881MD1710271-0731MW1051REMSYN100AAXX  05181 76393 31905 00902 10150 21063 39588 40189 57027 70500 91750 333 10160 20028 30/// 59073;
0245763930999992011020600004+25733-100300FM-12+051599999V0201101N003012200019N0030001N1+01841-00131101101ADDAY101061AY201061GF101991001001999999001011IA1019KA1120M+02021KA2180N+00281MA1999999095311MD1999999-0781MW1051REMSYN124AAXX  06001 76393 31930 11103 10184 21013 39531 40110 5//// 70500 80001 92345 333 10202 20028 30/// 50491 56005 59078 70000;
0199763930999992011020603004+25733-100300FM-12+051599999V0209999C000012200019N0010001N1+01361-00071101111ADDAY101031AY201031GA1001+999999999GF100991001001999999001001IA1019MA1999999095361MD1210051-0961MW1051REMSYN088AAXX  06031 76393 31910 00000 10136 21007 39536 40111 52005 70500 90250 333 30/// 59096;
0251763930999992011020606004+25733-100300FM-12+051599999V0209999C000012200019N0010001N1+00981+00011101111ADDAY101061AY201061GA1001+999999999GF100991001001999999001001GJ105589IA1019KA1240M+02021KA2240N+00281MA1999999095351MD1710011-1021MW1051REMSYN106AAXX  06061 76393 31910 00000 10098 20001 39535 40111 57001 70500 90550 333 10202 20028 30/// 55093 59102;
0199763930999992011020615004+25733-100300FM-12+051599999V0202401N002012200019N0005001N1+01341-00401101431ADDAY151031AY201031GA1001+999999999GF100991001001999999001001IA1019MA1999999095461MD1210211-0691MW1051REMSYN088AAXX  06151 76393 31905 02402 10134 21040 39546 40143 52021 70550 91450 333 30/// 59069;
0237763930999992011020618004+25733-100300FM-12+051599999V0201101N002012200019N0005001N1+02321-00311101161ADDAY101061AY201061GA1001+999999999GF100991001001999999001001IA1019KA1120M+02421KA2240N+00641MA1999999095371MD1710091-0511MW1051REMSYN100AAXX  06181 76393 31905 01102 10232 21031 39537 40116 57009 70500 91750 333 10242 20064 30/// 59051;
0199763930999992011020703004+25733-100300FM-12+051599999V0202701N001012200019N0010001N1+02021+00241101251ADDAY101031AY201031GA1001+999999999GF100991001001999999001001IA1019MA1999999095591MD1210321+0231MW1051REMSYN088AAXX  07031 76393 31910 02701 10202 20024 39559 40125 52032 70500 90255 333 30/// 58023;
0251763930999992011020706004+25733-100300FM-12+051599999V0202101N001012200019N0010001N1+01621+00381101741ADDAY101061AY201061GA1001+999999999GF100991001001999999001001GJ105589IA1019KA1240M+03021KA2240N+00641MA1999999096031MD1210441+0681MW1051REMSYN106AAXX  07061 76393 31910 02101 10162 20038 39603 40174 52044 70500 90555 333 10302 20064 30/// 55093 58068;
0209763930999992011020712004+25733-100300FM-12+051599999V0200901N001012200019N0010001N1+00921-00011102671ADDGA1001+999999999GF100991001001999999001001IA1019KA1240M+03001KA2120N+00901MA1999999096721MD1210121+1471REMSYN094AAXX  07121 76393 32910 00901 10092 21001 39672 40267 52012 91150 333 10300 20090 30076 58147;
0199763930999992011020715004+25733-100300FM-12+051599999V0200901N002012200019N0010001N1+00921+00091102881ADDAY101031AY201031GA1001+999999999GF100991001001999999001001IA1019MA1999999096981MD1210261+1521MW1051REMSYN088AAXX  07151 76393 31910 00902 10092 20009 39698 40288 52026 70500 91450 333 30/// 58152;
0237763930999992011020718004+25733-100300FM-12+051599999V0201301N001012200019N0020001N1+01361-00011102831ADDAY101061AY201061GA1001+999999999GF100991001001999999001001IA1019KA1120M+01641KA2240N+00701MA1999999096911MD1710071+1541MW1051REMSYN100AAXX  07181 76393 31920 01301 10136 21001 39691 40283 57007 70500 91750 333 10164 20070 30/// 58154;
0171763930999992011020721004+25733-100300FM-12+051599999V0201401N001012200019N0030001N1+01861+00081102361ADDGA1001+999999999GF100991001001999999001001IA1019MA1999999096481MD1710431+9999REMSYN082AAXX  07211 76393 32930 01401 10186 20008 39648 40236 57043 92045 333 30/// 58///;
0279763930999992011020800004+25733-100300FM-12+051599999V0201101N003012200019N0030001N1+01721+00031102201ADDAA124000091AY101061AY201061GA1001+999999999GF100991001001999999001001IA1019KA1120M+01961KA2180N+00701MA1999999096351MD1710131+1081MW1041REMSYN112AAXX  08001 76393 31930 01103 10172 20003 39635 40220 57013 70400 92345 333 10196 20070 30/// 50441 58108 70000;EQDQ01  00002PRCP24
0199763930999992011020803004+25733-100300FM-12+051599999V0203001N001012200019N0010001N1+01361+00161102211ADDAY101031AY201031GA1001+999999999GF100991001001999999001001IA1019MA1999999096381MD1210031+0791MW1051REMSYN088AAXX  08031 76393 31910 03001 10136 20016 39638 40221 52003 70500 90255 333 30/// 58079;
0251763930999992011020806004+25733-100300FM-12+051599999V0201401N001012200019N0010001N1+01181+00171102091ADDAY101061AY201061GA1001+999999999GF100991001001999999001001GJ105589IA1019KA1240M+01961KA2240N+00701MA1999999096281MD1710101+0251MW1051REMSYN106AAXX  08061 76393 31910 01401 10118 20017 39628 40209 57010 70500 90550 333 10196 20070 30/// 55093 58025;
0255763930999992011020818004+25733-100300FM-12+051599999V0200801N001010600019N0010001N1+01561+00351101641ADDAY121061AY221061GA1051+060001001GF105991001001999999001011IA1019KA1120M+01621KA2240N+00601MA1999999095751MD1710091-1161MW1051REMSYN118AAXX  08181 76393 31910 50801 10156 20035 39575 40164 57009 70522 80001 91755 333 10162 20060 30/// 56005 59116 85070;
0195763930999992011020821004+25733-100300FM-12+051599999V0201101N003012200019N0030001N1+02141+00381101191ADDAY121031AY221031GF104991001001999999001011IA1019MA1999999095371MD1710381-1111MW1041REMSYN100AAXX  08211 76393 31930 41103 10214 20038 39537 40119 57038 70422 80001 92050 333 30/// 56005 59111;
0199763930999992011020903004+25733-100300FM-12+051599999V0203001N001012200019N0010001N1+01861+00621100931ADDAY101031AY201031GA1001+999999999GF100991001001999999001001IA1019MA1999999095251MD1210051-1131MW1051REMSYN088AAXX  09031 76393 31910 03001 10186 20062 39525 40093 52005 70500 90250 333 30/// 59113;
0251763930999992011020906004+25733-100300FM-12+051599999V0201101N002012200019N0010001N1+01421+01041100961ADDAY101061AY201061GA1001+999999999GF100991001001999999001001GJ105709IA1019KA1240M+02341KA2240N+00601MA1999999095281MD1210031-0101MW1051REMSYN106AAXX  09061 76393 31910 01102 10142 20104 39528 40096 52003 70500 90550 333 10234 20060 30/// 55095 59010;
0214763930999992011020915004+25733-100300FM-12+051599999V0200401N003019999999N0005001N1+01221+00701101711ADDGA1021+027001031GF108991021001999999081011IA1019MA1999999095881MD1210602+0041REMSYN106AAXX  09151 76393 32905 80403 10122 20070 39588 40171 52060 82081 91450 333 30/// 56207 58004 82359 86170;EQDQ01+000602APC3  
0255763930999992011020918004+25733-100300FM-12+051599999V0203601N003010360019N0003001N1+01261+00311102061ADDAY121061AY221061GA1021+011701061GF107991021051012501031081IA1019KA1120M+01361KA2240N+01061MA1999999096191MD1210311+0441MW1061REMSYN118AAXX  09181 76393 31603 73603 10126 20031 39619 40206 52031 70622 82538 91750 333 10136 20106 30/// 56277 58044 82639;
0217763930999992011020921004+25733-100300FM-12+051599999V0200401N002010360019N0005001N1+01121-00211101941ADDAY121031AY221031GA1021+011401081GF106991021081012501031021IA1019MA1999999096061MD1710131+0291MW1061REMSYN106AAXX  09211 76393 31605 60402 10112 21021 39606 40194 57013 70622 82832 92045 333 30/// 56277 58029 82838;
0262763930999992011021000004+25733-100300FM-12+051599999V0203601N002019999999N0005001N1+00821-00321102161ADDAA124000091AY121061AY221061GF107991071001999999021999IA1019KA1120M+01361KA2180N+00821MA1999999096251MD1210191+1051MW1051REMSYN130AAXX  10001 76393 31905 73602 10082 21032 39625 40216 52019 70522 8702/ 92350 333 10136 20082 30/// 50291 56070 58105 70000 87460;
0217763930999992011021003004+25733-100300FM-12+051599999V0200201N003010330019N0010001N1+00621-00291102641ADDAY121031AY221031GA1081+033001031GF108991081001999999041999IA1019MA1999999096681MD1210431+1431MW1051REMSYN106AAXX  10031 76393 31910 80203 10062 21029 39668 40264 52043 70522 8804/ 90250 333 30/// 56070 58143 88361;
0253763930999992011021006004+25733-100300FM-12+051599999V0203401N002019999999N0010001N1+00521-00611102861ADDAY121061AY221061GF108991081001999999021999GJ102709IA1019KA1240M+01361KA2240N+00521MA1999999096851MD1210171+1571MW1051REMSYN124AAXX  10061 76393 31910 83402 10052 21061 39685 40286 52017 70522 8802/ 90550 333 10136 20052 30/// 55045 5607/ 58157 88465;
0217763930999992011021015004+25733-100300FM-12+051599999V0203601N001010330019N0030001N1+00161-01161102921ADDAY121031AY221031GA1071+033001041GF107991071001999999021001IA1019MA1999999096821MD1210041+0941MW1051REMSYN106AAXX  10151 76393 31930 73601 10016 21116 39682 40292 52004 70522 87020 91450 333 30/// 56010 58094 87461;
0255763930999992011021018004+25733-100300FM-12+051599999V0200901N001010300019N0020001N1+00521-00771102851ADDAY121061AY221061GA1081+030001031GF108991081001999999071999IA1019KA1120M+00621KA2240N+00241MA1999999096751MD1710071+0561MW1051REMSYN118AAXX  10181 76393 31920 80901 10052 21077 39675 40285 57007 70522 8807/ 91750 333 10062 20024 30/// 5601/ 58056 88360;
0195763930999992011021021004+25733-100300FM-12+051599999V0200501N003012200019N0030001N1+01011-00821102351ADDAY121031AY221031GF102991021001999999031001IA1019MA1999999096311MD1710441+0251MW1051REMSYN100AAXX  10211 76393 31930 20503 10101 21082 39631 40235 57044 70522 82030 92345 333 30/// 56030 58025;
0279763930999992011021100004+25733-100300FM-12+051599999V0201101N005012200019N0030001N1+01041-00571102191ADDAA124000091AY101061AY201061GA1001+999999999GF100991001001999999001001IA1019KA1120M+01201KA2180N+00141MA1999999096191MD1310121+0931MW1041REMSYN112AAXX  11001 76393 31930 01105 10104 21057 39619 40219 53012 70400 92345 333 10120 20014 30/// 50381 58093 70000;EQDQ01  00002PRCP24
0199763930999992011021103004+25733-100300FM-12+051599999V0201101N002012200019N0010001N1+00781-00561102321ADDAY101031AY201031GA1001+999999999GF100991001001999999001001IA1019MA1999999096341MD1210151-0341MW1051REMSYN088AAXX  11031 76393 31910 01102 10078 21056 39634 40232 52015 70500 90250 333 30/// 59034;
0251763930999992011021106004+25733-100300FM-12+051599999V0201101N003012200019N0010001N1+00561-00631102411ADDAY101061AY201061GA1001+999999999GF100991001001999999001001GJ102649IA1019KA1240M+01201KA2240N+00141MA1999999096441MD1210101-0411MW1051REMSYN106AAXX  11061 76393 31910 01103 10056 21063 39644 40241 52010 70500 90550 333 10120 20014 30/// 55044 59041;
0257763930999992011021112004+25733-100300FM-12+051599999V0209999C000012200019N0020001N1+00221-00791102531ADDAA124000091GA1001+999999999GF100991001001999999001001IA1019IA2999+00029KA1240M+01181KA2120N+00101MA1999999096511MD1210111-0271REMSYN100AAXX  11121 76393 32920 02000 10022 21079 39651 40253 52011 91150 333 10118 20010 30002 59027 70000;EQDQ01  00002PRCP24
0199763930999992011021115004+25733-100300FM-12+051599999V0209999C000012200019N0005001N1+00581-00671102831ADDAY101031AY201031GA1001+999999999GF100991001001999999001001IA1019MA1999999096751MD1210241-0071MW1051REMSYN088AAXX  11151 76393 31905 00300 10058 21067 39675 40283 52024 70500 91450 333 30/// 59007;
0225763930999992011021118004+25733-100300FM-12+051599999V0200601N002012200019N0050001N1+01081-00301102821ADDAY101061AY201061GA1001+999999999GF100991001001999999001001KA1120M+01231KA2240N+00101MA1999999096771MD1210021+0021MW1051REMSYN094AAXX  11181 76393 31950 00602 10108 21030 39677 40282 52002 70500 91750 333 10123 20010 58002;
0199763930999992011021121004+25733-100300FM-12+051599999V0201201N002012200019N0010001N1+01571-00391102471ADDAY101031AY201031GA1001+999999999GF100991001001999999001001IA1019MA1999999096481MD1710291+0171MW1051REMSYN088AAXX  11211 76393 31910 01202 10157 21039 39648 40247 57029 70500 92345 333 30/// 58017;
0239763930999992011021200004+25733-100300FM-12+051599999V0200901N003012200019N0040001N1+01481-00591102481ADDAY101061AY201061GF102991001001999999001011IA1019KA1120M+01681KA2180N+00101MA1999999096551MD1310071+9999MW1041REMSYN118AAXX  12001 76393 31940 20903 10148 21059 39655 40248 53007 70400 80001 92345 333 10168 20010 30/// 50391 56005 58036;
0217763930999992011021215004+25733-100300FM-12+051599999V0209999C000010300019N0005001N1+00741-00081103441ADDAY121031AY221031GA1061+030001031GF106991061001999999041001IA1019MA1999999097351MD1210261+0601MW1051REMSYN106AAXX  12151 76393 31905 63400 10074 21008 39735 40344 52026 70522 86040 91450 333 30/// 56070 58060 86360;
0255763930999992011021218004+25733-100300FM-12+051599999V0200501N001010330019N0005001N1+01401+00111103351ADDAY121061AY221061GA1051+033001031GF105991051001999999031001IA1019KA1120M+01501KA2240N+00601MA1999999097341MD1210011+0571MW1051REMSYN118AAXX  12181 76393 31905 50501 10140 20011 39734 40335 52001 70522 85030 91750 333 10150 20060 30/// 56070 58057 85361;
0217763930999992011021221004+25733-100300FM-12+051599999V0201401N003012200019N0020001N1+01821+00201102961ADDAY101031AY201031GA1041+045001031GF104991041001999999041001IA1019MA1999999097011MD1710331+0531MW1051REMSYN106AAXX  12211 76393 31920 41403 10182 20020 39701 40296 57033 70500 84040 92055 333 30/// 56070 58053 84365;
0279763930999992011021300004+25733-100300FM-12+051599999V0201201N003012200019N0020001N1+01741+00001102861ADDAA124000091AY101061AY201061GA1001+999999999GF100991001001999999001001IA1019KA1120M+01921KA2180N+00601MA1999999096961MD1710051+0411MW1051REMSYN112AAXX  13001 76393 31920 01203 10174 20000 39696 40286 57005 70500 92355 333 10192 20060 30/// 50581 58041 70000;EQDQ01  00002PRCP24
0199763930999992011021315004+25733-100300FM-12+051599999V0209999C000012200019N0005001N1+01141+00171102911ADDAY101031AY201031GA1001+999999999GF100991001001999999001001IA1019MA1999999096881MD1210061-0531MW1051REMSYN088AAXX  13151 76393 31905 01800 10114 20017 39688 40291 52006 70500 91450 333 30/// 59053;
0237763930999992011021318004+25733-100300FM-12+051599999V0201501N001012200019N0005001N1+01821+00361102671ADDAY101061AY201061GA1001+999999999GF100991001001999999001001IA1019KA1120M+01981KA2240N+00761MA1999999096751MD1710131-0591MW1051REMSYN100AAXX  13181 76393 31905 01501 10182 20036 39675 40267 57013 70500 91750 333 10198 20076 30/// 59059;
0199763930999992011021321004+25733-100300FM-12+051599999V0201201N002012200019N0010001N1+02321+00341102161ADDAY101031AY201031GA1001+999999999GF100991001001999999001001IA1019MA1999999096321MD1710431-0691MW1051REMSYN088AAXX  13211 76393 31910 01202 10232 20034 39632 40216 57043 70500 92055 333 30/// 59069;
0279763930999992011021400004+25733-100300FM-12+051599999V0201301N004012200019N0030001N1+02321+00611101961ADDAA124000091AY101061AY201061GA1001+999999999GF100991001001999999001001IA1019KA1120M+02561KA2180N+00761MA1999999096201MD1710121-0761MW1051REMSYN112AAXX  14001 76393 31930 01304 10232 20061 39620 40196 57012 70500 92350 333 10256 20076 30/// 50431 59076 70000;EQDQ01  00002PRCP24
0199763930999992011021415004+25733-100300FM-12+051599999V0202701N001012200019N0005001N1+01581+00431102191ADDAY101031AY201031GA1001+999999999GF100991001001999999001001IA1019MA1999999096271MD1210141-0611MW1051REMSYN088AAXX  14151 76393 31905 02701 10158 20043 39627 40219 52014 70500 91450 333 30/// 59061;
0237763930999992011021418004+25733-100300FM-12+051599999V0201101N002012200019N0003001N1+02641+00441102021ADDAY101061AY201061GA1001+999999999GF100991001001999999001001IA1019KA1120M+02801KA2240N+01021MA1999999096221MD1710051-0531MW1061REMSYN100AAXX  14181 76393 31903 01102 10264 20044 39622 40202 57005 70600 91750 333 10280 20102 30/// 59053;
0195763930999992011021421004+25733-100300FM-12+051599999V0201201N003012200019N0020001N1+03101+00361101611ADDAY101031AY201031GF101991011001999999031001IA1019MA1999999095911MD1710311-0411MW1051REMSYN100AAXX  14211 76393 31920 11203 10310 20036 39591 40161 57031 70500 81030 92045 333 30/// 56050 59041;
0245763930999992011021500004+25733-100300FM-12+051599999V0201101N003012200019N0020001N1+02841+00401101511ADDAY101061AY201061GF103991001001999999001081IA1019KA1120M+03161KA2180N+01021MA1999999095901MD1710011-0301MW1041REMSYN124AAXX  15001 76393 31920 31103 10284 20040 39590 40151 57001 70400 80008 92350 333 10316 20102 30/// 50401 56005 59030 70000;
0199763930999992011021503004+25733-100300FM-12+051599999V0201301N002012200019N0010001N1+02401+00961101611ADDAY101031AY201031GA1001+999999999GF100991001001999999001001IA1019MA1999999096031MD1210131+9999MW1051REMSYN088AAXX  15031 76393 31910 01302 10240 20096 39603 40161 52013 70500 90250 333 30/// 58///;
0251763930999992011021506004+25733-100300FM-12+051599999V0200501N002012200019N0010001N1+01801+01131101741ADDAY101061AY201061GA1001+999999999GF100991001001999999001001GJ105709IA1019KA1240M+03161KA2240N+01021MA1999999096151MD1210121+9999MW1051REMSYN106AAXX  15061 76393 31910 00502 10180 20113 39615 40174 52012 70500 90550 333 10316 20102 30/// 55095 58///;
0273763930999992011021512004+25733-100300FM-12+051599999V0209999C000012200019N0010001N1+01421+01221101791ADDAA124000091AY101061AY201061GA1001+999999999GF100991001001999999001001IA1019KA1240M+03161KA2120N+01381MA1999999096051MD1999999-0081MW1051REMSYN106AAXX  15121 76393 31910 00000 10142 20122 39605 40179 5//// 70500 91155 333 10316 20138 30126 59008 70000;EQDQ01  00002PRCP24
0199763930999992011021515004+25733-100300FM-12+051599999V0209999C000012200019N0005001N1+01621+01151101971ADDAY101031AY201031GA1001+999999999GF100991001001999999001001IA1019MA1999999096181MD1210121-0091MW1041REMSYN088AAXX  15151 76393 31905 00000 10162 20115 39618 40197 52012 70400 91450 333 30/// 59009;
0237763930999992011021518004+25733-100300FM-12+051599999V0201101N001012200019N0005001N1+02461+01291101901ADDAY101061AY201061GA1001+999999999GF100991001001999999001001IA1019KA1120M+02541KA2240N+01361MA1999999096171MD1710011-0051MW1041REMSYN100AAXX  15181 76393 31905 01101 10246 20129 39617 40190 57001 70400 91750 333 10254 20136 30/// 59005;
0251763930999992011021600004+25733-100300FM-12+051599999V0201201N005012200019N0040001N1+02781+00791101381ADDAA124000091GA1001+999999999GF100991001001999999001001IA1019KA1120M+02981KA2180N+01361MA1999999095751MD1710061-0151REMSYN106AAXX  16001 76393 32940 01205 10278 20079 39575 40138 57006 92350 333 10298 20136 30/// 50691 59015 70000;EQDQ01  00002PRCP24
0244763930999992011021612004+25733-100300FM-12+051599999V0200501N001010030019N0010001N1+01661+01401101731ADDAA124000091GA1081+003001061GF108991081061004501999999IA1019KA1240M+02981KA2120N+01361MA1999999095811MD1210011-0251REMSYN118AAXX  16121 76393 32410 80501 10166 20140 39581 40173 52001 886// 91150 333 10298 20136 30126 561// 59025 70000 88610;
0217763930999992011021615004+25733-100300FM-12+051599999V0203101N001010039019N0005001N1+01721+01401101831ADDAY121031AY221031GA1081+003901061GF108991081061004501999999IA1019MA1999999095991MD1210181-0191MW1051REMSYN106AAXX  16151 76393 31405 83101 10172 20140 39599 40183 52018 70522 886// 91450 333 30/// 561// 59019 88613;
0237763930999992011021618004+25733-100300FM-12+051599999V0201501N001012200019N0002001N1+02321+01491101611ADDAY141061AY241061GA1001+999999999GF100991001001999999001001IA1019KA1120M+02501KA2240N+01661MA1999999095871MD1710081-0301MW1051REMSYN100AAXX  16181 76393 31902 01501 10232 20149 39587 40161 57008 70544 91750 333 10250 20166 30/// 59030;
0199763930999992011021621004+25733-100300FM-12+051599999V0201201N002012200019N0003001N1+02901+01251101171ADDAY141031AY241031GA1001+999999999GF100991001001999999001001IA1019MA1999999095511MD1710361-0301MW1051REMSYN088AAXX  16211 76393 31903 01202 10290 20125 39551 40117 57036 70544 92045 333 30/// 59030;
0279763930999992011021700004+25733-100300FM-12+051599999V0201101N004012200019N0030001N1+02781+01151100991ADDAA124000091AY101061AY201061GA1001+999999999GF100991001001999999001001IA1019KA1120M+03061KA2180N+01661MA1999999095401MD1710111-0351MW1051REMSYN112AAXX  17001 76393 31930 01104 10278 20115 39540 40099 57011 70500 92345 333 10306 20166 30/// 50571 59035 70000;EQDQ01  00002PRCP24
0199763930999992011021703004+25733-100300FM-12+051599999V0202401N001012200019N0010001N1+02441+01341101111ADDAY101031AY201031GA1001+999999999GF100991001001999999001001IA1019MA1999999095541MD1210141+9999MW1051REMSYN088AAXX  17031 76393 31910 02401 10244 20134 39554 40111 52014 70500 90250 333 30/// 58///;
0251763930999992011021706004+25733-100300FM-12+051599999V0200601N004012200019N0010001N1+01921+01481101171ADDAY101061AY201061GA1001+999999999GF100991001001999999001001GJ103489IA1019KA1240M+03061KA2240N+01661MA1999999095601MD1210061+9999MW1051REMSYN106AAXX  17061 76393 31910 00604 10192 20148 39560 40117 52006 70500 90550 333 10306 20166 30/// 55058 58///;
0217763930999992011021715004+25733-100300FM-12+051599999V0209999C000010036019N0005001N1+01821+01511101331ADDAY121031AY221031GA1081+003601071GF108991081061004501999999IA1019MA1999999095631MD1210141-0321MW1051REMSYN106AAXX  17151 76393 31405 80000 10182 20151 39563 40133 52014 70522 886// 91450 333 30/// 567// 59032 88712;
0233763930999992011021718004+25733-100300FM-12+051599999V0200601N001012200019N0003001N1+02381+01591101331ADDAY141061AY241061GF102991001001999999001041IA1019KA1120M+02541KA2240N+01661MA1999999095621MD1710011-0051MW1051REMSYN112AAXX  17181 76393 31903 20601 10238 20159 39562 40133 57001 70544 80004 91750 333 10254 20166 30/// 56007 59005;
0195763930999992011021721004+25733-100300FM-12+051599999V0201201N002012200019N0003001N1+02971+01511101021ADDAY141031AY241031GF101991001001999999001011IA1019MA1999999095351MD1710271-0161MW1051REMSYN100AAXX  17211 76393 31903 11202 10297 20151 39535 40102 57027 70544 80001 92050 333 30/// 56007 59016;
0245763930999992011021800004+25733-100300FM-12+051599999V0201201N006012200019N0010001N1+02901+01281100941ADDAY101061AY201061GF103991001001999999001011IA1019KA1120M+03061KA2180N+01661MA1999999095351MD1410001-0051MW1051REMSYN124AAXX  18001 76393 31910 31206 10290 20128 39535 40094 54000 70500 80001 92345 333 10306 20166 30/// 50531 56005 59005 70000;
0199763930999992011021803004+25733-100300FM-12+051599999V0203101N002012200019N0010001N1+02581+01481101081ADDAY101031AY201031GA1001+999999999GF100991001001999999001001IA1019MA1999999095521MD1210171-0021MW1051REMSYN088AAXX  18031 76393 31910 03102 10258 20148 39552 40108 52017 70500 90250 333 30/// 59002;
0251763930999992011021806004+25733-100300FM-12+051599999V0200601N002012200019N0010001N1+02101+01411101261ADDAY101061AY201061GA1001+999999999GF100991001001999999001001GJ102889IA1019KA1240M+03061KA2240N+01661MA1999999095701MD1210181+0101MW1051REMSYN106AAXX  18061 76393 31910 00602 10210 20141 39570 40126 52018 70500 90550 333 10306 20166 30/// 55048 58010;
0199763930999992011021809004+25733-100300FM-12+051599999V0200501N001012200019N0010001N1+01821+01571101261ADDAY101031AY201031GA1001+999999999GF100991001001999999001001IA1019MA1999999095661MD1710041+9999MW1051REMSYN088AAXX  18091 76393 31910 00501 10182 20157 39566 40126 57004 70500 90850 333 30/// 58///;
0272763930999992011021812004+25733-100300FM-12+051599999V0200201N001010015019N0005001N1+01701+01571101401ADDAA124000091AY121061AY221061GA1081+001501061GF108991081051001501999999IA1019KA1240M+03061KA2120N+01661MA1999999095741MD1210081+0171MW1051REMSYN124AAXX  18121 76393 31205 80201 10170 20157 39574 40140 52008 70522 885// 91150 333 10306 20166 30152 561// 58017 70000 88605;
0217763930999992011021815004+25733-100300FM-12+051599999V0203501N001010024019N0005001N1+01781+01591101651ADDAY121031AY221031GA1081+002401061GF108991081051002501999999IA1019MA1999999095931MD1210191+0301MW1051REMSYN106AAXX  18151 76393 31305 83501 10178 20159 39593 40165 52019 70522 885// 91450 333 30/// 567// 58030 88608;
0255763930999992011021818004+25733-100300FM-12+051599999V0200601N001012200019N0005001N1+02261+01621101761ADDAY121061AY221061GA1041+007801051GF104991041051002501001001IA1019KA1120M+02351KA2240N+01661MA1999999096011MD1210081+0391MW1051REMSYN118AAXX  18181 76393 31305 40601 10226 20162 39601 40176 52008 70522 84500 91750 333 10235 20166 30/// 56700 58039 84526;
0199763930999992011021821004+25733-100300FM-12+051599999V0200701N002012200019N0005001N1+02681+01671101461ADDAY101031AY201031GA1001+999999999GF100991001001999999001001IA1019MA1999999095771MD1710251+0421MW1051REMSYN088AAXX  18211 76393 31905 00702 10268 20167 39577 40146 57025 70500 92045 333 30/// 58042;
0279763930999992011021900004+25733-100300FM-12+051599999V0201101N006012200019N0010001N1+02841+01431101361ADDAA124000091AY101061AY201061GA1001+999999999GF100991001001999999001001IA1019KA1120M+02941KA2180N+01661MA1999999095741MD1310031+0391MW1051REMSYN112AAXX  19001 76393 31910 01106 10284 20143 39574 40136 53003 70500 92345 333 10294 20166 30/// 50611 58039 70000;EQDQ01  00002PRCP24
0251763930999992011021906004+25733-100300FM-12+051599999V0201101N003012200019N0010001N1+02001+01661101601ADDAY101061AY201061GA1001+999999999GF100991001001999999001001GJ101749IA1019KA1240M+02941KA2240N+01661MA1999999096011MD1210131+0311MW1041REMSYN106AAXX  19061 76393 31910 01103 10200 20166 39601 40160 52013 70400 90545 333 10294 20166 30140 55029 58031;
0217763930999992011021909004+25733-100300FM-12+051599999V0201101N002010009019N0003001N1+01781+01691101781ADDAY121031AY221031GA1081+000901071GF108991081061001501999999IA1019MA1999999095991MD1710021+0331MW1051REMSYN106AAXX  19091 76393 31203 81102 10178 20169 39599 40178 57002 70522 886// 90845 333 30/// 568// 58033 88703;
0255763930999992011021912004+25733-100300FM-12+051599999V0201101N001010009019N0005001N1+01781+01691101741ADDAY121061AY221061GA1081+000901061GF108991081051001501999999IA1019KA1240M+02941KA2120N+01661MA1999999095901MD1710091+0161MW1051REMSYN118AAXX  19121 76393 31205 81101 10178 20169 39590 40174 57009 70522 885// 91150 333 10294 20166 30152 563// 58016 88603;
0217763930999992011021915004+25733-100300FM-12+051599999V0201101N001010024019N0010001N1+01861+01651101831ADDAY141031AY241031GA1081+002401071GF108991081061002501999999IA1019MA1999999096071MD1210171+0141MW1051REMSYN106AAXX  19151 76393 31310 81101 10186 20165 39607 40183 52017 70544 886// 91450 333 30/// 563// 58014 88708;
0255763930999992011021918004+25733-100300FM-12+051599999V0201101N001010090019N0010001N1+02311+01581101751ADDAY141061AY241061GA1071+009001061GF107991071051008001999999IA1019KA1120M+02351KA2240N+01661MA1999999096031MD1010041+0011MW1051REMSYN118AAXX  19181 76393 31510 71101 10231 20158 39603 40175 50004 70544 875// 91750 333 10235 20166 30/// 563// 58001 87630;
0311763930999992011022000004+25733-100300FM-12+051599999V0201301N004012200019N0010001N1+02921+01381999999ADDAA124000091AY101061AY201061GA1001+999999999GF100991001001999999001001IA1019KA1120M+03061KA2180N+01661MA1999999095471MD1999999-0271MW1051REMSYN112AAXX  20001 76393 31910 01304 10292 20138 39547 40444 5//// 70500 92355 333 10306 20166 30/// 50571 59027 70000;EQDQ01+104443APOSLPQ02  00002PRCP24Q03 104443APOSLP
0199763930999992011022003004+25733-100300FM-12+051599999V0201201N003012200019N0010001N1+02561+01561101161ADDAY101031AY201031GA1001+999999999GF100991001001999999001001IA1019MA1999999095571MD1210101+9999MW1051REMSYN088AAXX  20031 76393 31910 01203 10256 20156 39557 40116 52010 70500 90250 333 30/// 58///;
0251763930999992011022006004+25733-100300FM-12+051599999V0201101N003012200019N0010001N1+02061+01501101211ADDAY101061AY201061GA1001+999999999GF100991001001999999001001GJ101449IA1019KA1240M+03061KA2240N+01661MA1999999095621MD1210051-0391MW1051REMSYN106AAXX  20061 76393 31910 01103 10206 20150 39562 40121 52005 70500 90550 333 10306 20166 30/// 55024 59039;
0199763930999992011022009004+25733-100300FM-12+051599999V0201001N003012200019N0010001N1+01641+01421101141ADDAY101031AY201031GA1001+999999999GF100991001001999999001001IA1019MA1999999095441MD1710181-0571MW1041REMSYN088AAXX  20091 76393 31910 01003 10164 20142 39544 40114 57018 70400 90845 333 30/// 59057;
0291763930999992011022012004+25733-100300FM-12+051599999V0200301N001010018019N0010001N1+01601+01441101071ADDAA124000091AY121061AY221061GA1081+001801071GF108991081061001501999999IA1019KA1240M+03061KA2120N+99999MA1999999095401MD1710041-0501MW1041REMSYN124AAXX  20121 76393 31210 80301 10160 20144 39540 40107 57004 70422 886// 91150 333 10306 20166 30148 561// 59050 70000 88706;EQDQ01 +01662ATMN  
0274763930999992011022018004+25733-100300FM-12+051599999V0201101N001012200019N0005001N1+02201+01561101131ADDAY101061AY201061GA1021+007801071GF102991021061008001001001IA1019KA1120M+02261KA2240N+01661MA1999999096011MD1710532-0011MW1051REMSYN118AAXX  20181 76393 31505 21101 10220 20156 39601 40113 57053 70500 82600 91450 333 10226 20166 30/// 56300 59001 82726;EQDQ01+000532APC3  
0193763930999992011022021004+25733-100300FM-12+051599999V0201401N001012200019N0005001N1+03041+01491999999ADDAY141031AY241031GA1001+999999999GF100991001001999999001001IA1019MA1999999094991MD1710421+9999MW1051REMSYN082AAXX  20211 76393 31905 01401 10304 20149 39499 57042 70544 92050 333 30/// 58///;
0279763930999992011022100004+25733-100300FM-12+051599999V0201501N001012200019N0020001N1+03061+01211100411ADDAA124000091AY141061AY241061GA1001+999999999GF100991001001999999001001IA1019KA1120M+03181KA2180N+01661MA1999999094851MD1710141-0621MW1051REMSYN112AAXX  21001 76393 31920 01501 10306 20121 39485 40041 57014 70544 92350 333 10318 20166 30/// 50581 59062 70000;EQDQ01  00002PRCP24
0199763930999992011022103004+25733-100300FM-12+051599999V0209999C000012200019N0010001N1+02661+01201100461ADDAY101031AY201031GA1001+999999999GF100991001001999999001001IA1019MA1999999094941MD1210091-0631MW1051REMSYN088AAXX  21031 76393 31910 00000 10266 20120 39494 40046 52009 70500 90250 333 30/// 59063;
0251763930999992011022106004+25733-100300FM-12+051599999V0200901N001012200019N0010001N1+02181+01431100451ADDAY101061AY201061GA1001+999999999GF100991001001999999001001GJ101449IA1019KA1240M+03181KA2240N+01541MA1999999094941MD1410001-0681MW1051REMSYN106AAXX  21061 76393 31910 00901 10218 20143 39494 40045 54000 70500 90550 333 10318 20154 30/// 55024 59068;
0151763930999992011022115004+25733-100300FM-12+051599999V0202701N001012200019N0020001N1+02191+01281999999ADDGA1001+999999999GF100991001001999999001001MA1999999094971REMSYN082AAXX  21151 76393 31920 02701 10219 20128 39497052015 70400 91450 333 30/// 59051;
0237763930999992011022118004+25733-100300FM-12+051599999V0200901N001012200019N0020001N1+02961+01341100641ADDAY101061AY201061GA1001+999999999GF100991001001999999001001IA1019KA1120M+03021KA2240N+01591MA1999999095011MD1210051-0401MW1051REMSYN100AAXX  21181 76393 31920 00901 10296 20134 39501 40064 52005 70500 91750 333 10302 20159 30/// 59040;
0199763930999992011022121004+25733-100300FM-12+051599999V0201001N006012200019N0020001N1+03281+01321100401ADDAY101031AY201031GA1001+999999999GF100991001001999999001001IA1019MA1999999094841MD1710181-0141MW1051REMSYN088AAXX  21211 76393 31920 01006 10328 20132 39484 40040 57018 70500 92045 333 30/// 59014;
0279763930999992011022200004+25733-100300FM-12+051599999V0201101N005012200019N0040001N1+03001+01331100371ADDAA124000091AY101061AY201061GA1001+999999999GF100991001001999999001001IA1019KA1120M+03421KA2180N+01591MA1999999094881MD1210041+0031MW1051REMSYN112AAXX  22001 76393 31940 01105 10300 20133 39488 40037 52004 70500 92345 333 10342 20159 30/// 50681 58003 70000;EQDQ01  00002PRCP24
0199763930999992011022203004+25733-100300FM-12+051599999V0201301N004012200019N0010001N1+02681+01421100631ADDAY101031AY201031GA1001+999999999GF100991001001999999001001IA1019MA1999999095161MD1210281+0221MW1051REMSYN088AAXX  22031 76393 31910 01304 10268 20142 39516 40063 52028 70500 90250 333 30/// 58022;
0251763930999992011022206004+25733-100300FM-12+051599999V0209999C000012200019N0010001N1+02321+01621100751ADDAY101061AY201061GA1001+999999999GF100991001001999999001001GJ102289IA1019KA1240M+03421KA2240N+01591MA1999999095261MD1210101+0321MW1051REMSYN106AAXX  22061 76393 31910 00000 10232 20162 39526 40075 52010 70500 90550 333 10342 20159 30/// 55038 58032;
0143763930999992011022209004+25733-100300FM-12+051599999V0200301N001012200019N0010001N1+02061+99999999999ADDGA1001+999999999GF100991001001999999001001REMSYN089AAXX  22091 76393 31910 00301 102060 20143 39572 40082 52001 70400 90850 333 30/// 58///;
0273763930999992011022212004+25733-100300FM-12+051599999V0209999C000012200019N0010001N1+01961+01491100971ADDAA124000091AY101061AY201061GA1001+999999999GF100991001001999999001001IA1019KA1240M+03401KA2120N+01941MA1999999095361MD1710091+0541MW1051REMSYN106AAXX  22121 76393 31910 00000 10196 20149 39536 40097 57009 70500 91150 333 10340 20194 30170 58054 70000;EQDQ01  00002PRCP24
0199763930999992011022215004+25733-100300FM-12+051599999V0200401N001012200019N0010001N1+02011+01461101301ADDAY141031AY241031GA1001+999999999GF100991001001999999001001IA1019MA1999999095631MD1210271+0671MW1051REMSYN088AAXX  22151 76393 31910 00401 10201 20146 39563 40130 52027 70544 91450 333 30/// 58067;
0255763930999992011022218004+25733-100300FM-12+051599999V0200201N001012200019N0010001N1+02341+01551101321ADDAY141061AY241061GA1011+009001081GF101991011011008001001001IA1019KA1120M+02621KA2240N+01941MA1999999095651MD1510021+0631MW1051REMSYN118AAXX  22181 76393 31510 10201 10234 20155 39565 40132 55002 70544 81100 91750 333 10262 20194 30/// 56300 58063 81830;
0217763930999992011022221004+25733-100300FM-12+051599999V0201201N007010360019N0020001N1+02781+01751101021ADDAY121031AY221031GA1021+012001081GF107991021011012501011021IA1019MA1999999095401MD1710251+0561MW1041REMSYN106AAXX  22211 76393 31620 71207 10278 20175 39540 40102 57025 70422 82112 92045 333 30/// 56355 58056 82840;
0262763930999992011022300004+25733-100300FM-12+051599999V0201201N008012200019N0020001N1+02361+01741100971ADDAA124000091AY101061AY201061GF103991031051008001001001IA1019KA1120M+02951KA2180N+01901MA1999999095381MD1710021+0501MW1041REMSYN130AAXX  23001 76393 31520 31208 10236 20174 39538 40097 57002 70400 83500 92345 333 10295 20190 30/// 50631 56300 58050 70000 83625;
0217763930999992011022303004+25733-100300FM-12+051599999V0201101N003012200019N0010001N1+02161+01681101131ADDAY101031AY201031GA1041+045001031GF104991041001999999041001IA1019MA1999999095541MD1210161+0381MW1051REMSYN106AAXX  23031 76393 31910 41103 10216 20168 39554 40113 52016 70500 84040 90250 333 30/// 56050 58038 84365;
0253763930999992011022306004+25733-100300FM-12+051599999V0201501N001010042019N0010001N1+02161+01741101151ADDAY121061AY221061GF106991061051004501001001GJ105769IA1019KA1240M+02951KA2240N+01901MA1999999095551MD1210011+0291MW1051REMSYN124AAXX  23061 76393 31410 61501 10216 20174 39555 40115 52001 70522 86500 90550 333 10295 20190 30/// 55096 56300 58029 86617;
0236763930999992011022309004+25733-100300FM-12+051599999V0200601N001010033019N0010001N1+02001+01731101121ADDAY101031AY201031GA1071+003301061GF107991999051004501999999IA1019MA1999999095491MD1710061+0221MW1041REMSYN106AAXX  23091 76393 31410 70601 10200 20173 39549 40112 57006 70400 885// 90850 333 30/// 563// 58022 87611;EQDQ01+000082SCOTLC
0272763930999992011022312004+25733-100300FM-12+051599999V0200601N001010024019N0010001N1+01961+01751101141ADDAA124000091AY121061AY221061GA1081+002401061GF108991081051002501999999IA1019KA1240M+02951KA2120N+01821MA1999999095481MD1710011+0121MW1041REMSYN124AAXX  23121 76393 31310 80601 10196 20175 39548 40114 57001 70422 885// 91145 333 10295 20182 30160 563// 58012 70000 88608;
0217763930999992011022315004+25733-100300FM-12+051599999V0201201N001010027019N0005001N1+02081+01841101271ADDAY121031AY221031GA1081+002701061GF108991081051002501999999IA1019MA1999999095601MD1210121-0031MW1051REMSYN106AAXX  23151 76393 31305 81201 10208 20184 39560 40127 52012 70522 885// 91450 333 30/// 563// 59003 88609;
0255763930999992011022318004+25733-100300FM-12+051599999V0200901N001010024019N0005001N1+02361+01801101221ADDAY111061AY211061GA1071+002401061GF107991071051002501999999IA1019KA1120M+02461KA2240N+01821MA1999999095561MD1510041-0091MW1051REMSYN118AAXX  23181 76393 31305 70901 10236 20180 39556 40122 55004 70511 875// 91750 333 10246 20182 30/// 563// 59009 87608;
0199763930999992011022321004+25733-100300FM-12+051599999V0201101N002012200019N0010001N1+02821+01731100811ADDAY101031AY201031GA1001+999999999GF100991001001999999001001IA1019MA1999999095201MD1710351-0201MW1041REMSYN088AAXX  23211 76393 31910 01102 10282 20173 39520 40081 57035 70400 92045 333 30/// 59020;
0279763930999992011022400004+25733-100300FM-12+051599999V0201201N004012200019N0030001N1+02961+01551100591ADDAA124000091AY101061AY201061GA1001+999999999GF100991001001999999001001IA1019KA1120M+03101KA2180N+01821MA1999999095041MD1710161-0341MW1041REMSYN112AAXX  24001 76393 31930 01204 10296 20155 39504 40059 57016 70400 92345 333 10310 20182 30/// 50511 59034 70000;EQDQ01  00002PRCP24
0199763930999992011022403004+25733-100300FM-12+051599999V0201101N002012200019N0010001N1+02641+01591100661ADDAY101031AY201031GA1001+999999999GF100991001001999999001001IA1019MA1999999095141MD1210101-0401MW1051REMSYN088AAXX  24031 76393 31910 01102 10264 20159 39514 40066 52010 70500 90250 333 30/// 59040;
0251763930999992011022406004+25733-100300FM-12+051599999V0201101N004012200019N0010001N1+02221+01771100651ADDAY101061AY201061GA1001+999999999GF100991001001999999001001GJ104869IA1019KA1240M+03101KA2240N+01821MA1999999095131MD1710011-0421MW1051REMSYN106AAXX  24061 76393 31910 01104 10222 20177 39513 40065 57001 70500 90550 333 10310 20182 30/// 55081 59042;
0217763930999992011022409004+25733-100300FM-12+051599999V0200301N001012200019N0010001N1+02001+01791100651ADDAY101031AY201031GA1021+002401061GF102991021051002501001001IA1019MA1999999095101MD1710031-0391MW1041REMSYN106AAXX  24091 76393 31310 20301 10200 20179 39510 40065 57003 70400 82500 90850 333 30/// 56700 59039 82608;
0266763930999992011022412004+25733-100300FM-12+051599999V0200801N001010024019N0005001N1+01981+01771100591ADDAA124000091AY121061AY221061GA1081+002401061GF108991081051002501999999IA1019KA1240M+03101KA2120N+01881MA1999999095001MD1710101+9999MW1041REMSYN118AAXX  24121 76393 31305 80801 10198 20177 39500 40059 57010 70422 885// 91150 333 10310 20188 30170 567// 70000 88608;
0199763930999992011022415004+25733-100300FM-12+051599999V0202701N001012200019N0005001N1+02241+01801100751ADDAY141031AY241031GA1001+999999999GF100991001001999999001001IA1019MA1999999095121MD1210121-0481MW1041REMSYN088AAXX  24151 76393 31905 02701 10224 20180 39512 40075 52012 70444 91450 333 30/// 59048;
0233763930999992011022418004+25733-100300FM-12+051599999V0201301N001012200019N0008001N1+03111+01201100731ADDAY141061AY241061GF101991011001999999031001IA1019KA1120M+03111KA2240N+01881MA1999999095121MD1410001-0431MW1041REMSYN112AAXX  24181 76393 31908 11301 10311 20120 39512 40073 54000 70444 81030 91750 333 10311 20188 30/// 56070 59043;
0195763930999992011022421004+25733-100300FM-12+051599999V0201101N006012200019N0010001N1+03701+00521100341ADDAY101031AY201031GF101991011001999999031001IA1019MA1999999094831MD1710291-0371MW1041REMSYN100AAXX  24211 76393 31910 11106 10370 20052 39483 40034 57029 70400 81030 92045 333 30/// 56070 59037;
0245763930999992011022500004+25733-100300FM-12+051599999V0201201N006012200019N0020001N1+03101+01311100531ADDAY101061AY201061GF101991011001999999031001IA1019KA1120M+03781KA2180N+01881MA1999999095061MD1210231+0021MW1041REMSYN124AAXX  25001 76393 31920 11206 10310 20131 39506 40053 52023 70400 81030 92350 333 10378 20188 30/// 50781 56050 58002 70000;
0199763930999992011022503004+25733-100300FM-12+051599999V0201101N003012200019N0010001N1+02761+01211100871ADDAY101031AY201031GA1001+999999999GF100991001001999999001001IA1019MA1999999095421MD1210361+0281MW1051REMSYN088AAXX  25031 76393 31910 01103 10276 20121 39542 40087 52036 70500 90250 333 30/// 58028;
0251763930999992011022506004+25733-100300FM-12+051599999V0202101N001012200019N0010001N1+02541+01461101101ADDAY101061AY201061GA1001+999999999GF100991001001999999001001GJ105949IA1019KA1240M+03781KA2240N+01881MA1999999095631MD1210211+0501MW1051REMSYN106AAXX  25061 76393 31910 02101 10254 20146 39563 40110 52021 70500 90550 333 10378 20188 30/// 55099 58050;
0199763930999992011022509004+25733-100300FM-12+051599999V0201001N001012200019N0010001N1+02281+01221101211ADDAY101031AY201031GA1001+999999999GF100991001001999999001001IA1019MA1999999095641MD1710011+0541MW1041REMSYN088AAXX  25091 76393 31910 01001 10228 20122 39564 40121 57001 70400 90850 333 30/// 58054;
0272763930999992011022512004+25733-100300FM-12+051599999V0200401N001010180019N0010001N1+02121+00561101381ADDAA124000091AY121061AY221061GA1071+018001061GF107991071051017501999999IA1019KA1240M+03781KA2120N+01721MA1999999095751MD1210111+0751MW1041REMSYN124AAXX  25121 76393 31710 70401 10212 20056 39575 40138 52011 70422 875// 91150 333 10378 20172 30162 563// 58075 70000 87656;
0223763930999992011022515004+25733-100300FM-12+051599999V0200101N00101036001CN0010001N1+02281+00091101591ADDAY121031AY221031GA1041+009001081GF107991041011022501031999IA1019MA1999999095951MD1210201+0831MW1041REMSYN112AAXX  25151 76393 31810 70101 10228 20009 39595 40159 52020 70422 8413/ 91450 333 30/// 5635/ 58083 84830 83359;
0223763930999992011022518004+25733-100300FM-12+051599999V0200101N00101036001CN0010001N1+02281+00091101591ADDAY121061AY221061GA1041+009001081GF107991041011022501031999IA1019MA1999999095951MD1210201+0831MW1041REMSYN112AAXX  25181 76393 31810 70101 10228 20009 39595 40159 52020 70422 8413/ 91450 333 30/// 5635/ 58083 84830 83359;
0211763930999992011022521004+25733-100300FM-12+051599999V0201001N006012200019N0040001N1+02981+00961101091ADDAY101031AY201031GA1011+018001081GF101991999999022501999999IA1019MA1999999095501MD1710381+0671MW1041REMSYN100AAXX  25211 76393 31840 11006 10298 20096 39550 40109 57038 70400 92045 333 30/// 56300 58067 81856;
0262763930999992011022600004+25733-100300FM-12+051599999V0201201N006012200019N0040001N1+02901+00881100901ADDAA124000091AY101061AY201061GF101991011011022501001001IA1019KA1120M+03081KA2180N+02001MA1999999095371MD1710131+0311MW1041REMSYN130AAXX  26001 76393 31840 11206 10290 20088 39537 40090 57013 70400 81100 92345 333 10308 20200 30/// 50971 56300 58031 70000 81858;
0251763930999992011022606004+25733-100300FM-12+051599999V0201201N001012200019N0010001N1+02121+01601101101ADDAY101061AY201061GA1001+999999999GF100991001001999999001001GJ105649IA1019KA1240M+03081KA2240N+02001MA1999999095551MD1210191-0081MW1041REMSYN106AAXX  26061 76393 31910 01201 10212 20160 39555 40110 52019 70400 90550 333 10308 20200 30192 55094 59008;
0193763930999992011022609004+25733-100300FM-12+051599999V0201201N006012200019N0010001N1+01841+01491101191ADDAY101031AY201031GA1001+999999999GF100991001001999999001001MA1999999095401MD1710151+9999MW1041REMSYN088AAXX  26091 76393 31910 01206 10184 20149 39540 40119 57015 70400 70850 333 30/// 59024;
0272763930999992011022612004+25733-100300FM-12+051599999V0200701N001010027019N0005001N1+01871+01641101161ADDAA124000091AY121061AY221061GA1081+002701061GF108991081051002501999999IA1019KA1240M+03081KA2120N+01841MA1999999095321MD1710081-0431MW1041REMSYN124AAXX  26121 76393 31305 80701 10187 20164 39532 40116 57008 70422 885// 91150 333 10308 20184 30174 567// 59043 70000 88609;
0144763930999992011022615004+25733-100300FM-12+051599999V0200501N003019999999N0005001N1+01921+01611999999ADDGF108991999999004501999999REMSYN106AAXX  26151 76393 31405 80503 10192 20161 1445 39547 40114 52015 70544 886/ 9 333 30/// 563// 59048 88713;
0237763930999992011022618004+25733-100300FM-12+051599999V0200301N001012200019N0005001N1+02421+01681101031ADDAY101061AY201061GA1001+999999999GF100991001001999999001001IA1019KA1120M+02541KA2240N+01801MA1999999095361MD1710111-0521MW1051REMSYN100AAXX  26181 76393 31905 00301 10242 20168 39536 40103 57011 70500 91745 333 10254 20180 30/// 59052;
0199763930999992011022621004+25733-100300FM-12+051599999V0201101N003012200019N0005001N1+02961+01621100561ADDAY101031AY201031GA1001+999999999GF100991001001999999001001IA1019MA1999999094951MD1710411-0551MW1051REMSYN088AAXX  26211 76393 31905 01103 10296 20162 39495 40056 57041 70500 92050 333 30/// 59055;
0245763930999992011022700004+25733-100300FM-12+051599999V0201201N002012200019N0010001N1+03021+01521100331ADDAY101061AY201061GF102991021001999999041001IA1019KA1120M+03201KA2180N+01801MA1999999094791MD1710161-0581MW1051REMSYN124AAXX  27001 76393 31910 21202 10302 20152 39479 40033 57016 70500 82040 92350 333 10320 20180 30/// 50651 56050 59058 70000;
0199763930999992011022709004+25733-100300FM-12+051599999V0200801N001012200019N0010001N1+02121+01791100651ADDAY101031AY201031GA1001+999999999GF100991001001999999001001IA1019MA1999999094911MD1710021-0491MW1041REMSYN088AAXX  27091 76393 31910 00801 10212 20179 39491 40065 57002 70400 90850 333 30/// 59049;
0273763930999992011022712004+25733-100300FM-12+051599999V0200801N001012200019N0010001N1+01981+01801100661ADDAA124000091AY101061AY201061GA1001+999999999GF100991001001999999001001IA1019KA1240M+03201KA2120N+01981MA1999999094871MD1710041-0451MW1041REMSYN106AAXX  27121 76393 31910 00801 10198 20180 39487 40066 57004 70400 91150 333 10320 20198 30176 59045 70000;EQDQ01  00002PRCP24
0199763930999992011022715004+25733-100300FM-12+051599999V0201901N001012200019N0005001N1+02261+01691100731ADDAY101031AY201031GA1001+999999999GF100991001001999999001001IA1019MA1999999095031MD1210161-0441MW1051REMSYN088AAXX  27151 76393 31905 01901 10226 20169 39503 40073 52016 70500 91450 333 30/// 59044;
0237763930999992011022718004+25733-100300FM-12+051599999V0201101N002012200019N0005001N1+03081+01701100551ADDAY101061AY201061GA1001+999999999GF100991001001999999001001IA1019KA1120M+03161KA2240N+01961MA1999999094961MD1710071-0401MW1051REMSYN100AAXX  27181 76393 31905 01102 10308 20170 39496 40055 57007 70500 91750 333 10316 20196 30/// 59040;
0199763930999992011022721004+25733-100300FM-12+051599999V0201301N001012200019N0010001N1+03601+00891099991ADDAY101031AY201031GA1001+999999999GF100991001001999999001001IA1019MA1999999094501MD1710461-0451MW1051REMSYN088AAXX  27211 76393 31910 01301 10360 20089 39450 49999 57046 70500 92050 333 30/// 59045;
0279763930999992011022800004+25733-100300FM-12+051599999V0201501N001012200019N0005001N1+03521+01291099831ADDAA124000091AY101061AY201061GA1001+999999999GF100991001001999999001001IA1019KA1120M+03731KA2180N+01961MA1999999094411MD1710091-0381MW1051REMSYN112AAXX  28001 76393 31905 01501 10352 20129 39441 49983 57009 70500 92350 333 10373 20196 30/// 50711 59038 70000;EQDQ01  00002PRCP24
0287763930999992011022812004+25733-100300FM-12+051599999V0203601N002012200019N0005001N1+01861+00151101601ADDAA124000091AY101061AY201061GA1001+999999999GF100991001001999999001001GJ100609IA1019KA1240M+03731KA2120N+01861MA1999999095541MD1210241+0671MW1051REMSYN112AAXX  28121 76393 31905 03602 10186 20015 39554 40160 52024 70500 91150 333 10373 20186 30176 55010 58067 70000;EQDQ01  00002PRCP24
0199763930999992011022815004+25733-100300FM-12+051599999V0203601N001012200019N0005001N1+01781-00241102151ADDAY101031AY201031GA1001+999999999GF100991001001999999001001IA1019MA1999999096211MD1210671+1181MW1051REMSYN088AAXX  28151 76393 31905 03601 10178 21024 39621 40215 52067 70500 91450 333 30/// 58118;
0237763930999992011022818004+25733-100300FM-12+051599999V0200101N001012200019N0005001N1+02261-00151102041ADDAY101061AY201061GA1001+999999999GF100991001001999999001001IA1019KA1120M+02391KA2240N+01701MA1999999096311MD1210101+1351MW1051REMSYN100AAXX  28181 76393 31905 00101 10226 21015 39631 40204 52010 70500 91750 333 10239 20170 30/// 58135;
0199763930999992011022821004+25733-100300FM-12+051599999V0203401N003012200019N0020001N1+02621-00251101751ADDAY101031AY201031GA1001+999999999GF100991001001999999001001IA1019MA1999999096071MD1710251+1591MW1041REMSYN088AAXX  28211 76393 31920 03403 10262 21025 39607 40175 57025 70400 92045 333 30/// 58159;
0279763930999992011030100004+25733-100300FM-12+051599999V0200601N002012200019N0040001N1+02601-00081101751ADDAA124000091AY101061AY201061GA1001+999999999GF100991001001999999001001IA1019KA1120M+02861KA2180N+01701MA1999999096091MD1210021+1681MW1041REMSYN112AAXX  01001 76393 31940 00602 10260 21008 39609 40175 52002 70400 92345 333 10286 20170 30/// 51041 58168 70000;EQDQ01  00002PRCP24
0199763930999992011030103004+25733-100300FM-12+051599999V0200201N001012200019N0010001N1+02301-00281102081ADDAY101031AY201031GA1001+999999999GF100991001001999999001001IA1019MA1999999096441MD1210351+9999MW1051REMSYN088AAXX  01031 76393 31910 00201 10230 21028 39644 40208 52035 70500 90250 333 30/// 58///;
0251763930999992011030106004+25733-100300FM-12+051599999V0203201N001012200019N0010001N1+02021+00401102221ADDAY101061AY201061GA1001+999999999GF100991001001999999001001GJ106069IA1019KA1240M+02861KA2240N+01701MA1999999096561MD1210121+9999MW1051REMSYN106AAXX  01061 76393 31910 03201 10202 20040 39656 40222 52012 70500 90550 333 10286 20170 30/// 55101 58///;
0199763930999992011030109004+25733-100300FM-12+051599999V0201201N002012200019N0020001N1+01801+00171102151ADDAY101031AY201031GA1001+999999999GF100991001001999999001001IA1019MA1999999096461MD1710101+9999MW1041REMSYN088AAXX  01091 76393 31920 01202 10180 20017 39646 40215 57010 70400 90850 333 30/// 58///;
0273763930999992011030112004+25733-100300FM-12+051599999V0203401N001012200019N0010001N1+01561+00131102241ADDAA124000091AY101061AY201061GA1001+999999999GF100991001001999999001001IA1019KA1240M+02861KA2120N+01561MA1999999096501MD1210041+0961MW1041REMSYN106AAXX  01121 76393 31910 03401 10156 20013 39650 40224 52004 70400 91150 333 10286 20156 30132 58096 70000;EQDQ01  00002PRCP24
0268763930999992011030115004+25733-100300FM-12+051599999V0203501N002010600019N0005001N1+01341+00391101272ADDAY121031AY221031GA1081+060001001GF108991001001999999001011IA1019MA1999999095542MD1210562-0071MW1051REMSYN106AAXX  01151 76393 31905 83502 10134 20039 39554 40127 52056 70522 80001 91450 333 30/// 56008 59007 88070;EQDQ01+095543APOSP Q02+101273APOSLPQ03+000562APC3  
0255763930999992011030118004+25733-100300FM-12+051599999V0203601N001010600019N0010001N1+01921+00301101431ADDAY121061AY221061GA1081+060001001GF108991001001999999001011IA1019KA1120M+01981KA2240N+01341MA1999999095701MD1210161+0271MW1051REMSYN118AAXX  01181 76393 31910 83601 10192 20030 39570 40143 52016 70522 80001 91750 333 10198 20134 30/// 56007 58027 88070;
0199763930999992011030121004+25733-100300FM-12+051599999V0201101N005012200019N0030001N1+02621+00031101961ADDAY101031AY201031GA1001+999999999GF100991001001999999001001IA1019MA1999999096231MD1710331-0161MW1041REMSYN088AAXX  01211 76393 31930 01105 10262 20003 39623 40196 57033 70400 92050 333 30/// 59016;
0245763930999992011030200004+25733-100300FM-12+051599999V0201101N005012200019N0040001N1+02481+00011101811ADDAA124000091GA1001+999999999GF100991001001999999001001IA1019KA1120M+02701KA2180N+01401MA1999999096141MD1710091+0051REMSYN100AAXX  02001 76393 32940 01105 10248 20001 39614 40181 57009 92345 333 10270 20140 30/// 58005 70000;EQDQ01  00002PRCP24
0171763930999992011030203004+25733-100300FM-12+051599999V0200901N002012200019N0040001N1+02171+00111101881ADDGA1001+999999999GF100991001001999999001001IA1019MA1999999096241MD1210101+0151REMSYN082AAXX  02031 76393 32940 00902 10217 20011 39624 40188 52010 90250 333 30/// 58015;
0251763930999992011030206004+25733-100300FM-12+051599999V0201201N001012200019N0030001N1+01941+00101101821ADDAY101061AY201061GA1001+999999999GF100991001001999999001001GJ106069IA1019KA1240M+02701KA2240N+01401MA1999999096171MD1710071-0391MW1041REMSYN106AAXX  02061 76393 31930 01201 10194 20010 39617 40182 57007 70400 90550 333 10270 20140 30/// 55101 59039;
0199763930999992011030209004+25733-100300FM-12+051599999V0200901N001012200019N0020001N1+01541+00611101761ADDAY101031AY201031GA1001+999999999GF100991001001999999001001IA1019MA1999999096071MD1710101-0391MW1041REMSYN088AAXX  02091 76393 31920 00901 10154 20061 39607 40176 57010 70400 90850 333 30/// 59039;
0273763930999992011030212004+25733-100300FM-12+051599999V0203501N001012200019N0010001N1+01361+00931101851ADDAA124000091AY101061AY201061GA1001+999999999GF100991001001999999001001IA1019KA1240M+02701KA2120N+01221MA1999999096101MD1210031-0401MW1041REMSYN106AAXX  02121 76393 31910 03501 10136 20093 39610 40185 52003 70400 91150 333 10270 20122 30114 59040 70000;EQDQ01  00002PRCP24
0199763930999992011030215004+25733-100300FM-12+051599999V0203201N001012200019N0010001N1+01741+00901101991ADDAY101031AY201031GA1001+999999999GF100991001001999999001001IA1019MA1999999096201MD1210101-0491MW1051REMSYN088AAXX  02151 76393 31910 03201 10174 20090 39620 40199 52010 70500 91450 333 30/// 59049;
0237763930999992011030218004+25733-100300FM-12+051599999V0201101N002012200019N0005001N1+02401+01051101911ADDAY101061AY201061GA1001+999999999GF100991001001999999001001IA1019KA1120M+02521KA2240N+01221MA1999999096131MD1710071-0431MW1051REMSYN100AAXX  02181 76393 31905 01102 10240 20105 39613 40191 57007 70500 91755 333 10252 20122 30/// 59043;
0279763930999992011030300004+25733-100300FM-12+051599999V0201101N005012200019N0040001N1+02641+00911101421ADDAA124000091AY101061AY201061GA1001+999999999GF100991001001999999001001IA1019KA1120M+02871KA2180N+01221MA1999999095781MD1710041-0361MW1041REMSYN112AAXX  03001 76393 31940 01105 10264 20091 39578 40142 57004 70400 92350 333 10287 20122 30/// 50611 59036 70000;EQDQ01  00002PRCP24
0171763930999992011030303004+25733-100300FM-12+051599999V0201301N001012200019N0040001N1+02361+00781101481ADDGA1001+999999999GF100991001001999999001001IA1019MA1999999095891MD1210111-0341REMSYN082AAXX  03031 76393 32940 01301 10236 20078 39589 40148 52011 90250 333 30/// 59034;
0199763930999992011030309004+25733-100300FM-12+051599999V0200601N001012200019N0020001N1+01561+01191101481ADDAY151031AY201031GA1001+999999999GF100991001001999999001001IA1019MA1999999095821MD1710061-0251MW1041REMSYN088AAXX  03091 76393 31920 00601 10156 20119 39582 40148 57006 70450 90850 333 30/// 59025;
0237763930999992011030312004+25733-100300FM-12+051599999V0202401N001012200019N0010001N1+01561+01261101481ADDAY101061AY201061GA1001+999999999GF100991001001999999001001IA1019KA1240M+02871KA2120N+01501MA1999999095771MD1710051-0331MW1041REMSYN100AAXX  03121 76393 31910 02401 10156 20126 39577 40148 57005 70400 91150 333 10287 20150 30130 59033;
0199763930999992011030315004+25733-100300FM-12+051599999V0200501N001012200019N0005001N1+01741+01261101661ADDAY141031AY241031GA1001+999999999GF100991001001999999001001IA1019MA1999999095901MD1210131-0301MW1041REMSYN088AAXX  03151 76393 31905 00501 10174 20126 39590 40166 52013 70444 91445 333 30/// 59030;
0227763930999992011030318004+25733-100300FM-12+051599999V0201201N003012200019N0005001N1+02521+01351101501ADDAY141061AY241061GF102991001001999999001011IA1019KA1120M+02661KA2240N+01501MA1999999095771MD1710131-0361MW1041REMSYN106AAXX  03181 76393 31905 21203 10252 20135 39577 40150 57013 70444 80001 91745 333 10266 20150 30/// 59036;
0195763930999992011030321004+25733-100300FM-12+051599999V0201101N005012200019N0005001N1+02921+01221101121ADDAY141031AY241031GF102991001001999999001011IA1019MA1999999095461MD1710311-0361MW1041REMSYN100AAXX  03211 76393 31905 21105 10292 20122 39546 40112 57031 70444 80001 92050 333 30/// 56005 59036;
0245763930999992011030400004+25733-100300FM-12+051599999V0201201N004012200019N0020001N1+02861+01301100921ADDAY101061AY201061GF103991001001999999001021IA1019KA1120M+03021KA2180N+01501MA1999999095341MD1710121-0441MW1051REMSYN124AAXX  04001 76393 31920 31204 10286 20130 39534 40092 57012 70500 80002 92350 333 10302 20150 30/// 50871 56005 59044 70000;
0199763930999992011030403004+25733-100300FM-12+051599999V0200901N002012200019N0030001N1+02481+01281100981ADDAY101031AY201031GA1001+999999999GF100991001001999999001001IA1019MA1999999095441MD1210101-0441MW1051REMSYN088AAXX  04031 76393 31930 00902 10248 20128 39544 40098 52010 70500 90250 333 30/// 59044;
0195763930999992011030406004+25733-100300FM-12+051599999V0200901N002012200019N0020001N1+01931+01341999999ADDGA1001+999999999GF100991001001999999001001GJ106009KA1240M+03021KA2240N+01501REMSYN107AAXX  04061 76393 31920 00902 10193 20134 3 39544 40101 54000 7050 90550 333 10302 20150 30/// 55100 59044;
0199763930999992011030409004+25733-100300FM-12+051599999V0200601N001012200019N0020001N1+01621+01361100911ADDAY101031AY201031GA1001+999999999GF100991001001999999001001IA1019MA1999999095301MD1710151-0521MW1041REMSYN088AAXX  04091 76393 31920 00601 10162 20136 39530 40091 57015 70400 90850 333 30/// 59052;
0237763930999992011030412004+25733-100300FM-12+051599999V0203001N001012200019N0020001N1+01621+01331100861ADDAY101061AY201061GA1001+999999999GF100991001001999999001001IA1019KA1240M+03001KA2120N+01601MA1999999095201MD1710101-0571MW1041REMSYN100AAXX  04121 76393 31920 03001 10162 20133 39520 40086 57010 70400 91150 333 10300 20160 30142 59057;
0195763930999992011030415004+25733-100300FM-12+051599999V0200601N001012200019N0005001N1+01741+01421100961ADDAY141031AY241031GF102991001001999999001011IA1019MA1999999095251MD1210051-0651MW1041REMSYN100AAXX  04151 76393 31905 20601 10174 20142 39525 40096 52005 70444 80001 91450 333 30/// 56005 59065;
0237763930999992011030418004+25733-100300FM-12+051599999V0200501N001012200019N0005001N1+02301+01531100991ADDAY141061AY241061GA1001+999999999GF100991001001999999001001IA1019KA1120M+02461KA2240N+01601MA1999999095281MD1210031-0491MW1041REMSYN100AAXX  04181 76393 31905 00501 10230 20153 39528 40099 52003 70444 91750 333 10246 20160 30/// 59049;
0217763930999992011030421004+25733-100300FM-12+051599999V0200201N002012200019N0010001N1+02781+01431100601ADDAY101031AY201031GA1011+015001081GF101991011011017501001001IA1019MA1999999094971MD1710311-0491MW1051REMSYN106AAXX  04211 76393 31710 10202 10278 20143 39497 40060 57031 70500 81100 92050 333 30/// 56300 59049 81850;
0251763930999992011030500004+25733-100300FM-12+051599999V0201101N005012200019N0020001N1+02951+01321100511ADDAA124000091GA1001+999999999GF100991001001999999001001IA1019KA1120M+03051KA2180N+01601MA1999999094941MD1710031+0401REMSYN106AAXX  05001 76393 32920 01105 10295 20132 39494 40051 57003 92345 333 10305 20160 30/// 50411 58040 70000;EQDQ01  00002PRCP24
0270763930999992011030506004+25733-100300FM-12+051599999V0200801N003012200019N0020001N1+02181+01631100871ADDAY101061AY201061GA1001+999999999GF100991001001999999001001GJ105949IA1019KA1240M+03061KA2240N+99999MA1999999095351MD1999999-0101MW1041REMSYN106AAXX  05061 76393 31920 00803 10218 20163 39535 40087 5//// 70400 90550 333 10306 20230 30216 55099 59010;EQDQ01 +02302ATMN  
0217763930999992011030509004+25733-100300FM-12+051599999V0200101N002010300019N0010001N1+02021+01781101101ADDAY101031AY201031GA1081+030001031GF108991081001999999041001IA1019MA1999999095361MD1210011+0061MW1041REMSYN106AAXX  05091 76393 31910 80102 10202 20178 39536 40110 52001 70400 88040 90850 333 30/// 56070 58006 88360;
0266763930999992011030512004+25733-100300FM-12+051599999V0202701N001010300019N0010001N1+02041+01711101081ADDAA124000091AY101061AY201061GA1081+030001031GF108991081001999999041001IA1019KA1240M+03061KA2120N+02021MA1999999095301MD1710061+9999MW1041REMSYN118AAXX  05121 76393 31910 82701 10204 20171 39530 40108 57006 70400 88040 91150 333 10306 20202 30186 56070 70000 88360;
0217763930999992011030515004+25733-100300FM-12+051599999V0203301N002010450019N0010001N1+02161+01541101781ADDAY121031AY221031GA1081+045001031GF108991081001999999041999IA1019MA1999999096021MD1210721+0771MW1051REMSYN106AAXX  05151 76393 31910 83302 10216 20154 39602 40178 52072 70522 8804/ 91450 333 30/// 5607/ 58077 88365;
0223763930999992011030521004+25733-100300FM-12+051599999V0203601N00801036001CN0020001N1+02041+00491101961ADDAY121031AY221031GA1021+018001061GF107991021051017501071999IA1019MA1999999096251MD1710081+1281MW1301REMSYN112AAXX  05211 76393 31720 73608 10204 20049 39625 40196 57008 73022 8257/ 92050 333 30/// 5688/ 58128 82656 85367;
0284763930999992011030600004+25733-100300FM-12+051599999V0200301N001010360019N0030001N1+02161+00411101911ADDAA124000091AY121061AY221061GA1031+021001061GF107991031051022501071999IA1019KA1120M+02261KA2180N+01921MA1999999096211MD1710041+1271MW1041REMSYN136AAXX  06001 76393 31830 70301 10216 20041 39621 40191 57004 70422 8357/ 92350 333 10226 20192 30/// 50651 5688/ 58127 70000 83657 84365;
0217763930999992011030603004+25733-100300FM-12+051599999V0200201N001012200019N0030001N1+01881+00281102221ADDAY121031AY221031GA1021+018001061GF104991021051008001031001IA1019MA1999999096491MD1210281+9999MW1041REMSYN106AAXX  06031 76393 31530 40201 10188 20028 39649 40222 52028 70422 82530 90250 333 30/// 56880 58/// 82656;
0247763930999992011030606004+25733-100300FM-12+051599999V0200601N001012200019N0030001N1+01691+00451102341ADDAY101061AY201061GF101991011001999999031001GJ100369IA1019KA1240M+02261KA2240N+01691MA1999999096601MD1210131+9999MW1051REMSYN118AAXX  06061 76393 31930 10601 10169 20045 39660 40234 52013 70500 81030 90550 333 10226 20169 30/// 55006 56080 58///;
0199763930999992011030609004+25733-100300FM-12+051599999V0201101N003012200019N0020001N1+01461+00261102261ADDAY101031AY201031GA1001+999999999GF100991001001999999001001IA1019MA1999999096501MD1710091+1141MW1041REMSYN088AAXX  06091 76393 31920 01103 10146 20026 39650 40226 57009 70400 90850 333 30/// 58114;
0273763930999992011030612004+25733-100300FM-12+051599999V0200801N001012200019N0020001N1+01321+00271102221ADDAA124000091AY101061AY201061GA1001+999999999GF100991001001999999001001IA1019KA1240M+02261KA2120N+01321MA1999999096411MD1710091+1111MW1041REMSYN106AAXX  06121 76393 31920 00801 10132 20027 39641 40222 57009 70400 91150 333 10226 20132 30122 58111 70000;EQDQ01  00002PRCP24
0199763930999992011030615004+25733-100300FM-12+051599999V0201101N003012200019N0020001N1+01281+00261102321ADDAY101031AY201031GA1001+999999999GF100991001001999999001001IA1019MA1999999096481MD1210071+0461MW1051REMSYN088AAXX  06151 76393 31920 01103 10128 20026 39648 40232 52007 70500 91450 333 30/// 58046;
0237763930999992011030618004+25733-100300FM-12+051599999V0201201N004012200019N0030001N1+01841+00291102151ADDAY101061AY201061GA1001+999999999GF100991001001999999001001IA1019KA1120M+01941KA2240N+01241MA1999999096321MD1710161-0011MW1051REMSYN100AAXX  06181 76393 31930 01204 10184 20029 39632 40215 57016 70500 91750 333 10194 20124 30/// 59001;
0214763930999992011030703004+25733-100300FM-12+051599999V0201201N002012200019N0030001N1+01801+00331101391ADDAY101031AY201031GF102991001001999999001021IA1019MA1999999095681MD1210051-0811MW1051REMSYN100AAXX  07031 76393 31930 21202 10180 20033 39568 40139 52005 70500 82002 90250 333 30/// 56007 59081;EQDQ01+000022SCOTLC
0251763930999992011030706004+25733-100300FM-12+051599999V0201501N001012200019N0030001N1+01501+00411101321ADDAY101061AY201061GA1001+999999999GF100991001001999999001001GJ106189IA1019KA1240M+02261KA2240N+01241MA1999999095611MD1710071-0991MW1051REMSYN106AAXX  07061 76393 31930 01501 10150 20041 39561 40132 57007 70500 90550 333 10226 20124 30/// 55103 59099;
0273763930999992011030712004+25733-100300FM-12+051599999V0209999C000012200019N0010001N1+01201+00671101071ADDAA124000091AY101061AY201061GA1001+999999999GF100991001001999999001001IA1019KA1240M+02261KA2120N+01161MA1999999095211MD1999999-1201MW1051REMSYN106AAXX  07121 76393 31910 00000 10120 20067 39521 40107 5//// 70500 91155 333 10226 20116 30096 59120 70000;EQDQ01  00002PRCP24
0199763930999992011030715004+25733-100300FM-12+051599999V0203201N001012200019N0010001N1+01561+00721101031ADDAY101031AY201031GA1001+999999999GF100991001001999999001001IA1019MA1999999095241MD1210031-1241MW1051REMSYN088AAXX  07151 76393 31910 03201 10156 20072 39524 40103 52003 70500 91450 333 30/// 59124;
0214763930999992011030718004+25733-100300FM-12+051599999V0201201N002012200019N0008001N1+02421+00771100911ADDAY141061AY201061GF101991001001999999001011IA1019KA1240N+01141MA1999999095161MD1710081-1161MW1041REMSYN106AAXX  07181 76393 31908 11202 10242 20077 39516 40091 57008 70440 80001 91750 333 20114 30/// 56005 59116;
0199763930999992011030721004+25733-100300FM-12+051599999V0201201N006012200019N0010001N1+02921+00711100511ADDAY101031AY201031GA1001+999999999GF100991001001999999001001IA1019MA1999999094851MD1710311+9999MW1041REMSYN088AAXX  07211 76393 31910 01206 10292 20071 39485 40051 57031 70400 92345 333 30/// 58///;
0279763930999992011030800004+25733-100300FM-12+051599999V0201201N003012200019N0030001N1+02821+00801100301ADDAA124000091AY101061AY201061GA1001+999999999GF100991001001999999001001IA1019KA1120M+03061KA2180N+01101MA1999999094731MD1710121-0901MW1041REMSYN112AAXX  08001 76393 31930 01203 10282 20080 39473 40030 57012 70400 92345 333 10306 20110 30/// 50711 59090 70000;EQDQ01  00002PRCP24
0199763930999992011030803004+25733-100300FM-12+051599999V0201201N001012200019N0030001N1+02491+01151100371ADDAY101031AY201031GA1001+999999999GF100991001001999999001001IA1019MA1999999094841MD1210121-0841MW1051REMSYN088AAXX  08031 76393 31930 01201 10249 20115 39484 40037 52012 70500 90250 333 30/// 59084;
0251763930999992011030806004+25733-100300FM-12+051599999V0201301N001012200019N0030001N1+02001+01431100391ADDAY101061AY201061GA1001+999999999GF100991001001999999001001GJ106129IA1019KA1240M+03061KA2240N+01101MA1999999094861MD1210021-0751MW1051REMSYN106AAXX  08061 76393 31930 01301 10200 20143 39486 40039 52002 70500 90550 333 10306 20110 30/// 55102 59075;
0199763930999992011030809004+25733-100300FM-12+051599999V0203601N001012200019N0020001N1+01721+01501100301ADDAY101031AY201031GA1001+999999999GF100991001001999999001001IA1019MA1999999094741MD1710121+9999MW1041REMSYN088AAXX  08091 76393 31920 03601 10172 20150 39474 40030 57012 70400 90850 333 30/// 58///;
0273763930999992011030812004+25733-100300FM-12+051599999V0202401N001012200019N0010001N1+01661+01441100371ADDAA124000091AY101061AY201061GA1001+999999999GF100991001001999999001001IA1019KA1240M+03061KA2120N+01661MA1999999094751MD1210011-0461MW1041REMSYN106AAXX  08121 76393 31910 02401 10166 20144 39475 40037 52001 70400 91150 333 10306 20166 30146 59046 70000;EQDQ01  00002PRCP24
0237763930999992011030818004+25733-100300FM-12+051599999V0203201N006012200019N0040001N1+03501-00251100411ADDAY101061AY201061GA1001+999999999GF100991001001999999001001IA1019KA1120M+03601KA2240N+01661MA1999999094841MD1710061-0321MW1041REMSYN100AAXX  08181 76393 31940 03206 10350 21025 39484 40041 57006 70400 91745 333 10360 20166 30/// 59032;
0189763930999992011030821004+25733-100300FM-12+051599999V0203101N008012200019N0050001N1+03681-00451100051ADDAY131031AY231031GF102991001001999999001011MA1999999094581MD1710261+9999MW1071REMSYN100AAXX  08211 76393 31950 23108 10368 21045 39458 40005 57026 70733 80001 82045 333 30/// 56005 59027;
0245763930999992011030900004+25733-100300FM-12+051599999V0203301N003012200019N0050001N1+03501-00741100031ADDAY101061AY201061GF101991001001999999001061IA1019KA1120M+03751KA2180N+01661MA1999999094651MD1310071-0081MW1041REMSYN124AAXX  09001 76393 31950 13303 10350 21074 39465 40003 53007 70400 80006 92345 333 10375 20166 30/// 50961 56005 59008 70000;
0200763930999992011030903004+25733-100300FM-12+051599999V0200901N001012200019N0040001N1+02901+01072100361ADDAY101031AY201031GA1001+999999999GF100991001001999999001001IA1019MA1999999094981MD1210331+0141MW1051REMSYN089AAXX  09031 76393 31940 00901 10290 20107 39498 40036 52033 70500 90250 333 30/// 580140;
0251763930999992011030906004+25733-100300FM-12+051599999V0201801N001012200019N0030001N1+02481+00991100571ADDAY101061AY201061GA1001+999999999GF100991001001999999001001GJ106249IA1019KA1240M+03751KA2240N+01661MA1999999095141MD1210161+0281MW1051REMSYN106AAXX  09061 76393 31930 01801 10248 20099 39514 40057 52016 70500 90550 333 10375 20166 30/// 55104 58028;
0199763930999992011030909004+25733-100300FM-12+051599999V0203201N001012200019N0010001N1+02301+00961100761ADDAY101031AY201031GA1001+999999999GF100991001001999999001001IA1019MA1999999095271MD1210121+0531MW1041REMSYN088AAXX  09091 76393 31910 03201 10230 20096 39527 40076 52012 70400 90850 333 30/// 58053;
0273763930999992011030912004+25733-100300FM-12+051599999V0202501N001012200019N0010001N1+02061+00941101041ADDAA124000091AY101061AY201061GA1001+999999999GF100991001001999999001001IA1019KA1240M+03751KA2120N+02021MA1999999095471MD1210201+0721MW1041REMSYN106AAXX  09121 76393 31910 02501 10206 20094 39547 40104 52020 70400 91150 333 10375 20202 30182 58072 70000;EQDQ01  00002PRCP24
0195763930999992011030915004+25733-100300FM-12+051599999V0203001N002012200019N0010001N1+02461+00781101601ADDAY101031AY201031GF102991021001999999041001IA1019MA1999999095961MD1210491+1061MW1051REMSYN100AAXX  09151 76393 31910 23002 10246 20078 39596 40160 52049 70500 82040 91450 333 30/// 56050 58106;
0223763930999992011030921004+25733-100300FM-12+051599999V0200301N00301036001CN0020001N1+02951+00981101581ADDAY121031AY221031GA1021+021001081GF106991041051022501011081IA1019MA1999999095971MD1710151+1391MW1041REMSYN112AAXX  09211 76393 31820 60303 10295 20098 39597 40158 57015 70422 84518 92045 333 30/// 56355 58139 82857 82658;
0239763930999992011031000004+25733-100300FM-12+051599999V0200201N004012200019N0040001N1+02741+00271101671ADDAY111061AY211061GF103991021001999999011081KA1120M+03161KA2180N+02021MA1999999096091MD1210121+1441MW1041REMSYN124AAXX  10001 76393 31940 30204 10274 20027 39609 40167 52012 70411 82018 82345 333 10316 20202 30/// 50871 56055 58144 70000;
0199763930999992011031003004+25733-100300FM-12+051599999V0201201N001012200019N0030001N1+02321+00281102121ADDAY101031AY201031GA1001+999999999GF100991001001999999001001IA1019MA1999999096531MD1210441+1551MW1051REMSYN088AAXX  10031 76393 31930 01201 10232 20028 39653 40212 52044 70500 90250 333 30/// 58155;
0241763930999992011031006004+25733-100300FM-12+051599999V0203201N001012200019N0030001N1+02061+00361102421ADDAY101061AY201061GF101991999999999999999999GJ105949IA1019KA1240M+03161KA2240N+02061MA1999999096791MD1210261+9999MW1051REMSYN112AAXX  10061 76393 31930 13201 10206 20036 39679 40242 52026 70500 90550 333 10316 20206 30/// 55099 56070 58165;
0195763930999992011031009004+25733-100300FM-12+051599999V0201101N003012200019N0020001N1+01801+00901102611ADDAY101031AY201031GF103991031051012501001001IA1019MA1999999096921MD1210141+1651MW1041REMSYN100AAXX  10091 76393 31620 31103 10180 20090 39692 40261 52014 70400 83500 90850 333 30/// 56300 58165;
0269763930999992011031012004+25733-100300FM-12+051599999V0201201N004012200019N0020001N1+01601+00771102871ADDAA124000091AY101061AY201061GF101991011051012501001001IA1019KA1240M+03161KA2120N+01601MA1999999097101MD1210181+1631MW1041REMSYN118AAXX  10121 76393 31620 11204 10160 20077 39710 40287 52018 70400 81500 91150 333 10316 20160 30140 56300 58163 70000;EQDQ01  00002PRCP24
0217763930999992011031015004+25733-100300FM-12+051599999V0201201N005012200019N0030001N1+01801+00271103081ADDAY101031AY201031GA1011+018001061GF101991011051999999001001IA1019MA1999999097271MD1210171+1311MW1051REMSYN106AAXX  10151 76393 31930 11205 10180 20027 39727 40308 52017 70500 81500 91450 333 30/// 56300 58131 81656;
0237763930999992011031018004+25733-100300FM-12+051599999V0201201N005012200019N0030001N1+02201+00131102961ADDAY101061AY201061GA1001+999999999GF100991001001999999001001IA1019KA1120M+02301KA2240N+01601MA1999999097151MD1710121+1031MW1051REMSYN100AAXX  10181 76393 31930 01205 10220 20013 39715 40296 57012 70500 91750 333 10230 20160 30/// 58103;
0171763930999992011031021004+25733-100300FM-12+051599999V0201101N005012200019N0070001N1+02401+00061102561ADDGA1001+999999999GF100991001001999999001001IA1019MA1999999096801MD1710351+0831REMSYN082AAXX  10211 76393 32957 01105 10240 20006 39680 40256 57035 92045 333 30/// 58083;
0251763930999992011031100004+25733-100300FM-12+051599999V0201101N005012200019N0050001N1+02341-00191102301ADDAA124000091GA1001+999999999GF100991001001999999001001IA1019KA1120M+02561KA2180N+01601MA1999999096591MD1710211+0501REMSYN106AAXX  11001 76393 32950 01105 10234 21019 39659 40230 57021 92345 333 10256 20160 30/// 50891 58050 70000;EQDQ01  00002PRCP24
0199763930999992011031103004+25733-100300FM-12+051599999V0201101N001012200019N0040001N1+02121-00141102391ADDAY101031AY201031GA1001+999999999GF100991001001999999001001IA1019MA1999999096691MD1210101+0161MW1051REMSYN088AAXX  11031 76393 31940 01101 10212 21014 39669 40239 52010 70500 90250 333 30/// 58016;
0251763930999992011031106004+25733-100300FM-12+051599999V0201301N001012200019N0030001N1+01901-00221102321ADDAY101061AY201061GA1001+999999999GF100991001001999999001001GJ106249IA1019KA1240M+02561KA2240N+01601MA1999999096631MD1710061-0161MW1051REMSYN106AAXX  11061 76393 31930 01301 10190 21022 39663 40232 57006 70500 90550 333 10256 20160 30/// 55104 59016;
0199763930999992011031109004+25733-100300FM-12+051599999V0200601N001012200019N0020001N1+01381+00241102231ADDAY101031AY201031GA1001+999999999GF100991001001999999001001IA1019MA1999999096491MD1710131-0421MW1041REMSYN088AAXX  11091 76393 31920 00601 10138 20024 39649 40223 57013 70400 90850 333 30/// 59042;
0273763930999992011031112004+25733-100300FM-12+051599999V0200401N001012200019N0010001N1+01241+00461102191ADDAA124000091AY101061AY201061GA1001+999999999GF100991001001999999001001IA1019KA1240M+02561KA2120N+01241MA1999999096401MD1710091-0701MW1041REMSYN106AAXX  11121 76393 31910 00401 10124 20046 39640 40219 57009 70400 91150 333 10256 20124 30106 59070 70000;EQDQ01  00002PRCP24
0199763930999992011031115004+25733-100300FM-12+051599999V0203001N001012200019N0010001N1+01481+00491102301ADDAY101031AY201031GA1001+999999999GF100991001001999999001001IA1019MA1999999096471MD1210071-0801MW1051REMSYN088AAXX  11151 76393 31910 03001 10148 20049 39647 40230 52007 70500 91450 333 30/// 59080;
0237763930999992011031118004+25733-100300FM-12+051599999V0200401N001012200019N0010001N1+02121+00561102211ADDAY101061AY201061GA1001+999999999GF100991001001999999001001IA1019KA1120M+02261KA2240N+01221MA1999999096381MD1710091-0771MW1051REMSYN100AAXX  11181 76393 31910 00401 10212 20056 39638 40221 57009 70500 91750 333 10226 20122 30/// 59077;
0217763930999992011031121004+25733-100300FM-12+051599999V0201201N006012200019N0020001N1+02641+00721101721ADDAY101031AY201031GA1011+021001081GF101991011011022501001001IA1019MA1999999095971MD1710411-0831MW1041REMSYN106AAXX  11211 76393 31820 11206 10264 20072 39597 40172 57041 70400 81100 92050 333 30/// 56300 59083 81857;
0245763930999992011031200004+25733-100300FM-12+051599999V0201201N006012200019N0030001N1+02701+00901101491ADDAY101061AY201061GF101991011001999999031001IA1019KA1120M+02861KA2180N+01271MA1999999095821MD1710151-0771MW1041REMSYN124AAXX  12001 76393 31930 11206 10270 20090 39582 40149 57015 70400 81030 92345 333 10286 20127 30/// 50771 56050 59077 70000;
0199763930999992011031209004+25733-100300FM-12+051599999V0203501N001012200019N0020001N1+01561+01191101631ADDAY101031AY201031GA1001+999999999GF100991001001999999001001IA1019MA1999999095781MD1710091-0811MW1041REMSYN088AAXX  12091 76393 31920 03501 10156 20119 39578 40163 57009 70400 90850 333 30/// 59081;
0273763930999992011031212004+25733-100300FM-12+051599999V0201001N001012200019N0020001N1+01481+01181101571ADDAA124000091AY101061AY201061GA1001+999999999GF100991001001999999001001IA1019KA1240M+02861KA2120N+01481MA1999999095661MD1710121-0741MW1041REMSYN106AAXX  12121 76393 31920 01001 10148 20118 39566 40157 57012 70400 91150 333 10286 20148 30134 59074 70000;EQDQ01  00002PRCP24
0199763930999992011031215004+25733-100300FM-12+051599999V0203001N001012200019N0010001N1+01701+01201101671ADDAY101031AY201031GA1001+999999999GF100991001001999999001001IA1019MA1999999095841MD1210181-0631MW1051REMSYN088AAXX  12151 76393 31910 03001 10170 20120 39584 40167 52018 70500 91450 333 30/// 59063;
0233763930999992011031218004+25733-100300FM-12+051599999V0201101N001012200019N0010001N1+02421+01161101541ADDAY101061AY201061GF102991021001999999041001IA1019KA1120M+02601KA2240N+01421MA1999999095791MD1710051-0591MW1051REMSYN112AAXX  12181 76393 31910 21101 10242 20116 39579 40154 57005 70500 82040 91750 333 10260 20142 30/// 56050 59059;
0262763930999992011031300004+25733-100300FM-12+051599999V0201101N001019999999N0040001N1+02961-00081101051ADDAA124000091AY121061AY221061GF105991011021999999001061IA1019KA1120M+03101KA2180N+01701MA1999999095391MD1999999-0431MW1051REMSYN130AAXX  13001 76393 31940 51101 10296 21008 39539 40105 5//// 70522 81206 92350 333 10310 20170 30/// 50751 53305 59043 70000 81804;
0199763930999992011031303004+25733-100300FM-12+051599999V0201201N002012200019N0040001N1+02421+01391101121ADDAY101031AY201031GA1001+999999999GF100991001001999999001001IA1019MA1999999095551MD1210161+9999MW1041REMSYN088AAXX  13031 76393 31940 01202 10242 20139 39555 40112 52016 70400 90250 333 30/// 58///;
0251763930999992011031306004+25733-100300FM-12+051599999V0201201N002012200019N0040001N1+01981+01441101291ADDAY101061AY201061GA1001+999999999GF100991001001999999001001GJ105829IA1019KA1240M+03101KA2240N+01601MA1999999095691MD1210141-0181MW1041REMSYN106AAXX  13061 76393 31940 01202 10198 20144 39569 40129 52014 70400 90550 333 10310 20160 30/// 55097 59018;
0199763930999992011031309004+25733-100300FM-12+051599999V0200901N001012200019N0020001N1+01721+01431101261ADDAY101031AY201031GA1001+999999999GF100991001001999999001001IA1019MA1999999095551MD1710141-0231MW1041REMSYN088AAXX  13091 76393 31920 00901 10172 20143 39555 40126 57014 70400 90845 333 30/// 59023;
0273763930999992011031312004+25733-100300FM-12+051599999V0203301N001012200019N0020001N1+01621+01261101271ADDAA124000091AY101061AY201061GA1001+999999999GF100991001001999999001001IA1019KA1240M+02921KA2120N+01621MA1999999095591MD1210041-0071MW1041REMSYN106AAXX  13121 76393 31920 03301 10162 20126 39559 40127 52004 70400 91150 333 10292 20162 30144 59007 70000;EQDQ01  00002PRCP24
0195763930999992011031315004+25733-100300FM-12+051599999V0203101N001012200019N0010001N1+01801+01451101461ADDAY101031AY201031GF104991001001999999001081IA1019MA1999999095731MD1210141-0011MW1051REMSYN100AAXX  13151 76393 31910 43101 10180 20145 39573 40146 52014 70500 80008 91455 333 30/// 56005 59001;
0233763930999992011031318004+25733-100300FM-12+051599999V0200701N001012200019N0010001N1+02441+01411101361ADDAY101061AY201061GF104991011001999999011011IA1019KA1120M+02621KA2240N+01621MA1999999095651MD1710081-0141MW1051REMSYN112AAXX  13181 76393 31910 40701 10244 20141 39565 40136 57008 70500 81011 91755 333 10262 20162 30/// 56055 59014;
0217763930999992011031321004+25733-100300FM-12+051599999V0200701N003010420019N0010001N1+02781+01411101111ADDAY121031AY221031GA1071+042001041GF107991071001999999021999IA1019MA1999999095461MD1710191+9999MW1041REMSYN106AAXX  13211 76393 31910 70703 10278 20141 39546 40111 57019 70422 8702/ 92045 333 30/// 5605/ 58/// 87464;
0262763930999992011031400004+25733-100300FM-12+051599999V0200901N002019999999N0020001N1+02781+01281101071ADDAA124000091AY121061AY221061GF108991081001999999021999IA1019KA1120M+02921KA2180N+01621MA1999999095471MD1710081+0081MW1041REMSYN130AAXX  14001 76393 31920 80902 10278 20128 39547 40107 57008 70422 8802/ 92350 333 10292 20162 30/// 50381 5605/ 58008 70000 88465;
0195763930999992011031403004+25733-100300FM-12+051599999V0200901N001012200019N0010001N1+02501+01491101291ADDAY101031AY201031GF102991011001999999031021IA1019MA1999999095721MD1210251+0171MW1051REMSYN100AAXX  14031 76393 31910 20901 10250 20149 39572 40129 52025 70500 81032 90250 333 30/// 56055 58017;
0248763930999992011031406004+25733-100300FM-12+051599999V0201101N001012200019N0010001N1+02141+01751101381ADDAY101061AY201061GF104991021001999999051081GJ103009IA1019KA1240M+02921KA2240N+01601MA1999999095801MD1210081+9999MW1051REMSYN119AAXX  14061 76393 31910 41101 10214 20175 39580 40138 52008 70500 82058 90550 333 10292 20160 30/// 55050 56055 580110;
0199763930999992011031415004+25733-100300FM-12+051599999V0200301N001012200019N0008001N1+02201+01691101691ADDAY101031AY201031GA1001+999999999GF100991001001999999001001IA1019MA1999999096011MD1210201+0281MW1051REMSYN088AAXX  14151 76393 31908 00301 10220 20169 39601 40169 52020 70500 91450 333 30/// 58028;
0255763930999992011031418004+25733-100300FM-12+051599999V0200701N001012200019N0010001N1+02741+01381101701ADDAY101061AY201061GA1041+015001081GF104991041021017501001001IA1019KA1120M+02941KA2240N+01921MA1999999096021MD1210011+0371MW1051REMSYN118AAXX  14181 76393 31710 40701 10274 20138 39602 40170 52001 70500 84200 91755 333 10294 20192 30/// 56500 58037 84850;
0223763930999992011031421004+25733-100300FM-12+051599999V0201101N00501012001CN0020001N1+02801+01741101411ADDAY121031AY221031GA1021+012901081GF107991071051012501999999IA1019MA1999999095801MD1710221+0341MW1041REMSYN112AAXX  14211 76393 31620 71105 10280 20174 39580 40141 57022 70422 875// 92050 333 30/// 563// 58034 82843 85645;
0191763930999992011031500004+25733-100300FM-12+051599999V0201401N006019999999N0020001N1+02541+01611101531ADDAA106000091AY121061AY221061GF107991999999012501999999MA1999999095931MD1210131+9999MW1041REMSYN072AAXX  15001 76393 01620 71406 10254 20161 39593 40153 52013 69901 70422;EQDQ01  00002PRCP06
0247763930999992011031503004+25733-100300FM-12+051599999V0201801N001010072019N0010001N1+02281+01711101701ADDAA103000091AY121031AY221031GA1071+007201061GF107991071051004501999999IA1019MA1999999096101MD1210171+9999MW1041REMSYN106AAXX  15031 76393 21410 71801 10228 20171 39610 40170 52017 70422 875// 90250 333 30/// 563// 69907 87624;EQDQ01  00002PRCP03
0253763930999992011031506004+25733-100300FM-12+051599999V0202101N001012200019N0010001N1+02121+01671101791ADDAY101061AY201061GF102991021051004501001001GJ102889IA1019KA1240M+03121KA2240N+01921MA1999999096161MD1210061+0361MW1041REMSYN124AAXX  15061 76393 31410 22101 10212 20167 39616 40179 52006 70400 82500 90550 333 10312 20192 30/// 55048 56300 58036 82606;
0217763930999992011031509004+25733-100300FM-12+051599999V0201101N002012200019N0010001N1+01861+01551101671ADDAY101031AY201031GA1021+001201061GF102991021051001501001001IA1019MA1999999096011MD1710151+9999MW1041REMSYN106AAXX  15091 76393 31210 21102 10186 20155 39601 40167 57015 70400 82500 90850 333 30/// 56300 58/// 82604;
0272763930999992011031512004+25733-100300FM-12+051599999V0200701N001012200019N0010001N1+01821+01511101721ADDAA124000091AY111061AY211061GA1041+003601061GF104991041051004501001001IA1019KA1240M+03121KA2120N+01801MA1999999096021MD1210011+0211MW1041REMSYN124AAXX  15121 76393 31410 40701 10182 20151 39602 40172 52001 70411 84500 91150 333 10312 20180 30162 56100 58021 70000 84612;
0261763930999992011031518004+25733-100300FM-12+051599999V0200701N003012200019N0015001N1+02441+01451101881ADDAY121061AY221061GA1011+010801061GF103991031041012501001001IA1019KA1120M+02621KA2240N+01801MA1999999096171MD1410001+0751MW1041REMSYN124AAXX  15181 76393 31615 30703 10244 20145 39617 40188 54000 70422 83400 91745 333 10262 20180 30/// 56300 58075 81636 82840;
0217763930999992011031521004+25733-100300FM-12+051599999V0201201N006012200019N0020001N1+02801+01491101511ADDAY121031AY221031GA1031+015001081GF104991031011017501021001IA1019MA1999999095851MD1710321+0051MW1041REMSYN106AAXX  15211 76393 31720 41206 10280 20149 39585 40151 57032 70422 83120 92045 333 30/// 56350 58005 83850;
0319763930999992011031600004+25733-100300FM-12+051599999V0201101N005010360019N0040001N1+02681+01531101421ADDAA124999999AY121061AY221061GA1011+013801061GF107991021041012501021011IA1019KA1120M+99999KA2180N+01801MA1999999095811MD1710041-0121MW1041REMSYN136AAXX  16001 76393 31640 71105 10268 20153 39581 40142 57004 70422 82421 92345 333 10228 20180 30/// 50671 56355 59012 79999 81646 81849;EQDQ01  99992PRCP24Q02 +02282ATMX  
0217763930999992011031603004+25733-100300FM-12+051599999V0201201N001012200019N0020001N1+02541+01461101551ADDAY121031AY221031GA1021+000601061GF104991021051012501031011IA1019MA1999999095961MD1210151-0141MW1041REMSYN106AAXX  16031 76393 31620 41201 10254 20146 39596 40155 52015 70422 82531 90250 333 30/// 56355 59014 82602;
0253763930999992011031606004+25733-100300FM-12+051599999V0201101N001012200019N0020001N1+02101+01801101691ADDAY121061AY221061GF103991011051004501001081GJ105289IA1019KA1240M+02881KA2240N+01801MA1999999096081MD1210121-0081MW1041REMSYN124AAXX  16061 76393 31420 31101 10210 20180 39608 40169 52012 70422 81508 90550 333 10288 20180 30/// 55088 56305 59008 81606;
0217763930999992011031609004+25733-100300FM-12+051599999V0201201N002010021019N0010001N1+01941+01761101591ADDAY121031AY221031GA1061+002101061GF106991061051002501001001IA1019MA1999999095961MD1710131-0051MW1041REMSYN106AAXX  16091 76393 31310 61202 10194 20176 39596 40159 57013 70422 86500 90850 333 30/// 56300 59005 86607;
0272763930999992011031612004+25733-100300FM-12+051599999V0200901N001010027019N0010001N1+01941+01701101621ADDAA124000091AY121061AY221061GA1081+002701061GF108991081051002501001001IA1019KA1240M+02881KA2120N+01941MA1999999095941MD1710021-0081MW1041REMSYN124AAXX  16121 76393 31310 80901 10194 20170 39594 40162 57002 70422 88500 91150 333 10288 20194 30180 56300 59008 70000 88609;
0195763930999992011031615004+25733-100300FM-12+051599999V0200601N001012200019N0010001N1+02021+01651101881ADDAY101031AY201031GF102991021001999999041001IA1019MA1999999096171MD1210231+0001MW1051REMSYN100AAXX  16151 76393 31910 20601 10202 20165 39617 40188 52023 70500 82040 91450 333 30/// 56050 58000;
0237763930999992011031618004+25733-100300FM-12+051599999V0201201N003012200019N0008001N1+02561+01661101821ADDAY101061AY201061GA1001+999999999GF100991001001999999001001IA1019KA1120M+02701KA2240N+01901MA1999999096131MD1710041-0041MW1051REMSYN100AAXX  16181 76393 31908 01203 10256 20166 39613 40182 57004 70500 91750 333 10270 20190 30/// 59004;
0217763930999992011031621004+25733-100300FM-12+051599999V0201101N003012200019N0030001N1+03041+01501101451ADDAY101031AY201031GA1011+018001081GF102991011021017501001031IA1019MA1999999095821MD1710311-0031MW1031REMSYN106AAXX  16211 76393 31730 21103 10304 20150 39582 40145 57031 70300 81203 92045 333 30/// 56305 59003 81856;
0199763930999992011031703004+25733-100300FM-12+051599999V0201201N002012200019N0030001N1+02511+01611101421ADDAY101031AY201031GA1001+999999999GF100991001001999999001001IA1019MA1999999095881MD1999999-0081MW1041REMSYN088AAXX  17031 76393 31930 01202 10251 20161 39588 40142 5//// 70400 90250 333 30/// 59008;
0251763930999992011031706004+25733-100300FM-12+051599999V0201201N002012200019N0030001N1+02141+01621101581ADDAY101061AY201061GA1001+999999999GF100991001001999999001001GJ105889IA1019KA1240M+03181KA2240N+01901MA1999999096011MD1210131-0071MW1041REMSYN106AAXX  17061 76393 31930 01202 10214 20162 39601 40158 52013 70400 90550 333 10318 20190 30/// 55098 59007;
0199763930999992011031709004+25733-100300FM-12+051599999V0200401N001012200019N0010001N1+01861+01681101501ADDAY101031AY201031GA1001+999999999GF100991001001999999001001IA1019MA1999999095901MD1710111-0061MW1041REMSYN088AAXX  17091 76393 31910 00401 10186 20168 39590 40150 57011 70400 90850 333 30/// 59006;
0272763930999992011031712004+25733-100300FM-12+051599999V0200401N001010021019N0010001N1+01841+01661101581ADDAA124000091AY121061AY221061GA1081+002101071GF108991081061002501001001IA1019KA1240M+03181KA2120N+01841MA1999999095911MD1210011-0031MW1041REMSYN124AAXX  17121 76393 31310 80401 10184 20166 39591 40158 52001 70422 88600 91150 333 10318 20184 30178 56300 59003 70000 88707;
0217763930999992011031715004+25733-100300FM-12+051599999V0200701N001010300019N0010001N1+01981+01611101861ADDAY121031AY221031GA1081+030001041GF108991081001999999021999IA1019MA1999999096141MD1210231-0031MW1051REMSYN106AAXX  17151 76393 31910 80701 10198 20161 39614 40186 52023 70522 8802/ 91450 333 30/// 5605/ 59003 88460;
0237763930999992011031718004+25733-100300FM-12+051599999V0200601N001012200019N0010001N1+02301+01631101871ADDAY101061AY201061GA1001+999999999GF100991001001999999001001IA1019KA1120M+02541KA2240N+01841MA1999999096151MD1210011+0131MW1051REMSYN100AAXX  17181 76393 31910 00601 10230 20163 39615 40187 52001 70500 91750 333 10254 20184 30/// 58013;
0217763930999992011031721004+25733-100300FM-12+051599999V0201101N003012200019N0010001N1+02961+01621101541ADDAY101031AY201031GA1011+015001081GF101991011021017501001001IA1019MA1999999095881MD1710271+0061MW1041REMSYN106AAXX  17211 76393 31710 11103 10296 20162 39588 40154 57027 70400 81200 92045 333 30/// 56300 58006 81850;
0245763930999992011031800004+25733-100300FM-12+051599999V0201201N003012200019N0040001N1+03041+01311101371ADDAY101061AY201061GF104991011001999999011011IA1019KA1120M+03221KA2180N+01841MA1999999095781MD1710101-0021MW1041REMSYN124AAXX  18001 76393 31940 41203 10304 20131 39578 40137 57010 70400 81011 92345 333 10322 20184 30/// 50411 56055 59002 70000;
0199763930999992011031803004+25733-100300FM-12+051599999V0202201N001012200019N0030001N1+02781+01321101491ADDAY101031AY201031GA1001+999999999GF100991001001999999001001IA1019MA1999999095931MD1210151+0051MW1041REMSYN088AAXX  18031 76393 31930 02201 10278 20132 39593 40149 52015 70400 90250 333 30/// 58005;
0251763930999992011031806004+25733-100300FM-12+051599999V0201201N001012200019N0030001N1+02281+01581101551ADDAY101061AY201061GA1001+999999999GF100991001001999999001001GJ104569IA1019KA1240M+03221KA2240N+01841MA1999999096001MD1210071-0011MW1041REMSYN106AAXX  18061 76393 31930 01201 10228 20158 39600 40155 52007 70400 90550 333 10322 20184 30/// 55076 59001;
0199763930999992011031809004+25733-100300FM-12+051599999V0200301N001012200019N0010001N1+01861+01651101511ADDAY101031AY201031GA1001+999999999GF100991001001999999001001IA1019MA1999999095921MD1710071+0021MW1041REMSYN088AAXX  18091 76393 31910 00301 10186 20165 39592 40151 57007 70400 90850 333 30/// 58002;
0272763930999992011031812004+25733-100300FM-12+051599999V0200401N001010018019N0010001N1+01821+01671101661ADDAA124000091AY121061AY221061GA1081+001801071GF108991081061001501001001IA1019KA1240M+03221KA2120N+01821MA1999999095981MD1210061+0071MW1041REMSYN124AAXX  18121 76393 31210 80401 10182 20167 39598 40166 52006 70422 88600 91150 333 10322 20182 30170 56300 58007 70000 88706;
0217763930999992011031815004+25733-100300FM-12+051599999V0200601N001010300019N0010001N1+01941+01631101881ADDAY121031AY221031GA1081+030001041GF108991081001999999021999IA1019MA1999999096171MD1210191+0031MW1051REMSYN106AAXX  18151 76393 31910 80601 10194 20163 39617 40188 52019 70522 8802/ 91455 333 30/// 5607/ 58003 88460;
0233763930999992011031818004+25733-100300FM-12+051599999V0200601N001012200019N0010001N1+02501+01701101931ADDAY101061AY201061GF103991031001999999011001IA1019KA1120M+02781KA2240N+01821MA1999999096211MD1210041+0061MW1051REMSYN112AAXX  18181 76393 31910 30601 10250 20170 39621 40193 52004 70500 83010 91750 333 10278 20182 30/// 56050 58006;
0272763930999992011031912004+25733-100300FM-12+051599999V0201101N002010024019N0010001N1+01961+01751101791ADDAA124000091AY121061AY221061GA1081+002401071GF108991081061002501001001IA1019KA1240M+03301KA2120N+01961MA1999999095881MD1210011-0101MW1041REMSYN124AAXX  19121 76393 31310 81102 10196 20175 39588 40179 52001 70422 88600 91150 333 10330 20196 30178 56300 59010 70000 88708;
0217763930999992011031915004+25733-100300FM-12+051599999V0201201N002010045019N0010001N1+02061+01701101821ADDAY121031AY221031GA1081+004501061GF108991081051004501999999IA1019MA1999999096011MD1210131-0161MW1051REMSYN106AAXX  19151 76393 31410 81202 10206 20170 39601 40182 52013 70522 885// 91450 333 30/// 563// 59016 88615;
0255763930999992011031918004+25733-100300FM-12+051599999V0201201N003012200019N0010001N1+02561+01561101691ADDAY101061AY201061GA1031+012301061GF103991031051012501001001IA1019KA1120M+02761KA2240N+01941MA1999999096011MD1410001-0121MW1051REMSYN118AAXX  19181 76393 31610 31203 10256 20156 39601 40169 54000 70500 83500 91750 333 10276 20194 30/// 56300 59012 83641;
0217763930999992011031921004+25733-100300FM-12+051599999V0201201N009010900019N0020001N1+02961+01551101291ADDAY121031AY221031GA1021+018001081GF105991021011017501011041IA1019MA1999999095671MD1710341+9999MW1041REMSYN106AAXX  19211 76393 31720 51209 10296 20155 39567 40129 57034 70422 82114 92045 333 30/// 56355 58/// 82856;
0262763930999992011032000004+25733-100300FM-12+051599999V0201201N002012200019N0050001N1+02951+01411101131ADDAA124000091AY121061AY221061GF103991011021017501001041IA1019KA1120M+03181KA2180N+01941MA1999999095571MD1710101+9999MW1041REMSYN130AAXX  20001 76393 31750 31202 10295 20141 39557 40113 57010 70422 81204 92350 333 10318 20194 30/// 50801 56305 58/// 70000 81856;
0217763930999992011032003004+25733-100300FM-12+051599999V0201201N002012200019N0040001N1+02461+01681101271ADDAY101031AY201031GA1011+002701061GF101991011051002501001001IA1019MA1999999095731MD1210161+9999MW1041REMSYN106AAXX  20031 76393 31340 11202 10246 20168 39573 40127 52016 70400 81500 90250 333 30/// 56300 58/// 81609;
0253763930999992011032006004+25733-100300FM-12+051599999V0201201N002012200019N0040001N1+02161+01441101351ADDAY101061AY201061GF101991011051008001001001GJ104689IA1019KA1240M+03181KA2240N+01941MA1999999095791MD1210061+9999MW1041REMSYN124AAXX  20061 76393 31540 11202 10216 20144 39579 40135 52006 70400 81500 90550 333 10318 20194 30/// 55078 56300 58/// 81610;
0230763930999992011032018004+25733-100300FM-12+051599999V0201201N001010066019N0010001N1+02181+01631101801ADDAY121061AY221061GA1081+006601061GF108991081051008001999999IA1019KA1120M+02321MA1999999096071MD1210041+9999MW1051REMSYN106AAXX  20181 76393 31510 81201 10218 20163 39607 40180 52004 70522 885// 91750 333 10232 30/// 563// 88622;
0217763930999992011032103004+25733-100300FM-12+051599999V0201201N003012200019N0020001N1+02411+01811101421ADDAY121031AY221031GA1021+002401061GF102991021051008001001001IA1019MA1999999095821MD1999999+0101MW1051REMSYN106AAXX  21031 76393 31520 21203 10241 20181 39582 40142 5//// 70522 82500 90250 333 30/// 56300 58010 82608;
0295763930999992011032106004+25733-100300FM-12+051599999V0201101N001010042019N0020001N1+02121+01761101561ADDAA124999999AY121061AY221061GF105991051051004501001001GJ101869IA1019KA1240M+03061KA2240N+01761MA1999999095961MD1210141+0171MW1051REMSYN136AAXX  21061 76393 31420 51101 10212 20176 39596 40156 52014 70522 85500 90550 333 10306 20176 30166 50631 55031 56300 58017 79999 85605;EQDQ01  99992PRCP24
0217763930999992011032115004+25733-100300FM-12+051599999V0200201N001010033019N0010001N1+01861+01581101741ADDAY141031AY241031GA1081+003301071GF108991081061004501999999IA1019MA1999999096031MD1210211+0001MW1051REMSYN106AAXX  21151 76393 31410 80201 10186 20158 39603 40174 52021 70544 886// 91445 333 30/// 563// 58000 88711;
0255763930999992011032118004+25733-100300FM-12+051599999V0200701N003010066019N0010001N1+02221+01681101831ADDAY121061AY221061GA1071+006601071GF107991071061008001999999IA1019KA1120M+02321KA2240N+01801MA1999999096111MD1010081+0041MW1051REMSYN118AAXX  21181 76393 31510 70703 10222 20168 39611 40183 50008 70522 876// 91745 333 10232 20180 30/// 563// 58004 87722;
0217763930999992011032121004+25733-100300FM-12+051599999V0201301N004012200019N0010001N1+02861+01611101431ADDAY101031AY201031GA1011+015001071GF101991011061017501001001IA1019MA1999999095771MD1710341+0021MW1051REMSYN106AAXX  21211 76393 31710 11304 10286 20161 39577 40143 57034 70500 81600 92050 333 30/// 56300 58002 81750;
0217763930999992011032203004+25733-100300FM-12+051599999V0201201N003012200019N0030001N1+02441+01731101191ADDAY101031AY201031GA1011+003001061GF101991011051008001001001IA1019MA1999999095641MD1210151-0181MW1041REMSYN106AAXX  22031 76393 31530 11203 10244 20173 39564 40119 52015 70400 81500 90250 333 30/// 56300 59018 81610;
0253763930999992011032206004+25733-100300FM-12+051599999V0201201N002012200019N0030001N1+02101+01581101261ADDAY101061AY201061GF101991011051008001001001GJ102889IA1019KA1240M+03101KA2240N+02001MA1999999095691MD1210051-0261MW1041REMSYN124AAXX  22061 76393 31530 11202 10210 20158 39569 40126 52005 70400 81500 90550 333 10310 20200 30/// 55048 56300 59026 81607;
0217763930999992011032215004+25733-100300FM-12+051599999V0200701N001010042019N0010001N1+01801+01451101341ADDAY121031AY221031GA1081+004201071GF108991081061004501001001IA1019MA1999999095641MD1210121-0391MW1051REMSYN106AAXX  22151 76393 31410 80701 10180 20145 39564 40134 52012 70522 88600 91450 333 30/// 56300 59039 88714;
0255763930999992011032218004+25733-100300FM-12+051599999V0201001N001010600019N0010001N1+02501+01591101151ADDAY121061AY221061GA1061+060001001GF106991001001999999001011IA1019KA1120M+02621KA2240N+01721MA1999999095461MD1710181-0651MW1051REMSYN118AAXX  22181 76393 31910 61001 10250 20159 39546 40115 57018 70522 80001 91750 333 10262 20172 30/// 56005 59065 86070;
0199763930999992011032221004+25733-100300FM-12+051599999V0201101N003012200019N0020001N1+03021+01551100781ADDAY101031AY201031GA1001+999999999GF100991001001999999001001IA1019MA1999999095151MD1710311-0621MW1051REMSYN088AAXX  22211 76393 31920 01103 10302 20155 39515 40078 57031 70500 92045 333 30/// 59062;
0251763930999992011032300004+25733-100300FM-12+051599999V0201201N004012200019N0040001N1+03161+01471100541ADDAA124000091GA1001+999999999GF100991001001999999001001IA1019KA1120M+03261KA2180N+01721MA1999999095001MD1310151-0491REMSYN106AAXX  23001 76393 32940 01204 10316 20147 39500 40054 53015 92345 333 10326 20172 30/// 50811 59049 70000;EQDQ01  00002PRCP24
0199763930999992011032303004+25733-100300FM-12+051599999V0201101N001012200019N0030001N1+02861+01271100571ADDAY101031AY201031GA1001+999999999GF100991001001999999001001IA1019MA1999999095081MD1210081-0561MW1041REMSYN088AAXX  23031 76393 31930 01101 10286 20127 39508 40057 52008 70400 90250 333 30/// 59056;
0251763930999992011032306004+25733-100300FM-12+051599999V0201101N001012200019N0030001N1+02281+01401100631ADDAY101061AY201061GA1001+999999999GF100991001001999999001001GJ105169IA1019KA1240M+03261KA2240N+01721MA1999999095141MD1210061-0551MW1041REMSYN106AAXX  23061 76393 31930 01101 10228 20140 39514 40063 52006 70400 90550 333 10326 20172 30/// 55086 59055;
0273763930999992011032312004+25733-100300FM-12+051599999V0209999C000012200019N0010001N1+01881+01331100661ADDAA124000091AY101061AY201061GA1001+999999999GF100991001001999999001001IA1019KA1240M+03261KA2120N+01801MA1999999095081MD1999999-0441MW1051REMSYN106AAXX  23121 76393 31910 00000 10188 20133 39508 40066 5//// 70500 91155 333 10326 20180 30164 59044 70000;EQDQ01  00002PRCP24
0199763930999992011032315004+25733-100300FM-12+051599999V0203401N003012200019N0010001N1+02221+01411100881ADDAY101031AY201031GA1001+999999999GF100991001001999999001001IA1019MA1999999095251MD1210171-0391MW1051REMSYN088AAXX  23151 76393 31910 03403 10222 20141 39525 40088 52017 70500 91450 333 30/// 59039;
0237763930999992011032318004+25733-100300FM-12+051599999V0201101N001012200019N0010001N1+03021+01731100911ADDAY101061AY201061GA1001+999999999GF100991001001999999001001IA1019KA1120M+03161KA2240N+01841MA1999999095291MD1210041-0171MW1051REMSYN100AAXX  23181 76393 31910 01101 10302 20173 39529 40091 52004 70500 91750 333 10316 20184 30/// 59017;
0199763930999992011032321004+25733-100300FM-12+051599999V0201201N003012200019N0010001N1+03301+01391100671ADDAY101031AY201031GA1001+999999999GF100991001001999999001001IA1019MA1999999095121MD1710171-0031MW1051REMSYN088AAXX  23211 76393 31910 01203 10330 20139 39512 40067 57017 70500 92050 333 30/// 59003;
0279763930999992011032400004+25733-100300FM-12+051599999V0201101N002012200019N0030001N1+03141+01491100551ADDAA124000091AY101061AY201061GA1001+999999999GF100991001001999999001001IA1019KA1120M+03461KA2180N+01841MA1999999095061MD1710061+0061MW1051REMSYN112AAXX  24001 76393 31930 01102 10314 20149 39506 40055 57006 70500 92350 333 10346 20184 30/// 50103 58006 70000;EQDQ01  00002PRCP24
0199763930999992011032403004+25733-100300FM-12+051599999V0201201N001012200019N0020001N1+02881+01451100721ADDAY101031AY201031GA1001+999999999GF100991001001999999001001IA1019MA1999999095271MD1210211+0191MW1041REMSYN088AAXX  24031 76393 31920 01201 10288 20145 39527 40072 52021 70400 90250 333 30/// 58019;
0251763930999992011032406004+25733-100300FM-12+051599999V0201101N002012200019N0020001N1+02361+01801100901ADDAY101061AY201061GA1001+999999999GF100991001001999999001001GJ106369IA1019KA1240M+03461KA2240N+01841MA1999999095421MD1210151+0281MW1041REMSYN106AAXX  24061 76393 31920 01102 10236 20180 39542 40090 52015 70400 90550 333 10346 20184 30/// 55106 58028;
0195763930999992011032415004+25733-100300FM-12+051599999V0200701N001010042019N0010001N1+02141+01811101221ADDAY121031AY221031GF108991081051004501999999IA1019MA1999999095581MD1210181+0331MW1051REMSYN100AAXX  24151 76393 31410 80701 10214 20181 39558 40122 52018 70522 885// 91450 333 30/// 563// 58033;
0223763930999992011032421004+25733-100300FM-12+051599999V0201101N00301015001CN0010001N1+03061+01681100881ADDAY121031AY221031GA1021+015001081GF106991051041017501011001IA1019MA1999999095221MD1710301+0101MW1051REMSYN112AAXX  24211 76393 31710 61103 10306 20168 39522 40088 57030 70522 85410 92045 333 30/// 56350 58010 82850 83656;
0284763930999992011032500004+25733-100300FM-12+051599999V0201201N006010360019N0040001N1+03041+01431100591ADDAA124000091AY121061AY221061GA1011+018001081GF108991011021017501011011IA1019KA1120M+03181KA2180N+02041MA1999999095071MD1710151+0161MW1051REMSYN136AAXX  25001 76393 31740 81206 10304 20143 39507 40059 57015 70522 81211 92350 333 10318 20204 30/// 50751 56355 58016 70000 81856 86070;
0199763930999992011032503004+25733-100300FM-12+051599999V0201301N003012200019N0030001N1+02521+01581100741ADDAY101031AY201031GA1001+999999999GF100991001001999999001001IA1019MA1999999095241MD1210171-0031MW1041REMSYN088AAXX  25031 76393 31930 01303 10252 20158 39524 40074 52017 70400 90250 333 30/// 59003;
0253763930999992011032506004+25733-100300FM-12+051599999V0201201N001012200019N0030001N1+02221+01411100791ADDAY121061AY221061GF102991021051008001001001GJ104209IA1019KA1240M+03181KA2240N+02041MA1999999095271MD1210031-0151MW1051REMSYN124AAXX  25061 76393 31530 21201 10222 20141 39527 40079 52003 70522 82500 90550 333 10318 20204 30/// 55070 56300 59015 82611;
0193763930999992011032509004+25733-100300FM-12+051599999V0200601N001012200019N0020001N1+01901+01621999999ADDAY101031AY201031GA1001+999999999GF100991001001999999001001IA1019MA1999999095151MD1710121+9999MW1041REMSYN082AAXX  25091 76393 31920 00601 10190 20162 39515 57012 70400 90850 333 30/// 58///;
0273763930999992011032512004+25733-100300FM-12+051599999V0200401N001012200019N0010001N1+01861+01651100681ADDAA124000091AY101061AY201061GA1001+999999999GF100991001001999999001001IA1019KA1240M+03181KA2120N+01861MA1999999095071MD1710081-0331MW1041REMSYN106AAXX  25121 76393 31910 00401 10186 20165 39507 40068 57008 70400 91150 333 10318 20186 30174 59033 70000;EQDQ01  00002PRCP24
0199763930999992011032515004+25733-100300FM-12+051599999V0200601N001012200019N0010001N1+02081+01751100831ADDAY101031AY201031GA1001+999999999GF100991001001999999001001IA1019MA1999999095181MD1210111-0401MW1051REMSYN088AAXX  25151 76393 31910 00601 10208 20175 39518 40083 52011 70500 91450 333 30/// 59040;
0236763930999992011032518004+25733-100300FM-12+051599999V0201201N003012200019N0008001N1+02781+01691100731ADDAY101061AY201061GA1001+999999999GF100991001001999999001001IA1019KA1120M+02961KA2240N+01841MA1999999095101MD1710081+9999MW1051REMSYN099AAXX  25181 76393 31908 01203 10278 20169 39510 40073 57008 70500 91755 333 10296 20184 30/// 5902;
0217763930999992011032521004+25733-100300FM-12+051599999V0201101N006012200019N0010001N1+03341+01721100351ADDAY101031AY201031GA1011+018001081GF102991011021017501011001IA1019MA1999999094801MD1710301-0421MW1051REMSYN106AAXX  25211 76393 31710 21106 10334 20172 39480 40035 57030 70500 81210 92045 333 30/// 56350 59042 81856;
0272763930999992011032600004+25733-100300FM-12+051599999V0201101N005012200019N0020001N1+03141+01691100171ADDAA124000091AY101061AY201061GA1011+018001081GF101991011021017501001001IA1019KA1120M+03481KA2180N+01841MA1999999094691MD1710111-0381MW1051REMSYN124AAXX  26001 76393 31720 11105 10314 20169 39469 40017 57011 70500 81200 92345 333 10348 20184 30/// 56300 59038 70000 81856;
0199763930999992011032609004+25733-100300FM-12+051599999V0203401N001012200019N0010001N1+02201+01781100411ADDAY101031AY201031GA1001+999999999GF100991001001999999001001IA1019MA1999999094741MD1710031-0411MW1041REMSYN088AAXX  26091 76393 31910 03401 10220 20178 39474 40041 57003 70400 90850 333 30/// 59041;
0273763930999992011032612004+25733-100300FM-12+051599999V0202501N001012200019N0010001N1+02101+01801100411ADDAA124000091AY101061AY201061GA1001+999999999GF100991001001999999001001IA1019KA1240M+03481KA2120N+02101MA1999999094691MD1710051-0381MW1041REMSYN106AAXX  26121 76393 31910 02501 10210 20180 39469 40041 57005 70400 91150 333 10348 20210 30190 59038 70000;EQDQ01  00002PRCP24
0195763930999992011032615004+25733-100300FM-12+051599999V0203001N001012200019N0010001N1+02601+01681100501ADDAY101031AY201031GF103991001001999999001011IA1019MA1999999094841MD1210151-0341MW1051REMSYN100AAXX  26151 76393 31910 33001 10260 20168 39484 40050 52015 70500 80001 91450 333 30/// 56005 59034;
0217763930999992011032618004+25733-100300FM-12+051599999V0203301N003019999999N0010001N1+03661+00441100251ADDGF107991001001999999001081IA1019KA1120M+03801KA2240N+02101MA1999999094721MD1710121-0381REMSYN118AAXX  26181 76393 31910 73303 10366 20044 39472 40025 57012 80008 91750 333 10380 20210 30/// 54106 56005 59038 87180;
0167763930999992011032621004+25733-100300FM-12+051599999V0200401N003019999999N0040001N1+03861-00281099901ADDGF105991021001999999031081IA1019MA1999999094461MD1710261-0341REMSYN094AAXX  26211 76393 32940 50403 10386 21028 39446 49990 57026 82038 92045 333 30/// 56055 59034;
0281763930999992011032700004+25733-100300FM-12+051599999V0201301N005019999999N0040001N1+03401+01412099921ADDAA124000091AY121061AY221061GF105991051001999999071001IA1019KA1120M+04071KA2180N+02101MA1999999094541MD1210081-0151MW1051REMSYN130AAXX  27001 76393 31940 51305 10340 20141 39454 49992 52008 70522 85070 92350 333 10407 20210 30/// 50911 56050 59015 70000 85370;EQDQ01+001413ATOD  
0217763930999992011032703004+25733-100300FM-12+051599999V0201301N002012200019N0030001N1+03021+01421100051ADDAY101031AY201031GA1031+006601061GF103991031051017501001001IA1019MA1999999094691MD1210151+9999MW1041REMSYN106AAXX  27031 76393 31730 31302 10302 20142 39469 40005 52015 70400 83500 90250 333 30/// 56300 58/// 83622;
0253763930999992011032706004+25733-100300FM-12+051599999V0201201N001012200019N0030001N1+02701+01611100111ADDAY101061AY201061GF102991021051012501001001GJ105709IA1019KA1240M+04471KA2240N+02101MA1999999094731MD1210041-0041MW1041REMSYN124AAXX  27061 76393 31630 21201 10270 20161 39473 40011 52004 70400 82500 90550 333 10447 20210 30/// 55095 56300 59004 82615;
0195763930999992011032709004+25733-100300FM-12+051599999V0200401N001012200019N0020001N1+02341+01901100141ADDAY101031AY201031GF101991011001999999031001IA1019MA1999999094701MD1710031-0041MW1041REMSYN100AAXX  27091 76393 31920 10401 10234 20190 39470 40014 57003 70400 81030 90850 333 30/// 56030 59004;
0273763930999992011032712004+25733-100300FM-12+051599999V0209999C000012200019N0010001N1+02201+01911100201ADDAA124000091AY101061AY201061GA1001+999999999GF100991001001999999001001IA1019KA1240M+04071KA2120N+02201MA1999999094701MD1410001+0011MW1041REMSYN106AAXX  27121 76393 31910 00000 10220 20191 39470 40020 54000 70400 91150 333 10407 20220 30200 58001 70000;EQDQ01  00002PRCP24
0195763930999992011032715004+25733-100300FM-12+051599999V0200601N001012200019N0010001N1+02601+01871100451ADDAY101031AY201031GF104991041001999999041001IA1019MA1999999094911MD1210211+0071MW1051REMSYN100AAXX  27151 76393 31910 40601 10260 20187 39491 40045 52021 70500 84040 91455 333 30/// 56030 58007;
0258763930999992011032718004+25733-100300FM-12+051599999V0203201N005012200019N0010001N1+03501-00012100341ADDAY101061AY201061GF103991001001999999001081IA1019KA1120M+03701KA2240N+02201MA1999999094821MD1710091+9999MW1051REMSYN118AAXX  27181 76393 31910 33205 10350 21001 39482 40034 57009 70500 80008 91750 333 10370 20220 30/// 54106 56005 58010;EQDQ01-000013ATOD  
0281763930999992011032800004+25733-100300FM-12+051599999V0200101N001012200019N0040001N1+03521+01161099971ADDAA124000091AY121061AY221061GF104991001001999999001041IA1019KA1120M+03991KA2180N+02201MA1999999094561MD1999999+0021MW1051REMSYN130AAXX  28001 76393 31940 40101 10352 20116 39456 49997 5//// 70522 84004 92350 333 10399 20220 30/// 50621 56001 58002 70000 84075;EQDQ01+000042SCOTLC
0199763930999992011032803004+25733-100300FM-12+051599999V0201201N002012200019N0030001N1+03101+01621100321ADDAY101031AY201031GA1001+999999999GF100991001001999999001001IA1019MA1999999094961MD1210401+0271MW1041REMSYN088AAXX  28031 76393 31930 01202 10310 20162 39496 40032 52040 70400 90250 333 30/// 58027;
0253763930999992011032806004+25733-100300FM-12+051599999V0201201N002012200019N0030001N1+02541+02061100501ADDAY101061AY201061GF101991011051004501001001GJ106129IA1019KA1240M+03991KA2240N+02201MA1999999095111MD1210151+0381MW1041REMSYN124AAXX  28061 76393 31430 11202 10254 20206 39511 40050 52015 70400 81500 90550 333 10399 20220 30/// 55102 56300 58038 81607;
0217763930999992011032815004+25733-100300FM-12+051599999V0201201N003010057019N0010001N1+02421+01961100961ADDAY121031AY221031GA1081+005701061GF108991081051004501999999IA1019MA1999999095381MD1210141+0471MW1051REMSYN106AAXX  28151 76393 31410 81203 10242 20196 39538 40096 52014 70522 885// 91450 333 30/// 563// 58047 88619;
0255763930999992011032818004+25733-100300FM-12+051599999V0201201N005010081019N0010001N1+02621+01961100971ADDAY121061AY221061GA1081+008101061GF108991081051008001999999IA1019KA1120M+02661KA2240N+02241MA1999999095381MD1410001+0561MW1051REMSYN118AAXX  28181 76393 31510 81205 10262 20196 39538 40097 54000 70522 885// 91750 333 10266 20224 30/// 563// 58056 88627;
0223763930999992011032821004+25733-100300FM-12+051599999V0201101N005012200019N0020001N1+02921+01821100661ADDAY111031AY211031GA1021+010801061GF104991041021012501001001IA1019MA1999999095111MD1710211+9999MW1051REMSYN112AAXX  28211 76393 31620 41105 10292 20182 39511 40066 57021 70511 84200 92045 333 30/// 56300 58/// 82636 82842;
0284763930999992011032900004+25733-100300FM-12+051599999V0201101N004010360019N0020001N1+02741+01771100571ADDAA124000091AY121061AY221061GA1011+010501081GF105991041051012501011001IA1019KA1120M+03001KA2180N+02241MA1999999095041MD1710071+0481MW1051REMSYN136AAXX  29001 76393 31620 51104 10274 20177 39504 40057 57007 70522 84510 92345 333 10300 20224 30/// 50761 56350 58048 70000 81835 83639;
0217763930999992011032903004+25733-100300FM-12+051599999V0201101N001012200019N0010001N1+02631+01661100741ADDAY121031AY221031GA1031+003901061GF103991031051012501001001IA1019MA1999999095211MD1210171+0651MW1051REMSYN106AAXX  29031 76393 31610 31101 10263 20166 39521 40074 52017 70522 83500 90250 333 30/// 56300 58065 83613;
0253763930999992011032906004+25733-100300FM-12+051599999V0201201N002010075019N0010001N1+02391+01801100721ADDAY121061AY221061GF105991051051008001001001GJ102409IA1019KA1240M+03001KA2240N+02241MA1999999095191MD1710021+0081MW1051REMSYN124AAXX  29061 76393 31510 51202 10239 20180 39519 40072 57002 70522 85500 90550 333 10300 20224 30/// 55040 56300 58008 85608;
0217763930999992011032909004+25733-100300FM-12+051599999V0201001N002012200019N0010001N1+02201+01881100591ADDAY101031AY201031GA1021+003901061GF102991021051004501001001IA1019MA1999999095051MD1710141+9999MW1041REMSYN106AAXX  29091 76393 31410 21002 10220 20188 39505 40059 57014 70400 82500 90850 333 30/// 56300 58/// 82613;
0272763930999992011032912004+25733-100300FM-12+051599999V0201001N001010027019N0010001N1+02101+01881100571ADDAA124000091AY121061AY221061GA1081+002701071GF108991081061002501001001IA1019KA1240M+03001KA2120N+02101MA1999999094991MD1710061-0551MW1041REMSYN124AAXX  29121 76393 31310 81001 10210 20188 39499 40057 57006 70422 88600 91150 333 10300 20210 30204 56300 59055 70000 88709;
0255763930999992011032918004+25733-100300FM-12+051599999V0201101N003010090019N0010001N1+02661+01941100851ADDAY141061AY241061GA1071+009001071GF107991071061008001999999IA1019KA1120M+02741KA2240N+02081MA1999999095251MD1510021-0131MW1051REMSYN118AAXX  29181 76393 31510 71103 10266 20194 39525 40085 55002 70544 876// 91745 333 10274 20208 30/// 563// 59013 87730;
0262763930999992011033000004+25733-100300FM-12+051599999V0201101N006019999999N0010001N1+02841+01811100561ADDAA124000091AY141061AY241061GF108991051001999999021011IA1019KA1120M+03101KA2180N+02081MA1999999095041MD1210021+0001MW1051REMSYN130AAXX  30001 76393 31910 81106 10284 20181 39504 40056 52002 70544 85021 92345 333 10310 20208 30/// 50711 56055 58000 70000 85460;
0217763930999992011033003004+25733-100300FM-12+051599999V0201101N001010033019N0006001N1+02651+01821100841ADDAY121031AY221031GA1071+003301061GF107991071051012501999999IA1019MA1999999095321MD1210271+0111MW1051REMSYN106AAXX  30031 76393 31606 71101 10265 20182 39532 40084 52027 70522 875// 90250 333 30/// 563// 58011 87611;
0254763930999992011033006004+25733-100300FM-12+051599999V0201101N001012200019N0005001N1+02501+01791100971ADDAY121061AY221061GF103991031051008001001001GJ102769IA1019KA1240M+03101KA2240N+02081MA1999999095441MD1210121+0251MW1041REMSYN125AAXX  30061 76393 31505 31101 10250 20179 39544 40097 52012 70422 83500 90550 333 10310 20208 30/// 55046 56300 58025 836100;
0217763930999992011033009004+25733-100300FM-12+051599999V0201001N002010063019N0010001N1+02361+01831101031ADDAY121031AY221031GA1061+006301061GF106991061051008001001001IA1019MA1999999095471MD1710031+0421MW1041REMSYN106AAXX  30091 76393 31510 61002 10236 20183 39547 40103 57003 70422 86500 90850 333 30/// 56300 58042 86621;
0272763930999992011033012004+25733-100300FM-12+051599999V0200401N003010054019N0010001N1+02301+01861101001ADDAA124000091AY111061AY211061GA1051+005401061GF105991051051004501001001IA1019KA1240M+03101KA2120N+02301MA1999999095431MD1210011-0441MW1041REMSYN124AAXX  30121 76393 31410 50403 10230 20186 39543 40100 52001 70411 85500 91150 333 10310 20230 30210 56300 59044 70000 85618;
0217763930999992011033015004+25733-100300FM-12+051599999V0203301N005010051019N0010001N1+01901+01491101341ADDAY121031AY221031GA1081+005101061GF108991081051004501999999IA1019MA1999999095711MD1210281+0441MW1051REMSYN106AAXX  30151 76393 31410 83305 10190 20149 39571 40134 52028 70522 885// 91450 333 30/// 563// 58044 88617;
0172763930999992011033018004+25733-100300FM-12+051599999V0200401N002019999999N0010001N1+02061+01401101351ADDAA106001091AY141061AY241061GF108991999999008001999999MA1999999095701MD1710011+9999MW1051REMSYN072AAXX  30181 76393 01510 80402 10206 20140 39570 40135 57001 69991 70544;
0217763930999992011033021004+25733-100300FM-12+051599999V0201101N005010060019N0020001N1+02121+01631101091ADDAY121031AY221031GA1081+006001061GF108991081051004501999999IA1019MA1999999095441MD1710261+0421MW1051REMSYN106AAXX  30211 76393 31420 81105 10212 20163 39544 40109 57026 70522 885// 92045 333 30/// 56399 58042 88620;
0281763930999992011033100004+25733-100300FM-12+051599999V0201401N003010042019N0020001N1+02101+01611100981ADDAA124999999AY121061AY221061GF108991081051004501999999IA1019KA1120M+02391KA2180N+01881MA1999999095331MD1710111+0291MW1051REMSYN130AAXX  31001 76393 31420 81403 10210 20161 39533 40098 57011 70522 885// 92345 333 10239 20188 30/// 50471 563// 58029 79999 88620;EQDQ01  99992PRCP24
0217763930999992011033103004+25733-100300FM-12+051599999V0202201N001010015019N0010001N1+01941+01551101001ADDAY121031AY221031GA1071+001501061GF107991071051004501999999IA1019MA1999999095351MD1210021+0031MW1051REMSYN106AAXX  31031 76393 31410 72201 10194 20155 39535 40100 52002 70522 875// 90250 333 30/// 563// 58003 87605;
0253763930999992011033106004+25733-100300FM-12+051599999V0201101N001010042019N0010001N1+01881+01451101041ADDAY121061AY221061GF108991081051004501999999GJ100069IA1019KA1240M+02391KA2240N+01881MA1999999095391MD1210041-0051MW1051REMSYN124AAXX  31061 76393 31410 81101 10188 20145 39539 40104 52004 70522 885// 90550 333 10239 20188 30/// 55001 563// 59005 88606;
0217763930999992011033109004+25733-100300FM-12+051599999V0201001N001010048019N0010001N1+01841+01431101001ADDAY121031AY221031GA1081+004801061GF108991081051004501001001IA1019MA1999999095321MD1710061-0151MW1041REMSYN106AAXX  31091 76393 31410 81001 10184 20143 39532 40100 57006 70422 88500 90850 333 30/// 56300 59015 88616;
0291763930999992011033112004+25733-100300FM-12+051599999V0200601N002010030019N0010001N1+01741+01491100971ADDAA124000091AY121061AY221061GA1081+003001061GF108991081051002501001001IA1019KA1240M+02391KA2120N+01741MA1999999095281MD1710041-0151MW1041REMSYN124AAXX  31121 76393 31310 80602 10174 20149 39528 40097 57004 70422 88500 91150 333 10239 20174 30160 56300 59015 79999 88610;EQDQ01  00002PRCP24
0195763930999992011033115004+25733-100300FM-12+051599999V0201201N001012200019N0010001N1+02061+01501101161ADDAY101031AY201031GF102991021001008001011001IA1019MA1999999095461MD1210181-0251MW1051REMSYN100AAXX  31151 76393 31510 21201 10206 20150 39546 40116 52018 70500 82010 91450 333 30/// 56070 59025;
0237763930999992011033118004+25733-100300FM-12+051599999V0201201N002012200019N0010001N1+02641+01511101011ADDAY101061AY201061GA1001+999999999GF100991001001999999001001IA1019KA1120M+02781KA2240N+01741MA1999999095341MD1710121-0361MW1051REMSYN100AAXX  31181 76393 31910 01202 10264 20151 39534 40101 57012 70500 91750 333 10278 20174 30/// 59036;
0199763930999992011033121004+25733-100300FM-12+051599999V0201201N003012200019N0020001N1+03281+01441100561ADDAY101031AY201031GA1001+999999999GF100991001001999999001001IA1019MA1999999094981MD1710361-0461MW1051REMSYN088AAXX  31211 76393 31920 01203 10328 20144 39498 40056 57036 70500 92045 333 30/// 59046;
0273763930999992011040100004+25733-100300FM-12+051599999V0201201N005012200019N0030001N1+03141+01151100321ADDAA124000091AY101061AY201061GA1001+999999999GF100991001001999999001001IA1019KA1120M+03401KA2180N+01741MA1999999094821MD1710161-0511MW1041REMSYN106AAXX  01001 76393 31930 01205 10314 20115 39482 40032 57016 70400 92345 333 10340 20174 30/// 59051 70000;EQDQ01  00002PRCP24
0201763930999992011040103004+25733-100300FM-12+051599999V0201101N001012200019N0020001N1+02761+01371100461ADDAY101031AY201031GA1001+999999999GF100991001001999999001001IA1019MA1999999094991MD1210171-0361MW1051REMSYN090AAXX  01031 76393 31920 01101 10276 20137 39499 40046 52017 70500 90250 333 30/// 5903600;
0237763930999992011040118004+25733-100300FM-12+051599999V0200901N003012200019N0010001N1+02821+01561100881ADDAY141061AY241061GA1001+999999999GF100991001001999999001001IA1019KA1120M+02981KA2240N+01921MA1999999095261MD1710061-0081MW1051REMSYN100AAXX  01181 76393 31910 00903 10282 20156 39526 40088 57006 70544 91745 333 10298 20192 30/// 59008;
0199763930999992011040121004+25733-100300FM-12+051599999V0201101N003012200019N0020001N1+03421+01591100471ADDAY101031AY201031GA1001+999999999GF100991001001999999001001IA1019MA1999999094931MD1710331-0051MW1051REMSYN088AAXX  01211 76393 31920 01103 10342 20159 39493 40047 57033 70500 92045 333 30/// 59005;
0251763930999992011040200004+25733-100300FM-12+051599999V0201101N003012200019N0040001N1+03461+01061100341ADDAA124000091GA1001+999999999GF100991001001999999001001IA1019KA1120M+03581KA2180N+01921MA1999999094881MD1710051+0061REMSYN106AAXX  02001 76393 32940 01103 10346 20106 39488 40034 57005 92350 333 10358 20192 30/// 50911 58006 70000;EQDQ01  00002PRCP24
0199763930999992011040203004+25733-100300FM-12+051599999V0201201N001012200019N0010001N1+03121+01261100511ADDAY101031AY201031GA1001+999999999GF100991001001999999001001IA1019MA1999999095081MD1210201+0091MW1051REMSYN088AAXX  02031 76393 31910 01201 10312 20126 39508 40051 52020 70500 90250 333 30/// 58009;
0251763930999992011040206004+25733-100300FM-12+051599999V0200701N003012200019N0010001N1+02641+01291100621ADDAY101061AY201061GA1001+999999999GF100991001001999999001001GJ106369IA1019KA1240M+03581KA2240N+01921MA1999999095191MD1210111+0001MW1051REMSYN106AAXX  02061 76393 31910 00703 10264 20129 39519 40062 52011 70500 90550 333 10358 20192 30/// 55106 58000;
0217763930999992011040215004+25733-100300FM-12+051599999V0200701N001010033019N0004001N1+02261+02001101211ADDAY141031AY241031GA1081+003301071GF108991081061004501999999IA1019MA1999999095601MD1210221+0311MW1421REMSYN106AAXX  02151 76393 31404 80701 10226 20200 39560 40121 52022 74244 886// 91445 333 30/// 563// 58031 88711;
0237763930999992011040218004+25733-100300FM-12+051599999V0201101N002012200019N0010001N1+02921+01951101221ADDAY101061AY201061GA1001+999999999GF100991001001999999001001IA1019KA1120M+03041KA2240N+02181MA1999999095601MD1410001+0341MW1051REMSYN100AAXX  02181 76393 31910 01102 10292 20195 39560 40122 54000 70500 91745 333 10304 20218 30/// 58034;
0199763930999992011040221004+25733-100300FM-12+051599999V0201201N005012200019N0010001N1+03301+01661100851ADDAY101031AY201031GA1001+999999999GF100991001001999999001001IA1019MA1999999095301MD1710301+0371MW1051REMSYN088AAXX  02211 76393 31910 01205 10330 20166 39530 40085 57030 70500 92050 333 30/// 58037;
0269763930999992011040300004+25733-100300FM-12+051599999V0201101N003012200019N0010001N1+03341+01721100741ADDAA124000091AY101061AY201061GF101991011001999999041001IA1019KA1120M+03481KA2180N+02181MA1999999095251MD1710051+0371MW1051REMSYN118AAXX  03001 76393 31910 11103 10334 20172 39525 40074 57005 70500 81040 92345 333 10348 20218 30/// 56050 58037 70000;EQDQ01  00002PRCP24
0219763930999992011040318004+25733-100300FM-12+051599999V0200801N001012200019N0010001N1+02881+01801100861ADDAY101061AY201061GF103991031041012501001001IA1019MA1999999095281MD1999999-0321MW1051REMSYN124AAXX  03181 76393 31610 30801 10288 20180 39528 40086 5//// 70500 83400 91150 333 1//// 2//// 30/// 30/// 56500 59032 83644;
0195763930999992011040321004+25733-100300FM-12+051599999V0201101N004012200019N0010001N1+03541+01801100361ADDAY101031AY201031GF102991021001999999041001IA1019MA1999999094871MD1710411-0431MW1051REMSYN100AAXX  03211 76393 31910 21104 10354 20180 39487 40036 57041 70500 82040 92050 333 30/// 56050 59043;
0245763930999992011040400004+25733-100300FM-12+051599999V0201201N004012200019N0020001N1+03601+01451100191ADDAY101061AY201061GF103991031001999999041001IA1019KA1120M+03741KA2180N+02141MA1999999094761MD1710111-0491MW1051REMSYN124AAXX  04001 76393 31920 31204 10360 20145 39476 40019 57011 70500 83040 92350 333 10374 20214 30/// 55/// 56050 59049 70000;
0199763930999992011040403004+25733-100300FM-12+051599999V0201201N001012200019N0010001N1+03281+01521100201ADDAY101031AY201031GA1001+999999999GF100991001001999999001001IA1019MA1999999094811MD1210051+9999MW1051REMSYN088AAXX  04031 76393 31910 01201 10328 20152 39481 40020 52005 70500 90255 333 30/// 58///;
0263763930999992011040406004+25733-100300FM-12+051599999V0200901N001012200019N0010001N1+02801+01781100251ADDAY101061AY201061GA1011+004201061GF101991011051012501001001GJ105409IA1019KA1240M+03741KA2240N+02141MA1999999094871MD1210061+9999MW1051REMSYN118AAXX  04061 76393 31610 10901 10280 20178 39487 40025 52006 70500 81500 90550 333 10374 20214 30/// 55090 58/// 81614;
0199763930999992011040409004+25733-100300FM-12+051599999V0200201N001012200019N0008001N1+02411+01891100191ADDAY141031AY241031GA1001+999999999GF100991001001999999001001IA1019MA1999999094771MD1710101+9999MW1041REMSYN088AAXX  04091 76393 31908 00201 10241 20189 39477 40019 57010 70444 90850 333 30/// 58///;
0273763930999992011040412004+25733-100300FM-12+051599999V0202801N001012200019N0010001N1+02301+01891100361ADDAA124000091AY101061AY201061GA1001+999999999GF100991001001999999001001IA1019KA1240M+03741KA2120N+02301MA1999999094881MD1210011+9999MW1041REMSYN106AAXX  04121 76393 31910 02801 10230 20189 39488 40036 52001 70400 91150 333 10374 20230 30214 58/// 70000;EQDQ01  00002PRCP24
0195763930999992011040415004+25733-100300FM-12+051599999V0203201N003012200019N0010001N1+03281+01011100591ADDAY101031AY201031GF101991001001999999001011IA1019MA1999999095071MD1210191+9999MW1051REMSYN100AAXX  04151 76393 31910 13203 10328 20101 39507 40059 52019 70500 80001 91450 333 30/// 56007 58///;
0279763930999992011040500004+25733-100300FM-12+051599999V0200301N006012200019N0010001N1+02801+00201101091ADDAA124000091AY101061AY201061GA1001+999999999GF100991001001999999001001IA1019KA1120M+03861KA2180N+02301MA1999999095641MD1999999+0881MW1041REMSYN112AAXX  05001 76393 31910 00306 10280 20020 39564 40109 5//// 70400 92355 333 10386 20230 30/// 51341 58088 70000;EQDQ01  00002PRCP24
0199763930999992011040503004+25733-100300FM-12+051599999V0200501N002012200019N0010001N1+02441+00201101491ADDAY101031AY201031GA1001+999999999GF100991001001999999001001IA1019MA1999999096011MD1210371+1201MW1051REMSYN088AAXX  05031 76393 31910 00502 10244 20020 39601 40149 52037 70500 90250 333 30/// 58120;
0251763930999992011040506004+25733-100300FM-12+051599999V0200401N001012200019N0010001N1+02201+00001101781ADDAY101061AY201061GA1001+999999999GF100991001001999999001001GJ105829IA1019KA1240M+03861KA2240N+02201MA1999999096241MD1210231+1371MW1051REMSYN106AAXX  05061 76393 31910 00401 10220 20000 39624 40178 52023 70500 90550 333 10386 20220 30/// 55097 58137;
0199763930999992011040509004+25733-100300FM-12+051599999V0201201N003012200019N0008001N1+01991+00251101921ADDAY101031AY201031GA1001+999999999GF100991001001999999001001IA1019MA1999999096271MD1210031+1501MW1051REMSYN088AAXX  05091 76393 31908 01203 10199 20025 39627 40192 52003 70500 90850 333 30/// 58150;
0273763930999992011040512004+25733-100300FM-12+051599999V0201101N006012200019N0020001N1+01661+00051102131ADDAA124000091AY101061AY201061GA1001+999999999GF100991001001999999001001IA1019KA1240M+03861KA2120N+01661MA1999999096421MD1210141+1541MW1041REMSYN106AAXX  05121 76393 31920 01106 10166 20005 39642 40213 52014 70400 91150 333 10386 20166 30150 58154 70000;EQDQ01  00002PRCP24
0199763930999992011040515004+25733-100300FM-12+051599999V0201101N005012200019N0040001N1+01801+00231102251ADDAY101031AY201031GA1001+999999999GF100991001001999999001001IA1019MA1999999096501MD1210081+1431MW1041REMSYN088AAXX  05151 76393 31940 01105 10180 20023 39650 40225 52008 70400 91450 333 30/// 58143;
0245763930999992011040600004+25733-100300FM-12+051599999V0201201N004012200019N0030001N1+02561+00481101361ADDAY101061AY201061GF104991001001999999001081KA1180N+99999MA1999999095721MD1999999+0081MW1051REMSYN124AAXX  06001 76393 31930 41204 10256 20048 39572 40136 5//// 70500 80008 92350 333 20276 20166 30/// 51101 56007 58008 70000;EQDQ01 +02762ATMN  
0195763930999992011040603004+25733-100300FM-12+051599999V0201201N006012200019N0010001N1+02321+00281101411ADDAY101031AY201031GF104991041001999999011001IA1019MA1999999095791MD1210071-0221MW1051REMSYN100AAXX  06031 76393 31910 41206 10232 20028 39579 40141 52007 70500 84010 90250 333 30/// 56050 59022;
0253763930999992011040606004+25733-100300FM-12+051599999V0201201N003019999999N0010001N1+01901+00721101411ADDAY121061AY221061GF107991071001999999011999GJ105889IA1019KA1240M+02761KA2240N+01661MA1999999095801MD1210011-0441MW1051REMSYN124AAXX  06061 76393 31910 71203 10190 20072 39580 40141 52001 70522 8701/ 90550 333 10276 20166 30/// 55098 56050 59044 87462;
0199763930999992011040609004+25733-100300FM-12+051599999V0201201N001012200019N0008001N1+01661+01011101341ADDAY101031AY201031GA1001+999999999GF100991001001999999001001IA1019MA1999999095691MD1710111-0581MW1051REMSYN088AAXX  06091 76393 31908 01201 10166 20101 39569 40134 57011 70500 90850 333 30/// 59058;
0273763930999992011040612004+25733-100300FM-12+051599999V0200901N001012200019N0010001N1+01581+00871101351ADDAA124000091AY101061AY201061GA1001+999999999GF100991001001999999001001IA1019KA1240M+02761KA2120N+01581MA1999999095651MD1710041-0771MW1041REMSYN106AAXX  06121 76393 31910 00901 10158 20087 39565 40135 57004 70400 91150 333 10276 20158 30140 59077 70000;EQDQ01  00002PRCP24
0199763930999992011040615004+25733-100300FM-12+051599999V0203001N001012200019N0010001N1+01861+01281101481ADDAY101031AY201031GA1001+999999999GF100991001001999999001001IA1019MA1999999095751MD1210101-0751MW1051REMSYN088AAXX  06151 76393 31910 03001 10186 20128 39575 40148 52010 70500 91445 333 30/// 59075;
0255763930999992011040618004+25733-100300FM-12+051599999V0200501N003012200019N0005001N1+02681+01181101371ADDAY141061AY241061GA1011+018001081GF101991011021017501001001IA1019KA1120M+02801KA2240N+01581MA1999999095661MD1710091+9999MW1051REMSYN118AAXX  06181 76393 31705 10503 10268 20118 39566 40137 57009 70544 81200 91745 333 10280 20158 30/// 56500 58/// 81856;
0195763930999992011040621004+25733-100300FM-12+051599999V0201101N006012200019N0020001N1+03181+01211100971ADDAY101031AY201031GF102991021001999999021001IA1019MA1999999095351MD1710311+9999MW1051REMSYN100AAXX  06211 76393 31920 21106 10318 20121 39535 40097 57031 70500 82020 92045 333 30/// 56050 58///;
0245763930999992011040700004+25733-100300FM-12+051599999V0201201N004012200019N0020001N1+03181+01211100721ADDAY101061AY201061GF102991021001999999021001IA1019KA1120M+03341KA2180N+01581MA1999999095181MD1710171-0541MW1051REMSYN124AAXX  07001 76393 31920 21204 10318 20121 39518 40072 57017 70500 82020 92350 333 10334 20158 30/// 50841 56050 59054 70000;
0199763930999992011040703004+25733-100300FM-12+051599999V0209999C000012200019N0010001N1+02901+01281100741ADDAY101031AY201031GA1001+999999999GF100991001001999999001001IA1019MA1999999095251MD1210071-0541MW1051REMSYN088AAXX  07031 76393 31910 00000 10290 20128 39525 40074 52007 70500 90250 333 30/// 59054;
0251763930999992011040706004+25733-100300FM-12+051599999V0201101N001012200019N0010001N1+02261+01661100731ADDAY101061AY201061GA1001+999999999GF100991001001999999001001GJ106189IA1019KA1240M+03341KA2240N+01581MA1999999095251MD1410001-0551MW1051REMSYN106AAXX  07061 76393 31910 01101 10226 20166 39525 40073 54000 70500 90550 333 10334 20158 30/// 55103 59055;
0199763930999992011040709004+25733-100300FM-12+051599999V0201101N001012200019N0008001N1+02021+01561100721ADDAY101031AY201031GA1001+999999999GF100991001001999999001001IA1019MA1999999095191MD1710061-1081MW1051REMSYN088AAXX  07091 76393 31908 01101 10202 20156 39519 40072 57006 70500 90850 333 30/// 59108;
0273763930999992011040712004+25733-100300FM-12+051599999V0203301N001012200019N0010001N1+01941+01501100741ADDAA124000091AY101061AY201061GA1001+999999999GF100991001001999999001001IA1019KA1240M+03341KA2120N+01921MA1999999095161MD1710031-0491MW1041REMSYN106AAXX  07121 76393 31910 03301 10194 20150 39516 40074 57003 70400 91150 333 10334 20192 30170 59049 70000;EQDQ01  00002PRCP24
0217763930999992011040715004+25733-100300FM-12+051599999V0200201N001012200019N0005001N1+02301+01531100851ADDAY111031AY211031GA1041+009001031GF104991041001999999041001IA1019MA1999999095221MD1210061-0431MW1051REMSYN106AAXX  07151 76393 31905 40201 10230 20153 39522 40085 52006 70511 84040 91450 333 30/// 56030 59043 84330;
0255763930999992011040718004+25733-100300FM-12+051599999V0201201N005012200019N0005001N1+03181+01541100721ADDAY141061AY241061GA1021+018001081GF104991021041017501011001IA1019KA1120M+03261KA2240N+01921MA1999999095121MD1710101-0541MW1051REMSYN118AAXX  07181 76393 31705 41205 10318 20154 39512 40072 57010 70544 82410 91750 333 10326 20192 30/// 56350 59054 82856;
0217763930999992011040721004+25733-100300FM-12+051599999V0201101N003010300019N0020001N1+03621+01181100331ADDAY121031AY221031GA1061+030001041GF106991061001999999021001IA1019MA1999999094821MD1710301-0531MW1051REMSYN106AAXX  07211 76393 31920 61103 10362 20118 39482 40033 57030 70522 86020 92045 333 30/// 56050 59053 86460;
0262763930999992011040800004+25733-100300FM-12+051599999V0200601N001019999999N0020001N1+03461+01141100161ADDAA124000091AY121061AY221061GF106991061001999999021001IA1019KA1120M+03721KA2180N+01921MA1999999094731MD1710091-0451MW1051REMSYN130AAXX  08001 76393 31920 60601 10346 20114 39473 40016 57009 70522 86020 92350 333 10372 20192 30/// 51021 56050 59045 70000 86460;
0195763930999992011040803004+25733-100300FM-12+051599999V0200401N003012200019N0010001N1+03241+01341100261ADDAY101031AY201031GF103991031001999999021001IA1019MA1999999094871MD1210141-0381MW1051REMSYN100AAXX  08031 76393 31910 30403 10324 20134 39487 40026 52014 70500 83020 90250 333 30/// 56050 59038;
0199763930999992011040809004+25733-100300FM-12+051599999V0203501N001012200019N0008001N1+02461+01851100271ADDAY101031AY201031GA1001+999999999GF100991001001999999001001IA1019MA1999999094831MD1410001-0361MW1051REMSYN088AAXX  08091 76393 31908 03501 10246 20185 39483 40027 54000 70500 90850 333 30/// 59036;
0217763930999992011040815004+25733-100300FM-12+051599999V0201301N001010360019N0010001N1+02861+01821100631ADDAY121031AY221031GA1021+012001061GF106991021051012501011081IA1019MA1999999095101MD1210161-0121MW1051REMSYN106AAXX  08151 76393 31610 61301 10286 20182 39510 40063 52016 70522 82518 91455 333 30/// 56355 59012 82640;
0255763930999992011040818004+25733-100300FM-12+051599999V0201101N003010600019N0010001N1+03511+01421100581ADDAY121061AY221061GA1061+060001021GF106991001001999999001081IA1019KA1120M+03641KA2240N+02351MA1999999095071MD1710031-0051MW1051REMSYN118AAXX  08181 76393 31910 61103 10351 20142 39507 40058 57003 70522 80008 91745 333 10364 20235 30/// 56005 59005 86270;
0217763930999992011040821004+25733-100300FM-12+051599999V0201101N005019999999N0020001N1+03861+01001100321ADDAY121031AY221031GA1031+030001041GF107991031001999999011051IA1019MA1999999094881MD1710191+0061MW1051REMSYN106AAXX  08211 76393 31920 71105 10386 20100 39488 40032 57019 70522 83015 92050 333 30/// 56055 58006 83460;
0262763930999992011040900004+25733-100300FM-12+051599999V0201201N002012200019N0020001N1+03741+00891100171ADDAA124000091AY101061AY201061GF104991041001999999011001IA1019KA1120M+03981KA2180N+02351MA1999999094801MD1710081+0071MW1051REMSYN130AAXX  09001 76393 31920 41202 10374 20089 39480 40017 57008 70500 84010 92355 333 10398 20235 30/// 51131 56050 58007 70000 84460;
0199763930999992011040903004+25733-100300FM-12+051599999V0201201N001012200019N0010001N1+03361+01431100281ADDAY101031AY201031GA1001+999999999GF100991001001999999001001IA1019MA1999999094941MD1210141+0071MW1051REMSYN088AAXX  09031 76393 31910 01201 10336 20143 39494 40028 52014 70500 90250 333 30/// 58007;
0199763930999992011040909004+25733-100300FM-12+051599999V0201201N002012200019N0008001N1+02421+01861100511ADDAY101031AY201031GA1001+999999999GF100991001001999999001001IA1019MA1999999095081MD1210021+0251MW1051REMSYN088AAXX  09091 76393 31908 01202 10242 20186 39508 40051 52002 70500 90850 333 30/// 58025;
0273763930999992011040912004+25733-100300FM-12+051599999V0200601N001012200019N0008001N1+02141+01851100721ADDAA124000091AY141061AY241061GA1001+999999999GF100991001001999999001001IA1019KA1240M+03981KA2120N+02101MA1999999095211MD1210131+0271MW1051REMSYN106AAXX  09121 76393 31908 00601 10214 20185 39521 40072 52013 70544 91145 333 10398 20210 30190 58027 70000;EQDQ01  00002PRCP24
0217763930999992011040915004+25733-100300FM-12+051599999V0200701N001012200019N0005001N1+02501+01861100941ADDAY141031AY241031GA1021+007801071GF102991021061008001001001IA1019MA1999999095371MD1210161+0271MW1051REMSYN106AAXX  09151 76393 31505 20701 10250 20186 39537 40094 52016 70544 82600 91445 333 30/// 56300 58027 82726;
0279763930999992011041000004+25733-100300FM-12+051599999V0201201N005012200019N0010001N1+03341+01571100291ADDAA124000091AY101061AY201061GA1001+999999999GF100991001001999999001001IA1019KA1120M+03721KA2180N+02221MA1999999094851MD1710071+0051MW1051REMSYN112AAXX  10001 76393 31910 01205 10334 20157 39485 40029 57007 70500 92350 333 10372 20222 30/// 50095 58005 70000;EQDQ01  00002PRCP24
0251763930999992011041006004+25733-100300FM-12+051599999V0201201N003012200019N0010001N1+02761+01901100491ADDAY101061AY201061GA1001+999999999GF100991001001999999001001GJ106129IA1019KA1240M+03721KA2240N+02221MA1999999095091MD1999999+0031MW1051REMSYN106AAXX  10061 76393 31910 01203 10276 20190 39509 40049 5//// 70500 90550 333 10372 20222 30/// 55102 58003;
0199763930999992011041009004+25733-100300FM-12+051599999V0201201N002012200019N0008001N1+02461+01911100581ADDAY101031AY201031GA1001+999999999GF100991001001999999001001IA1019MA1999999095141MD1210051+0061MW1051REMSYN088AAXX  10091 76393 31908 01202 10246 20191 39514 40058 52005 70500 90850 333 30/// 58006;
0273763930999992011041012004+25733-100300FM-12+051599999V0200401N001012200019N0010001N1+02161+01931100731ADDAA124000091AY101061AY201061GA1001+999999999GF100991001001999999001001IA1019KA1240M+03721KA2120N+02161MA1999999095221MD1210081+0011MW1041REMSYN106AAXX  10121 76393 31910 00401 10216 20193 39522 40073 52008 70400 91150 333 10372 20216 30200 58001 70000;EQDQ01  00002PRCP24
0217763930999992011041015004+25733-100300FM-12+051599999V0200901N001012200019N0005001N1+02501+01981100891ADDAY101031AY201031GA1011+006301061GF101991011041008001001001IA1019MA1999999095321MD1210101-0051MW1051REMSYN106AAXX  10151 76393 31505 10901 10250 20198 39532 40089 52010 70500 81400 91450 333 30/// 56100 59005 81621;
0245763930999992011041100004+25733-100300FM-12+051599999V0201201N007012200019N0030001N1+03641+01631100061ADDAY101061AY201061GF104991001001999999001081IA1019KA1120M+03821KA2180N+02161MA1999999094641MD1999999-0211MW1051REMSYN124AAXX  11001 76393 31930 41207 10364 20163 39464 40006 5//// 70500 80008 92350 333 10382 20216 30/// 51081 56005 59021 70000;
0199763930999992011041103004+25733-100300FM-12+051599999V0201201N001012200019N0010001N1+03361+01701100181ADDAY101031AY201031GA1001+999999999GF100991001001999999001001IA1019MA1999999094811MD1210171-0151MW1051REMSYN088AAXX  11031 76393 31910 01201 10336 20170 39481 40018 52017 70500 90250 333 30/// 59015;
0251763930999992011041106004+25733-100300FM-12+051599999V0201201N001012200019N0010001N1+02921+01751100301ADDAY101061AY201061GA1001+999999999GF100991001001999999001001GJ106129IA1019KA1240M+03821KA2240N+02161MA1999999094931MD1210121-0161MW1051REMSYN106AAXX  11061 76393 31910 01201 10292 20175 39493 40030 52012 70500 90550 333 10382 20216 30/// 55102 59016;
0199763930999992011041109004+25733-100300FM-12+051599999V0200201N001012200019N0010001N1+02521+01821100441ADDAY101031AY201031GA1001+999999999GF100991001001999999001001IA1019MA1999999095031MD1210101-0111MW1051REMSYN088AAXX  11091 76393 31910 00201 10252 20182 39503 40044 52010 70500 90850 333 30/// 59011;
0273763930999992011041112004+25733-100300FM-12+051599999V0203501N007012200019N0005001N1+02461+00781101001ADDAA124000091AY101061AY201061GA1001+999999999GF100991001001999999001001IA1019KA1240M+03821KA2120N+02461MA1999999095501MD1210471-0281MW1041REMSYN106AAXX  11121 76393 31905 03507 10246 20078 39550 40100 52047 70400 91150 333 10382 20246 30220 59028 70000;EQDQ01  00002PRCP24
0199763930999992011041115004+25733-100300FM-12+051599999V0200201N006012200019N0010001N1+02401+00061101631ADDAY101031AY201031GA1001+999999999GF100991001001999999001001IA1019MA1999999096051MD1210551+0731MW1051REMSYN088AAXX  11151 76393 31910 00206 10240 20006 39605 40163 52055 70500 91450 333 30/// 58073;
0237763930999992011041118004+25733-100300FM-12+051599999V0200501N003012200019N0010001N1+02781-00191101751ADDAY141061AY241061GA1001+999999999GF100991001001999999001001IA1019KA1120M+02911KA2240N+02321MA1999999096141MD1210091+9999MW1051REMSYN100AAXX  11181 76393 31910 00503 10278 21019 39614 40175 52009 70544 91745 333 10291 20232 30/// 58///;
0195763930999992011041121004+25733-100300FM-12+051599999V0200501N003012200019N0020001N1+03121+00131101511ADDAY101031AY201031GF103991001001999999001011IA1019MA1999999095931MD1710211+9999MW1051REMSYN100AAXX  11211 76393 31920 30503 10312 20013 39593 40151 57021 70500 80001 92045 333 30/// 56005 58///;
0262763930999992011041200004+25733-100300FM-12+051599999V0200601N004019999999N0020001N1+02941-00281101451ADDAA124000091AY121061AY221061GF105991001001999999001011IA1019KA1120M+03241KA2180N+02321MA1999999095901MD1710031+1261MW1051REMSYN130AAXX  12001 76393 31920 50604 10294 21028 39590 40145 57003 70522 80001 92350 333 10324 20232 30/// 51461 56005 58126 70000 85070;
0199763930999992011041203004+25733-100300FM-12+051599999V0201201N001012200019N0010001N1+02601-00221101691ADDAY101031AY201031GA1001+999999999GF100991001001999999001001IA1019MA1999999096141MD1210241+1331MW1051REMSYN088AAXX  12031 76393 31910 01201 10260 21022 39614 40169 52024 70500 90250 333 30/// 58133;
0251763930999992011041206004+25733-100300FM-12+051599999V0201601N001012200019N0010001N1+02301+00581101761ADDAY101061AY201061GA1001+999999999GF100991001001999999001001GJ105889IA1019KA1240M+03241KA2240N+02321MA1999999096201MD1210061+1271MW1051REMSYN106AAXX  12061 76393 31910 01601 10230 20058 39620 40176 52006 70500 90550 333 10324 20232 30/// 55098 58127;
0199763930999992011041209004+25733-100300FM-12+051599999V0201201N002012200019N0008001N1+02221-00221101721ADDAY101031AY201031GA1001+999999999GF100991001001999999001001IA1019MA1999999096131MD1710071+1101MW1051REMSYN088AAXX  12091 76393 31908 01202 10222 21022 39613 40172 57007 70500 90850 333 30/// 58110;
0273763930999992011041212004+25733-100300FM-12+051599999V0201101N002012200019N0020001N1+02121+00111101871ADDAA124000091AY101061AY201061GA1001+999999999GF100991001001999999001001IA1019KA1240M+03241KA2120N+02121MA1999999096221MD1210101+0721MW1041REMSYN106AAXX  12121 76393 31920 01102 10212 20011 39622 40187 52010 70400 91150 333 10324 20212 30178 58072 70000;EQDQ01  00002PRCP24
0199763930999992011041215004+25733-100300FM-12+051599999V0201001N002012200019N0040001N1+02261+00241102001ADDAY101031AY201031GA1001+999999999GF100991001001999999001001IA1019MA1999999096321MD1210101+0271MW1051REMSYN088AAXX  12151 76393 31940 01002 10226 20024 39632 40200 52010 70500 91450 333 30/// 58027;
0205763930999992011041218004+25733-100300FM-12+051599999V0201101N005012200019N0060001N1+02721+00351101821ADDGF101991001001999999001011IA1019KA1120M+02821KA2240N+02121MA1999999096161MD1710161+0021REMSYN106AAXX  12181 76393 32956 11105 10272 20035 39616 40182 57016 80001 91745 333 10282 20212 30/// 56007 58002;
0171763930999992011041221004+25733-100300FM-12+051599999V0201201N004012200019N0080001N1+03001+00531101361ADDGA1001+999999999GF100991001001999999001001IA1019MA1999999095761MD1710401-0171REMSYN082AAXX  12211 76393 32958 01204 10300 20053 39576 40136 57040 92045 333 30/// 59017;
0245763930999992011041300004+25733-100300FM-12+051599999V0201201N006012200019N0050001N1+02981+00431101071ADDAY101061AY201061GF102991001001999999001011IA1019KA1120M+03121KA2180N+02121MA1999999095531MD1710231-0371MW1051REMSYN124AAXX  13001 76393 31950 21206 10298 20043 39553 40107 57023 70500 80001 92350 333 10312 20212 30/// 51211 56005 59037 70000;
0199763930999992011041303004+25733-100300FM-12+051599999V0201201N006012200019N0010001N1+02701+00541101161ADDAY101031AY201031GA1001+999999999GF100991001001999999001001IA1019MA1999999095641MD1210111-0501MW1051REMSYN088AAXX  13031 76393 31910 01206 10270 20054 39564 40116 52011 70500 90250 333 30/// 59050;
0251763930999992011041306004+25733-100300FM-12+051599999V0201201N002012200019N0010001N1+02121+01171101151ADDAY101061AY201061GA1001+999999999GF100991001001999999001001GJ106309IA1019KA1240M+03121KA2240N+02121MA1999999095611MD1710031-0591MW1051REMSYN106AAXX  13061 76393 31910 01202 10212 20117 39561 40115 57003 70500 90550 333 10312 20212 30/// 55105 59059;
0199763930999992011041309004+25733-100300FM-12+051599999V0201101N001012200019N0008001N1+01841+01391101131ADDAY101031AY201031GA1001+999999999GF100991001001999999001001IA1019MA1999999095541MD1710071-0581MW1051REMSYN088AAXX  13091 76393 31908 01101 10184 20139 39554 40113 57007 70500 90850 333 30/// 59058;
0273763930999992011041312004+25733-100300FM-12+051599999V0200501N001012200019N0005001N1+01781+01531101171ADDAA124000091AY101061AY201061GA1001+999999999GF100991001001999999001001IA1019KA1240M+03121KA2120N+01781MA1999999095531MD1710011-0691MW1041REMSYN106AAXX  13121 76393 31905 00501 10178 20153 39553 40117 57001 70400 91150 333 10312 20178 30160 59069 70000;EQDQ01  00002PRCP24
0217763930999992011041315004+25733-100300FM-12+051599999V0201101N002012200019N0005001N1+02101+01611101351ADDAY111031AY211031GA1041+006001061GF104991041051008001001001IA1019MA1999999095661MD1210131-0661MW1051REMSYN106AAXX  13151 76393 31505 41102 10210 20161 39566 40135 52013 70511 84500 91450 333 30/// 56100 59066 84620;
0237763930999992011041318004+25733-100300FM-12+051599999V0201101N001012200019N0010001N1+02681+01561101281ADDAY141061AY241061GA1001+999999999GF100991001001999999001001IA1019KA1120M+02781KA2240N+01781MA1999999095601MD1710061-0561MW1051REMSYN100AAXX  13181 76393 31910 01101 10268 20156 39560 40128 57006 70544 91750 333 10278 20178 30/// 59056;
0195763930999992011041321004+25733-100300FM-12+051599999V0200601N003012200019N0010001N1+03081+01441100931ADDAY141031AY241031GF101991011001999999011001IA1019MA1999999095321MD1710281-0441MW1051REMSYN100AAXX  13211 76393 31910 10603 10308 20144 39532 40093 57028 70544 81010 92045 333 30/// 56050 59044;
0262763930999992011041400004+25733-100300FM-12+051599999V0201201N004019999999N0020001N1+03141+01291100701ADDAA124000091AY121061AY221061GF105991001001999999001081IA1019KA1120M+03261KA2180N+01781MA1999999095171MD1710151-0361MW1051REMSYN130AAXX  14001 76393 31920 51204 10314 20129 39517 40070 57015 70522 80008 92350 333 10326 20178 30/// 50851 56005 59036 70000 85270;
0199763930999992011041403004+25733-100300FM-12+051599999V0201201N003012200019N0010001N1+02921+01261100791ADDAY101031AY201031GA1001+999999999GF100991001001999999001001IA1019MA1999999095301MD1210131-0341MW1051REMSYN088AAXX  14031 76393 31910 01203 10292 20126 39530 40079 52013 70500 90250 333 30/// 59034;
0195763930999992011041406004+25733-100300FM-12+051599999V0200901N002012200019N0010001N1+02361+01701999999ADDGA1001+999999999GF100991001001999999001001GJ104629KA1240M+03261KA2240N+01781REMSYN107AAXX  14061 76393 31910 00902 10236 20170 3 39527 40076 5703 70500 90550 333 10326 20178 30/// 55077 59034;
0199763930999992011041409004+25733-100300FM-12+051599999V0200601N001012200019N0008001N1+02111+01901100641ADDAY101031AY201031GA1001+999999999GF100991001001999999001001IA1019MA1999999095121MD1710151-0421MW1051REMSYN088AAXX  14091 76393 31908 00601 10211 20190 39512 40064 57015 70500 90850 333 30/// 59042;
0273763930999992011041412004+25733-100300FM-12+051599999V0203301N001012200019N0010001N1+02101+01861100631ADDAA124000091AY101061AY201061GA1001+999999999GF100991001001999999001001IA1019KA1240M+03261KA2120N+02101MA1999999095071MD1710061-0461MW1041REMSYN106AAXX  14121 76393 31910 03301 10210 20186 39507 40063 57006 70400 91150 333 10326 20210 30192 59046 70000;EQDQ01  00002PRCP24
0195763930999992011041415004+25733-100300FM-12+051599999V0203101N002012200019N0005001N1+02541+01741100781ADDAY101031AY201031GF102991001001999999001011IA1019MA1999999095181MD1210111-0481MW1051REMSYN100AAXX  14151 76393 31905 23102 10254 20174 39518 40078 52011 70500 80001 91450 333 30/// 56007 59048;
0227763930999992011041418004+25733-100300FM-12+051599999V0201101N003019999999N0007001N1+03381+01421100581ADDAY141061AY241061GF106991021001999999011081IA1019KA1120M+03521KA2240N+02081MA1999999095021MD1710161-0581MW1051REMSYN106AAXX  14181 76393 31907 61103 10338 20142 39502 40058 57016 70544 82018 91745 333 10352 20208 30/// 59058;
0217763930999992011041421004+25733-100300FM-12+051599999V0201201N006012200019N0010001N1+03641+01631100191ADDAY141031AY241031GA1031+030001041GF104991031001999999021091IA1019MA1999999094711MD1710311-0611MW1051REMSYN106AAXX  14211 76393 31910 41206 10364 20163 39471 40019 57031 70544 83029 92045 333 30/// 56055 59061 83460;
0261763930999992011041500004+25733-100300FM-12+051599999V0201201N005012200019N0030001N1+03501+01511100091ADDAY121061AY221061GA1001+999999999GF100991001001999999001001IA1019KA1120M+03741KA2180N+02081MA1999999094671MD1710041-0501MW1051REMSYN124AAXX  15001 76393 31930 01205 10350 20151 39467 40009 57004 70522 82018 92350 333 10374 20208 30/// 50851 56055 59050 70000;
0199763930999992011041503004+25733-100300FM-12+051599999V0201201N001012200019N0010001N1+03141+01371100191ADDAY101031AY201031GA1001+999999999GF100991001001999999001001IA1019MA1999999094811MD1210141-0491MW1051REMSYN088AAXX  15031 76393 31910 01201 10314 20137 39481 40019 52014 70500 90250 333 30/// 59049;
0251763930999992011041506004+25733-100300FM-12+051599999V0201701N001012200019N0010001N1+02821+01561100251ADDAY101061AY201061GA1001+999999999GF100991001001999999001001GJ104629IA1019KA1240M+03741KA2240N+02081MA1999999094861MD1210051-0411MW1051REMSYN106AAXX  15061 76393 31910 01701 10282 20156 39486 40025 52005 70500 90550 333 10374 20208 30/// 55077 59041;
0199763930999992011041509004+25733-100300FM-12+051599999V0202701N001012200019N0008001N1+02431+01951100281ADDAY101031AY201031GA1001+999999999GF100991001001999999001001IA1019MA1999999094841MD1710021-0291MW1051REMSYN088AAXX  15091 76393 31908 02701 10243 20195 39484 40028 57002 70500 90850 333 30/// 59029;
0269763930999992011041512004+25733-100300FM-12+051599999V0202801N003019999999N0010001N1+02381+01411100461ADDAA124000091AY121061AY221061GF105991021001999999031011IA1019KA1240M+03741KA2120N+02341MA1999999094961MD1210121-0111MW1051REMSYN118AAXX  15121 76393 31910 52803 10238 20141 39496 40046 52012 70522 82031 91145 333 10374 20234 30226 56055 59011 70000;EQDQ01  00002PRCP24
0195763930999992011041515004+25733-100300FM-12+051599999V0203401N003012200019N0005001N1+02881+01081100811ADDAY141031AY241031GF103991001001999999001041IA1019MA1999999095271MD1210311+0091MW1051REMSYN100AAXX  15151 76393 31905 33403 10288 20108 39527 40081 52031 70544 80004 91445 333 30/// 56005 58009;
0245763930999992011041600004+25733-100300FM-12+051599999V0200401N003012200019N0010001N1+03101-00471100891ADDAY101061AY201061GF104991001001999999001081IA1019KA1120M+03421KA2180N+02341MA1999999095421MD1999999+0751MW1051REMSYN124AAXX  16001 76393 31910 40403 10310 21047 39542 40089 5//// 70500 80008 92355 333 10342 20234 30/// 51271 56005 58075 70000;
0273763930999992011041612004+25733-100300FM-12+051599999V0201201N005012200019N0010001N1+02261+00421101591ADDAA124000091AY101061AY201061GA1001+999999999GF100991001001999999001001IA1019KA1240M+03401KA2120N+02201MA1999999095951MD1999999+0991MW1041REMSYN106AAXX  16121 76393 31910 01205 10226 20042 39595 40159 5//// 70400 91150 333 10340 20220 30208 58099 70000;EQDQ01  00002PRCP24
0195763930999992011041615004+25733-100300FM-12+051599999V0201101N005012200019N0100001N1+02341+00641101771ADDAY101031AY201031GF102991001001999999001011IA1019MA1999999096091MD1210141+0691MW1041REMSYN100AAXX  16151 76393 31960 21105 10234 20064 39609 40177 52014 70400 80001 91450 333 30/// 56001 58069;
0255763930999992011041618004+25733-100300FM-12+051599999V0201201N006010600019N0030001N1+02641+00771101651ADDAY121061AY221061GA1051+060001001GF105991001001999999001011IA1019KA1120M+02801KA2240N+02121MA1999999096011MD1710081+9999MW1051REMSYN118AAXX  16181 76393 31930 51206 10264 20077 39601 40165 57008 70522 80001 91745 333 10280 20212 30/// 56005 58/// 85070;
0258763930999992011041706004+25733-100300FM-12+051599999V0201201N003019999999N0010001N1+02031+01221101241ADDAY121061AY221061GF107991061001999999021011GJ104929IA1019KA1240M+02801KA2240N+99999MA1999999095651MW1051REMSYN124AAXX  17061 76393 31910 71203 10203 20122 39565 40124 5//// 70522 86021 90550 333 10280 20212 30/// 55082 56055 58/// 86458;EQDQ01 +02122ATMN  
0223763930999992011041709004+25733-100300FM-12+051599999V0201101N00101036001CN0008001N1+01931+01301101121ADDAY121031AY221031GA1021+002701061GF105991021051008001031001IA1019MA1999999095501MD1710151+9999MW1051REMSYN112AAXX  17091 76393 31508 51101 10193 20130 39550 40112 57015 70522 82530 90850 333 30/// 56350 58/// 82609 83360;
0273763930999992011041712004+25733-100300FM-12+051599999V0200601N001012200019N0010001N1+01821+01371101101ADDAA124000091AY101061AY201061GA1001+999999999GF100991001001999999001001IA1019KA1240M+02801KA2120N+01861MA1999999095451MD1710051-0501MW1041REMSYN106AAXX  17121 76393 31910 00601 10182 20137 39545 40110 57005 70400 91150 333 10280 20186 30170 59050 70000;EQDQ01  00002PRCP24
0199763930999992011041715004+25733-100300FM-12+051599999V0201101N001012200019N0005001N1+02101+01411101281ADDAY101031AY201031GA1001+999999999GF100991001001999999001001IA1019MA1999999095601MD1210151-0491MW1051REMSYN088AAXX  17151 76393 31905 01101 10210 20141 39560 40128 52015 70500 91145 333 30/// 59049;
0279763930999992011041800004+25733-100300FM-12+051599999V0201201N004012200019N0020001N1+03101+01431100461ADDAA124000091AY101061AY201061GA1001+999999999GF100991001001999999001001IA1019KA1120M+03261KA2180N+01821MA1999999094951MD1999999-0541MW1051REMSYN112AAXX  18001 76393 31920 01204 10310 20143 39495 40046 5//// 70500 92350 333 10326 20182 30/// 51141 59054 70000;EQDQ01  00002PRCP24
0199763930999992011041803004+25733-100300FM-12+051599999V0200201N001012200019N0010001N1+02841+01581100511ADDAY101031AY201031GA1001+999999999GF100991001001999999001001IA1019MA1999999095031MD1210081-0571MW1051REMSYN088AAXX  18031 76393 31910 00201 10284 20158 39503 40051 52008 70500 90255 333 30/// 59057;
0251763930999992011041806004+25733-100300FM-12+051599999V0201101N001012200019N0010001N1+02481+01901100601ADDAY101061AY201061GA1001+999999999GF100991001001999999001001GJ106189IA1019KA1240M+03261KA2240N+01821MA1999999095141MD1710101-0511MW1051REMSYN106AAXX  18061 76393 31910 01101 10248 20190 39514 40060 57010 70500 90550 333 10326 20182 30/// 55103 59051;
0199763930999992011041809004+25733-100300FM-12+051599999V0200401N001012200019N0008001N1+02201+01911100581ADDAY101031AY201031GA1001+999999999GF100991001001999999001001IA1019MA1999999095021MD1710121-0481MW1051REMSYN088AAXX  18091 76393 31908 00401 10220 20191 39502 40058 57012 70500 90850 333 30/// 59048;
0273763930999992011041812004+25733-100300FM-12+051599999V0203101N001012200019N0005001N1+02121+01851100521ADDAA124000091AY101061AY201061GA1001+999999999GF100991001001999999001001IA1019KA1240M+03261KA2120N+02111MA1999999094971MD1710051-0481MW1041REMSYN106AAXX  18121 76393 31905 03101 10212 20185 39497 40052 57005 70400 91150 333 10326 20211 30194 59048 70000;EQDQ01  00002PRCP24
0199763930999992011041815004+25733-100300FM-12+051599999V0203201N001012200019N0005001N1+02721+01581100651ADDAY101031AY201031GA1001+999999999GF100991001001999999001001IA1019MA1999999095071MD1210101-0531MW1051REMSYN088AAXX  18151 76393 31905 03201 10272 20158 39507 40065 52010 70500 91450 333 30/// 59053;
0233763930999992011041818004+25733-100300FM-12+051599999V0201101N003012200019N0010001N1+03441+01621100571ADDAY101061AY201061GF102991021001999999011001IA1019KA1120M+03561KA2240N+02111MA1999999095021MD1710051+9999MW1051REMSYN112AAXX  18181 76393 31910 21103 10344 20162 39502 40057 57005 70500 82010 91745 333 10356 20211 30/// 56050 58///;
0223763930999992011041821004+25733-100300FM-12+051599999V0201201N004012200019N0010001N1+03821+01401100231ADDAY111031AY211031GA1011+018001081GF104991011021022501011001IA1019MA1999999094761MD1710261+9999MW1051REMSYN112AAXX  18211 76393 31810 41204 10382 20140 39476 40023 57026 70511 81210 92045 333 30/// 56350 58/// 81856 83465;
0245763930999992011041900004+25733-100300FM-12+051599999V0201301N004012200019N0010001N1+03661+01291100051ADDAY101061AY201061GF102991021001999999041001IA1019KA1120M+04001KA2180N+02111MA1999999094671MD1710091-0281MW1051REMSYN124AAXX  19001 76393 31910 21304 10366 20129 39467 40005 57009 70500 82040 92355 333 10400 20211 30/// 50891 56050 59028 70000;
0199763930999992011041903004+25733-100300FM-12+051599999V0201201N005012200019N0010001N1+03201+01851100181ADDAY101031AY201031GA1001+999999999GF100991001001999999001001IA1019MA1999999094831MD1210161-0201MW1051REMSYN088AAXX  19031 76393 31910 01205 10320 20185 39483 40018 52016 70500 90250 333 30/// 59020;
0251763930999992011041906004+25733-100300FM-12+051599999V0200401N002012200019N0010001N1+02681+02151100291ADDAY101061AY201061GA1001+999999999GF100991001001999999001001GJ106369IA1019KA1240M+04001KA2240N+02111MA1999999094911MD1210081-0231MW1051REMSYN106AAXX  19061 76393 31910 00402 10268 20215 39491 40029 52008 70500 90550 333 10400 20211 30/// 55106 59023;
0199763930999992011041909004+25733-100300FM-12+051599999V0200601N001012200019N0008001N1+02401+02121100241ADDAY101031AY201031GA1001+999999999GF100991001001999999001001IA1019MA1999999094811MD1710101-0211MW1051REMSYN088AAXX  19091 76393 31908 00601 10240 20212 39481 40024 57010 70500 90850 333 30/// 59021;
0273763930999992011041912004+25733-100300FM-12+051599999V0200101N001012200019N0005001N1+02361+02081100321ADDAA124000091AY101061AY201061GA1001+999999999GF100991001001999999001001IA1019KA1240M+04001KA2120N+02361MA1999999094831MD1210011-0041MW1041REMSYN106AAXX  19121 76393 31905 00101 10236 20208 39483 40032 52001 70400 91145 333 10400 20236 30214 59004 70000;EQDQ01  00002PRCP24
0217763930999992011041915004+25733-100300FM-12+051599999V0201701N001012200019N0005001N1+02941+02101100461ADDAY111031AY211031GA1041+060001001GF104991001001999999001011IA1019MA1999999094931MD1210101-0141MW1051REMSYN106AAXX  19151 76393 31905 41701 10294 20210 39493 40046 52010 70511 80001 91450 333 30/// 56007 59014 84070;
0239763930999992011041918004+25733-100300FM-12+051599999V0201201N003012200019N0010001N1+03801+01331100401ADDAY111061AY211061GF103991021001999999011011IA1019KA1120M+03941KA2240N+02361MA1999999094901MD1710031+9999MW1051REMSYN118AAXX  19181 76393 31910 31203 10380 20133 39490 40040 57003 70511 82011 91745 333 10394 20236 30/// 54106 56055 59012;
0217763930999992011041921004+25733-100300FM-12+051599999V0203401N001012200019N0020001N1+04141+00311100121ADDAY101031AY201031GA1011+009901091GF102991011091012501011001IA1019MA1999999094711MD1710191-0051MW1051REMSYN106AAXX  19211 76393 31620 23401 10414 20031 39471 40012 57019 70500 81910 92045 333 30/// 56350 59005 81933;
0281763930999992011042000004+25733-100300FM-12+051599999V0200601N003012200019N0020001N1+03661+01582100121ADDAA124000091AY101061AY201061GF104991011091999999011001IA1019KA1120M+04261KA2180N+02361MA1999999094761MD1210051+0091MW1051REMSYN130AAXX  20001 76393 31920 40603 10366 20158 39476 40012 52005 70500 81910 92355 333 10426 20236 30/// 51041 56350 58009 70000 81933;EQDQ01+001583ATOD  
0199763930999992011042003004+25733-100300FM-12+051599999V0201201N002012200019N0010001N1+03381+01621100271ADDAY101031AY201031GA1001+999999999GF100991001001999999001001IA1019MA1999999094941MD1210181+0111MW1051REMSYN088AAXX  20031 76393 31910 01202 10338 20162 39494 40027 52018 70500 90250 333 30/// 58011;
0251763930999992011042006004+25733-100300FM-12+051599999V0200901N001012200019N0010001N1+02941+01881100381ADDAY101061AY201061GA1001+999999999GF100991001001999999001001GJ106369IA1019KA1240M+04261KA2240N+02361MA1999999095031MD1210091+0121MW1051REMSYN106AAXX  20061 76393 31910 00901 10294 20188 39503 40038 52009 70500 90550 333 10426 20236 30/// 55106 58012;
0199763930999992011042009004+25733-100300FM-12+051599999V0200601N001012200019N0008001N1+02621+02081100451ADDAY101031AY201031GA1001+999999999GF100991001001999999001001IA1019MA1999999095041MD1210011+0231MW1051REMSYN088AAXX  20091 76393 31908 00601 10262 20208 39504 40045 52001 70500 90850 333 30/// 58023;
0273763930999992011042012004+25733-100300FM-12+051599999V0200901N001012200019N0005001N1+02461+02061100561ADDAA124000091AY101061AY201061GA1001+999999999GF100991001001999999001001IA1019KA1240M+04261KA2120N+02461MA1999999095091MD1210051+0261MW1041REMSYN106AAXX  20121 76393 31905 00901 10246 20206 39509 40056 52005 70400 91150 333 10426 20246 30230 58026 70000;EQDQ01  00002PRCP24
0199763930999992011042015004+25733-100300FM-12+051599999V0200601N001012200019N0005001N1+02841+02231100751ADDAY101031AY201031GA1001+999999999GF100991001001999999001001IA1019MA1999999095231MD1210141+0301MW1051REMSYN088AAXX  20151 76393 31905 00601 10284 20223 39523 40075 52014 70500 91450 333 30/// 58030;
0241763930999992011042118004+25733-100300FM-12+051599999V0201101N003012200019N0010001N1+03001+02011100961ADDAY101061AY201061GA1021+012001081GF102991021011012501001001IA1019KA1120M+03121KA2240N+02381MA1999999095411MW1051REMSYN118AAXX  21181 76393 31610 21103 10300 20201 39541 40096 5//// 70500 82100 91745 333 10312 20238 30/// 56300 58/// 82840;
0223763930999992011042121004+25733-100300FM-12+051599999V0201201N00501090001CN0020001N1+03381+01911100621ADDAY121031AY221031GA1011+018001081GF105991011011017501021081IA1019MA1999999095131MD1710281+9999MW1051REMSYN112AAXX  21211 76393 31720 51205 10338 20191 39513 40062 57028 70522 81128 92045 333 30/// 56355 58/// 81856 83465;
0239763930999992011042212004+25733-100300FM-12+051599999V0201101N003010042019N0005001N1+02361+02051100651ADDAY141061AY241061GF107991071061004501999999GJ103189IA1019KA1240M+03501KA2120N+02321MA1999999095121MW1051REMSYN124AAXX  22121 76393 31405 71103 10236 20205 39512 40065 5//// 70544 876// 91145 333 10350 20232 30228 55053 563// 58/// 87713;
0217763930999992011042215004+25733-100300FM-12+051599999V0201201N001010057019N0005001N1+02501+02041100791ADDAY141031AY241031GA1081+005701071GF108991081061004501999999IA1019MA1999999095231MD1210111+9999MW1051REMSYN106AAXX  22151 76393 31405 81201 10250 20204 39523 40079 52011 70544 886// 91445 333 30/// 563// 58/// 88719;
0287763930999992011042312004+25733-100300FM-12+051599999V0201101N001012200019N0020001N1+02421+01931100801ADDAA124000091AY101061AY201061GA1001+999999999GF100991001001999999001001GJ104029IA1019KA1240M+03541KA2120N+02381MA1999999095001MD1999999-0121MW1041REMSYN112AAXX  23121 76393 31920 01101 10242 20193 39500 40080 5//// 70400 91150 333 10354 20238 30222 55067 59012 70000;EQDQ01  00002PRCP24
0217763930999992011042315004+25733-100300FM-12+051599999V0200601N002012200019N0005001N1+02521+02071100901ADDAY101031AY201031GA1011+005401061GF101991011051004501001001IA1019MA1999999095211MD1210211-0021MW1051REMSYN106AAXX  23151 76393 31405 10602 10252 20207 39521 40090 52021 70500 81500 91450 333 30/// 56300 59002 81618;
0255763930999992011042318004+25733-100300FM-12+051599999V0201201N006012200019N0005001N1+03181+02061100671ADDAY141061AY241061GA1011+013801081GF102991011021012501001011IA1019KA1120M+03301KA2240N+02301MA1999999095131MD1410001+9999MW1051REMSYN118AAXX  23181 76393 31605 21206 10318 20206 39513 40067 54000 70544 81201 91745 333 10330 20230 30/// 56505 58/// 81846;
0217763930999992011042321004+25733-100300FM-12+051599999V0201101N005012200019N0010001N1+03501+01891100401ADDAY111031AY211031GA1011+018001061GF104991011041017501011081IA1019MA1999999094911MD1710221+9999MW1051REMSYN106AAXX  23211 76393 31710 41105 10350 20189 39491 40040 57022 70511 81418 92045 333 30/// 56555 58/// 81656;
0237763930999992011042406004+25733-100300FM-12+051599999V0201201N003012200019N0010001N1+02641+02081100551ADDAY101061AY201061GA1001+999999999GF100991001001999999001001GJ105649IA1019KA1240M+03661KA2240N+02301MA1999999095121MW1051REMSYN106AAXX  24061 76393 31910 01203 10264 20208 39512 40055 5//// 70500 90550 333 10366 20230 30/// 55094 58///;
0199763930999992011042409004+25733-100300FM-12+051599999V0201201N002012200019N0008001N1+02401+02031100411ADDAY101031AY201031GA1001+999999999GF100991001001999999001001IA1019MA1999999094941MD1710181+9999MW1051REMSYN088AAXX  24091 76393 31908 01202 10240 20203 39494 40041 57018 70500 90850 333 30/// 58///;
0272763930999992011042412004+25733-100300FM-12+051599999V0201101N003010033019N0008001N1+02341+02061100611ADDAA124000091AY141061AY241061GA1071+003301071GF107991071061004501999999IA1019KA1240M+03661KA2120N+02311MA1999999095091MD1210141+0091MW1051REMSYN124AAXX  24121 76393 31408 71103 10234 20206 39509 40061 52014 70544 876// 91145 333 10366 20231 30226 56399 58009 70000 87711;
0217763930999992011042415004+25733-100300FM-12+051599999V0200601N001010045019N0005001N1+02441+02071100781ADDAY141031AY241031GA1081+004501071GF108991081061004501999999IA1019MA1999999095221MD1210131+0011MW1051REMSYN106AAXX  24151 76393 31405 80601 10244 20207 39522 40078 52013 70544 886// 91445 333 30/// 563// 58001 88715;
0255763930999992011042418004+25733-100300FM-12+051599999V0200601N002010099019N0005001N1+02921+02111100761ADDAY121061AY221061GA1061+009901061GF106991061061012501001001IA1019KA1120M+02961KA2240N+02341MA1999999095201MD1710021+0071MW1051REMSYN118AAXX  24181 76393 31605 60602 10292 20211 39520 40076 57002 70522 86600 91750 333 10296 20234 30/// 56300 58007 86633;
0195763930999992011042421004+25733-100300FM-12+051599999V0201101N003012200019N0005001N1+03341+02061100471ADDAY111031AY211031GF104991041061017501001001IA1019MA1999999094951MD1710251+0041MW1051REMSYN100AAXX  24211 76393 31705 41103 10334 20206 39495 40047 57025 70511 84600 92050 333 30/// 58004 84652;
0251763930999992011042506004+25733-100300FM-12+051599999V0201101N001012200019N0010001N1+02661+02101100431ADDAY101061AY201061GA1001+999999999GF100991001001999999001001GJ103549IA1019KA1240M+03481KA2240N+02341MA1999999095001MD1999999-0121MW1051REMSYN106AAXX  25061 76393 31910 01101 10266 20210 39500 40043 5//// 70500 90550 333 10348 20234 30/// 55059 59012;
0199763930999992011042509004+25733-100300FM-12+051599999V0200901N001012200019N0008001N1+02401+02121100341ADDAY101031AY201031GA1001+999999999GF100991001001999999001001IA1019MA1999999094901MD1710101-0041MW1051REMSYN088AAXX  25091 76393 31908 00901 10240 20212 39490 40034 57010 70500 90850 333 30/// 59004;
0272763930999992011042512004+25733-100300FM-12+051599999V0203201N002012200019N0010001N1+02321+02061100431ADDAA124000091AY101061AY201061GA1011+003001061GF101991011051004501001001IA1019KA1240M+03481KA2120N+02301MA1999999094921MD1210041-0171MW1041REMSYN124AAXX  25121 76393 31410 13202 10232 20206 39492 40043 52004 70400 81500 91150 333 10348 20230 30216 56300 59017 70000 81610;
0199763930999992011042515004+25733-100300FM-12+051599999V0203101N001012200019N0004001N1+02681+02121100521ADDAY101031AY201031GA1001+999999999GF100991001001999999001001IA1019MA1999999094981MD1210061-0241MW1051REMSYN088AAXX  25151 76393 31904 03101 10268 20212 39498 40052 52006 70500 91450 333 30/// 59024;
0228763930999992011042518004+25733-100300FM-12+051599999V0203401N006012200019N0040001N1+03901-00532100341ADDGA1001+999999999GF100991001001999999001001IA1019KA1120M+04001KA2240N+02301MA1999999094841MD1710141-0361REMSYN094AAXX  25181 76393 31940 03406 10390 21053 39484 40034 57014 91745 333 10400 20230 30/// 59036;EQDQ01-000533ATOD  
0171763930999992011042521004+25733-100300FM-12+051599999V0203201N006012200019N0060001N1+04181-01081999999ADDGA1001+999999999GF100991001001999999001001IA1019MA1999999094481MD1710361-0471REMSYN082AAXX  25211 76393 32956 03206 10418 21108 39448 4//// 57036 92045 333 30/// 59047;
0251763930999992011042606004+25733-100300FM-12+051599999V0201101N001012200019N0010001N1+02881+02101099901ADDAY101061AY201061GA1001+999999999GF100991001001999999001001GJ106669IA1019KA1240M+04281KA2240N+02301MA1999999094581MD1999999-0421MW1051REMSYN106AAXX  26061 76393 31910 01101 10288 20210 39458 49990 5//// 70500 90550 333 10428 20230 30/// 55111 59042;
0199763930999992011042609004+25733-100300FM-12+051599999V0200901N001012200019N0008001N1+02571+02151099791ADDAY101031AY201031GA1001+999999999GF100991001001999999001001IA1019MA1999999094421MD1710161-0481MW1051REMSYN088AAXX  26091 76393 31908 00901 10257 20215 39442 49979 57016 70500 90850 333 30/// 59048;
0209763930999992011042618004+25733-100300FM-12+051599999V0203101N003012200019N0040001N1+04001-00021099721ADDGA1001+999999999GF100991001001999999001001IA1019KA1120M+04151KA2240N+02501MA1999999094311MD1710111-0531REMSYN094AAXX  26181 76393 32940 03103 10400 21002 39431 49972 57011 91745 333 10415 20250 30/// 59053;
0171763930999992011042621004+25733-100300FM-12+051599999V0203101N006012200019N0050001N1+04261-00171099271ADDGA1001+999999999GF100991001001999999001001IA1019MA1999999093951MD1710361-0531REMSYN082AAXX  26211 76393 32950 03106 10426 21017 39395 49927 57036 92045 333 30/// 59053;
0251763930999992011042700004+25733-100300FM-12+051599999V0203201N006012200019N0060001N1+04201-00021099101ADDAA124000091GA1001+999999999GF100991001001999999001001IA1019KA1120M+04461KA2180N+02501MA1999999093861MD1710091-0551REMSYN106AAXX  27001 76393 32956 03206 10420 21002 39386 49910 57009 92330 333 10446 20250 30/// 51231 59055 70000;EQDQ01  00002PRCP24
0251763930999992011042706004+25733-100300FM-12+051599999V0202101N001012200019N0020001N1+03101+00711099501ADDAY101061AY201061GA1001+999999999GF100991001001999999001001GJ107509IA1019KA1240M+04461KA2240N+02501MA1999999094241MD1999999-0341MW1051REMSYN106AAXX  27061 76393 31920 02101 10310 20071 39424 49950 5//// 70500 90550 333 10446 20250 30/// 55125 59034;
0199763930999992011042709004+25733-100300FM-12+051599999V0202701N001012200019N0010001N1+02801+00821099491ADDAY101031AY201031GA1001+999999999GF100991001001999999001001IA1019MA1999999094171MD1710071-0251MW1051REMSYN088AAXX  27091 76393 31910 02701 10280 20082 39417 49949 57007 70500 90850 333 30/// 59025;
0273763930999992011042712004+25733-100300FM-12+051599999V0202401N002012200019N0030001N1+02721+00361099731ADDAA124000091AY101061AY201061GA1001+999999999GF100991001001999999001001IA1019KA1240M+04461KA2120N+02681MA1999999094331MD1210161+0221MW1041REMSYN106AAXX  27121 76393 31930 02402 10272 20036 39433 49973 52016 70400 91150 333 10446 20268 30234 58022 70000;EQDQ01  00002PRCP24
0199763930999992011042715004+25733-100300FM-12+051599999V0200301N006012200019N0005001N1+03261-00061100341ADDAY101031AY201031GA1001+999999999GF100991001001999999001001IA1019MA1999999094881MD1210551+0461MW1051REMSYN088AAXX  27151 76393 31905 00306 10326 21006 39488 40034 52055 70500 91450 333 30/// 58046;
0237763930999992011042718004+25733-100300FM-12+051599999V0203601N006012200019N0005001N1+03571-00361100571ADDAY141061AY241061GA1001+999999999GF100991001001999999001001IA1019KA1120M+03661KA2240N+02681MA1999999095111MD1210231+0801MW1071REMSYN100AAXX  27181 76393 31905 03606 10357 21036 39511 40057 52023 70744 91745 333 10366 20268 30/// 58080;
0199763930999992011042721004+25733-100300FM-12+051599999V0200301N002012200019N0005001N1+03601+00241100451ADDAY141031AY241031GA1001+999999999GF100991001001999999001001IA1019MA1999999095031MD1710081+1081MW1041REMSYN088AAXX  27211 76393 31905 00302 10360 20024 39503 40045 57008 70444 92050 333 30/// 58108;
0279763930999992011042800004+25733-100300FM-12+051599999V0201201N006012200019N0005001N1+03581+00401100461ADDAA124000091AY101061AY201061GA1001+999999999GF100991001001999999001001IA1019KA1120M+03901KA2180N+02681MA1999999095081MD1210051+1221MW1041REMSYN112AAXX  28001 76393 31905 01206 10358 20040 39508 40046 52005 70400 92350 333 10390 20268 30/// 51271 58122 70000;EQDQ01  00002PRCP24
0199763930999992011042803004+25733-100300FM-12+051599999V0201301N003012200019N0010001N1+03141+00311100911ADDAY101031AY201031GA1001+999999999GF100991001001999999001001IA1019MA1999999095511MD1210431+1331MW1051REMSYN088AAXX  28031 76393 31910 01303 10314 20031 39551 40091 52043 70500 90250 333 30/// 58133;
0251763930999992011042806004+25733-100300FM-12+051599999V0200401N002012200019N0010001N1+02761+01291101201ADDAY101061AY201061GA1001+999999999GF100991001001999999001001GJ106249IA1019KA1240M+03901KA2240N+02681MA1999999095761MD1210251+1521MW1051REMSYN106AAXX  28061 76393 31910 00402 10276 20129 39576 40120 52025 70500 90550 333 10390 20268 30/// 55104 58152;
0199763930999992011042809004+25733-100300FM-12+051599999V0200201N001012200019N0008001N1+02441+00931101311ADDAY101031AY201031GA1001+999999999GF100991001001999999001001IA1019MA1999999095791MD1210031+1621MW1051REMSYN088AAXX  28091 76393 31908 00201 10244 20093 39579 40131 52003 70500 90850 333 30/// 58162;
0273763930999992011042812004+25733-100300FM-12+051599999V0200601N002012200019N0030001N1+02341+00881101551ADDAA124000091AY101061AY201061GA1001+999999999GF100991001001999999001001IA1019KA1240M+03901KA2120N+02301MA1999999096001MD1210211+1671MW1041REMSYN106AAXX  28121 76393 31930 00602 10234 20088 39600 40155 52021 70400 91150 333 10390 20230 30212 58167 70000;EQDQ01  00002PRCP24
0214763930999992011042815004+25733-100300FM-12+051599999V0201201N007012200019N0100001N1+02441+01061101961ADDAY101031AY201031GF101991001001999999001011IA1019MA1999999096341MD1210341+1461MW1041REMSYN100AAXX  28151 76393 31960 11207 10244 20106 39634 40196 52034 70400 81001 91450 333 30/// 56007 58146;EQDQ01+000012SCOTLC
0227763930999992011042818004+25733-100300FM-12+051599999V0200901N003012200019N0060001N1+02761+01501101891ADDGA1021+015001081GF102991021011017501001001IA1019KA1120M+02881KA2240N+02281MA1999999096271MD1710071+1161REMSYN112AAXX  28181 76393 32756 20903 10276 20150 39627 40189 57007 82100 91745 333 10288 20228 30/// 56300 58116 82850;
0167763930999992011042821004+25733-100300FM-12+051599999V0201001N006012200019N0060001N1+03041+01391101571ADDGF101991011011022501001001IA1019MA1999999095981MD1710291+0951REMSYN094AAXX  28211 76393 32856 11006 10304 20139 39598 40157 57029 81100 92045 333 30/// 56300 58095;
0245763930999992011042900004+25733-100300FM-12+051599999V0201501N005012200019N0040001N1+03141+01071101321ADDAY101061AY201061GF102991001001999999001081IA1019KA1120M+03241KA2180N+02281MA1999999095781MD1710201+0701MW1051REMSYN124AAXX  29001 76393 31940 21505 10314 20107 39578 40132 57020 70500 80008 92350 333 10324 20228 30/// 51191 56005 58070 70000;
0199763930999992011042903004+25733-100300FM-12+051599999V0201201N007012200019N0010001N1+02721+01191101431ADDAY101031AY201031GA1001+999999999GF100991001001999999001001IA1019MA1999999095901MD1210121+0391MW1051REMSYN088AAXX  29031 76393 31910 01207 10272 20119 39590 40143 52012 70500 90250 333 30/// 58039;
0251763930999992011042906004+25733-100300FM-12+051599999V0201201N003012200019N0010001N1+02341+00861101491ADDAY101061AY201061GA1001+999999999GF100991001001999999001001GJ106429IA1019KA1240M+03241KA2240N+02281MA1999999095951MD1210051+0191MW1051REMSYN106AAXX  29061 76393 31910 01203 10234 20086 39595 40149 52005 70500 90550 333 10324 20228 30/// 55107 58019;
0199763930999992011042909004+25733-100300FM-12+051599999V0201101N001012200019N0008001N1+02021+01201101361ADDAY101031AY201031GA1001+999999999GF100991001001999999001001IA1019MA1999999095801MD1710151+0011MW1051REMSYN088AAXX  29091 76393 31908 01101 10202 20120 39580 40136 57015 70500 90850 333 30/// 58001;
0273763930999992011042912004+25733-100300FM-12+051599999V0200601N002012200019N0030001N1+01841+01461101341ADDAA124000091AY101061AY201061GA1001+999999999GF100991001001999999001001IA1019KA1240M+03241KA2120N+01841MA1999999095711MD1710081-0291MW1041REMSYN106AAXX  29121 76393 31930 00602 10184 20146 39571 40134 57008 70400 91150 333 10324 20184 30170 59029 70000;EQDQ01  00002PRCP24
0199763930999992011042915004+25733-100300FM-12+051599999V0201201N002012200019N0005001N1+02201+01591101401ADDAY101031AY201031GA1001+999999999GF100991001001999999001001IA1019MA1999999095731MD1210021-0611MW1051REMSYN088AAXX  29151 76393 31905 01202 10220 20159 39573 40140 52002 70500 91450 333 30/// 59061;
0237763930999992011042918004+25733-100300FM-12+051599999V0200901N003012200019N0005001N1+02701+01551101251ADDAY141061AY241061GA1001+999999999GF100991001001999999001001IA1019KA1120M+02841KA2240N+01841MA1999999095601MD1710131-0671MW1041REMSYN100AAXX  29181 76393 31905 00903 10270 20155 39560 40125 57013 70444 91745 333 10284 20184 30/// 59067;
0189763930999992011042921004+25733-100300FM-12+051599999V0200701N002012200019N0020001N1+03301+01511100741ADDGA1011+021001081GF101991011021022501001001IA1019MA1999999095171MD1710431-0811REMSYN100AAXX  29211 76393 32820 10702 10330 20151 39517 40074 57043 81200 92045 333 30/// 56300 59081 81857;
0263763930999992011043000004+25733-100300FM-12+051599999V0201201N004012200019N0030001N1+03461+01371100391ADDAA124000091AY101061AY201061GF104991041001999999011001IA1019KA1120M+03521KA2180N+01841MA1999999094901MD1710271-0881MW1051REMSYN131AAXX  30001 76393 31930 41204 10346 20137 39490 40039 57027 70500 84010 92355 333 10352 20184 30/// 51371 56050 59088 70000 844600;
0199763930999992011043003004+25733-100300FM-12+051599999V0201201N007012200019N0010001N1+02721+01881100431ADDAY101031AY201031GA1001+999999999GF100991001001999999001001IA1019MA1999999094981MD1210081-0921MW1051REMSYN088AAXX  30031 76393 31910 01207 10272 20188 39498 40043 52008 70500 90250 333 30/// 59092;
0277763930999992011043012004+25733-100300FM-12+051599999V0203501N001012200019N0005001N1+02181+01921100401ADDAA124000091AY141061AY241061GF102991021001999999031001GJ105529IA1019KA1240M+03521KA2120N+02101MA1999999094861MD1710171-0851MW1051REMSYN118AAXX  30121 76393 31905 23501 10218 20192 39486 40040 57017 70544 82030 91145 333 10352 20210 30200 55092 59085 70000;EQDQ01  00002PRCP24
0217763930999992011043015004+25733-100300FM-12+051599999V0201101N001012200019N0005001N1+02601+02031100501ADDAY101031AY201031GA1011+006901081GF101991011011008001001001IA1019MA1999999094931MD1210071-0801MW1041REMSYN106AAXX  30151 76393 31505 11101 10260 20203 39493 40050 52007 70400 81100 91445 333 30/// 56500 59080 81823;
0233763930999992011043018004+25733-100300FM-12+051599999V0201001N002012200019N0010001N1+03461+02011100371ADDAY101061AY201061GF102991021001999999031001IA1019KA1120M+03581KA2240N+02101MA1999999094841MD1710091-0761MW1051REMSYN112AAXX  30181 76393 31910 21002 10346 20201 39484 40037 57009 70500 82030 91750 333 10358 20210 30/// 56050 59076;
0195763930999992011043021004+25733-100300FM-12+051599999V0200601N003019999999N0010001N1+03801+01661100051ADDAY111031AY211031GF105991051001999999031001IA1019MA1999999094601MD1710241-0571MW1051REMSYN100AAXX  30211 76393 31910 50603 10380 20166 39460 40005 57024 70511 85030 92050 333 30/// 56050 59057;
0262763930999992011050100004+25733-100300FM-12+051599999V0201201N002012200019N0020001N1+03761+01421099821ADDAA124000091AY121061AY221061GF104991031021999999041011IA1019KA1120M+04041KA2180N+02101MA1999999094451MD1710151-0451MW1041REMSYN130AAXX  01001 76393 31920 41202 10376 20142 39445 49982 57015 70422 83241 92350 333 10404 20210 30/// 50611 56355 59045 70000 81832;
0199763930999992011050103004+25733-100300FM-12+051599999V0201601N001012200019N0010001N1+03401+01651099981ADDAY101031AY201031GA1001+999999999GF100991001001999999001001IA1019MA1999999094641MD1210191-0341MW1051REMSYN088AAXX  01031 76393 31910 01601 10340 20165 39464 49998 52019 70500 90250 333 30/// 59034;
0251763930999992011050106004+25733-100300FM-12+051599999V0200601N010012200019N0010001N1+03021+01771100011ADDAY101061AY201061GA1001+999999999GF100991001001999999001001GJ104809IA1019KA1240M+04041KA2240N+02101MA1999999094671MD1210031-0411MW1051REMSYN106AAXX  01061 76393 31910 00610 10302 20177 39467 40001 52003 70500 90550 333 10404 20210 30/// 55080 59041;
0199763930999992011050109004+25733-100300FM-12+051599999V0200701N002012200019N0010001N1+02621+02081099951ADDAY101031AY201031GA1001+999999999GF100991001001999999001001IA1019MA1999999094571MD1710101-0461MW1051REMSYN088AAXX  01091 76393 31910 00702 10262 20208 39457 49995 57010 70500 90850 333 30/// 59046;
0278763930999992011050112004+25733-100300FM-12+051599999V0209999C000019999999N0010001N1+02421+01831100161ADDAA124000091AY121061AY221061GA1041+030001031GF106991041001999999031011IA1019KA1240M+04041KA2120N+02421MA1999999094711MD1210141-0051MW1041REMSYN130AAXX  01121 76393 31910 60000 10242 20183 39471 40016 52014 70422 84031 91150 333 10404 20242 30232 56075 59005 70000 84360 82070;
0195763930999992011050115004+25733-100300FM-12+051599999V0201201N001012200019N0005001N1+02801+02041100341ADDAY111031AY211031GF103991001001999999001011IA1019MA1999999094841MD1210131-0091MW1051REMSYN100AAXX  01151 76393 31905 31201 10280 20204 39484 40034 52013 70511 80001 91450 333 30/// 56005 59009;
0245763930999992011050200004+25733-100300FM-12+051599999V0201201N002012200019N0020001N1+03771+01501099861ADDAY101061AY201061GF101991011001999999021001IA1019KA1120M+04051KA2180N+02421MA1999999094481MD1999999+0031MW1051REMSYN124AAXX  02001 76393 31920 11202 10377 20150 39448 49986 5//// 70500 81020 92350 333 10405 20242 30/// 51181 56070 58003 70000;
0199763930999992011050203004+25733-100300FM-12+051599999V0201101N001012200019N0020001N1+03511+01441099991ADDAY101031AY201031GA1001+999999999GF100991001001999999001001IA1019MA1999999094641MD1210161+0001MW1051REMSYN088AAXX  02031 76393 31920 01101 10351 20144 39464 49999 52016 70500 90250 333 30/// 58000;
0251763930999992011050206004+25733-100300FM-12+051599999V0201201N005012200019N0010001N1+03001+01671100251ADDAY101061AY201061GA1001+999999999GF100991001001999999001001GJ106069IA1019KA1240M+04051KA2240N+02421MA1999999094891MD1210251+0321MW1051REMSYN106AAXX  02061 76393 31910 01205 10300 20167 39489 40025 52025 70500 90550 333 10405 20242 30/// 55101 58032;
0199763930999992011050209004+25733-100300FM-12+051599999V0203401N022012200019N0010001N1+02421+01161100561ADDAY101031AY201031GA1001+999999999GF100991001001999999001001IA1019MA1999999095151MD1210261+0581MW1051REMSYN088AAXX  02091 76393 31910 03422 10242 20116 39515 40056 52026 70500 90850 333 30/// 58058;
0272763930999992011050212004+25733-100300FM-12+051599999V0200201N002010111019N0020001N1+01901+00981101031ADDAA124000091AY121061AY221061GA1081+011101061GF108991081051012501001001IA1019KA1240M+04051KA2120N+01901MA1999999095511MD1210361+0801MW1041REMSYN124AAXX  02121 76393 31620 80202 10190 20098 39551 40103 52036 70422 88500 91150 333 10405 20190 30180 56300 58080 70000 88637;
0217763930999992011050215004+25733-100300FM-12+051599999V0200201N002010084019N0010001N1+01661+00971101531ADDAY121031AY221031GA1081+008401061GF108991081051008001001001IA1019MA1999999095911MD1210401+1071MW1051REMSYN106AAXX  02151 76393 31510 80202 10166 20097 39591 40153 52040 70522 88500 91450 333 30/// 56300 58107 88628;
0255763930999992011050218004+25733-100300FM-12+051599999V0203601N002010084019N0010001N1+01681+00991101781ADDAY121061AY221061GA1081+008401061GF108991081051008001999999IA1019KA1120M+01881KA2240N+01601MA1999999096071MD1210171+1321MW1051REMSYN118AAXX  02181 76393 31510 83602 10168 20099 39607 40178 52017 70522 885// 91750 333 10188 20160 30/// 568// 58132 88628;
0217763930999992011050221004+25733-100300FM-12+051599999V0203601N006010300019N0030001N1+01951+00811101801ADDAY121031AY221031GA1081+030001031GF108991081001999999051999IA1019MA1999999096061MD1710011+1491MW1041REMSYN106AAXX  02211 76393 31930 83606 10195 20081 39606 40180 57001 70422 8805/ 92045 333 30/// 5608/ 58149 88360;
0262763930999992011050300004+25733-100300FM-12+051599999V0203601N002019999999N0030001N1+02011+00711101831ADDAA124000091AY121061AY221061GF108991081001999999021999IA1019KA1120M+02131KA2180N+01601MA1999999096081MD1210021+1601MW1051REMSYN130AAXX  03001 76393 31930 83602 10201 20071 39608 40183 52002 70522 8802/ 92350 333 10213 20160 30/// 50911 56089 58160 70000 88458;
0217763930999992011050303004+25733-100300FM-12+051599999V0203601N002010051019N0030001N1+02001+00771102141ADDAY121031AY221031GA1081+005101061GF108991081051017501999999IA1019MA1999999096391MD1210311+1751MW1051REMSYN106AAXX  03031 76393 31730 83602 10200 20077 39639 40214 52031 70522 885// 90250 333 30/// 568// 58175 88617;
0253763930999992011050306004+25733-100300FM-12+051599999V0200401N002010075019N0010001N1+01741+00981102471ADDAY121061AY221061GF108991081051008001999999GJ100009IA1019KA1240M+02131KA2240N+01601MA1999999096711MD1210321+1821MW1051REMSYN124AAXX  03061 76393 31510 80402 10174 20098 39671 40247 52032 70522 885// 90550 333 10213 20160 30/// 55000 568// 58182 88631;
0217763930999992011050309004+25733-100300FM-12+051599999V0200701N001010105019N0010001N1+01701+00851102571ADDAY121031AY221031GA1081+010501061GF108991081051012501999999IA1019MA1999999096791MD1210081+1641MW1051REMSYN106AAXX  03091 76393 31610 80701 10170 20085 39679 40257 52008 70522 885// 90850 333 30/// 568// 58164 88635;
0272763930999992011050312004+25733-100300FM-12+051599999V0201101N002010105019N0030001N1+01761+00891102721ADDAA124000091AY121061AY221061GA1081+010501061GF108991081051012501999999IA1019KA1240M+02131KA2120N+01701MA1999999096921MD1210131+1411MW1041REMSYN124AAXX  03121 76393 31630 81102 10176 20089 39692 40272 52013 70422 885// 91150 333 10213 20170 30166 568// 58141 70000 88635;
0217763930999992011050315004+25733-100300FM-12+051599999V0201001N001010144019N0030001N1+00861+00671102921ADDAY121031AY221031GA1081+014401061GF108991081051012501999999IA1019MA1999999097101MD1210181+0121MW1041REMSYN106AAXX  03151 76393 31630 81001 10086 20067 39710 40292 52018 70422 885// 91450 333 30/// 568// 58012 88648;
0169763930999992011050318004+25733-100300FM-12+051599999V0202901N999992200019N0080001N1+02221+00231999999ADDGF103991999999999999999999REMSYN112AAXX  03181 76393 32958 32958 10222 20023 20901 39699 40279 57011 81018 91750 333 10234 20164 30/// 56055 58092;EQDQ01+005803WOSPD 
0189763930999992011050321004+25733-100300FM-12+051599999V0201101N006019999999N0080001N1+02541+00381102401ADDGA1041+036001041GF107991041001999999021061IA1019MA1999999096651MD1710341+0591REMSYN100AAXX  03211 76393 32958 71106 10254 20038 39665 40240 57034 84026 92045 333 30/// 56055 58059 84462;
0256763930999992011050400004+25733-100300FM-12+051599999V0200401N001019999999N0060001N1+02421+00161102251ADDAA124000091GA1031+030001041GF108991031001999999021091IA1019KA1120M+02691KA2180N+01701MA1999999096541MD1710111+0461REMSYN130AAXX  04001 76393 32956 80401 10242 20016 39654 40225 57011 83029 92342 333 10269 20170 30/// 50621 56055 58046 70000 83460 85175;
0189763930999992011050403004+25733-100300FM-12+051599999V0201501N002010360019N0040001N1+02171+00041102381ADDGA1071+036001041GF107991071001999999021091IA1019MA1999999096691MD1210151+0301REMSYN100AAXX  04031 76393 32940 71502 10217 20004 39669 40238 52015 87029 90255 333 30/// 56050 58030 87462;
0225763930999992011050406004+25733-100300FM-12+051599999V0201501N002019999999N0010001N1+02121-00081102411ADDGF106991061001999999021001GJ102829IA1019KA1240M+02691KA2240N+01701MA1999999096721MD1210031+0011REMSYN118AAXX  04061 76393 32910 61502 10212 21008 39672 40241 52003 86020 90550 333 10269 20170 30/// 55047 56050 58001 86462;
0199763930999992011050409004+25733-100300FM-12+051599999V0201201N010012200019N0010001N1+01681+00361102381ADDAY101031AY201031GA1001+999999999GF100991001001999999001001IA1019MA1999999096661MD1710061-0131MW1051REMSYN088AAXX  04091 76393 31910 01210 10168 20036 39666 40238 57006 70500 90855 333 30/// 59013;
0241763930999992011050412004+25733-100300FM-12+051599999V0201801N001012200019N0060001N1+01701+00771102531ADDAA124000091GF104991001001999999001091IA1019KA1240M+02691KA2120N+01561MA1999999096771MD1210111-0151REMSYN112AAXX  04121 76393 31956 41801 10170 20077 39677 40253 52011 80009 91150 333 10269 20156 30140 56001 59015 70000;EQDQ01  00002PRCP24
0189763930999992011050415004+25733-100300FM-12+051599999V0201101N002012200019N0060001N1+01941+00731102651ADDGA1031+030001031GF103991031001999999031001IA1019MA1999999096861MD1210091-0241REMSYN100AAXX  04151 76393 32956 31102 10194 20073 39686 40265 52009 83030 91450 333 30/// 56050 59024 83360;
0233763930999992011050418004+25733-100300FM-12+051599999V0201101N00301090001CN0060001N1+02261+00771102531ADDGA1011+018001081GF108991011011017501001071IA1019KA1120M+02341KA2240N+01561MA1999999096751MD1710111-0241REMSYN118AAXX  04181 76393 32756 81103 10226 20077 39675 40253 57011 81107 91745 333 10234 20156 30/// 56305 59024 81856 87270;
0217763930999992011050421004+25733-100300FM-12+051599999V0201101N005010600019N0040001N1+02461+00921102201ADDAY121031AY221031GA1081+060001021GF108991001001999999001071IA1019MA1999999096471MD1710281-0181MW1051REMSYN106AAXX  04211 76393 31940 81105 10246 20092 39647 40220 57028 70522 80007 92045 333 30/// 56008 59018 88270;
0234763930999992011050500004+25733-100300FM-12+051599999V0201201N002019999999N0040001N1+02431+00851101991ADDAA124000091GF108991041001999999021061IA1019KA1120M+02631KA2180N+01561MA1999999096311MD1210161-0231REMSYN124AAXX  05001 76393 32940 81202 10243 20085 39631 40199 52016 84026 92345 333 10263 20156 30/// 50881 56055 59023 70000 84462;
0217763930999992011050503004+25733-100300FM-12+051599999V0201201N002010060019N0030001N1+02271+00801102021ADDAY121031AY221031GA1071+006001061GF107991071051017501999999IA1019MA1999999096381MD1210071-0311MW1051REMSYN106AAXX  05031 76393 31730 71202 10227 20080 39638 40202 52007 70522 875// 90248 333 30/// 56300 59031 87620;
0251763930999992011050506004+25733-100300FM-12+051599999V0201201N006012200019N0010001N1+01981+01041102061ADDAY101061AY201061GA1001+999999999GF100991001001999999001001GJ101029IA1019KA1240M+02631KA2240N+01561MA1999999096401MD1210021-0321MW1051REMSYN106AAXX  05061 76393 31910 01206 10198 20104 39640 40206 52002 70500 90550 333 10263 20156 30/// 55017 59032;
0199763930999992011050509004+25733-100300FM-12+051599999V0201101N003012200019N0010001N1+01721+01231101901ADDAY101031AY201031GA1001+999999999GF100991001001999999001001IA1019MA1999999096211MD1710191-0451MW1051REMSYN088AAXX  05091 76393 31910 01103 10172 20123 39621 40190 57019 70500 90850 333 30/// 59045;
0273763930999992011050512004+25733-100300FM-12+051599999V0200701N001012200019N0030001N1+01661+01231101901ADDAA124000091AY101061AY201061GA1001+999999999GF100991001001999999001001IA1019KA1240M+02631KA2120N+01661MA1999999096171MD1710041-0601MW1041REMSYN106AAXX  05121 76393 31930 00701 10166 20123 39617 40190 57004 70400 91150 333 10263 20166 30156 59060 70000;EQDQ01  00002PRCP24
0199763930999992011050515004+25733-100300FM-12+051599999V0200601N001012200019N0005001N1+02001+01291101971ADDAY101031AY201031GA1001+999999999GF100991001001999999001001IA1019MA1999999096211MD1210041-0651MW1051REMSYN088AAXX  05151 76393 31905 00601 10200 20129 39621 40197 52004 70500 91450 333 30/// 59065;
0255763930999992011050518004+25733-100300FM-12+051599999V0201101N003010600019N0005001N1+02621+01341101881ADDAY141061AY241061GA1071+060001011GF107991001001999999001091IA1019KA1120M+02741KA2240N+01661MA1999999096151MD1710061-0601MW1051REMSYN118AAXX  05181 76393 31905 71103 10262 20134 39615 40188 57006 70544 80009 91745 333 10274 20166 30/// 56007 59060 87170;
0217763930999992011050521004+25733-100300FM-12+051599999V0201101N006010600019N0020001N1+03021+01281101541ADDAY121031AY221031GA1071+060001011GF107991001001999999001091IA1019MA1999999095881MD1710271-0591MW1041REMSYN106AAXX  05211 76393 31920 71106 10302 20128 39588 40154 57027 70422 80009 92045 333 30/// 56005 59059 87170;
0245763930999992011050600004+25733-100300FM-12+051599999V0201201N002019999999N0020001N1+03041+01311101301ADDAY121061AY221061GF105991001001999999001061IA1019KA1120M+03191KA2180N+01661MA1999999095721MD1710161-0591MW1041REMSYN124AAXX  06001 76393 31920 51202 10304 20131 39572 40130 57016 70422 80006 92346 333 10319 20166 30/// 50851 56005 59059 85080;
0195763930999992011050603004+25733-100300FM-12+051599999V0201201N002012200019N0020001N1+02711+01281101411ADDAY121031AY221031GF103991001001999999001011IA1019MA1999999095861MD1210141-0521MW1041REMSYN100AAXX  06031 76393 31920 31202 10271 20128 39586 40141 52014 70422 80001 90255 333 30/// 56005 59052;
0272763930999992011050612004+25733-100300FM-12+051599999V0200901N001010054019N0010001N1+02001+01571101491ADDAA124000091AY121061AY221061GA1081+005401061GF108991081051004501999999IA1019KA1240M+03191KA2120N+02001MA1999999095861MD1310021-0311MW1041REMSYN124AAXX  06121 76393 31410 80901 10200 20157 39586 40149 53002 70422 885// 91145 333 10319 20200 30192 563// 59031 70000 88618;
0217763930999992011050615004+25733-100300FM-12+051599999V0200701N003010054019N0010001N1+02141+01701101651ADDAY121031AY221031GA1071+005401061GF107991071051004501999999IA1019MA1999999095981MD1210121-0231MW1041REMSYN106AAXX  06151 76393 31410 70703 10214 20170 39598 40165 52012 70422 875// 91445 333 30/// 563// 59023 87618;
0261763930999992011050618004+25733-100300FM-12+051599999V0201101N00201090001CN0010001N1+02661+01711101561ADDAY121061AY221061GA1021+011701081GF108991021011012501001091IA1019KA1120M+02801KA2240N+01921MA1999999095901MD1710081-0251MW1041REMSYN124AAXX  06181 76393 31610 81102 10266 20171 39590 40156 57008 70422 82109 91745 333 10280 20192 30/// 56305 59025 82839 86170;
0278763930999992011050700004+25733-100300FM-12+051599999V0201201N002012200019N0020001N1+03161+01591100881ADDAA124000091AY121061AY221061GA1001+999999999GF100991001001999999001001IA1019KA1120M+03261KA2180N+01921MA1999999095331MD1999999-0391MW1051REMSYN130AAXX  07001 76393 31720 01202 10316 20159 39533 40088 5//// 70522 81234 92352 333 10326 20192 30/// 50781 56355 59039 70000 81822;
0217763930999992011050703004+25733-100300FM-12+051599999V0201201N002012200019N0010001N1+02821+01771100931ADDAY141031AY241031GA1011+004501061GF101991011051012501001001IA1019MA1999999095421MD1210091-0441MW1041REMSYN106AAXX  07031 76393 31610 11202 10282 20177 39542 40093 52009 70444 81500 90248 333 30/// 56300 59044 81615;
0280763930999992011050712004+25733-100300FM-12+051599999V0201201N002010039019N0010001N1+02261+01941101011ADDAA124000091AY121061AY221061GA1051+003901051GF105991051051004501001001GJ104989IA1019KA1240M+03261KA2120N+02221MA1999999095441MD1999999-0421MW1041REMSYN124AAXX  07121 76393 31410 51202 10226 20194 39544 40101 5//// 70422 85500 91150 333 10326 20222 30210 55083 59042 70000 85513;
0217763930999992011050715004+25733-100300FM-12+051599999V0200701N001010069019N0005001N1+02561+01991101071ADDAY121031AY221031GA1051+006901081GF107991051011008001001011IA1019MA1999999095471MD1210031-0511MW1051REMSYN106AAXX  07151 76393 31505 70701 10256 20199 39547 40107 52003 70522 85101 91450 333 30/// 56305 59051 85823;
0255763930999992011050718004+25733-100300FM-12+051599999V0200901N003012200019N0005001N1+03201+01891100971ADDAY121061AY221061GA1011+015001081GF104991011021017501001081IA1019KA1120M+03301KA2240N+02221MA1999999095401MD1710071-0501MW1041REMSYN118AAXX  07181 76393 31705 40903 10320 20189 39540 40097 57007 70422 81208 91745 333 10330 20222 30/// 56505 59050 81850;
0251763930999992011050806004+25733-100300FM-12+051599999V0200601N003012200019N0010001N1+02681+01841100731ADDAY101061AY201061GA1001+999999999GF100991001001999999001001GJ105409IA1019KA1240M+03621KA2240N+02221MA1999999095301MD1999999-0341MW1051REMSYN106AAXX  08061 76393 31910 00603 10268 20184 39530 40073 5//// 70500 90550 333 10362 20222 30/// 55090 59034;
0199763930999992011050809004+25733-100300FM-12+051599999V0200301N001012200019N0010001N1+02361+01931100661ADDAY101031AY201031GA1001+999999999GF100991001001999999001001IA1019MA1999999095191MD1710111+9999MW1051REMSYN088AAXX  08091 76393 31910 00301 10236 20193 39519 40066 57011 70500 90850 333 30/// 58///;
0272763930999992011050812004+25733-100300FM-12+051599999V0200201N001010300019N0010001N1+02321+01941100681ADDAA124000091AY121061AY221061GA1061+030001041GF106991061001999999021001IA1019KA1240M+03621KA2120N+02321MA1999999095161MD1710031+0171MW1041REMSYN124AAXX  08121 76393 31910 60201 10232 20194 39516 40068 57003 70422 86020 91150 333 10362 20232 30220 56030 58017 70000 86460;
0217763930999992011050815004+25733-100300FM-12+051599999V0200301N001010300019N0010001N1+02461+01941100801ADDAY121031AY221031GA1051+030001041GF107991051001999999021091IA1019MA1999999095241MD1210081-0231MW1041REMSYN106AAXX  08151 76393 31910 70301 10246 20194 39524 40080 52008 70422 85029 91450 333 30/// 56055 59023 85460;
0255763930999992011050818004+25733-100300FM-12+051599999V0200601N001012200019N0010001N1+03021+02041100721ADDAY121061AY221061GA1011+012001081GF105991011021012501001081IA1019KA1120M+03141KA2240N+02321MA1999999095161MD1710081-0241MW1041REMSYN118AAXX  08181 76393 31610 50601 10302 20204 39516 40072 57008 70422 81208 91745 333 10314 20232 30/// 56505 59024 81840;
0217763930999992011050821004+25733-100300FM-12+051599999V0201101N006010300019N0020001N1+03501+01811100431ADDAY121031AY221031GA1051+030001041GF107991051001999999021081IA1019MA1999999094931MD1710231-0261MW1041REMSYN106AAXX  08211 76393 31920 71106 10350 20181 39493 40043 57023 70422 85028 92045 333 30/// 56055 59026 85460;
0262763930999992011050900004+25733-100300FM-12+051599999V0201801N001019999999N0020001N1+03541+01321100271ADDAA124000091AY121061AY221061GF107991051051999999031001IA1019KA1120M+03711KA2180N+02321MA1999999094831MD1710101+9999MW1051REMSYN130AAXX  09001 76393 31920 71801 10354 20132 39483 40027 57010 70522 85530 92352 333 10371 20232 30/// 50781 56350 58/// 70000 85631;
0217763930999992011050903004+25733-100300FM-12+051599999V0201801N001010078019N0020001N1+03301+01471100361ADDAY121031AY221031GA1051+007801061GF105991051051022501001001IA1019MA1999999094951MD1210081-0351MW1051REMSYN106AAXX  09031 76393 31820 51801 10330 20147 39495 40036 52008 70522 85500 90254 333 30/// 56300 59035 85626;
0253763930999992011050906004+25733-100300FM-12+051599999V0201201N006012200019N0010001N1+02941+01881100331ADDAY101061AY201061GF103991031041012501001001GJ101749IA1019KA1240M+03711KA2240N+02321MA1999999094941MD1710011-0361MW1051REMSYN124AAXX  09061 76393 31610 31206 10294 20188 39494 40033 57001 70500 83400 90555 333 10371 20232 30/// 55029 56500 59036 83644;
0199763930999992011050909004+25733-100300FM-12+051599999V0200601N002012200019N0010001N1+02581+02071100301ADDAY101031AY201031GA1001+999999999GF100991001001999999001001IA1019MA1999999094881MD1710061-0311MW1051REMSYN088AAXX  09091 76393 31910 00602 10258 20207 39488 40030 57006 70500 90850 333 30/// 59031;
0273763930999992011050912004+25733-100300FM-12+051599999V0200601N001012200019N0010001N1+02421+02141100391ADDAA124000091AY101061AY201061GA1001+999999999GF100991001001999999001001IA1019KA1240M+03711KA2120N+02421MA1999999094921MD1210041-0241MW1041REMSYN106AAXX  09121 76393 31910 00601 10242 20214 39492 40039 52004 70400 91150 333 10371 20242 30230 59024 70000;EQDQ01  00002PRCP24
0195763930999992011050915004+25733-100300FM-12+051599999V0203401N001012200019N0005001N1+02701+02081100511ADDAY101031AY201031GF103991001001999999001081IA1019MA1999999094991MD1210071-0251MW1051REMSYN100AAXX  09151 76393 31905 33401 10270 20208 39499 40051 52007 70500 80008 91450 333 30/// 56007 59025;
0233763930999992011050918004+25733-100300FM-12+051599999V0201001N002012200019N0005001N1+03261+02061100401ADDAY101061AY201061GF102991021001999999041001IA1019KA1120M+03401KA2240N+02421MA1999999094891MD1710101-0271MW1051REMSYN112AAXX  09181 76393 31905 21002 10326 20206 39489 40040 57010 70500 82040 91750 333 10340 20242 30/// 56050 59027;
0262763930999992011051000004+25733-100300FM-12+051599999V0201201N002019999999N0020001N1+03611+01531099911ADDAA124000091AY121061AY221061GF107991021021999999031061IA1019KA1120M+03891KA2180N+02421MA1999999094521MD1999999-0311MW1051REMSYN130AAXX  10001 76393 31920 71202 10361 20153 39452 49991 5//// 70522 82236 92354 333 10389 20242 30/// 50921 56355 59031 70000 82829;
0217763930999992011051003004+25733-100300FM-12+051599999V0201201N002012200019N0020001N1+03171+01601100121ADDAY121031AY221031GA1041+030001041GF104991041001999999011001IA1019MA1999999094741MD1210221-0211MW1051REMSYN106AAXX  10031 76393 31920 41202 10317 20160 39474 40012 52022 70522 84010 90252 333 30/// 56050 59021 84460;
0251763930999992011051006004+25733-100300FM-12+051599999V0201201N003012200019N0020001N1+02781+01681100131ADDAY101061AY201061GA1001+999999999GF100991001001999999001001GJ103669IA1019KA1240M+03891KA2240N+02421MA1999999094761MD1210021-0181MW1051REMSYN106AAXX  10061 76393 31920 01203 10278 20168 39476 40013 52002 70500 90550 333 10389 20242 30/// 55061 59018;
0199763930999992011051009004+25733-100300FM-12+051599999V0200901N002012200019N0010001N1+02521+01881100081ADDAY101031AY201031GA1001+999999999GF100991001001999999001001IA1019MA1999999094671MD1710091-0211MW1051REMSYN088AAXX  10091 76393 31910 00902 10252 20188 39467 40008 57009 70500 90850 333 30/// 59021;
0272763930999992011051012004+25733-100300FM-12+051599999V0200501N002012200019N0005001N1+02341+01871100231ADDAA124000091AY121061AY221061GA1021+005701061GF102991021051004501001001IA1019KA1240M+03891KA2120N+02341MA1999999094751MD1210081-0171MW1051REMSYN124AAXX  10121 76393 31405 20502 10234 20187 39475 40023 52008 70522 82500 91150 333 10389 20234 30226 56500 59017 70000 82619;
0217763930999992011051015004+25733-100300FM-12+051599999V0201101N001012200019N0005001N1+02721+01851100471ADDAY101031AY201031GA1021+010501091GF102991021011012501001001IA1019MA1999999094951MD1210201-0041MW1051REMSYN106AAXX  10151 76393 31605 21101 10272 20185 39495 40047 52020 70500 82100 91450 333 30/// 56500 59004 82935;
0227763930999992011051018004+25733-100300FM-12+051599999V0201301N003012200019N0010001N1+03241+01901100451ADDAY101061AY201061GF101991011001999999031001IA1019KA1120M+03421KA2240N+02341MA1999999094931MD1710021+9999MW1041REMSYN106AAXX  10181 76393 31910 11303 10324 20190 39493 40045 57002 70400 81030 91745 333 10342 20234 30/// 56050;
0223763930999992011051021004+25733-100300FM-12+051599999V0201201N003012200019N0020001N1+03701+01711100161ADDAY111031AY211031GA1011+024001081GF104991011021022501021001IA1019MA1999999094701MD1710231+0121MW1041REMSYN112AAXX  10211 76393 31820 41203 10370 20171 39470 40016 57023 70411 81220 92045 333 30/// 56350 58012 81858 83470;
0262763930999992011051100004+25733-100300FM-12+051599999V0201201N001010210019N0020001N1+03541+01801099991ADDAA124000091AY121061AY221061GF107991051021022501071001IA1019KA1120M+03821KA2180N+02341MA1999999094591MD1710111+0071MW1041REMSYN130AAXX  11001 76393 31820 71201 10354 20180 39459 49999 57011 70422 85270 92352 333 10382 20234 30/// 50741 56350 58007 70000 85824;
0199763930999992011051103004+25733-100300FM-12+051599999V0201201N002012200019N0020001N1+03011+02031100131ADDAY141031AY241031GA1001+999999999GF100991001001999999001001IA1019MA1999999094761MD1210171+0021MW1041REMSYN088AAXX  11031 76393 31920 01202 10301 20203 39476 40013 52017 70444 90248 333 30/// 58002;
0253763930999992011051106004+25733-100300FM-12+051599999V0201201N004012200019N0020001N1+02661+02071100151ADDAY101061AY201061GF102991021041008001001001GJ105949IA1019KA1240M+03821KA2240N+02341MA1999999094761MD1210011+0001MW1051REMSYN124AAXX  11061 76393 31520 21204 10266 20207 39476 40015 52001 70500 82400 90550 333 10382 20234 30/// 55099 56300 58000 82624;
0217763930999992011051109004+25733-100300FM-12+051599999V0201201N004012200019N0010001N1+02501+02131100091ADDAY101031AY201031GA1031+004501061GF103991031051004501001001IA1019MA1999999094661MD1710101-0011MW1051REMSYN106AAXX  11091 76393 31410 31204 10250 20213 39466 40009 57010 70500 83500 90850 333 30/// 56300 59001 83615;
0272763930999992011051112004+25733-100300FM-12+051599999V0200701N001010048019N0010001N1+02481+02081100321ADDAA124000091AY121061AY221061GA1051+004801061GF105991051051004501001001IA1019KA1240M+03821KA2120N+02441MA1999999094831MD1210141+0081MW1051REMSYN124AAXX  11121 76393 31410 50701 10248 20208 39483 40032 52014 70522 85500 91150 333 10382 20244 30232 56500 58008 70000 85616;
0217763930999992011051115004+25733-100300FM-12+051599999V0200701N002012200019N0005001N1+02701+02141100501ADDAY111031AY211031GA1041+009601061GF104991041051008001001001IA1019MA1999999094971MD1210141+0021MW1051REMSYN106AAXX  11151 76393 31505 40702 10270 20214 39497 40050 52014 70511 84500 91450 333 30/// 56500 58002 84632;
0255763930999992011051118004+25733-100300FM-12+051599999V0201101N003012200019N0010001N1+03281+02051100461ADDAY101061AY201061GA1011+015001081GF101991011021017501001001IA1019KA1120M+03401KA2240N+02441MA1999999094941MD1710031+0011MW1041REMSYN118AAXX  11181 76393 31710 11103 10328 20205 39494 40046 57003 70400 81200 91750 333 10340 20244 30/// 56500 58001 81850;
0217763930999992011051121004+25733-100300FM-12+051599999V0201201N006012200019N0010001N1+03661+01991100141ADDAY111031AY211031GA1031+021001081GF103991031021022501001001IA1019MA1999999094691MD1710251+0011MW1051REMSYN106AAXX  11211 76393 31810 31206 10366 20199 39469 40014 57025 70511 83200 92045 333 30/// 56300 58001 83857;
0262763930999992011051200004+25733-100300FM-12+051599999V0201201N002012200019N0020001N1+03561+01791100061ADDAA124000091AY141061AY221061GF102991021021022501001001IA1019KA1120M+03781KA2180N+02441MA1999999094671MD1710021+0181MW1051REMSYN130AAXX  12001 76393 31820 21202 10356 20179 39467 40006 57002 70542 82200 92349 333 10378 20244 30/// 51031 56500 58018 70000 82824;
0217763930999992011051203004+25733-100300FM-12+051599999V0201201N003012200019N0020001N1+03131+02131100331ADDAY141031AY241031GA1041+004201061GF104991041051012501001001IA1019MA1999999094951MD1210281+0191MW1041REMSYN106AAXX  12031 76393 31620 41203 10313 20213 39495 40033 52028 70444 84500 90252 333 30/// 56300 58019 84614;
0253763930999992011051206004+25733-100300FM-12+051599999V0201201N005010075019N0010001N1+02761+02271100481ADDAY121061AY221061GF105991051051008001001001GJ105409IA1019KA1240M+03781KA2240N+02441MA1999999095051MD1210111+0291MW1051REMSYN124AAXX  12061 76393 31510 51205 10276 20227 39505 40048 52011 70522 85500 90555 333 10378 20244 30/// 55090 56300 58029 85620;
0217763930999992011051209004+25733-100300FM-12+051599999V0201201N003010036019N0010001N1+02541+02261100551ADDAY121031AY221031GA1051+003601061GF105991051051004501001001IA1019MA1999999095001MD1710051+0341MW1051REMSYN106AAXX  12091 76393 31410 51203 10254 20226 39500 40055 57005 70522 85500 90850 333 30/// 56300 58034 85612;
0272763930999992011051212004+25733-100300FM-12+051599999V0201001N001010042019N0005001N1+02601+02271100621ADDAA124000091AY121061AY221061GA1081+004201061GF108991081051004501999999IA1019KA1240M+03781KA2120N+02521MA1999999095121MD1210121+0291MW1041REMSYN124AAXX  12121 76393 31405 81001 10260 20227 39512 40062 52012 70422 885// 91150 333 10378 20252 30240 56500 58029 70000 88614;
0217763930999992011051215004+25733-100300FM-12+051599999V0201101N002010054019N0005001N1+02701+02261100771ADDAY121031AY221031GA1081+005401061GF108991081061004501999999IA1019MA1999999095241MD1210121+0271MW1051REMSYN106AAXX  12151 76393 31405 81102 10270 20226 39524 40077 52012 70522 886// 91450 333 30/// 56500 58027 88618;
0255763930999992011051218004+25733-100300FM-12+051599999V0200601N003012200019N0005001N1+03121+02311100731ADDAY141061AY241061GA1031+009901061GF103991031041008001001001IA1019KA1120M+03281KA2240N+02521MA1999999095211MD1710031+0271MW1051REMSYN118AAXX  12181 76393 31505 30603 10312 20231 39521 40073 57003 70544 83400 91745 333 10328 20252 30/// 56300 58027 83633;
0262763930999992011051300004+25733-100300FM-12+051599999V0200301N001010120019N0010001N1+02981+02151100651ADDAA124000091AY121061AY221061GF105991051021012501001001IA1019KA1120M+03631KA2180N+02521MA1999999095191MD1210091+0521MW1151REMSYN130AAXX  13001 76393 31610 50301 10298 20215 39519 40065 52009 71522 85200 92352 333 10363 20252 30/// 50901 56300 58052 70000 85811;
0217763930999992011051303004+25733-100300FM-12+051599999V0201201N002010033019N0010001N1+02811+02001100921ADDAY121031AY221031GA1071+003301061GF107991071051008001999999IA1019MA1999999095461MD1210271+0511MW1051REMSYN106AAXX  13031 76393 31510 71202 10281 20200 39546 40092 52027 70522 875// 90249 333 30/// 56300 58051 87611;
0253763930999992011051306004+25733-100300FM-12+051599999V0201201N003012200019N0010001N1+02481+01961101001ADDAY101061AY201061GF103991031051008001001001GJ103129IA1019KA1240M+03631KA2240N+02521MA1999999095521MD1210061+0471MW1051REMSYN124AAXX  13061 76393 31510 31203 10248 20196 39552 40100 52006 70500 83500 90550 333 10363 20252 30/// 55052 56300 58047 83621;
0217763930999992011051309004+25733-100300FM-12+051599999V0201201N001010036019N0010001N1+02301+02011101001ADDAY121031AY221031GA1061+003601061GF106991061051004501001001IA1019MA1999999095471MD1710051+0471MW1051REMSYN106AAXX  13091 76393 31410 61201 10230 20201 39547 40100 57005 70522 86500 90850 333 30/// 56300 58047 86612;
0272763930999992011051312004+25733-100300FM-12+051599999V0200901N001012200019N0010001N1+02321+02001101061ADDAA124000091AY141061AY241061GA1021+003901071GF102991021061004501001001IA1019KA1240M+03631KA2120N+02281MA1999999095481MD1510011+0361MW1051REMSYN124AAXX  13121 76393 31410 20901 10232 20200 39548 40106 55001 70544 82600 91145 333 10363 20228 30220 56300 58036 70000 82713;
0217763930999992011051315004+25733-100300FM-12+051599999V0201101N001010051019N0005001N1+02521+02101101271ADDAY141031AY241031GA1071+005101071GF107991071061004501999999IA1019MA1999999095661MD1210181+0421MW1051REMSYN106AAXX  13151 76393 31405 71101 10252 20210 39566 40127 52018 70544 876// 91445 333 30/// 563// 58042 87717;
0156763930999992011051318004+25733-100300FM-12+051599999V0200201N001012200019N0005001N1+99999+99999999999ADDGF101991999999012501999999REMSYN118AAXX  13181 76393 31605 10201 20218 20320 39553 40111 57013 70544 81200 91740 333 10338 20228 30/// 56500 58032 81842;
0262763930999992011051400004+25733-100300FM-12+051599999V0201201N002010150019N0010001N1+03421+01851100641ADDAA124000091AY121061AY221061GF105991051021017501001001IA1019KA1120M+03741KA2180N+02281MA1999999095191MD1999999+0001MW1051REMSYN130AAXX  14001 76393 31710 51202 10342 20185 39519 40064 5//// 70522 85200 92352 333 10374 20228 30/// 50671 56300 58000 70000 85821;
0217763930999992011051403004+25733-100300FM-12+051599999V0201101N001012200019N0010001N1+03181+01761100781ADDAY141031AY241031GA1011+005701061GF101991011051017501001001IA1019MA1999999095361MD1210171-0101MW1041REMSYN106AAXX  14031 76393 31710 11101 10318 20176 39536 40078 52017 70444 81500 90254 333 30/// 56300 59010 81619;
0253763930999992011051412004+25733-100300FM-12+051599999V0201101N005010042019N0010001N1+02461+02061101111ADDAY121061AY221061GF106991061051004501001001GJ104449IA1019KA1240M+03741KA2120N+02461MA1999999095591MD1999999+0111MW1041REMSYN124AAXX  14121 76393 31410 61105 10246 20206 39559 40111 5//// 70422 86500 91150 333 10374 20246 30232 55074 56300 58011 86616;
0217763930999992011051415004+25733-100300FM-12+051599999V0201101N002010042019N0010001N1+02481+02141101331ADDAY121031AY221031GA1081+004201061GF108991081051004501001001IA1019MA1999999095761MD1210171+0101MW1041REMSYN106AAXX  14151 76393 31410 81102 10248 20214 39576 40133 52017 70422 88500 91450 333 30/// 56300 58010 88614;
0172763930999992011051418004+25733-100300FM-12+051599999V0201301N004019999999N0020001N1+02361+01881101421ADDAA103001091AY121061AY221061GF107991999999008001999999MA1999999095821MD1210061+9999MW1151REMSYN072AAXX  14181 76393 01520 71304 10236 20188 39582 40142 52006 69997 71522;
0217763930999992011051421004+25733-100300FM-12+051599999V0201101N003010063019N0020001N1+02521+02011101161ADDAY121031AY221031GA1081+006301061GF108991081051008001999999IA1019MA1999999095571MD1710251+0311MW1051REMSYN106AAXX  14211 76393 31520 81103 10252 20201 39557 40116 57025 70522 885// 92045 333 30/// 563// 58031 88621;
0191763930999992011051500004+25733-100300FM-12+051599999V0202001N001019999999N0010001N1+02511+02071100951ADDAA106000091AY121061AY221061GF108991999999004501999999MA1999999095371MD1710201+9999MW1051REMSYN072AAXX  15001 76393 01410 82001 10251 20207 39537 40095 57020 69911 70522;EQDQ01  00002PRCP06
0234763930999992011051503004+25733-100300FM-12+051599999V0203201N001010012019N0010001N1+02341+02101101101ADDAA103004091AY161031AY261031GA1081+001201061GF108991081051002501999999IA1019MA1999999095511MD1210141-0041MW1621REMSYN112AAXX  15031 76393 21310 83201 10234 20210 39551 40110 52014 76266 885// 90255 333 30/// 563// 59004 60047 88604;
0172763930999992011051506004+25733-100300FM-12+051599999V0201201N003019999999N0010001N1+02301+01891101081ADDAA106005191AY121061AY221061GF108991999999004501999999MA1999999095491MD1710021+9999MW1051REMSYN072AAXX  15061 76393 01410 81203 10230 20189 39549 40108 57002 60051 70522;
0234763930999992011051509004+25733-100300FM-12+051599999V0200601N002010015019N0010001N1+02081+01961101081ADDAA103000991AY121031AY221031GA1081+001501071GF108991081061001501999999IA1099MA1999999095471MD1710021+9999MW1511REMSYN112AAXX  15091 76393 21210 80602 10208 20196 39547 40108 57002 75122 886// 90855 333 31/// 563// 58/// 69997 88705;
0172763930999992011051512004+25733-100300FM-12+051599999V0201101N002019999999N0010001N1+01981+01921101091ADDAA106000591AY121061AY221061GF108991999999000251999999MA1999999095461MD1710011+9999MW1511REMSYN072AAXX  15121 76393 01010 81102 10198 20192 39546 40109 57001 69961 75122;
0234763930999992011051515004+25733-100300FM-12+051599999V0200601N003010009019N0005001N1+01781+01691101451ADDAA103011091AY121031AY221031GA1081+000901071GF108991081071001501999999IA1099MA1999999095771MD1210311+0011MW1511REMSYN112AAXX  15151 76393 21205 80603 10178 20169 39577 40145 52031 75122 887// 91450 333 31/// 563// 58001 60117 88703;
0172763930999992011051518004+25733-100300FM-12+051599999V0201101N003019999999N0030001N1+01781+01531101591ADDAA106001091AY121061AY221061GF108991999999004501999999MA1999999095891MD1210121+9999MW1051REMSYN072AAXX  15181 76393 01430 81103 10178 20153 39589 40159 52012 60011 70522;
0217763930999992011051521004+25733-100300FM-12+051599999V0201101N020010054019N0020001N1+01961+01521101451ADDAY121031AY221031GA1081+005401061GF108991081051004501999999IA1099MA1999999095741MD1710151+0171MW1051REMSYN106AAXX  15211 76393 31420 81120 10196 20152 39574 40145 57015 70522 885// 92045 333 31/// 563// 58017 88618;
0262763930999992011051600004+25733-100300FM-12+051599999V0201401N001010042019N0020001N1+01981+01541101381ADDAA124006791AY121061AY221061GF108991081051004501999999IA1099KA1120M+02221KA2180N+01761MA1999999095671MD1710071+0301MW1051REMSYN130AAXX  16001 76393 31420 81401 10198 20154 39567 40138 57007 70522 885// 92352 333 10222 20176 31/// 50111 563// 58030 70067 88606;
0217763930999992011051603004+25733-100300FM-12+051599999V0201101N001010012019N0010001N1+01911+01601101421ADDAY121031AY221031GA1081+001201061GF108991081051004501999999IA1099MA1999999095721MD1210051+0211MW1051REMSYN106AAXX  16031 76393 31410 81101 10191 20160 39572 40142 52005 70522 885// 90250 333 31/// 563// 58021 88604;
0172763930999992011051606004+25733-100300FM-12+051599999V0201201N003019999999N0010001N1+01781+01631101481ADDAA106000021AY121061AY221061GF108991999999001501999999MA1999999095771MD1210051+9999MW1511REMSYN072AAXX  16061 76393 01210 81203 10178 20163 39577 40148 52005 69901 75122;
0234763930999992011051609004+25733-100300FM-12+051599999V0201201N002010003019N0010001N1+01721+01691101351ADDAA103000021AY121031AY221031GA1081+000301071GF108991081061000251999999IA1099MA1999999095641MD1710131+0171MW1511REMSYN112AAXX  16091 76393 21010 81202 10172 20169 39564 40135 57013 75122 886// 90850 333 31/// 563// 58017 69907 88701;
0172763930999992011051612004+25733-100300FM-12+051599999V0200701N001019999999N0005001N1+01761+01701101441ADDAA106000021AY121061AY221061GF108991999999000751999999MA1999999095711MD1210051+9999MW1511REMSYN072AAXX  16121 76393 01105 80701 10176 20170 39571 40144 52005 69901 75122;
0234763930999992011051615004+25733-100300FM-12+051599999V0201201N001010033019N0005001N1+01981+01711101611ADDAA103000021AY121031AY221031GA1081+003301071GF108991081071002501999999IA1019MA1999999095871MD1210161+0101MW1501REMSYN112AAXX  16151 76393 21305 81201 10198 20171 39587 40161 52016 75022 887// 91450 333 30/// 563// 58010 69907 88711;
0158763930999992011051700004+25733-100300FM-12+051599999V0200701N001019999999N0010001N1+02031+01881101151ADDAA106000021AY151061AY251061GF108991999999001501999999MA1999999095491MW1511REMSYN072AAXX  17001 76393 01210 80701 10203 20188 39549 40115 5//// 69901 75155;
0234763930999992011051703004+25733-100300FM-12+051599999V0200401N001010006019N0010001N1+01951+01851101221ADDAA103007091AY151031AY251031GA1081+000601071GF108991081071001501999999IA1099MA1999999095561MD1210071-0161MW1511REMSYN112AAXX  17031 76393 21210 80401 10195 20185 39556 40122 52007 75155 887// 90250 333 31/// 563// 59016 60077 88702;
0172763930999992011051706004+25733-100300FM-12+051599999V0201201N005019999999N0010001N1+01921+01801101131ADDAA106000891AY121061AY221061GF108991999999001501999999MA1999999095471MD1710091+9999MW1051REMSYN072AAXX  17061 76393 01210 81205 10192 20180 39547 40113 57009 69971 70522;
0217763930999992011051709004+25733-100300FM-12+051599999V0200601N002010021019N0010001N1+01941+01761100961ADDAY121031AY221031GA1081+002101071GF108991081061002501999999IA1099MA1999999095301MD1710171-0341MW1051REMSYN106AAXX  17091 76393 31310 80602 10194 20176 39530 40096 57017 70522 886// 90850 333 31/// 563// 59034 88707;
0272763930999992011051712004+25733-100300FM-12+051599999V0209999C000010018019N0010001N1+01921+01771100951ADDAA124000791AY121061AY221061GA1081+001801071GF108991081061001501999999IA1019KA1240M+02291KA2120N+01921MA1999999095281MD1710021-0431MW1041REMSYN124AAXX  17121 76393 31210 80000 10192 20177 39528 40095 57002 70422 886// 91150 333 10229 20192 30182 563// 59043 70007 88706;
0217763930999992011051715004+25733-100300FM-12+051599999V0201501N001010036019N0010001N1+02161+01861100991ADDAY121031AY221031GA1081+003601071GF108991081061004501999999IA1019MA1999999095321MD1210041-0551MW1041REMSYN106AAXX  17151 76393 31410 81501 10216 20186 39532 40099 52004 70422 886// 91450 333 30/// 563// 59055 88712;
0255763930999992011051718004+25733-100300FM-12+051599999V0201201N003010084019N0005001N1+02601+01911100821ADDAY121061AY221061GA1051+008401061GF105991051061008001001001IA1019KA1120M+02741KA2240N+01901MA1999999095191MD1710131-0631MW1051REMSYN118AAXX  17181 76393 31505 51203 10260 20191 39519 40082 57013 70522 85600 91745 333 10274 20190 30/// 56300 59063 85628;
0217763930999992011051721004+25733-100300FM-12+051599999V0201201N005012200019N0020001N1+02821+02031100541ADDAY111031AY211031GA1031+009601081GF103991031011008001001001IA1019MA1999999094961MD1710231-0681MW1051REMSYN106AAXX  17211 76393 31520 31205 10282 20203 39496 40054 57023 70511 83100 92045 333 30/// 56300 59068 83832;
0262763930999992011051800004+25733-100300FM-12+051599999V0201201N002012200019N0030001N1+02901+01991100291ADDAA124000791AY111061AY211061GF101991011011012501001001IA1019KA1120M+03001KA2180N+01901MA1999999094761MD1710201-0731MW1041REMSYN130AAXX  18001 76393 31630 11202 10290 20199 39476 40029 57020 70411 81100 92355 333 10300 20190 30/// 50531 56300 59073 70007 81812;
0199763930999992011051803004+25733-100300FM-12+051599999V0200401N001012200019N0020001N1+02661+01971100271ADDAY101031AY201031GA1001+999999999GF100991001001999999001001IA1019MA1999999094781MD1210021-0781MW1051REMSYN088AAXX  18031 76393 31920 00401 10266 20197 39478 40027 52002 70500 90253 333 30/// 59078;
0253763930999992011051806004+25733-100300FM-12+051599999V0201201N004010021019N0020001N1+02361+02131100331ADDAY121061AY221061GF105991051051002501001001GJ104989IA1019KA1240M+03001KA2240N+01901MA1999999094831MD1210051-0641MW1051REMSYN124AAXX  18061 76393 31320 51204 10236 20213 39483 40033 52005 70522 85500 90550 333 10300 20190 30/// 55083 56300 59064 85610;
0217763930999992011051809004+25733-100300FM-12+051599999V0201201N003010021019N0010001N1+02261+02091100281ADDAY121031AY221031GA1071+002101071GF107991071061002501001001IA1019MA1999999094761MD1710071-0541MW1051REMSYN106AAXX  18091 76393 31310 71203 10226 20209 39476 40028 57007 70522 87600 90850 333 30/// 56300 59054 87707;
0272763930999992011051812004+25733-100300FM-12+051599999V0201001N001010024019N0010001N1+02281+02081100341ADDAA124000091AY121061AY221061GA1081+002401071GF108991081061002501999999IA1019KA1240M+03001KA2120N+02241MA1999999094781MD1210021-0501MW1041REMSYN124AAXX  18121 76393 31310 81001 10228 20208 39478 40034 52002 70422 886// 91150 333 10300 20224 30210 563// 59050 70000 88708;
0217763930999992011051815004+25733-100300FM-12+051599999V0201001N002010051019N0005001N1+02481+02051100451ADDAY121031AY221031GA1071+005101071GF107991071061004501999999IA1019MA1999999094871MD1710011-0451MW1041REMSYN106AAXX  18151 76393 31405 71002 10248 20205 39487 40045 57001 70422 876// 91450 333 30/// 563// 59045 87717;
0255763930999992011051818004+25733-100300FM-12+051599999V0201101N002012200019N0010001N1+03001+02011100301ADDAY141061AY241061GA1011+012001081GF101991011011012501001001IA1019KA1120M+03121KA2240N+02241MA1999999094761MD1710111-0431MW1051REMSYN118AAXX  18181 76393 31610 11102 10300 20201 39476 40030 57011 70544 81100 91745 333 10312 20224 30/// 56500 59043 81840;
0217763930999992011051821004+25733-100300FM-12+051599999V0201201N005012200019N0020001N1+03321+02001100011ADDAY101031AY201031GA1011+018001081GF101991011011017501001001IA1019MA1999999094521MD1710241-0441MW1041REMSYN106AAXX  18211 76393 31720 11205 10332 20200 39452 40001 57024 70400 81100 92045 333 30/// 56500 59044 81856;
0262763930999992011051900004+25733-100300FM-12+051599999V0201101N001012200019N0020001N1+03341+01931099791ADDAA124000091AY101061AY201061GF101991011011017501001001IA1019KA1120M+03501KA2180N+02241MA1999999094361MD1710161-0401MW1041REMSYN130AAXX  19001 76393 31720 11101 10334 20193 39436 49979 57016 70400 81100 92348 333 10350 20224 30/// 50611 56500 59040 70000 81819;
0199763930999992011051903004+25733-100300FM-12+051599999V0202201N001012200019N0020001N1+03101+01821099831ADDAY141031AY221031GA1001+999999999GF100991001001999999001001IA1019MA1999999094441MD1210081-0341MW1041REMSYN088AAXX  19031 76393 31920 02201 10310 20182 39444 49983 52008 70442 90252 333 30/// 59034;
0253763930999992011051906004+25733-100300FM-12+051599999V0201201N003012200019N0020001N1+02561+02141100011ADDAY101061AY201061GF102991021051004501001001GJ105109IA1019KA1240M+03501KA2240N+02241MA1999999094601MD1210161-0231MW1051REMSYN124AAXX  19061 76393 31420 21203 10256 20214 39460 40001 52016 70500 82500 90550 333 10350 20224 30/// 55085 56300 59023 82617;
0217763930999992011051909004+25733-100300FM-12+051599999V0201101N001012200019N0010001N1+02421+02201100051ADDAY101031AY201031GA1031+002701061GF103991031051002501001001IA1019MA1999999094611MD1210011-0151MW1051REMSYN106AAXX  19091 76393 31310 31101 10242 20220 39461 40005 52001 70500 83500 90850 333 30/// 56700 59015 83609;
0272763930999992011051912004+25733-100300FM-12+051599999V0201101N001010024019N0010001N1+02381+02181100121ADDAA124000091AY121061AY221061GA1061+002401071GF106991061061002501001001IA1019KA1240M+03501KA2120N+02381MA1999999094621MD1210011-0161MW1041REMSYN124AAXX  19121 76393 31310 61101 10238 20218 39462 40012 52001 70422 86600 91150 333 10350 20238 30220 56300 59016 70000 86708;
0195763930999992011051915004+25733-100300FM-12+051599999V0201101N001012200019N0003001N1+02701+02201100301ADDAY101031AY201031GF103991031061004501001001IA1019MA1999999094771MD1210151-0101MW1051REMSYN100AAXX  19151 76393 31403 31101 10270 20220 39477 40030 52015 70500 83600 91450 333 30/// 56700 59010;
0237763930999992011051918004+25733-100300FM-12+051599999V0201201N002012200019N0005001N1+03301+02011100231ADDAY141061AY241061GA1001+999999999GF100991001001999999001001IA1019KA1120M+03401KA2240N+02381MA1999999094721MD1710051-0041MW1051REMSYN100AAXX  19181 76393 31905 01202 10330 20201 39472 40023 57005 70544 91745 333 10340 20238 30/// 59004;
0199763930999992011051921004+25733-100300FM-12+051599999V0201201N006012200019N0020001N1+03721+01891099941ADDAY101031AY201031GA1001+999999999GF100991001001999999001001IA1019MA1999999094501MD1710221-0021MW1041REMSYN088AAXX  19211 76393 31920 01206 10372 20189 39450 49994 57022 70400 92045 333 30/// 59002;
0279763930999992011052000004+25733-100300FM-12+051599999V0201201N002012200019N0030001N1+03781+01391099761ADDAA124000091AY141061AY221061GA1001+999999999GF100991001001999999001001IA1019KA1120M+03891KA2180N+02381MA1999999094381MD1710121+0021MW1051REMSYN112AAXX  20001 76393 31930 01202 10378 20139 39438 49976 57012 70542 92351 333 10389 20238 30/// 50901 58002 70000;EQDQ01  00002PRCP24
0199763930999992011052003004+25733-100300FM-12+051599999V0201101N001012200019N0020001N1+03441+01621099931ADDAY101031AY201031GA1001+999999999GF100991001001999999001001IA1019MA1999999094591MD1210211+0151MW1051REMSYN088AAXX  20031 76393 31920 01101 10344 20162 39459 49993 52021 70500 90252 333 30/// 58015;
0251763930999992011052006004+25733-100300FM-12+051599999V0201201N003012200019N0020001N1+02881+02311100101ADDAY101061AY201061GA1001+999999999GF100991001001999999001001GJ105889IA1019KA1240M+03891KA2240N+02381MA1999999094741MD1210151+0141MW1051REMSYN106AAXX  20061 76393 31920 01203 10288 20231 39474 40010 52015 70500 90550 333 10389 20238 30/// 55098 58014;
0199763930999992011052009004+25733-100300FM-12+051599999V0209999C000012200019N0010001N1+02601+02271100041ADDAY101031AY201031GA1001+999999999GF100991001001999999001001IA1019MA1999999094651MD1710091+0041MW1051REMSYN088AAXX  20091 76393 31910 00000 10260 20227 39465 40004 57009 70500 90850 333 30/// 58004;
0199763930999992011052015004+25733-100300FM-12+051599999V0201201N001012200019N0005001N1+02881+02251100381ADDAY141031AY241031GA1001+999999999GF100991001001999999001001IA1019MA1999999094881MD1210141+0111MW1051REMSYN088AAXX  20151 76393 31905 01201 10288 20225 39488 40038 52014 70544 91450 333 30/// 58011;
0237763930999992011052018004+25733-100300FM-12+051599999V0201201N003012200019N0010001N1+03721+01511100311ADDAY101061AY201061GA1001+999999999GF100991001001999999001001IA1019KA1120M+03841KA2240N+02521MA1999999094831MD1710051+0111MW1051REMSYN100AAXX  20181 76393 31910 01203 10372 20151 39483 40031 57005 70500 91745 333 10384 20252 30/// 58011;
0217763930999992011052021004+25733-100300FM-12+051599999V0201201N003012200019N0040001N1+04081+00581100101ADDAY101031AY201031GA1011+024001081GF101991011011022501001001IA1019MA1999999094691MD1710141+0191MW1041REMSYN106AAXX  20211 76393 31840 11203 10408 20058 39469 40010 57014 70400 81100 92045 333 30/// 56300 58019 81858;
0253763930999992011052100004+25733-100300FM-12+051599999V0201101N002012200019N0040001N1+03681+02372100061ADDAA124000091GF102991021021017501001001IA1019KA1120M+04221KA2180N+02521MA1999999094711MD1210021+0321REMSYN124AAXX  21001 76393 32740 21102 10368 20237 39471 40006 52002 82200 92340 333 10422 20252 30/// 51121 56300 58032 70000 82850;EQDQ01+002373ATOD  
0270763930999992011052112004+25733-100300FM-12+051599999V0200901N001012200019N0010001N1+02661+02251100881ADDAA124000091AY101061AY201061GF102991021051004501001001GJ106129IA1019KA1240M+04221KA2120N+02621MA1999999095101MD1999999+0321MW1041REMSYN130AAXX  21121 76393 31410 20901 10266 20225 39510 40088 5//// 70400 82500 91150 333 10422 20262 30250 55102 56300 58032 70000 82616;
0199763930999992011052115004+25733-100300FM-12+051599999V0201101N002012200019N0005001N1+02961+02341100861ADDAY101031AY201031GA1001+999999999GF100991001001999999001001IA1019MA1999999095221MD1210121+0341MW1051REMSYN088AAXX  21151 76393 31905 01102 10296 20234 39522 40086 52012 70500 91450 333 30/// 58034;
0255763930999992011052118004+25733-100300FM-12+051599999V0201201N006012200019N0005001N1+03321+02261100681ADDAY141061AY241061GA1011+013201081GF101991011011012501001001IA1019KA1120M+03441KA2240N+02621MA1999999095191MD1210031+0361MW1051REMSYN118AAXX  21181 76393 31605 11206 10332 20226 39519 40068 52003 70544 81100 91745 333 10344 20262 30/// 56500 58036 81844;
0217763930999992011052121004+25733-100300FM-12+051599999V0201101N006012200019N0030001N1+03661+02061100431ADDAY101031AY201031GA1031+018001081GF103991031011017501001001IA1019MA1999999094971MD1710221+0281MW1041REMSYN106AAXX  21211 76393 31730 31106 10366 20206 39497 40043 57022 70400 83100 92045 333 30/// 56300 58028 83856;
0284763930999992011052200004+25733-100300FM-12+051599999V0201101N006019999999N0040001N1+03581+02091100281ADDAA124000091AY121061AY221061GA1041+015001081GF105991051031999999001001IA1019KA1120M+03761KA2180N+02621MA1999999094871MD1710101+0161MW1041REMSYN136AAXX  22001 76393 31940 51106 10358 20209 39487 40028 57010 70422 85300 92345 333 10376 20262 30/// 50981 56300 58016 70000 84850 81956;
0237763930999992011052206004+25733-100300FM-12+051599999V0201201N003012200019N0020001N1+02881+02281100521ADDAY101061AY201061GA1001+999999999GF100991001001999999001001GJ105709IA1019KA1240M+03761KA2240N+02621MA1999999095121MW1051REMSYN106AAXX  22061 76393 31920 01203 10288 20228 39512 40052 5//// 70500 90550 333 10376 20262 30/// 55095 58///;
0199763930999992011052209004+25733-100300FM-12+051599999V0201201N002012200019N0010001N1+02641+02251100441ADDAY101031AY201031GA1001+999999999GF100991001001999999001001IA1019MA1999999095011MD1710111+9999MW1051REMSYN088AAXX  22091 76393 31910 01202 10264 20225 39501 40044 57011 70500 90850 333 30/// 58///;
0272763930999992011052212004+25733-100300FM-12+051599999V0201101N003012200019N0010001N1+02501+02221100551ADDAA124000091AY111061AY211061GA1041+003301061GF104991041051004501001001IA1019KA1240M+03761KA2120N+02501MA1999999095071MD1210061-0031MW1051REMSYN124AAXX  22121 76393 31410 41103 10250 20222 39507 40055 52006 70511 84500 91150 333 10376 20250 30238 56300 59003 70000 84611;
0217763930999992011052215004+25733-100300FM-12+051599999V0200501N001010030019N0005001N1+02521+02271100771ADDAY121031AY221031GA1081+003001061GF108991081051004501001001IA1019MA1999999095241MD1210171+0021MW1041REMSYN106AAXX  22151 76393 31405 80501 10252 20227 39524 40077 52017 70422 88500 91450 333 30/// 56300 58002 88610;
0255763930999992011052218004+25733-100300FM-12+051599999V0200301N002012200019N0005001N1+02921+02231100751ADDAY141061AY241061GA1031+008401071GF103991031061008001001001IA1019KA1120M+03181KA2240N+02501MA1999999095211MD1710031+0021MW1051REMSYN118AAXX  22181 76393 31505 30302 10292 20223 39521 40075 57003 70544 83600 91745 333 10318 20250 30/// 56300 58002 83728;
0217763930999992011052221004+25733-100300FM-12+051599999V0201201N006012200019N0020001N1+03621+02111100421ADDAY121031AY221031GA1021+018001081GF105991021011017501001011IA1019MA1999999094941MD1710271-0031MW1041REMSYN106AAXX  22211 76393 31720 51206 10362 20211 39494 40042 57027 70422 82101 92050 333 30/// 56330 59003 82856;
0262763930999992011052300004+25733-100300FM-12+051599999V0201201N003019999999N0020001N1+03581+01851100211ADDAA124000091AY121061AY221061GF107991001001999999001081IA1019KA1120M+03731KA2180N+02501MA1999999094781MD1710161-0091MW1051REMSYN130AAXX  23001 76393 31920 71203 10358 20185 39478 40021 57016 70522 80008 92354 333 10373 20250 30/// 50721 56050 59009 70000 87280;
0195763930999992011052303004+25733-100300FM-12+051599999V0201201N002012200019N0020001N1+03261+01931100211ADDAY111031AY211031GF103991001001999999001021IA1019MA1999999094831MD1710051+9999MW1051REMSYN100AAXX  23031 76393 31920 31202 10326 20193 39483 40021 57005 70511 80002 90252 333 30/// 56050 58///;
0251763930999992011052306004+25733-100300FM-12+051599999V0200901N004012200019N0010001N1+02861+02041100381ADDAY101061AY201061GA1001+999999999GF100991001001999999001001GJ103069IA1019KA1240M+03731KA2240N+02501MA1999999095001MD1210171-0121MW1051REMSYN106AAXX  23061 76393 31910 00904 10286 20204 39500 40038 52017 70500 90550 333 10373 20250 30/// 55051 59012;
0199763930999992011052309004+25733-100300FM-12+051599999V0201201N003012200019N0010001N1+02641+02011100301ADDAY101031AY201031GA1001+999999999GF100991001001999999001001IA1019MA1999999094881MD1710121-0131MW1051REMSYN088AAXX  23091 76393 31910 01203 10264 20201 39488 40030 57012 70500 90850 333 30/// 59013;
0273763930999992011052312004+25733-100300FM-12+051599999V0200401N001012200019N0010001N1+02421+01991100421ADDAA124000091AY101061AY201061GA1001+999999999GF100991001001999999001001IA1019KA1240M+03731KA2120N+02421MA1999999094951MD1210071-0121MW1041REMSYN106AAXX  23121 76393 31910 00401 10242 20199 39495 40042 52007 70400 91150 333 10373 20242 30230 59012 70000;EQDQ01  00002PRCP24
0217763930999992011052315004+25733-100300FM-12+051599999V0201201N001012200019N0005001N1+02721+02071100611ADDAY101031AY201031GA1041+060001001GF104991001001999999001011IA1019MA1999999095091MD1210141-0151MW1051REMSYN106AAXX  23151 76393 31905 41201 10272 20207 39509 40061 52014 70500 80001 91450 333 30/// 56007 59015 84070;
0255763930999992011052318004+25733-100300FM-12+051599999V0200601N002012200019N0005001N1+03341+02191100541ADDAY101061AY201061GA1021+060001001GF102991001001999999001011IA1019KA1120M+03441KA2240N+02421MA1999999095031MD1710061-0181MW1051REMSYN118AAXX  23181 76393 31905 20602 10334 20219 39503 40054 57006 70500 80001 91750 333 10344 20242 30/// 56007 59018 82070;
0245763930999992011052400004+25733-100300FM-12+051599999V0201101N001012200019N0020001N1+03841+01761100131ADDAY141061AY241061GF101991001001999999001041IA1019KA1120M+04021KA2180N+02421MA1999999094751MD1710041-0031MW1041REMSYN124AAXX  24001 76393 31920 11101 10384 20176 39475 40013 57004 70444 80004 92355 333 10402 20242 30/// 50891 56050 59003 70000;
0199763930999992011052403004+25733-100300FM-12+051599999V0201601N001012200019N0020001N1+03481+01961100221ADDAY101031AY201031GA1001+999999999GF100991001001999999001001IA1019MA1999999094871MD1210121+0041MW1051REMSYN088AAXX  24031 76393 31920 01601 10348 20196 39487 40022 52012 70500 90250 333 30/// 58004;
0251763930999992011052406004+25733-100300FM-12+051599999V0201101N003012200019N0010001N1+03021+02161100321ADDAY101061AY201061GA1001+999999999GF100991001001999999001001GJ106549IA1019KA1240M+04021KA2240N+02421MA1999999094971MD1210101-0031MW1051REMSYN106AAXX  24061 76393 31910 01103 10302 20216 39497 40032 52010 70500 90550 333 10402 20242 30/// 55109 59003;
0199763930999992011052409004+25733-100300FM-12+051599999V0200701N001012200019N0010001N1+02701+02051100211ADDAY101031AY201031GA1001+999999999GF100991001001999999001001IA1019MA1999999094821MD1710151-0061MW1051REMSYN088AAXX  24091 76393 31910 00701 10270 20205 39482 40021 57015 70500 90850 333 30/// 59006;
0273763930999992011052412004+25733-100300FM-12+051599999V0200701N001012200019N0010001N1+02461+02031100401ADDAA124000091AY101061AY201061GA1001+999999999GF100991001001999999001001IA1019KA1240M+04021KA2120N+02461MA1999999094951MD1210131+0001MW1041REMSYN106AAXX  24121 76393 31910 00701 10246 20203 39495 40040 52013 70400 91150 333 10402 20246 30238 58000 70000;EQDQ01  00002PRCP24
0217763930999992011052415004+25733-100300FM-12+051599999V0200601N002012200019N0005001N1+02741+02191100561ADDAY101031AY201031GA1021+006601081GF102991021011004501001001IA1019MA1999999095061MD1210111-0031MW1051REMSYN106AAXX  24151 76393 31405 20602 10274 20219 39506 40056 52011 70500 82100 91450 333 30/// 56300 59003 82822;
0237763930999992011052418004+25733-100300FM-12+051599999V0200601N002012200019N0005001N1+03221+02241100501ADDAY141061AY241061GA1001+999999999GF100991001001999999001001IA1019KA1120M+03361KA2240N+02461MA1999999095001MD1710061-0031MW1051REMSYN100AAXX  24181 76393 31905 00602 10322 20224 39500 40050 57006 70544 91745 333 10336 20246 30/// 59003;
0195763930999992011052421004+25733-100300FM-12+051599999V0201001N005012200019N0020001N1+03681+02081100241ADDAY101031AY201031GF101991001001999999001081IA1019MA1999999094791MD1710211+0001MW1051REMSYN100AAXX  24211 76393 31920 11005 10368 20208 39479 40024 57021 70500 80008 92045 333 30/// 56005 58000;
0245763930999992011052500004+25733-100300FM-12+051599999V0201101N001012200019N0020001N1+03801+01821100051ADDAY101061AY201061GF101991011001999999021001IA1019KA1120M+03921KA2180N+02461MA1999999094671MD1710121-0081MW1051REMSYN124AAXX  25001 76393 31920 11101 10380 20182 39467 40005 57012 70500 81020 92352 333 10392 20246 30/// 50101 56050 59008 70000;
0199763930999992011052503004+25733-100300FM-12+051599999V0201201N001012200019N0020001N1+03501+02021100171ADDAY101031AY201031GA1001+999999999GF100991001001999999001001IA1019MA1999999094811MD1210141-0061MW1051REMSYN088AAXX  25031 76393 31920 01201 10350 20202 39481 40017 52014 70500 90250 333 30/// 59006;
0251763930999992011052506004+25733-100300FM-12+051599999V0201101N001012200019N0020001N1+03181+01931100301ADDAY101061AY201061GA1001+999999999GF100991001001999999001001GJ106429IA1019KA1240M+03921KA2240N+02461MA1999999094941MD1210131-0031MW1051REMSYN106AAXX  25061 76393 31920 01101 10318 20193 39494 40030 52013 70500 90550 333 10392 20246 30/// 55107 59003;
0273763930999992011052512004+25733-100300FM-12+051599999V0200601N001012200019N0010001N1+02621+02021100421ADDAA124000091AY101061AY201061GA1001+999999999GF100991001001999999001001IA1019KA1240M+03921KA2120N+02621MA1999999094991MD1999999+0041MW1041REMSYN106AAXX  25121 76393 31910 00601 10262 20202 39499 40042 5//// 70400 91150 333 10392 20262 30254 58004 70000;EQDQ01  00002PRCP24
0199763930999992011052515004+25733-100300FM-12+051599999V0203501N001012200019N0005001N1+02921+02141100591ADDAY101031AY201031GA1001+999999999GF100991001001999999001001IA1019MA1999999095111MD1210121+0051MW1051REMSYN088AAXX  25151 76393 31905 03501 10292 20214 39511 40059 52012 70500 91450 333 30/// 58005;
0237763930999992011052518004+25733-100300FM-12+051599999V0200701N002012200019N0008001N1+03541+02211100661ADDAY101061AY201061GA1001+999999999GF100991001001999999001001IA1019KA1120M+03621KA2240N+02621MA1999999095181MD1210071+0181MW1051REMSYN100AAXX  25181 76393 31908 00702 10354 20221 39518 40066 52007 70500 91755 333 10362 20262 30/// 58018;
0217763930999992011052521004+25733-100300FM-12+051599999V0201401N003012200019N0010001N1+03881+02101100431ADDAY101031AY201031GA1021+021001061GF102991021041022501001001IA1019MA1999999095001MD1710181+0211MW1051REMSYN106AAXX  25211 76393 31810 21403 10388 20210 39500 40043 57018 70500 82400 92050 333 30/// 56700 58021 82657;
0262763930999992011052600004+25733-100300FM-12+051599999V0201201N002010900019N0020001N1+03781+02111100291ADDAA124000091AY121061AY221061GF105991011021022501031061IA1019KA1120M+04061KA2180N+02621MA1999999094921MD1710081+0251MW1051REMSYN130AAXX  26001 76393 31820 51202 10378 20211 39492 40029 57008 70522 81236 92352 333 10406 20262 30/// 50701 56355 58025 70000 81823;
0199763930999992011052603004+25733-100300FM-12+051599999V0201201N001012200019N0020001N1+03501+01961100441ADDAY101031AY201031GA1001+999999999GF100991001001999999001001IA1019MA1999999095091MD1210171+0281MW1051REMSYN088AAXX  26031 76393 31920 01201 10350 20196 39509 40044 52017 70500 90255 333 30/// 58028;
0251763930999992011052606004+25733-100300FM-12+051599999V0201101N001012200019N0020001N1+03101+02191100601ADDAY101061AY201061GA1001+999999999GF100991001001999999001001GJ106009IA1019KA1240M+04061KA2240N+02621MA1999999095251MD1210161+0311MW1051REMSYN106AAXX  26061 76393 31920 01101 10310 20219 39525 40060 52016 70500 90550 333 10406 20262 30/// 55100 58031;
0272763930999992011052612004+25733-100300FM-12+051599999V0200701N001012200019N0010001N1+02721+02221100781ADDAA124000091AY101061AY201061GA1021+060001001GF102991001001999999001011IA1019KA1240M+04061KA2120N+02721MA1999999095331MD1999999+0341MW1041REMSYN124AAXX  26121 76393 31910 20701 10272 20222 39533 40078 5//// 70400 80001 91150 333 10406 20272 30260 56007 58034 70000 82070;
0217763930999992011052615004+25733-100300FM-12+051599999V0200701N002012200019N0005001N1+03061+02331101031ADDAY101031AY201031GA1011+009001081GF101991011011004501001001IA1019MA1999999095541MD1210211+0431MW1051REMSYN106AAXX  26151 76393 31405 10702 10306 20233 39554 40103 52021 70500 81100 91450 333 30/// 56500 58043 81830;
0255763930999992011052618004+25733-100300FM-12+051599999V0200901N006012200019N0008001N1+03461+02331100951ADDAY101061AY201061GA1021+013801081GF102991021021012501001001IA1019KA1120M+03541KA2240N+02721MA1999999095471MD1710071+0291MW1051REMSYN118AAXX  26181 76393 31608 20906 10346 20233 39547 40095 57007 70500 82200 91755 333 10354 20272 30/// 56300 58029 82846;
0217763930999992011052621004+25733-100300FM-12+051599999V0201201N005012200019N0020001N1+03681+02211100711ADDAY101031AY201031GA1031+018001061GF103991031041017501001001IA1019MA1999999095271MD1710201+0271MW1051REMSYN106AAXX  26211 76393 31720 31205 10368 20221 39527 40071 57020 70500 83400 92050 333 30/// 56300 58027 83656;
0262763930999992011052700004+25733-100300FM-12+051599999V0201201N002010150019N0030001N1+03561+01981100561ADDAA124000091AY121061AY221061GF105991051041017501001001IA1019KA1120M+03801KA2180N+02721MA1999999095161MD1710111+0241MW1051REMSYN130AAXX  27001 76393 31730 51202 10356 20198 39516 40056 57011 70522 85400 92352 333 10380 20272 30/// 51221 56300 58024 70000 84621;
0236763930999992011052703004+25733-100300FM-12+051599999V0201601N001012200019N0020001N1+03341+01931100591ADDAY101031AY201031GA1041+005701061GF199999011051017501001001IA1019MA1999999095241MD1210081+0151MW1051REMSYN106AAXX  27031 76393 31720 11601 10334 20193 39524 40059 52008 70500 81500 90255 333 30/// 56300 58015 84619;EQDQ01+000012SCOTCV
0251763930999992011052706004+25733-100300FM-12+051599999V0201201N002012200019N0020001N1+03001+02011100761ADDAY101061AY201061GA1001+999999999GF100991001001999999001001GJ105769IA1019KA1240M+03801KA2240N+02721MA1999999095361MD1210121+0111MW1051REMSYN106AAXX  27061 76393 31920 01202 10300 20201 39536 40076 52012 70500 90550 333 10380 20272 30/// 55096 58011;
0273763930999992011052712004+25733-100300FM-12+051599999V0200901N001012200019N0010001N1+02481+02201100691ADDAA124000091AY101061AY201061GA1001+999999999GF100991001001999999001001IA1019KA1240M+03801KA2120N+02481MA1999999095231MD1999999+0241MW1051REMSYN106AAXX  27121 76393 31910 00901 10248 20220 39523 40069 5//// 70500 91155 333 10380 20248 30232 58024 70000;EQDQ01  00002PRCP24
0237763930999992011052718004+25733-100300FM-12+051599999V0200601N002012200019N0010001N1+03221+02211100701ADDAY101061AY201061GA1001+999999999GF100991001001999999001001IA1019KA1120M+03421KA2240N+02481MA1999999095191MD1710091-0281MW1051REMSYN100AAXX  27181 76393 31910 00602 10322 20221 39519 40070 57009 70500 91750 333 10342 20248 30/// 59028;
0217763930999992011052721004+25733-100300FM-12+051599999V0201201N004012200019N0030001N1+03921+01981100351ADDAY101031AY201031GA1011+024001081GF101991011011022501001001IA1019MA1999999094901MD1710291-0371MW1051REMSYN106AAXX  27211 76393 31830 11204 10392 20198 39490 40035 57029 70500 81100 92050 333 30/// 56500 59037 81858;
0262763930999992011052800004+25733-100300FM-12+051599999V0201201N002019999999N0030001N1+03841+01741100131ADDAA124000091AY121061AY221061GF107991011021999999031081IA1019KA1120M+04071KA2180N+02481MA1999999094751MD1710151-0411MW1051REMSYN130AAXX  28001 76393 31930 71202 10384 20174 39475 40013 57015 70522 81238 92351 333 10407 20248 30/// 51181 56378 59041 70000 81829;
0195763930999992011052803004+25733-100300FM-12+051599999V0200901N001012200019N0030001N1+03561+01601100151ADDAY101031AY201031GF101991001001999999001011IA1019MA1999999094821MD1210071-0421MW1051REMSYN100AAXX  28031 76393 31930 10901 10356 20160 39482 40015 52007 70500 80001 90252 333 30/// 56050 59042;
0251763930999992011052806004+25733-100300FM-12+051599999V0201201N002012200019N0020001N1+03081+02231100231ADDAY101061AY201061GA1001+999999999GF100991001001999999001001GJ105769IA1019KA1240M+04071KA2240N+02481MA1999999094911MD1210091-0451MW1051REMSYN106AAXX  28061 76393 31920 01202 10308 20223 39491 40023 52009 70500 90545 333 10407 20248 30/// 55096 59045;
0273763930999992011052812004+25733-100300FM-12+051599999V0209999C000012200019N0010001N1+02481+02081100241ADDAA124000091AY101061AY201061GA1001+999999999GF100991001001999999001001IA1019KA1240M+04071KA2120N+02481MA1999999094771MD1210011-0461MW1051REMSYN106AAXX  28121 76393 31910 00000 10248 20208 39477 40024 52001 70500 91150 333 10407 20248 30230 59046 70000;EQDQ01  00002PRCP24
0199763930999992011052815004+25733-100300FM-12+051599999V0200601N001012200019N0005001N1+02701+02051100411ADDAY101031AY201031GA1001+999999999GF100991001001999999001001IA1019MA1999999094881MD1210111-0401MW1051REMSYN088AAXX  28151 76393 31905 00601 10270 20205 39488 40041 52011 70500 91450 333 30/// 59040;
0255763930999992011052818004+25733-100300FM-12+051599999V0200701N002012200019N0008001N1+03441+02051100341ADDAY101061AY201061GA1011+018001081GF101991011011017501001001IA1019KA1120M+03501KA2240N+02481MA1999999094861MD1710021-0331MW1051REMSYN118AAXX  28181 76393 31708 10702 10344 20205 39486 40034 57002 70500 81100 91750 333 10350 20248 30/// 56300 59033 81856;
0199763930999992011052821004+25733-100300FM-12+051599999V0201201N005012200019N0010001N1+04021+01971100021ADDAY101031AY201031GA1001+999999999GF100991001001999999001001IA1019MA1999999094601MD1710261-0301MW1051REMSYN088AAXX  28211 76393 31910 01205 10402 20197 39460 40002 57026 70500 92050 333 30/// 59030;
0233763930999992011052918004+25733-100300FM-12+051599999V0200701N001012200019N0030001N1+03241+02071100401ADDAY141061AY241061GF101991001001999999001011IA1019KA1120M+03331KA2240N+02481MA1999999094901MD1999999+0041MW1041REMSYN112AAXX  29181 76393 31930 10701 10324 20207 39490 40040 5//// 70444 80001 91755 333 10333 20248 30/// 56050 58004;
0217763930999992011052921004+25733-100300FM-12+051599999V0201201N002010750019N0030001N1+03711+02001100141ADDAY121031AY221031GA1061+075001021GF106991001001999999001081IA1019MA1999999094691MD1710211+0091MW1051REMSYN106AAXX  29211 76393 31930 61202 10371 20200 39469 40014 57021 70522 80008 92055 333 30/// 56005 58009 86275;
0262763930999992011053000004+25733-100300FM-12+051599999V0201101N001019999999N0030001N1+03521+01911100041ADDAA124000091AY121061AY221061GF107991041001999999011081IA1019KA1120M+03881KA2180N+02481MA1999999094641MD1710051+9999MW1051REMSYN130AAXX  30001 76393 31930 71101 10352 20191 39464 40004 57005 70522 84018 92354 333 10388 20248 30/// 51351 56055 58/// 70000 84458;
0258763930999992011053012004+25733-100300FM-12+051599999V0200701N001010015019N0010001N1+02511+02131100881ADDAA124000091AY121061AY221061GA1081+001501061GF108991081071004501999999IA1019KA1240M+03881KA2120N+02481MA1999999095091MW1051REMSYN124AAXX  30121 76393 31410 80701 10251 20213 39509 40088 5//// 70522 887// 91152 333 10388 20248 30236 56399 58/// 70000 88605;
0255763930999992011053015004+25733-100300FM-12+051599999V0201101N001010027019N0020001N1+02691+02041100981ADDAY121031AY221031GA1081+002701061GF108991081051008001999999IA1019KA1999M+02701KA2999N+02481MA1999999095311MD1210221+0411MW1051REMSYN118AAXX  30151 76393 31520 81101 10269 20204 39531 40098 52022 70522 885// 91455 333 10270 20248 30/// 56399 58041 88609;
0255763930999992011053018004+25733-100300FM-12+051599999V0201201N002010138019N0020001N1+03301+02181100811ADDAY121061AY221061GA1051+013801061GF105991051041012501001001IA1019KA1120M+03361KA2240N+02481MA1999999095291MD1710021-0391MW1051REMSYN118AAXX  30181 76393 31620 51202 10330 20218 39529 40081 57002 70522 85400 91750 333 10336 20248 30/// 56300 59039 85646;
0199763930999992011053021004+25733-100300FM-12+051599999V0201201N006012200019N0020001N1+03721+01961100511ADDAY101031AY201031GA1001+999999999GF100991001001999999001001IA1019MA1999999095041MD1710251+0351MW1051REMSYN088AAXX  30211 76393 31920 01206 10372 20196 39504 40051 57025 70500 92050 333 30/// 58035;
0270763930999992011053112004+25733-100300FM-12+051599999V0201201N002010042019N0010001N1+02601+02181101391ADDAA124000091AY121061AY221061GF108991081071004501999999GJ103129IA1019KA1240M+03861KA2120N+02501MA1999999095571MD1999999+0481MW1051REMSYN130AAXX  31121 76393 31410 81202 10260 20218 39557 40139 5//// 70522 887// 91154 333 10386 20250 30240 55052 56399 58048 70000 88606;
0217763930999992011053115004+25733-100300FM-12+051599999V0201201N002010024019N0020001N1+02761+02181101511ADDAY121031AY221031GA1071+002401061GF107991071051008001999999IA1019MA1999999095811MD1210241+0501MW1051REMSYN106AAXX  31151 76393 31520 71202 10276 20218 39581 40151 52024 70522 875// 91452 333 30/// 56399 58050 87608;
0261763930999992011053118004+25733-100300FM-12+051599999V0201201N00601012001CN0030001N1+03281+02091101441ADDAY121061AY221061GA1021+014701061GF105991051011012501001001IA1019KA1120M+03361KA2240N+02501MA1999999095891MD1710071+0531MW1041REMSYN124AAXX  31181 76393 31630 51206 10328 20209 39589 40144 57007 70422 85100 91745 333 10336 20250 30/// 56300 58053 82649 83850;
0189763930999992011053121004+25733-100300FM-12+051599999V0201301N006010210019N0040001N1+03681+01981101261ADDGA1061+021001081GF108991061011999999001011IA1019MA1999999095761MD1710131+0721REMSYN100AAXX  31211 76393 32940 81306 10368 20198 39576 40126 57013 86101 92050 333 30/// 56605 58072 86857;
0161763930999992011060100004+25733-100300FM-12+051599999V0201201N004010210019N0030001N1+03681+01761101161ADDAY121061AY221061GF106991061051022501001001MA1999999095711MD1710051+9999MW1051REMSYN072AAXX  01001 76393 31830 61204 10368 20176 39571 40116 57005 70522 86500;
0195763930999992011060103004+25733-100300FM-12+051599999V0201201N007012200019N0010001N1+03061+01851101501ADDAY101031AY201031GF104991041051012501001001IA1019MA1999999096061MD1210351+9999MW1051REMSYN100AAXX  01031 76393 31610 41207 10306 20185 39606 40150 52035 70500 84500 90250 333 0/300 30/// 58///;
0223763930999992011060115004+25733-100300FM-12+051599999V0201201N002010900019N0040001N1+02641+02111101561ADDAY121031AY221031GA1021+002701081GF107991021021004501001081IA1019MA1999999096361MD1999999+0551MW1051REMSYN112AAXX  01151 76393 31440 71202 10264 20211 39636 40156 5//// 70522 82208 91452 333 02305 30/// 58055 82809 85280;
0227763930999992011060118004+25733-100300FM-12+051599999V0201201N002012200019N0040001N1+03141+01951101851ADDGA1031+014101081GF105991031021012501001011IA1019KA1120M+03261KA2240N+02441MA1999999096261MD1710101+0371REMSYN112AAXX  01181 76393 32640 51202 10314 20195 39626 40185 57010 83201 91745 333 00305 10326 20244 30/// 58037 83847;
0244763930999992011060200004+25733-100300FM-12+051599999V0201301N006012200019N0060001N1+03541+01271101301ADDAA124000091GA1021+024001081GF104991021011022501001081IA1019KA1120M+03661KA2180N+02441MA1999999095811MD1710181+9999REMSYN118AAXX  02001 76393 32856 41306 10354 20127 39581 40130 57018 82108 92355 333 0/305 10366 20244 30/// 51281 70000 82858;
0167763930999992011060203004+25733-100300FM-12+051599999V0201301N006012200019N0020001N1+03001+01491101381ADDGF102991021011017501001001IA1019MA1999999095921MD1210111-0141REMSYN094AAXX  02031 76393 32720 21306 10300 20149 39592 40138 52011 82100 90250 333 00300 30/// 59014;
0161763930999992011060212004+25733-100300FM-12+051599999V0201201N002010042019N0010001N1+02361+01961101531ADDAY121061AY221061GF107991071051004501999999MA1999999095961MD1210011+9999MW1051REMSYN072AAXX  02121 76393 31410 71202 10236 20196 39596 40153 52001 70522 875//;
0217763930999992011060215004+25733-100300FM-12+051599999V0200701N001010033019N0040001N1+02621+01811101551ADDAY121031AY221031GA1051+003301081GF105991051011008001001001IA1019MA1999999095951MD1710011-0411MW1051REMSYN106AAXX  02151 76393 31540 50701 10262 20181 39595 40155 57001 70522 85100 91454 333 00300 30/// 59041 85811;
0161763930999992011060218004+25733-100300FM-12+051599999V0201201N002012200019N0060001N1+03111+01861101471ADDAY101061AY201061GF102991021011017501001001MA1999999095881MD1710071+9999MW1051REMSYN072AAXX  02181 76393 31756 21202 10311 20186 39588 40147 57007 70500 82100;
0251763930999992011060300004+25733-100300FM-12+051599999V0201201N004012200019N0050001N1+03561+01271100871ADDAA124000091GA1001+999999999GF100991001001999999001001IA1019KA1120M+03621KA2180N+02301MA1999999095411MD1999999-0401REMSYN106AAXX  03001 76393 32950 01204 10356 20127 39541 40087 5//// 92350 333 10362 20230 30/// 51281 59040 70000;EQDQ01  00002PRCP24
0189763930999992011060303004+25733-100300FM-12+051599999V0201201N008012200019N0020001N1+02961+01741100991ADDGA1011+015001061GF101991011041017501001001IA1019MA1999999095551MD1210141-0371REMSYN100AAXX  03031 76393 32720 11208 10296 20174 39555 40099 52014 81400 90255 333 0/300 30/// 59037 81650;
0263763930999992011060312004+25733-100300FM-12+051599999V0200601N001012200019N0040001N1+02221+01901101191ADDAA124000091GA1041+001201061GF199999011051004501041001IA1019KA1240M+03621KA2120N+02241MA1999999095641MD1999999-0321REMSYN118AAXX  03121 76393 32440 20601 10222 20190 39564 40119 5//// 81540 91156 333 0/305 10362 20224 30214 59032 70000 84604;EQDQ01+000022SCOTCV
0189763930999992011060315004+25733-100300FM-12+051599999V0200401N001012200019N0040001N1+02541+01871101401ADDGA1031+002701061GF103991031081008001001001IA1019MA1999999095801MD1210161-0151REMSYN100AAXX  03151 76393 32540 30401 10254 20187 39580 40140 52016 83800 91454 333 0/300 30/// 59015 83609;
0227763930999992011060318004+25733-100300FM-12+051599999V0201201N006012200019N0060001N1+03161+01801101291ADDGA1041+018001081GF104991041011017501001001IA1019KA1120M+03281KA2240N+02221MA1999999095711MD1710091-0171REMSYN112AAXX  03181 76393 32756 41206 10316 20180 39571 40129 57009 84100 91755 333 01300 10328 20222 30/// 59017 84856;
0189763930999992011060321004+25733-100300FM-12+051599999V0201101N006012200019N0060001N1+03461+01651101031ADDGA1041+021001081GF104991041011022501001001IA1019MA1999999095511MD1710201-0011REMSYN100AAXX  03211 76393 32856 41106 10346 20165 39551 40103 57020 84100 92050 333 01300 30/// 59001 84857;
0228763930999992011060400004+25733-100300FM-12+051599999V0201101N005012200019N0060001N1+03481+01401100831ADDAA124000091GF102991021011022501001001KA1120M+03641KA2180N+02221MA1999999095371MD1710141-0071REMSYN124AAXX  04001 76393 32856 21105 10348 20140 39537 40083 57014 82100 82345 333 00300 10364 20222 30/// 51151 59007 70000 82858;
0147763930999992011060412004+25733-100300FM-12+051599999V0200601N001012200019N0030001N1+02301+01691101781ADDAY101061AY201061GF101991011051008001001001MA1999999095921MW1051REMSYN072AAXX  04121 76393 31530 10601 10230 20169 39592 40178 5//// 70500 81500;
0189763930999992011060415004+25733-100300FM-12+051599999V0200701N001012200019N0040001N1+02661+01801101831ADDGA1011+003601081GF101991011011008001001001IA1019MA1999999096091MD1210171+0291REMSYN100AAXX  04151 76393 31540 10701 10266 20180 39609 40183 52017 81100 91452 333 00300 30/// 58029 81812;
0161763930999992011060418004+25733-100300FM-12+051599999V0201101N006012200019N0040001N1+03141+01741101671ADDAY101061AY201061GF103991031011017501001001MA1999999096091MD1410001+9999MW1041REMSYN072AAXX  04181 76393 31740 31106 10314 20174 39609 40167 54000 70400 83100;
0189763930999992011060421004+25733-100300FM-12+051599999V0201001N005012200019N0080001N1+03501+01551101431ADDGA1041+024001081GF104991041011022501001001IA1019MA1999999095891MD1710201+0311REMSYN100AAXX  04211 76393 32858 41005 10350 20155 39589 40143 57020 84100 92045 333 01300 30/// 58031 84858;
0250763930999992011060500004+25733-100300FM-12+051599999V0201201N007012200019N0060001N1+03201+01681101371ADDAA124000091GA1021+018001061GF104991021051017501011001IA1019KA1120M+03601KA2180N+02201MA1999999095871MD1710021+0501REMSYN124AAXX  05001 76393 32756 41207 10320 20168 39587 40137 57002 82510 92350 333 0/330 10360 20220 30/// 51141 58050 70000 82656;
0189763930999992011060503004+25733-100300FM-12+051599999V0201201N007012200019N0020001N1+02761+01931101521ADDGA1031+010201061GF103991031051012501001001IA1019MA1999999096031MD1210161+9999REMSYN100AAXX  05031 76393 32620 31207 10276 20193 39603 40152 52016 83500 90250 333 0/300 30/// 58/// 83634;
0233763930999992011060518004+25733-100300FM-12+051599999V0201101N00601012001CN0080001N1+03101+01901101731ADDGA1011+014101061GF105991051021012501001001IA1019KA1120M+03281KA2240N+02251MA1999999096111MD1710081+0021REMSYN118AAXX  05181 76393 32658 51106 10310 20190 39611 40173 57008 85200 91745 333 05300 10328 20225 30/// 58002 81647 84850;
0189763930999992011060521004+25733-100300FM-12+051599999V0201101N005012200019N0080001N1+03401+01611101421ADDGA1041+021001081GF104991041021022501001001IA1019MA1999999095861MD1710251-0031REMSYN100AAXX  05211 76393 32858 41105 10340 20161 39586 40142 57025 84200 92045 333 04300 30/// 59003 84857;
0250763930999992011060600004+25733-100300FM-12+051599999V0201201N006012200019N0060001N1+03401+01491101231ADDAA124000091GA1031+024001061GF103991031041022501001001IA1019KA1120M+03561KA2180N+02251MA1999999095731MD1710131-0141REMSYN124AAXX  06001 76393 32856 31206 10340 20149 39573 40123 57013 83400 92355 333 0/300 10356 20225 30/// 50981 59014 70000 83658;
0189763930999992011060603004+25733-100300FM-12+051599999V0201201N003012200019N0020001N1+03081+01321101321ADDGA1021+021001061GF102991021041022501001001IA1019MA1999999095861MD1210131-0171REMSYN100AAXX  06031 76393 32820 21203 10308 20132 39586 40132 52013 82400 90255 333 0/300 30/// 59017 82657;
0273763930999992011060612004+25733-100300FM-12+051599999V0201401N001012200019N0010001N1+02321+01761101321ADDAA124000091AY101061AY201061GA1001+999999999GF100991001001999999001001IA1019KA1240M+03561KA2120N+02301MA1999999095771MD1210041-0321MW1051REMSYN106AAXX  06121 76393 31910 01401 10232 20176 39577 40132 52004 70500 91154 333 10356 20230 30210 59032 70000;EQDQ01  00002PRCP24
0199763930999992011060615004+25733-100300FM-12+051599999V0200901N001012200019N0040001N1+02821+01831101371ADDAY101031AY201031GA1001+999999999GF100991001001999999001001IA1019MA1999999095801MD1210031-0401MW1051REMSYN088AAXX  06151 76393 31940 00901 10282 20183 39580 40137 52003 70500 91452 333 30/// 59040;
0209763930999992011060618004+25733-100300FM-12+051599999V0201101N003012200019N0050001N1+03361+01041101321ADDGA1001+999999999GF100991001001999999001001IA1019KA1120M+03521KA2240N+02301MA1999999095761MD1710031-0351REMSYN094AAXX  06181 76393 32950 01103 10336 20104 39576 40132 57003 91745 333 10352 20230 30/// 59035;
0171763930999992011060621004+25733-100300FM-12+051599999V0201101N005012200019N0080001N1+03701+01261101021ADDGA1001+999999999GF100991001001999999001001IA1019MA1999999095521MD1710241-0341REMSYN082AAXX  06211 76393 32958 01105 10370 20126 39552 40102 57024 92045 333 30/// 59034;
0251763930999992011060700004+25733-100300FM-12+051599999V0201201N004012200019N0080001N1+03701+00871100771ADDAA124000091GA1001+999999999GF100991001001999999001001IA1019KA1120M+03801KA2180N+02301MA1999999095341MD1710181-0391REMSYN106AAXX  07001 76393 32958 01204 10370 20087 39534 40077 57018 92350 333 10380 20230 30/// 51361 59039 70000;EQDQ01  00002PRCP24
0171763930999992011060703004+25733-100300FM-12+051599999V0201201N008012200019N0020001N1+03101+01391100861ADDGA1001+999999999GF100991001001999999001001IA1019MA1999999095451MD1210111-0411REMSYN082AAXX  07031 76393 32920 01208 10310 20139 39545 40086 52011 90250 333 30/// 59041;
0273763930999992011060712004+25733-100300FM-12+051599999V0200101N001012200019N0010001N1+02301+01811101011ADDAA124000091AY101061AY201061GA1001+999999999GF100991001001999999001001IA1019KA1240M+03801KA2120N+02301MA1999999095491MD1710011-0281MW1051REMSYN106AAXX  07121 76393 31910 00101 10230 20181 39549 40101 57001 70500 91156 333 10380 20230 30210 59028 70000;EQDQ01  00002PRCP24
0199763930999992011060715004+25733-100300FM-12+051599999V0202701N001012200019N0040001N1+02781+01851101081ADDAY101031AY201031GA1001+999999999GF100991001001999999001001IA1019MA1999999095521MD1210031-0281MW1051REMSYN088AAXX  07151 76393 31940 02701 10278 20185 39552 40108 52003 70500 91452 333 30/// 59028;
0227763930999992011060718004+25733-100300FM-12+051599999V0200601N001012200019N0060001N1+03311+01751100971ADDGA1011+006301081GF199999999999999999001001IA1019KA1120M+03421KA2240N+02301MA1999999095441MD1210081-0321REMSYN112AAXX  07181 76393 32756 00601 10331 20175 39544 40097 52008 81100 91754 333 00300 10342 20230 30/// 59032 81821;
0251763930999992011060800004+25733-100300FM-12+051599999V0201201N004012200019N0060001N1+03721+01381100551ADDAA124000091GA1001+999999999GF100991001001999999001001IA1019KA1120M+03801KA2180N+02301MA1999999095141MD1999999-0201REMSYN106AAXX  08001 76393 32956 01204 10372 20138 39514 40055 5//// 92350 333 10380 20230 30/// 51221 59020 70000;EQDQ01  00002PRCP24
0171763930999992011060803004+25733-100300FM-12+051599999V0201201N008012200019N0020001N1+03121+01611100701ADDGA1001+999999999GF100991001001999999001001IA1019MA1999999095311MD1210171-0141REMSYN082AAXX  08031 76393 32920 01208 10312 20161 39531 40070 52017 90250 333 30/// 59014;
0273763930999992011060812004+25733-100300FM-12+051599999V0200601N001012200019N0040001N1+02301+01921100951ADDAA124000091AY101061AY201061GA1001+999999999GF100991001001999999001001IA1019KA1240M+03801KA2120N+02301MA1999999095431MD1210011-0061MW1051REMSYN106AAXX  08121 76393 31940 00601 10230 20192 39543 40095 52001 70500 91150 333 10380 20230 30219 59006 70000;EQDQ01  00002PRCP24
0199763930999992011060815004+25733-100300FM-12+051599999V0200601N001012200019N0040001N1+02701+02021101111ADDAY101031AY201031GA1001+999999999GF100991001001999999001001IA1019MA1999999095541MD1210111+0021MW1051REMSYN088AAXX  08151 76393 31940 00601 10270 20202 39554 40111 52011 70500 91452 333 30/// 58002;
0237763930999992011060818004+25733-100300FM-12+051599999V0201101N003012200019N0050001N1+03221+02051100981ADDAY101061AY201061GA1001+999999999GF100991001001999999001001IA1019KA1120M+03361KA2240N+02301MA1999999095441MD1710101+0011MW1041REMSYN100AAXX  08181 76393 31950 01103 10322 20205 39544 40098 57010 70400 91745 333 10336 20230 30/// 58001;
0189763930999992011060821004+25733-100300FM-12+051599999V0201101N003012200019N0060001N1+03681+01801100731ADDGA1021+021001081GF102991021011022501001001IA1019MA1999999095241MD1710201+0001REMSYN100AAXX  08211 76393 32856 21103 10368 20180 39524 40073 57020 82100 92045 333 00300 30/// 58000 82857;
0251763930999992011060900004+25733-100300FM-12+051599999V0201201N004012200019N0060001N1+03761+01681100571ADDAA124000091GA1001+999999999GF100991001001999999001001IA1019KA1120M+03821KA2180N+02301MA1999999095151MD1710091+0011REMSYN106AAXX  09001 76393 32956 01204 10376 20168 39515 40057 57009 82350 333 10382 20230 30/// 51031 58001 70000;EQDQ01  00002PRCP24
0171763930999992011060903004+25733-100300FM-12+051599999V0201201N005012200019N0020001N1+03081+01911100781ADDGA1001+999999999GF100991001001999999001001IA1019MA1999999095381MD1210231+0071REMSYN082AAXX  09031 76393 32920 01205 10308 20191 39538 40078 52023 90250 333 30/// 58007;
0161763930999992011060912004+25733-100300FM-12+051599999V0201101N002012200019N0020001N1+02361+01991100991ADDAY101061AY201061GF102991021051004501001001MA1999999095471MD1710041+9999MW1041REMSYN072AAXX  09121 76393 31420 21102 10236 20199 39547 40099 57004 70400 82500;
0147763930999992011060918004+25733-100300FM-12+051599999V0200901N001012200019N0030001N1+03001+02111101091ADDAY101061AY201061GF101991011011012501001001MA1999999095531MW1051REMSYN072AAXX  09181 76393 31630 10901 10300 20211 39553 40109 5//// 70500 81100;
0189763930999992011060921004+25733-100300FM-12+051599999V0201001N002012200019N0060001N1+03601+01841100821ADDGA1011+007201081GF101991011011022501001001IA1019MA1999999095301MD1710231+0061REMSYN100AAXX  09211 76393 32856 11002 10360 20184 39530 40082 57023 81100 92053 333 00300 30/// 58006 81824;
0161763930999992011061000004+25733-100300FM-12+051599999V0201201N004012200019N0050001N1+03621+01601100621ADDAY101061AY201061GF101991011011022501001001MA1999999095181MD1710131+9999MW1051REMSYN072AAXX  10001 76393 31850 11204 10362 20160 39518 40062 57013 70500 81100;
0171763930999992011061003004+25733-100300FM-12+051599999V0201101N005012200019N0030001N1+03281+01481100711ADDGA1001+999999999GF100991001001999999001001IA1019MA1999999095291MD1210111-0091REMSYN082AAXX  10031 76393 32930 01105 10328 20148 39529 40071 52011 90250 333 30/// 59009;
0227763930999992011061018004+25733-100300FM-12+051599999V0200901N001012200019N0050001N1+03041+02151101001ADDGA1011+003601061GF101991011051012501001001IA1019KA1120M+03131KA2240N+02361MA1999999095441MD1999999-0091REMSYN112AAXX  10181 76393 32650 10901 10304 20215 39544 40100 5//// 81500 91752 333 0/300 10313 20236 30/// 59009 81612;
0189763930999992011061021004+25733-100300FM-12+051599999V0201201N002012200019N0060001N1+03601+01871100671ADDGA1011+007201081GF101991011011022501001001IA1019MA1999999095181MD1710261-0121REMSYN100AAXX  10211 76393 32856 11202 10360 20187 39518 40067 57026 81100 92054 333 00300 30/// 59012 81824;
0250763930999992011061100004+25733-100300FM-12+051599999V0201101N001012200019N0060001N1+03681+01801100521ADDAA124000091GA1011+007801081GF101991011011022501001001IA1019KA1120M+03781KA2180N+02361MA1999999095081MD1710101-0101REMSYN124AAXX  11001 76393 31856 11101 10368 20180 39508 40052 57010 81100 92352 333 00300 10378 20236 30/// 51011 59010 70000 81826;
0161763930999992011061112004+25733-100300FM-12+051599999V0200601N001012200019N0040001N1+02301+01921101171ADDAY101061AY201061GF101991011051004501001001MA1999999095351MD1210101+9999MW1051REMSYN072AAXX  11121 76393 31440 10601 10230 20192 39535 40117 52010 70500 81500;
0217763930999992011061115004+25733-100300FM-12+051599999V0200701N00101007501CN0030001N1+02601+02031101191ADDAY121031AY221031GA1011+002401061GF107991071051008001999999IA1019MA1999999095491MD1210141+0001MW1051REMSYN106AAXX  11151 76393 31530 70701 10260 20203 39549 40119 52014 70522 875// 91455 333 0/399 30/// 58000 81608;
0147763930999992011061200004+25733-100300FM-12+051599999V0201201N004012200019N0050001N1+03681+01571100671ADDAY101061AY201061GF102991021041999999001001MA1999999095221MW1051REMSYN072AAXX  12001 76393 31950 21204 10368 20157 39522 40067 5//// 70500 82400;
0217763930999992011061203004+25733-100300FM-12+051599999V0201301N005012200019N0020001N1+03061+01921100761ADDAY101031AY201031GA1021+014101061GF102991021051012501001001IA1019MA1999999095331MD1210111+9999MW1051REMSYN106AAXX  12031 76393 31620 21305 10306 20192 39533 40076 52011 70500 82500 90250 333 0/300 30/// 58/// 82647;
0147763930999992011061218004+25733-100300FM-12+051599999V0201101N004012200019N0020001N1+03321+02001101031ADDAY101061AY201061GF101991011011017501001001MA1999999095481MW1051REMSYN072AAXX  12181 76393 31720 11104 10332 20200 39548 40103 5//// 70500 81100;
0217763930999992011061221004+25733-100300FM-12+051599999V0200701N004012200019N0020001N1+03721+01711100791ADDAY101031AY201031GA1031+024001081GF103991031011022501001001IA1019MA1999999095301MD1710181+9999MW1051REMSYN106AAXX  12211 76393 31820 30704 10372 20171 39530 40079 57018 70500 83100 92050 333 01300 30/// 58/// 83858;
0161763930999992011061300004+25733-100300FM-12+051599999V0201201N005012200019N0040001N1+03701+01711100641ADDAY101061AY201061GF102991021011022501001001MA1999999095211MD1710091+9999MW1051REMSYN072AAXX  13001 76393 31840 21205 10370 20171 39521 40064 57009 70500 82100;
0199763930999992011061303004+25733-100300FM-12+051599999V0201201N007012200019N0020001N1+03201+01851100821ADDAY101031AY201031GA1001+999999999GF100991001001999999001001IA1019MA1999999095411MD1210201+0081MW1051REMSYN088AAXX  13031 76393 31920 01207 10320 20185 39541 40082 52020 70500 90250 333 30/// 58008;
0259763930999992011061312004+25733-100300FM-12+051599999V0201101N001012200019N0030001N1+02321+01881101141ADDAA124000091AY101061AY201061GA1001+999999999GF100991001001999999001001IA1019KA1240M+03841KA2120N+02301MA1999999095621MW1051REMSYN106AAXX  13121 76393 31930 01101 10232 20188 39562 40114 5//// 70500 91154 333 10384 20230 30210 58/// 70000;EQDQ01  00002PRCP24
0217763930999992011061315004+25733-100300FM-12+051599999V0201101N001012200019N0030001N1+02561+01961101361ADDAY121031AY221031GA1041+002401061GF104991041051008001001001IA1019MA1999999095791MD1210171+0311MW1051REMSYN106AAXX  13151 76393 31530 41101 10256 20196 39579 40136 52017 70522 84500 91452 333 0/300 30/// 58031 84608;
0161763930999992011061318004+25733-100300FM-12+051599999V0201201N003012200019N0020001N1+03261+02101101291ADDAY101061AY201061GF101991011011012501001001MA1999999095731MD1710061+9999MW1051REMSYN072AAXX  13181 76393 31620 11203 10326 20210 39573 40129 57006 70500 81100;
0217763930999992011061321004+25733-100300FM-12+051599999V0201201N005012200019N0030001N1+03741+01701100921ADDAY101031AY201031GA1011+024001081GF101991011011022501001001IA1019MA1999999095421MD1710311+0121MW1051REMSYN106AAXX  13211 76393 31830 11205 10374 20170 39542 40092 57031 70500 81100 92050 333 00300 30/// 58012 81858;
0279763930999992011061400004+25733-100300FM-12+051599999V0201201N003012200019N0050001N1+03841+01391100701ADDAA124000091AY101061AY201061GA1001+999999999GF100991001001999999001001IA1019KA1120M+03921KA2180N+02301MA1999999095271MD1710151+0051MW1051REMSYN112AAXX  14001 76393 31950 01203 10384 20139 39527 40070 57015 70500 92350 333 10392 20230 30/// 51131 58005 70000;EQDQ01  00002PRCP24
0217763930999992011061403004+25733-100300FM-12+051599999V0201201N008012200019N0020001N1+03101+01971100901ADDAY101031AY201031GA1011+013801061GF101991011051012501001001IA1019MA1999999095491MD1210221+0081MW1051REMSYN106AAXX  14031 76393 31620 11208 10310 20197 39549 40090 52022 70500 81500 90250 333 0/300 30/// 58008 81646;
0147763930999992011061412004+25733-100300FM-12+051599999V0201101N001012200019N0030001N1+02421+02021101141ADDAY101061AY201061GF101991011051004501001001MA1999999095621MW1051REMSYN072AAXX  14121 76393 31430 11101 10242 20202 39562 40114 5//// 70500 81500;
0217763930999992011061415004+25733-100300FM-12+051599999V0200701N001010021019N0030001N1+02621+02081101291ADDAY121031AY221031GA1071+002101061GF107991071051008001999999IA1019MA1999999095721MD1210101-0071MW1051REMSYN106AAXX  14151 76393 31530 70701 10262 20208 39572 40129 52010 70522 875// 91455 333 0/399 30/// 59007 87607;
0161763930999992011061418004+25733-100300FM-12+051599999V0201201N002012200019N0010001N1+03181+02101101121ADDAY101061AY201061GF101991011011012501001001MA1999999095571MD1710151+9999MW1041REMSYN072AAXX  14181 76393 31610 11202 10318 20210 39557 40112 57015 70400 81100;
0217763930999992011061421004+25733-100300FM-12+051599999V0201201N004012200019N0040001N1+03661+01701100721ADDAY101031AY201031GA1011+024001081GF101991011011022501001001IA1019MA1999999095231MD1710341-0191MW1051REMSYN106AAXX  14211 76393 31840 11204 10366 20170 39523 40072 57034 70500 81100 92050 333 00500 30/// 59019 81858;
0161763930999992011061500004+25733-100300FM-12+051599999V0201401N002019999999N0040001N1+03781+01591100601ADDAY121061AY221061GF105991051001999999041001MA1999999095171MD1710061+9999MW1051REMSYN072AAXX  15001 76393 31940 51402 10378 20159 39517 40060 57006 70522 85040;
0199763930999992011061503004+25733-100300FM-12+051599999V0201201N003012200019N0020001N1+03501+01551100541ADDAY101031AY201031GA1001+999999999GF100991001001999999001001IA1019MA1999999095161MD1710011-0331MW1051REMSYN088AAXX  15031 76393 31920 01203 10350 20155 39516 40054 57001 70500 90250 333 30/// 59033;
0147763930999992011061512004+25733-100300FM-12+051599999V0200701N001010042019N0020001N1+02401+02121100701ADDAY121061AY221061GF105991051051004501001001MA1999999095231MW1051REMSYN072AAXX  15121 76393 31420 50701 10240 20212 39523 40070 5//// 70522 85500;
0217763930999992011061515004+25733-100300FM-12+051599999V0200601N001010030019N0020001N1+02761+02061100851ADDAY121031AY221031GA1051+003001061GF105991051051008001001001IA1019MA1999999095341MD1210111-0381MW1051REMSYN106AAXX  15151 76393 31520 50601 10276 20206 39534 40085 52011 70522 85500 91455 333 0/100 30/// 59038 85610;
0161763930999992011061518004+25733-100300FM-12+051599999V0201201N003012200019N0020001N1+03261+02101100791ADDAY101061AY201061GF101991011011012501001001MA1999999095271MD1710071+9999MW1041REMSYN072AAXX  15181 76393 31620 11203 10326 20210 39527 40079 57007 70400 81100;
0199763930999992011061521004+25733-100300FM-12+051599999V0201201N004012200019N0030001N1+03861+01681100501ADDAY101031AY201031GA1001+999999999GF100991001001999999001001IA1019MA1999999095041MD1710231-0191MW1051REMSYN088AAXX  15211 76393 31930 01204 10386 20168 39504 40050 57023 70500 92050 333 30/// 59019;
0279763930999992011061600004+25733-100300FM-12+051599999V0201201N004012200019N0040001N1+03981+01391100291ADDAA124000091AY101061AY201061GA1001+999999999GF100991001001999999001001IA1019KA1120M+04021KA2180N+02381MA1999999094911MD1710131-0261MW1051REMSYN112AAXX  16001 76393 31940 01204 10398 20139 39491 40029 57013 70500 92350 333 10402 20238 30/// 51001 59026 70000;EQDQ01  00002PRCP24
0199763930999992011061603004+25733-100300FM-12+051599999V0201201N007012200019N0020001N1+03281+02181100361ADDAY101031AY201031GA1001+999999999GF100991001001999999001001IA1019MA1999999095001MD1210091-0161MW1051REMSYN088AAXX  16031 76393 31920 01207 10328 20218 39500 40036 52009 70500 90250 333 30/// 59016;
0161763930999992011061618004+25733-100300FM-12+051599999V0201101N003012200019N0020001N1+03341+01931100681ADDAY101061AY201061GF101991011011017501001001MA1999999095181MD1710051+9999MW1041REMSYN072AAXX  16181 76393 31720 11103 10334 20193 39518 40068 57005 70400 81100;
0199763930999992011061621004+25733-100300FM-12+051599999V0201201N004012200019N0030001N1+03861+01861100451ADDAY101031AY201031GA1001+999999999GF100991001001999999001001IA1019MA1999999095001MD1710181-0041MW1041REMSYN088AAXX  16211 76393 31930 01204 10386 20186 39500 40045 57018 70400 92050 333 30/// 59004;
0279763930999992011061700004+25733-100300FM-12+051599999V0201201N004012200019N0030001N1+03901+01731100221ADDAA124000091AY101061AY201061GA1001+999999999GF100991001001999999001001IA1019KA1120M+04061KA2180N+02521MA1999999094841MD1710161-0071MW1041REMSYN112AAXX  17001 76393 31930 01204 10390 20173 39484 40022 57016 70400 92350 333 10406 20252 30/// 51221 59007 70000;EQDQ01  00002PRCP24
0199763930999992011061703004+25733-100300FM-12+051599999V0201201N006012200019N0020001N1+03241+02201100341ADDAY101031AY201031GA1001+999999999GF100991001001999999001001IA1019MA1999999094991MD1210151-0011MW1051REMSYN088AAXX  17031 76393 31920 01206 10324 20220 39499 40034 52015 70500 90250 333 30/// 59001;
0202763930999992011061712004+25733-100300FM-12+051599999V0200601N002010600019N0030001N1+02521+01941100601ADDAA124000091AY121061AY221061GA1061+060001001GF106991001001999999001041MA1999999095101MW1041REMSYN100AAXX  17121 76393 31930 60602 10252 20194 39510 40060 5//// 70422 80004 91150 333 58/// 70000 86070;
0217763930999992011061715004+25733-100300FM-12+051599999V0200801N001010630019N0020001N1+02761+02021100831ADDAY121031AY221031GA1061+063001001GF106991001001999999001061IA1019MA1999999095281MD1210181+0051MW1041REMSYN106AAXX  17151 76393 31920 60801 10276 20202 39528 40083 52018 70422 80006 91450 333 0/007 30/// 58005 86071;
0161763930999992011061718004+25733-100300FM-12+051599999V0200601N003012200019N0030001N1+03361+02121100771ADDAY101061AY201061GF102991001001999999001011MA1999999095271MD1710011+9999MW1051REMSYN072AAXX  17181 76393 31930 20603 10336 20212 39527 40077 57001 70500 80001;
0199763930999992011061721004+25733-100300FM-12+051599999V0201301N003012200019N0030001N1+03961+01921100451ADDAY101031AY201031GA1001+999999999GF100991001001999999001001IA1019MA1999999095011MD1710261+0011MW1041REMSYN088AAXX  17211 76393 31930 01303 10396 20192 39501 40045 57026 70400 92055 333 30/// 58001;
0279763930999992011061800004+25733-100300FM-12+051599999V0201201N006012200019N0060001N1+03981+01441100281ADDAA124000091AY101061AY201061GA1001+999999999GF100991001001999999001001IA1019KA1120M+04141KA2180N+02521MA1999999094901MD1710111+0061MW1041REMSYN112AAXX  18001 76393 31956 01206 10398 20144 39490 40028 57011 70400 92345 333 10414 20252 30/// 51271 58006 70000;EQDQ01  00002PRCP24
0273763930999992011061812004+25733-100300FM-12+051599999V0201101N003012200019N0030001N1+02521+01881101171ADDAA124000091AY101061AY201061GA1001+999999999GF100991001001999999001001IA1019KA1240M+04141KA2120N+02521MA1999999095381MD1999999+0281MW1041REMSYN106AAXX  18121 76393 31930 01103 10252 20188 39538 40117 5//// 70400 91150 333 10414 20252 30240 58028 70000;EQDQ01  00002PRCP24
0199763930999992011061815004+25733-100300FM-12+051599999V0200801N001012200019N0020001N1+02721+01981101181ADDAY101031AY201031GA1001+999999999GF100991001001999999001001IA1019MA1999999095521MD1210141+0241MW1051REMSYN088AAXX  18151 76393 31920 00801 10272 20198 39552 40118 52014 70500 91450 333 30/// 58024;
0237763930999992011061818004+25733-100300FM-12+051599999V0200901N003012200019N0030001N1+03421+01991100901ADDAY101061AY201061GA1001+999999999GF100991001001999999001001IA1019KA1120M+03581KA2240N+02501MA1999999095401MD1710121+0131MW1041REMSYN100AAXX  18181 76393 31930 00903 10342 20199 39540 40090 57012 70400 91745 333 10358 20250 30/// 58013;
0199763930999992011061821004+25733-100300FM-12+051599999V0201101N006012200019N0040001N1+03981+01481100561ADDAY101031AY201031GA1001+999999999GF100991001001999999001001IA1019MA1999999095121MD1710281+0111MW1041REMSYN088AAXX  18211 76393 31940 01106 10398 20148 39512 40056 57028 70400 92045 333 30/// 58011;
0161763930999992011061900004+25733-100300FM-12+051599999V0201201N006012200019N0050001N1+03901+01401100411ADDAY101061AY201061GF101991011011999999001001MA1999999095021MD1710101+9999MW1041REMSYN072AAXX  19001 76393 31950 11206 10390 20140 39502 40041 57010 70400 81100;
0171763930999992011061903004+25733-100300FM-12+051599999V0201501N004012200019N0020001N1+03521+01501100511ADDGA1001+999999999GF100991001001999999001001IA1019MA1999999095161MD1210141+9999REMSYN082AAXX  19031 76393 32920 01504 10352 20150 39516 40051 52014 90250 333 30/// 58///;
0251763930999992011061906004+25733-100300FM-12+051599999V0201201N005012200019N0020001N1+03021+02071100611ADDAY101061AY201061GA1001+999999999GF100991001001999999001001GJ104269IA1019KA1240M+04101KA2240N+02501MA1999999095261MD1210101+9999MW1051REMSYN106AAXX  19061 76393 31920 01205 10302 20207 39526 40061 52010 70500 90550 333 10410 20250 30/// 55071 58///;
0199763930999992011061909004+25733-100300FM-12+051599999V0201201N005012200019N0010001N1+02721+01881100621ADDAY101031AY201031GA1001+999999999GF100991001001999999001001IA1019MA1999999095211MD1710051+9999MW1051REMSYN088AAXX  19091 76393 31910 01205 10272 20188 39521 40062 57005 70500 90850 333 30/// 58///;
0237763930999992011061918004+25733-100300FM-12+051599999V0201401N001012200019N0040001N1+03341+01961100721ADDAY101061AY201061GA1001+999999999GF100991001001999999001001IA1019KA1120M+03541KA2240N+02521MA1999999095221MD1710061-0181MW1041REMSYN100AAXX  19181 76393 31940 01401 10334 20196 39522 40072 57006 70400 91740 333 10354 20252 30/// 59018;
0199763930999992011061921004+25733-100300FM-12+051599999V0201101N006012200019N0050001N1+03961+01661100301ADDAY101031AY201031GA1001+999999999GF100991001001999999001001IA1019MA1999999094871MD1710351-0251MW1041REMSYN088AAXX  19211 76393 31950 01106 10396 20166 39487 40030 57035 70400 92045 333 30/// 59025;
0251763930999992011062006004+25733-100300FM-12+051599999V0201201N003012200019N0020001N1+02841+01961100321ADDAY101061AY201061GA1001+999999999GF100991001001999999001001GJ106249IA1019KA1240M+04101KA2240N+02521MA1999999094961MD1999999-0301MW1041REMSYN106AAXX  20061 76393 31920 01203 10284 20196 39496 40032 5//// 70400 90550 333 10410 20252 30/// 55104 59030;
0199763930999992011062009004+25733-100300FM-12+051599999V0201101N004012200019N0020001N1+02581+01881100291ADDAY101031AY201031GA1001+999999999GF100991001001999999001001IA1019MA1999999094871MD1710091-0341MW1041REMSYN088AAXX  20091 76393 31920 01104 10258 20188 39487 40029 57009 70400 90850 333 30/// 59034;
0237763930999992011062018004+25733-100300FM-12+051599999V0201001N004012200019N0030001N1+03181+02101100451ADDAY101061AY201061GA1001+999999999GF100991001001999999001001IA1019KA1120M+03341KA2240N+02481MA1999999094941MD1710061-0281MW1041REMSYN100AAXX  20181 76393 31930 01004 10318 20210 39494 40045 57006 70400 91745 333 10334 20248 30/// 59028;
0217763930999992011062021004+25733-100300FM-12+051599999V0201101N006012200019N0060001N1+03721+01961100061ADDAY101031AY201031GA1011+021001081GF101991011021022501001001IA1019MA1999999094621MD1710321-0251MW1041REMSYN106AAXX  20211 76393 31856 11106 10372 20196 39462 40006 57032 70400 81200 92050 333 03500 30/// 59025 81857;
0161763930999992011062100004+25733-100300FM-12+051599999V0201201N005012200019N0050001N1+03921+01831099851ADDAY101061AY201061GF102991021041999999001001MA1999999094481MD1710141+9999MW1041REMSYN072AAXX  21001 76393 31950 21205 10392 20183 39448 49985 57014 70400 82400;
0199763930999992011062103004+25733-100300FM-12+051599999V0201201N006012200019N0020001N1+03301+02141099961ADDAY101031AY201031GA1001+999999999GF100991001001999999001001IA1019MA1999999094621MD1210141+9999MW1051REMSYN088AAXX  21031 76393 31920 01206 10330 20214 39462 49996 52014 70500 90250 333 30/// 58///;
0251763930999992011062106004+25733-100300FM-12+051599999V0201201N003012200019N0020001N1+02901+02091100131ADDAY101061AY201061GA1001+999999999GF100991001001999999001001GJ106489IA1019KA1240M+04001KA2240N+02481MA1999999094781MD1210121-0181MW1041REMSYN106AAXX  21061 76393 31920 01203 10290 20209 39478 40013 52012 70400 90550 333 10400 20248 30/// 55108 59018;
0199763930999992011062109004+25733-100300FM-12+051599999V0201201N002012200019N0020001N1+02641+02141100111ADDAY101031AY201031GA1001+999999999GF100991001001999999001001IA1019MA1999999094731MD1710051-0141MW1041REMSYN088AAXX  21091 76393 31920 01202 10264 20214 39473 40011 57005 70400 90850 333 30/// 59014;
0147763930999992011062200004+25733-100300FM-12+051599999V0201401N004012200019N0030001N1+03661+02091100111ADDAY101061AY201061GF104991041021017501011001MA1999999094691MW1051REMSYN072AAXX  22001 76393 31730 41404 10366 20209 39469 40011 5//// 70500 84210;
0217763930999992011062203004+25733-100300FM-12+051599999V0201201N007012200019N0020001N1+03181+02281100301ADDAY101031AY201031GA1031+011101061GF103991031051012501001001IA1019MA1999999094911MD1210221+0291MW1051REMSYN106AAXX  22031 76393 31620 31207 10318 20228 39491 40030 52022 70500 83500 90250 333 0/300 30/// 58029 83637;
0338763930999992011062206004+25733-100300FM-12+051599999V0201201N004012200019N0020001N1+02841+02321100561ADDAA103999999AA206000091AY101061AY201061GA1021+006301061GF102991021051008001001001GJ103309IA1019KA1240M+03761KA2240N+02541MA1999999095161MD1210251+0381MW1041REMSYN136AAXX  22061 76393 01520 21204 10284 20232 39516 40056 52025 69901 70400 82500 90550 333 0/300 10376 20254 30/// 55055 58038 69907 82621;EQDQ01  00002PRCP06Q02  99992PRCP03
0217763930999992011062209004+25733-100300FM-12+051599999V0201201N003012200019N0020001N1+02701+02231100581ADDAY101031AY201031GA1021+005701061GF102991021051004501001001IA1019MA1999999095151MD1710011+0421MW1041REMSYN106AAXX  22091 76393 31420 21203 10270 20223 39515 40058 57001 70400 82500 90850 333 0/300 30/// 58042 82619;
0180763930999992011062212004+25733-100300FM-12+051599999V0201101N001012200019N0020001N1+02641+02221100651ADDAY111061AY211061GF103991999001999999021041MA1999999095171MD1210021+9999MW1051REMSYN072AAXX  22121 76393 31920 31101 10264 20222 39517 40065 52002 70511 84024;EQDQ01+000042SCOTLC
0217763930999992011062215004+25733-100300FM-12+051599999V0200401N001010015019N0020001N1+02621+02261101021ADDAY121031AY221031GA1081+001501061GF108991081071004501999999IA1019MA1999999095471MD1210031+0471MW1051REMSYN106AAXX  22151 76393 31420 80401 10262 20226 39547 40102 52003 70522 887// 91455 333 0/399 30/// 58047 88605;
0289763930999992011062218004+25733-100300FM-12+051599999V0202401N004010015019N0010001N1+02221+02101101371ADDAA103004091AA206007991AY161061AY261061GA1081+001501061GF108991081061001501999999IA1119KA1120M+02781KA2240N+02141MA1999999095791MD1210311+0711MW1611REMSYN130AAXX  22181 76393 01210 82404 10222 20210 39579 40137 52031 60081 76166 886// 91750 333 0/1// 10278 20214 32/// 58071 60047 88605;
0234763930999992011062221004+25733-100300FM-12+051599999V0200501N003010360019N0060001N1+02781+01691100951ADDAA103002091AY121031AY221031GA1031+013501061GF106991031051012501011081IA1099MA1999999095381MD1710411+0521MW1041REMSYN112AAXX  22211 76393 21656 60503 10278 20169 39538 40095 57041 70422 83518 92045 333 0/155 31/// 58052 60027 83645;
0161763930999992011062300004+25733-100300FM-12+051599999V0203201N001012200019N0050001N1+03101+01801100881ADDAY101061AY201061GF103991031051017501001001MA1999999095341MD1710041+9999MW1041REMSYN072AAXX  23001 76393 31750 33201 10310 20180 39534 40088 57004 70400 83500;
0217763930999992011062303004+25733-100300FM-12+051599999V0201201N004012200019N0020001N1+02661+02001100981ADDAY101031AY201031GA1021+008101081GF102991021011008001001001IA1019MA1999999095431MD1210091+0521MW1051REMSYN106AAXX  23031 76393 31520 21204 10266 20200 39543 40098 52009 70500 82100 90250 333 0/300 30/// 58052 82827;
0161763930999992011062306004+25733-100300FM-12+051599999V0201101N001010075019N0020001N1+02541+02031101081ADDAY121061AY221061GF105991051051008001001001MA1999999095551MD1210121+9999MW1041REMSYN072AAXX  23061 76393 31520 51101 10254 20203 39555 40108 52012 70422 85500;
0217763930999992011062309004+25733-100300FM-12+051599999V0200301N001010042019N0020001N1+02401+02061100941ADDAY121031AY221031GA1051+004201061GF105991051051004501001001IA1019MA1999999095401MD1710151+0251MW1041REMSYN106AAXX  23091 76393 31420 50301 10240 20206 39540 40094 57015 70422 85500 90850 333 0/300 30/// 58025 85614;
0161763930999992011062312004+25733-100300FM-12+051599999V0201101N001012200019N0020001N1+02441+02101101111ADDAY121061AY221061GF104991011051004501001021MA1999999095531MD1210131+9999MW1051REMSYN072AAXX  23121 76393 31420 41101 10244 20210 39553 40111 52013 70522 81502;
0217763930999992011062315004+25733-100300FM-12+051599999V0200601N001012200019N0020001N1+02701+02051101221ADDAY121031AY221031GA1021+002701061GF104991041051008001041001IA1019MA1999999095631MD1210101+0151MW1051REMSYN106AAXX  23151 76393 31520 40601 10270 20205 39563 40122 52010 70522 84540 91450 333 0/350 30/// 58015 82609;
0161763930999992011062318004+25733-100300FM-12+051599999V0200401N001010120019N0030001N1+03001+02041101141ADDAY121061AY221061GF106991061051012501001001MA1999999095571MD1710061+9999MW1041REMSYN072AAXX  23181 76393 31630 60401 10300 20204 39557 40114 57006 70422 86500;
0223763930999992011062321004+25733-100300FM-12+051599999V0201401N00101015001CN0050001N1+03141+01881100891ADDAY121031AY221031GA1021+015001081GF106991061021017501031001IA1019MA1999999095361MD1710211-0021MW1041REMSYN112AAXX  23211 76393 31750 61401 10314 20188 39536 40089 57021 70422 86230 92045 333 03350 30/// 59002 82850 83656;
0161763930999992011062400004+25733-100300FM-12+051599999V0200601N004010120019N0050001N1+03221+01841100761ADDAY121061AY221061GF105991051051012501001001MA1999999095271MD1710091+9999MW1041REMSYN072AAXX  24001 76393 31650 50604 10322 20184 39527 40076 57009 70422 85500;
0217763930999992011062403004+25733-100300FM-12+051599999V0201501N002010078019N0020001N1+02861+02231100901ADDAY121031AY221031GA1061+007801061GF106991061051008001001001IA1019MA1999999095431MD1210161+0001MW1051REMSYN106AAXX  24031 76393 31520 61502 10286 20223 39543 40090 52016 70522 86500 90250 333 0/300 30/// 58000 86626;
0161763930999992011062406004+25733-100300FM-12+051599999V0202201N001012200019N0020001N1+02561+02171100981ADDAY101061AY201061GF102991021051004501001001MA1999999095491MD1210061+9999MW1041REMSYN072AAXX  24061 76393 31420 22201 10256 20217 39549 40098 52006 70400 82500;
0199763930999992011062409004+25733-100300FM-12+051599999V0201101N001012200019N0020001N1+02501+02101100831ADDAY101031AY201031GA1001+999999999GF100991001001999999001001IA1019MA1999999095321MD1710171-0081MW1041REMSYN088AAXX  24091 76393 31920 01101 10250 20210 39532 40083 57017 70400 90850 333 30/// 59008;
0161763930999992011062412004+25733-100300FM-12+051599999V0203201N001012200019N0020001N1+02421+02111100861ADDAY101061AY201061GF102991001001999999001021MA1999999095321MD1410001+9999MW1041REMSYN072AAXX  24121 76393 31920 23201 10242 20211 39532 40086 54000 70400 80002;
0189763930999992011062415004+25733-100300FM-12+051599999V0202501N001012200019N0040001N1+02961+02031100891ADDGA1011+003901081GF103991011011008001001021IA1019MA1999999095341MD1210021-0291REMSYN100AAXX  24151 76393 32540 32501 10296 20203 39534 40089 52002 81102 91452 333 00505 30/// 59029 81813;
0161763930999992011062418004+25733-100300FM-12+051599999V0203201N006012200019N0050001N1+03381+01341100781ADDAY101061AY201061GF102991021011022501001001MA1999999095271MD1710071+9999MW1041REMSYN072AAXX  24181 76393 31850 23206 10338 20134 39527 40078 57007 70400 82100;
0223763930999992011062421004+25733-100300FM-12+051599999V0201001N003012200019N0050001N1+03601+01571100511ADDAY101031AY201031GA1021+024001081GF104991031041022501011001IA1019MA1999999095061MD1710211-0301MW1041REMSYN112AAXX  24211 76393 31850 41003 10360 20157 39506 40051 57021 70400 83410 92045 333 02350 30/// 59030 82858 81658;
0147763930999992011062506004+25733-100300FM-12+051599999V0201201N004012200019N0020001N1+02961+02001100641ADDAY101061AY201061GF102991021051012501001001MA1999999095251MW1051REMSYN072AAXX  25061 76393 31620 21204 10296 20200 39525 40064 5//// 70500 82500;
0199763930999992011062509004+25733-100300FM-12+051599999V0201001N002012200019N0020001N1+02701+02141100571ADDAY101031AY201031GA1001+999999999GF100991001001999999001001IA1019MA1999999095151MD1710101-0171MW1041REMSYN088AAXX  25091 76393 31920 01002 10270 20214 39515 40057 57010 70400 90850 333 30/// 59017;
0161763930999992011062512004+25733-100300FM-12+051599999V0200901N001012200019N0020001N1+02661+02191100861ADDAY101061AY201061GF101991001001999999001051MA1999999095181MD1210031+9999MW1041REMSYN072AAXX  25121 76393 31920 10901 10266 20219 39518 40086 52003 70400 80005;
0217763930999992011062515004+25733-100300FM-12+051599999V0200601N001012200019N0030001N1+02981+02211100861ADDAY101031AY201031GA1011+003001081GF101991011011008001001001IA1019MA1999999095311MD1210131-0031MW1041REMSYN106AAXX  25151 76393 31530 10601 10298 20221 39531 40086 52013 70400 81100 91454 333 00300 30/// 59003 81810;
0161763930999992011062518004+25733-100300FM-12+051599999V0201401N003012200019N0030001N1+03501+02151100761ADDAY101061AY201061GF104991041021017501001001MA1999999095271MD1710031+9999MW1041REMSYN072AAXX  25181 76393 31730 41403 10350 20215 39527 40076 57003 70400 84200;
0189763930999992011062521004+25733-100300FM-12+051599999V0201201N001010210019N0060001N1+03801+02031100501ADDGA1051+021001081GF105991051011022501001001IA1019MA1999999095071MD1710201+0011REMSYN100AAXX  25211 76393 32856 51201 10380 20203 39507 40050 57020 85100 92045 333 02300 30/// 58001 85857;
0161763930999992011062600004+25733-100300FM-12+051599999V0201201N003012200019N0060001N1+03721+01961100371ADDAY101061AY201061GF104991041021022501001001MA1999999094991MD1710081+9999MW1041REMSYN072AAXX  26001 76393 31856 41203 10372 20196 39499 40037 57008 70400 84200;
0195763930999992011062603004+25733-100300FM-12+051599999V0201201N007012200019N0020001N1+03201+02091100611ADDAY101031AY201031GF104991041051012501001001IA1019MA1999999095241MD1210251+9999MW1051REMSYN100AAXX  26031 76393 31620 41207 10320 20209 39524 40061 52025 70500 84500 90250 333 0/300 30/// 58///;
0147763930999992011062612004+25733-100300FM-12+051599999V0200601N001012200019N0020001N1+02421+02051100821ADDAY101061AY201061GF101991011051004501001001MA1999999095331MW1041REMSYN072AAXX  26121 76393 31420 10601 10242 20205 39533 40082 5//// 70400 81500;
0217763930999992011062615004+25733-100300FM-12+051599999V0201201N002010021019N0030001N1+02661+02131101151ADDAY121031AY221031GA1051+002101061GF105991051051008001001001IA1019MA1999999095551MD1210221+0241MW1041REMSYN106AAXX  26151 76393 31530 51202 10266 20213 39555 40115 52022 70422 85500 91454 333 0/300 30/// 58024 85607;
0250763930999992011062700004+25733-100300FM-12+051599999V0201201N005012200019N0060001N1+03541+01681100551ADDAA124000091GA1031+024001081GF103991031021022501001001IA1019KA1120M+03781KA2180N+02421MA1999999095121MD1999999+0131REMSYN124AAXX  27001 76393 32856 31205 10354 20168 39512 40055 5//// 83200 92355 333 03300 10378 20242 30/// 51161 58013 70000 83858;
0189763930999992011062703004+25733-100300FM-12+051599999V0201401N003012200019N0020001N1+03201+01821100681ADDGA1021+018001081GF102991021011017501001001IA1019MA1999999095271MD1210151+0031REMSYN100AAXX  27031 76393 32720 21403 10320 20182 39527 40068 52015 82100 90255 333 0/300 30/// 58003 82856;
0161763930999992011062706004+25733-100300FM-12+051599999V0201201N005012200019N0020001N1+02701+02051100821ADDAY101061AY201061GF101991011011008001001001MA1999999095401MD1210131+9999MW1041REMSYN072AAXX  27061 76393 31520 11205 10270 20205 39540 40082 52013 70400 81100;
0217763930999992011062709004+25733-100300FM-12+051599999V0201201N002012200019N0020001N1+02521+02101100871ADDAY101031AY201031GA1021+005101061GF102991021051004501001001IA1019MA1999999095401MD1410001+0091MW1041REMSYN106AAXX  27091 76393 31420 21202 10252 20210 39540 40087 54000 70400 82500 90850 333 0/300 30/// 58009 82617;
0161763930999992011062712004+25733-100300FM-12+051599999V0201101N001010042019N0020001N1+02441+02071100981ADDAY121061AY221061GF105991051051004501001001MA1999999095461MD1210061+9999MW1041REMSYN072AAXX  27121 76393 31420 51101 10244 20207 39546 40098 52006 70422 85500;
0223763930999992011062715004+25733-100300FM-12+051599999V0200601N00101007501CN0020001N1+02641+02141101181ADDAY121031AY221031GA1041+002101061GF105991051051008001001001IA1019MA1999999095611MD1210151+0061MW1041REMSYN112AAXX  27151 76393 31520 50601 10264 20214 39561 40118 52015 70422 85500 91452 333 0/300 30/// 58006 84607 81808;
0161763930999992011062718004+25733-100300FM-12+051599999V0201201N006012200019N0040001N1+03261+02031101061ADDAY101061AY201061GF103991031011017501001001MA1999999095511MD1710101+9999MW1041REMSYN072AAXX  27181 76393 31740 31206 10326 20203 39551 40106 57010 70400 83100;
0189763930999992011062721004+25733-100300FM-12+051599999V0201201N006012200019N0060001N1+03681+01651100861ADDGA1021+024001081GF102991021011022501001001IA1019MA1999999095371MD1710141+9999REMSYN100AAXX  27211 76393 32856 21206 10368 20165 39537 40086 57014 82100 92040 333 00300 30/// 58/// 82858;
0250763930999992011062800004+25733-100300FM-12+051599999V0201201N003012200019N0080001N1+03781+01631100651ADDAA124000091GA1021+024001081GF102991021011022501001001IA1019KA1120M+03881KA2180N+02401MA1999999095231MD1710141+0111REMSYN124AAXX  28001 76393 32858 21203 10378 20163 39523 40065 57014 82100 92350 333 00300 10388 20240 30/// 51401 58011 70000 82858;
0189763930999992011062803004+25733-100300FM-12+051599999V0201201N007012200019N0020001N1+03161+02101100941ADDGA1041+012901061GF104991041051012501001001IA1019MA1999999095531MD1210301+0261REMSYN100AAXX  28031 76393 31620 41207 10316 20210 39553 40094 52030 84500 90255 333 0/300 30/// 58026 84643;
0295763930999992011062806004+25733-100300FM-12+051599999V0201201N004010075019N0020001N1+02741+02111101171ADDAA106000091AY121061AY221061GF107991071051008001001001GJ105949IA1019KA1240M+03881KA2240N+02401MA1999999095751MD1210221+0351MW1041REMSYN136AAXX  28061 76393 01520 71204 10274 20211 39575 40117 52022 69901 70422 87500 90550 333 0/300 10388 20240 30/// 55099 58035 39907 87621;EQDQ01  00002PRCP06
0234763930999992011062809004+25733-100300FM-12+051599999V0201201N003010021019N0020001N1+02461+02291101151ADDAA103000491AY121031AY221031GA1071+002101071GF107991071061002501001001IA1099MA1999999095681MD1710071+0281MW1201REMSYN112AAXX  28091 76393 21320 71203 10246 20229 39568 40115 57007 72022 87600 90850 333 0/300 31/// 58028 69947 87707;
0161763930999992011062812004+25733-100300FM-12+051599999V0200601N001010042019N0020001N1+02481+02231101271ADDAY121061AY221061GF108991081071004501999999MA1999999095731MD1210051+9999MW1051REMSYN072AAXX  28121 76393 31420 80601 10248 20223 39573 40127 52005 70522 887//;
0223763930999992011062815004+25733-100300FM-12+051599999V0201101N001012200019N0030001N1+02841+02171101401ADDAY111031AY211031GA1011+008101081GF102991021011008001001001IA1099MA1999999095821MD1210091+0211MW1041REMSYN112AAXX  28151 76393 31530 21101 10284 20217 39582 40140 52009 70411 82100 91452 333 02300 31/// 58021 81827 81628;
0161763930999992011062818004+25733-100300FM-12+051599999V0201201N006012200019N0050001N1+03301+01981101311ADDAY101061AY201061GF103991031021017501001001MA1999999095761MD1710061+9999MW1041REMSYN072AAXX  28181 76393 31750 31206 10330 20198 39576 40131 57006 70400 83200;
0195763930999992011062821004+25733-100300FM-12+051599999V0201301N002010210019N0070001N1+03661+01841101061ADDGA1021+021001081GF105991051041022501001001IA1019MA1999999095561MD1710201+0191REMSYN106AAXX  28211 76393 32857 51302 10366 20184 39556 40106 57020 85400 92045 333 01300 30/// 58019 82857 83657;
0161763930999992011062900004+25733-100300FM-12+051599999V0201201N004010150019N0050001N1+03501+01961100911ADDAY121061AY221061GF105991051051017501001001MA1999999095471MD1710091+9999MW1041REMSYN072AAXX  29001 76393 31750 51204 10350 20196 39547 40091 57009 70422 85500;
0234763930999992011062903004+25733-100300FM-12+051599999V0201201N010010090019N0010001N1+02901+02181101201ADDAA103005091AY121031AY221031GA1081+009001061GF108991081051008001999999IA1119MA1999999095771MD1210301+0241MW1211REMSYN112AAXX  29031 76393 21510 81210 10290 20218 39577 40120 52030 72122 885// 90255 333 0/300 32/// 58024 60057 88630;
0303763930999992011062906004+25733-100300FM-12+051599999V0200601N001010045019N0020001N1+02501+02131101341ADDAA103014091AA206014091AY121061AY221061GA1051+004501061GF105991051051004501001001GJ105949IA1019KA1240M+03761KA2240N+02461MA1999999095861MD1210091+0111MW1041REMSYN136AAXX  29061 76393 01420 50601 10250 20213 39586 40134 52009 60141 70422 85500 90550 333 0/300 10376 20246 30/// 55099 58011 60147 85615;
0217763930999992011062909004+25733-100300FM-12+051599999V0201401N001012200019N0020001N1+02361+02051101301ADDAY101031AY201031GA1021+003601061GF102991021051004501001001IA1019MA1999999095781MD1710081+0101MW1041REMSYN106AAXX  29091 76393 31420 21401 10236 20205 39578 40130 57008 70400 82500 90850 333 0/300 30/// 58010 82612;
0180763930999992011062912004+25733-100300FM-12+051599999V0200701N001012200019N0030001N1+02341+02141101381ADDAY101061AY201061GF103991999051002501001001MA1999999095801MD1210021+9999MW1041REMSYN072AAXX  29121 76393 31330 30701 10234 20214 39580 40138 52002 70400 82500;EQDQ01+000022SCOTLC
0223763930999992011062915004+25733-100300FM-12+051599999V0201501N001010060019N0030001N1+02601+02091101491ADDAY121031AY221031GA1051+006001061GF107991071051008001999999IA1019MA1999999095881MD1210081+0061MW1051REMSYN112AAXX  29151 76393 31530 71501 10260 20209 39588 40149 52008 70522 875// 91455 333 0/399 30/// 58006 85620 82821;
0161763930999992011062918004+25733-100300FM-12+051599999V0201201N003010120019N0030001N1+03041+02091101451ADDAY121061AY221061GF107991071051012501999999MA1999999095861MD1710021+9999MW1051REMSYN072AAXX  29181 76393 31630 71203 10304 20209 39586 40145 57002 70522 875//;
0217763930999992011062921004+25733-100300FM-12+051599999V0201301N003010150019N0040001N1+03281+01951101181ADDAY121031AY221031GA1071+015001061GF107991071051017501999999IA1019MA1999999095641MD1710221+0081MW1041REMSYN106AAXX  29211 76393 31740 71303 10328 20195 39564 40118 57022 70422 875// 92050 333 0/3// 30/// 58008 87650;
0312763930999992011063000004+25733-100300FM-12+051599999V0201201N003010150019N0010001N1+03341+02031101001ADDAA103002091AA206002091AA324015491AY161061AY261061GA1081+015001061GF108991081051017501999999IA1119KA1120M+03381KA2180N+02321MA1999999095511MD1710131+0041MW1601REMSYN142AAXX  30001 76393 01710 81203 10334 20203 39551 40100 57013 60021 76066 885// 92355 333 0/300 10338 20232 32/// 50841 58004 60027 70154 88650;
0217763930999992011063003004+25733-100300FM-12+051599999V0201401N005010087019N0020001N1+02741+02031101171ADDAY121031AY221031GA1061+008701061GF106991061051008001001001IA1099MA1999999095691MD1210181-0081MW1051REMSYN106AAXX  30031 76393 31520 61405 10274 20203 39569 40117 52018 70522 86500 90250 333 0/300 31/// 59008 86629;
0161763930999992011063006004+25733-100300FM-12+051599999V0201401N001010075019N0020001N1+02621+02081101251ADDAY121061AY221061GF105991051051008001001001MA1999999095751MD1210061+9999MW1041REMSYN072AAXX  30061 76393 31520 51401 10262 20208 39575 40125 52006 70422 85500;
0217763930999992011063009004+25733-100300FM-12+051599999V0200701N001010063019N0020001N1+02521+02011101081ADDAY121031AY221031GA1061+006301061GF106991061051008001001001IA1019MA1999999095561MD1710191-0221MW1041REMSYN106AAXX  30091 76393 31520 60701 10252 20201 39556 40108 57019 70422 86500 90850 333 0/300 30/// 59022 86621;
0161763930999992011063012004+25733-100300FM-12+051599999V0200701N001010042019N0020001N1+02511+02081101141ADDAY121061AY221061GF107991071051004501999999MA1999999095581MD1210021+9999MW1051REMSYN072AAXX  30121 76393 31420 70701 10251 20208 39558 40114 52002 70522 875//;
0234763930999992011063015004+25733-100300FM-12+051599999V0200501N002010015019N0006001N1+02221+02101101371ADDAA103016091AY151031AY251031GA1081+001501071GF108991081071001501999999IA1119MA1999999095761MD1210181-0121MW1551REMSYN112AAXX  30151 76393 21206 80502 10222 20210 39576 40137 52018 75555 887// 91455 333 0/3// 32/// 59012 60167 88705;
0293763930999992011063018004+25733-100300FM-12+051599999V0201201N006010018019N0008001N1+02361+02221101381ADDAA103009091AA206025991AY151061AY251061GA1081+001801071GF108991081061001501999999IA1119KA1120M+02561KA2240N+02221MD1710011-0101MW1501REMSYN130AAXX  30181 76393 01208 81206 10236 20222 39476 40138 57001 60261 75055 886// 91755 333 0/3// 10256 20222 32/// 59010 60097 88706;EQDQ01+094763APOSP 
0234763930999992011063021004+25733-100300FM-12+051599999V0201101N003010024019N0008001N1+02421+02221101261ADDAA103000991AY151031AY251031GA1081+002401071GF108991081061002501999999IA1119MA1999999095651MD1710111+0011MW1501REMSYN112AAXX  30211 76393 21308 81103 10242 20222 39565 40126 57011 75055 886// 92050 333 0/6// 32/// 58001 69997 88708;
0312763930999992011070100004+25733-100300FM-12+051599999V0201201N002010012019N0010001N1+02301+02211101231ADDAA103009091AA206009991AA324036491AY161061AY261061GA1081+001201071GF108991081061001501999999IA1119KA1120M+02601KA2180N+02221MA1999999095621MD1710031+0111MW1611REMSYN142AAXX  01001 76393 01210 81202 10230 20221 39562 40123 57003 60101 76166 886// 92355 333 0/6// 10260 20222 32/// 50161 58011 60097 70364 88704;
0303763930999992011070106004+25733-100300FM-12+051599999V0201701N001010012019N0020001N1+02261+02151101301ADDAA103009092AA206008992AY121061AY221061GA1071+001201071GF107991071061001501001001GJ100009IA1119KA1240M+02601KA2240N+02221MA1999999095681MD1999999-0071MW1201REMSYN136AAXX  01061 76393 01220 71701 10226 20215 39568 40130 5//// 60091 72022 87600 90550 333 0/300 10260 20222 32/// 55000 59007 60097 87704;
0234763930999992011070109004+25733-100300FM-12+051599999V0201201N001010006019N0020001N1+02221+02161101151ADDAA103000491AY121031AY221031GA1081+000601071GF108991081061001501999999IA1119MA1999999095531MD1710151-0031MW1201REMSYN112AAXX  01091 76393 21220 81201 10222 20216 39553 40115 57015 72022 886// 90850 333 0/300 32/// 59003 69947 88702;
0306763930999992011070112004+25733-100300FM-12+051599999V0200601N002010012019N0010001N1+02221+02131101421ADDAA103000591AA206001091AA324046091AY121061AY221061GA1081+001201071GF108991081061001501999999IA1019KA1240M+02601KA2120N+02221MA1999999095631MD1210101+0041MW1511REMSYN136AAXX  01121 76393 01210 80602 10222 20213 39563 40142 52010 69991 75122 886// 91155 333 0/300 10260 20222 30220 58004 69957 70460 88704;
0228763930999992011070115004+25733-100300FM-12+051599999V0203301N001010015019N0010001N1+02401+02291101321ADDAA103014091AY121031AY221031GA1081+001501071GF108991081061001501999999IA1119MA1999999095641MD1210011-0131MW1501REMSYN106AAXX  01151 76393 21210 83301 10240 20229 39564 40132 52001 75022 886// 91455 333 32/// 59013 60147 88705;
0289763930999992011070118004+25733-100300FM-12+051599999V0200701N001010012019N0010001N1+02311+02211101361ADDAA103090092AA206010992AY151061AY251061GA1081+001201061GF108991081051001501999999IA1119KA1120M+02431KA2240N+02201MA1999999095731MD1210091-0031MW1501REMSYN130AAXX  01181 76393 01210 80701 10231 20221 39573 40136 52009 60111 75055 885// 91752 333 0/399 10243 20220 32/// 59003 60907 88604;
0234763930999992011070121004+25733-100300FM-12+051599999V0200601N001010033019N0010001N1+02471+02191101271ADDAA103001091AY151031AY251031GA1081+003301071GF108991081061004501999999IA1119MA1999999095641MD1710091-0011MW1501REMSYN112AAXX  01211 76393 21410 80601 10247 20219 39564 40127 57009 75055 886// 92050 333 0/399 32/// 59001 60017 88711;
0320763930999992011070200004+25733-100300FM-12+051599999V0200601N001010030019N0008001N1+02481+02231101201ADDAA103999929AA224042091AY151061AY251061GA1081+003001071GF108991081051004501999999IA1099KA1120M+02521KA2180N+02201MA1999999095591MD1710051-0031MW1041REMSYN142AAXX  02001 76393 01408 80601 10248 20223 39559 40120 57005 69911 70455 885// 92354 333 0/3// 10252 20220 31/// 50751 59003 69907 70420 88710;EQDQ01  00002PRCP06
0213763930999992011070203004+25733-100300FM-12+051599999V0201001N001010012019N0010001N1+02301+02191101451ADDAA103003091AY151031AY251031GF107991071051001501999999MA1999999095821MD1210231+9999MW1501REMSYN113AAXX  02031 76393 21210 71001 10230 20219 39582 40145 52023 75055 875/// 90250 333 0/3// 31/// 58/// 60037 87605;
0180763930999992011070206004+25733-100300FM-12+051599999V0200601N002019999999N0010001N1+02241+02131101451ADDAY121061AY221061GF107991999051001501999999MA1999999095831MD1410001+9999MW1201REMSYN072AAXX  02061 76393 01210 70602 10224 20213 39583 40145 54000 72022 885//;EQDQ01+000082SCOTLC
0234763930999992011070209004+25733-100300FM-12+051599999V0203101N010010006019N0010001N1+02221+02161101381ADDAA103002091AY121031AY221031GA1081+000601071GF108991081061000751999999IA1119MA1999999095751MD1210071+0191MW1201REMSYN112AAXX  02091 76393 21110 83110 10222 20216 39575 40138 52007 72022 886// 90850 333 0/3// 32/// 58019 60027 88702;
0263763930999992011070212004+25733-100300FM-12+051599999V0200601N001019999999N0010001N1+02181+02091101451ADDAA103010092AA212001092AA324004091GF108991999999001501999999KA1240M+02521KA2120N+02181MA1999999095811MD1210061+0181REMSYN137AAXX  02121 76393 01210 80601 10218 20209 39581 40145 52006 600121 75022 886// 91155 333 0/3// 10252 20218 30212 58018 60107 70040 88704;
0234763930999992011070215004+25733-100300FM-12+051599999V0200601N004010012019N0010001N1+02261+02171101601ADDAA103000021AY121031AY221031GA1081+001201071GF108991081061001501999999IA1099MA1999999095941MD1210131+0301MW1501REMSYN112AAXX  02151 76393 01210 80604 10226 20217 39594 40160 52013 75022 886// 91455 333 0/3// 31/// 58030 69907 88704;
0289763930999992011070218004+25733-100300FM-12+051599999V0200501N001010006019N0008001N1+02151+02081101711ADDAA103999929AA206000591AY151061AY251061GA1081+000601051GF108991081061000751999999IA1099KA1120M+02701KA2240N+02121MA1999999096051MD1210111+0321MW1501REMSYN130AAXX  02181 76393 01108 80501 10215 20208 39605 40171 52011 69951 75055 886// 91752 333 0/3// 10270 20212 31/// 58032 69907 88502;
0240763930999992011070221004+25733-100300FM-12+051599999V0201101N00101004201CN0008001N1+02561+02141101571ADDAA103000391AY121031AY221031GA1041+005101091GF108991081051004501999999IA1099MA1999999095931MD1710081+0201MW1501REMSYN118AAXX  02211 76393 21408 81101 10256 20214 39593 40157 57008 75022 885// 92055 333 023// 31/// 58020 69937 84917 87618;
0161763930999992011070300004+25733-100300FM-12+051599999V0201201N001010021019N0030001N1+02521+02301101501ADDAY121061AY221061GF107991071051002501999999MA1999999095891MD1710041+9999MW1041REMSYN072AAXX  03001 76393 31330 71201 10252 20230 39589 40150 57004 70422 875//;
0234763930999992011070303004+25733-100300FM-12+051599999V0200201N001012200019N0040001N1+02241+01951101441ADDAA103002091AY101031AY201031GA1041+003601061GF104991041051004501001001IA1099MA1999999095821MD1710071-0011MW1501REMSYN112AAXX  03031 76393 21440 40201 10224 20195 39582 40144 57007 75000 84500 90250 333 0/300 31/// 59001 60027 84612;
0286763930999992011070306004+25733-100300FM-12+051599999V0201101N002012200019N0020001N1+02201+02061101551ADDAA106002091AY101061AY201061GA1021+001501061GF102991021051001501001001GJ100489IA1019KA1240M+02721KA2240N+02121MA1999999095931MD1210101+0101MW1041REMSYN130AAXX  03061 76393 11220 21102 10220 20206 39593 40155 52010 60021 70400 82500 90550 333 0/300 10272 20212 30/// 55008 58010 82605;
0217763930999992011070309004+25733-100300FM-12+051599999V0201101N002012200019N0020001N1+02181+02041101421ADDAY111031AY211031GA1031+001501061GF103991031051001501001001IA1019MA1999999095791MD1710141+0041MW1041REMSYN106AAXX  03091 76393 31220 31102 10218 20204 39579 40142 57014 70411 83500 90850 333 0/300 30/// 58004 83605;
0161763930999992011070312004+25733-100300FM-12+051599999V0201101N001010012019N0010001N1+02181+02061101441ADDAY121061AY221061GF108991081061001501999999MA1999999095791MD1410001+9999MW1051REMSYN072AAXX  03121 76393 31210 81101 10218 20206 39579 40144 54000 70522 886//;
0217763930999992011070315004+25733-100300FM-12+051599999V0201201N003010030019N0030001N1+02381+02131101571ADDAY121031AY221031GA1071+003001061GF107991071051004501001001IA1019MA1999999095911MD1210121-0031MW1051REMSYN106AAXX  03151 76393 31430 71203 10238 20213 39591 40157 52012 70522 87500 91450 333 0/300 30/// 59003 87610;
0233763930999992011070318004+25733-100300FM-12+051599999V0201101N00601007501CN0050001N1+02861+02111101521ADDGA1021+009301081GF107991051021008001001061IA1019KA1120M+02921KA2240N+02181MA1999999095891MD1710021-0161REMSYN118AAXX  03181 76393 32550 71106 10286 20211 39589 40152 57002 85206 91745 333 03305 10292 20218 30/// 59016 82831 83633;
0189763930999992011070321004+25733-100300FM-12+051599999V0201101N006010129019N0050001N1+03101+02001101261ADDGA1051+012901061GF106991051051012501001081IA1019MA1999999095791MD1710201-0241REMSYN100AAXX  03211 76393 32650 61106 10310 20200 39579 40126 57020 85508 92045 333 0/305 30/// 59024 85643;
0161763930999992011070400004+25733-100300FM-12+051599999V0201201N006010120019N0050001N1+03101+02001101071ADDAY121061AY221061GF105991051051012501001001MA1999999095541MD1710151+9999MW1041REMSYN072AAXX  04001 76393 31650 51206 10310 20200 39554 40107 57015 70422 85500;
0236763930999992011070403004+25733-100300FM-12+051599999V0200601N001012200019N0020001N1+02621+02051101131ADDAY101031AY201031GA1011+006901081GF199999011011008001001001IA1019MA1999999095621MD1210081-0211MW1051REMSYN106AAXX  04031 76393 31520 10601 10262 20205 39562 40113 52008 70500 81100 90250 333 00300 30/// 59021 81823;EQDQ01+000012SCOTCV
0147763930999992011070412004+25733-100300FM-12+051599999V0203301N001010021019N0008001N1+02221+02021101221ADDAY121061AY221061GF108991081051002501999999MA1999999095621MW1041REMSYN072AAXX  04121 76393 31308 83301 10222 20202 39562 40122 5//// 70422 885//;
0217763930999992011070415004+25733-100300FM-12+051599999V0203101N001010051019N0004001N1+02371+01941101311ADDAY121031AY221031GA1081+005101061GF108991081051004501999999IA1019MA1999999095701MD1210081-0211MW1041REMSYN106AAXX  04151 76393 31404 83101 10237 20194 39570 40131 52008 70422 885// 91455 333 0/399 30/// 59021 88617;
0161763930999992011070418004+25733-100300FM-12+051599999V0200501N005012200019N0010001N1+02871+02071101281ADDAY111061AY211061GF103991031011008001001001MA1999999095681MD1710021+9999MW1051REMSYN072AAXX  04181 76393 31510 30505 10287 20207 39568 40128 57002 70511 83100;
0236763930999992011070421004+25733-100300FM-12+051599999V0201101N006012200019N0030001N1+03301+01881101051ADDAY111031AY211031GA1041+018001081GF199999041011017501001001IA1019MA1999999095501MD1710181-0191MW1051REMSYN106AAXX  04211 76393 31730 41106 10330 20188 39550 40105 57018 70511 84100 92045 333 00300 30/// 59019 84856;EQDQ01+000042SCOTCV
0161763930999992011070500004+25733-100300FM-12+051599999V0201201N006012200019N0030001N1+03241+01691100851ADDAY111061AY211061GF104991041011017501001001MA1999999095361MD1710141+9999MW1051REMSYN072AAXX  05001 76393 31730 41206 10324 20169 39536 40085 57014 70511 84100;
0217763930999992011070503004+25733-100300FM-12+051599999V0201301N006012200019N0020001N1+02901+01861100921ADDAY101031AY201031GA1021+014101081GF102991021011012501001001IA1019MA1999999095451MD1210091-0171MW1051REMSYN106AAXX  05031 76393 31620 21306 10290 20186 39545 40092 52009 70500 82100 90252 333 00300 30/// 59017 82847;
0251763930999992011070506004+25733-100300FM-12+051599999V0201201N003012200019N0020001N1+02541+02151101091ADDAY101061AY201061GA1001+999999999GF100991001001999999001001GJ104569IA1019KA1240M+03441KA2240N+02221MA1999999095601MD1210151-0071MW1041REMSYN106AAXX  05061 76393 31920 01203 10254 20215 39560 40109 52015 70400 90550 333 10344 20222 30/// 55076 59007;
0199763930999992011070509004+25733-100300FM-12+051599999V0201101N002012200019N0020001N1+02301+02101101141ADDAY101031AY201031GA1001+999999999GF100991001001999999001001IA1019MA1999999095621MD1210021-0031MW1041REMSYN088AAXX  05091 76393 31920 01102 10230 20210 39562 40114 52002 70400 90850 333 30/// 59003;
0161763930999992011070512004+25733-100300FM-12+051599999V0200601N001010042019N0010001N1+02321+02061101191ADDAY121061AY221061GF108991081051004501999999MA1999999095611MD1710011+9999MW1051REMSYN072AAXX  05121 76393 31410 80601 10232 20206 39561 40119 57001 70522 885//;
0217763930999992011070515004+25733-100300FM-12+051599999V0200701N001010057019N0010001N1+02621+02141101311ADDAY121031AY221031GA1071+005701061GF107991071051004501999999IA1019MA1999999095711MD1210101+0011MW1051REMSYN106AAXX  05151 76393 31410 70701 10262 20214 39571 40131 52010 70522 875// 91450 333 0/399 30/// 58001 87619;
0161763930999992011070518004+25733-100300FM-12+051599999V0200701N002012200019N0010001N1+03081+02141101271ADDAY141061AY241061GF102991021051012501001001MA1999999095691MD1710021+9999MW1051REMSYN072AAXX  05181 76393 31610 20702 10308 20214 39569 40127 57002 70544 82500;
0217763930999992011070521004+25733-100300FM-12+051599999V0201101N006012200019N0020001N1+03361+01951101101ADDAY141031AY241031GA1031+018001081GF103991031021017501001001IA1019MA1999999095561MD1710131+0061MW1051REMSYN106AAXX  05211 76393 31720 31106 10336 20195 39556 40110 57013 70544 83200 92045 333 00300 30/// 58006 83856;
0251763930999992011070606004+25733-100300FM-12+051599999V0201201N004012200019N0020001N1+02581+01981101141ADDAY101061AY201061GA1001+999999999GF100991001001999999001001GJ104989IA1019KA1240M+03481KA2240N+02261MA1999999095661MD1999999+0061MW1041REMSYN106AAXX  06061 76393 31920 01204 10258 20198 39566 40114 5//// 70400 90550 333 10348 20226 30/// 55083 58006;
0199763930999992011070609004+25733-100300FM-12+051599999V0200601N001012200019N0020001N1+02321+02031101161ADDAY101031AY201031GA1001+999999999GF100991001001999999001001IA1019MA1999999095641MD1710021+0021MW1041REMSYN088AAXX  06091 76393 31920 00601 10232 20203 39564 40116 57002 70400 90850 333 30/// 58002;
0161763930999992011070612004+25733-100300FM-12+051599999V0200701N001010042019N0008001N1+02321+02031101281ADDAY121061AY221061GF107991071051004501999999MA1999999095711MD1210071+9999MW1041REMSYN072AAXX  06121 76393 31408 70701 10232 20203 39571 40128 52007 70422 875//;
0217763930999992011070615004+25733-100300FM-12+051599999V0200401N001010072019N0008001N1+02681+02091101411ADDAY121031AY221031GA1061+007201061GF106991061051008001001001IA1019MA1999999095801MD1210091+0091MW1041REMSYN106AAXX  06151 76393 31508 60401 10268 20209 39580 40141 52009 70422 86500 91455 333 0/300 30/// 58009 86624;
0161763930999992011070618004+25733-100300FM-12+051599999V0200701N003012200019N0008001N1+03201+01891101361ADDAY141061AY241061GF103991021011017501001081MA1999999095781MD1710031+9999MW1051REMSYN072AAXX  06181 76393 31708 30703 10320 20189 39578 40136 57003 70544 82108;
0217763930999992011070621004+25733-100300FM-12+051599999V0201101N006012200019N0010001N1+03451+01801101131ADDAY141031AY241031GA1021+021001081GF105991021021022501001081IA1019MA1999999095601MD1710181+0041MW1051REMSYN106AAXX  06211 76393 31810 51106 10345 20180 39560 40113 57018 70544 82208 92045 333 00305 30/// 58004 82857;
0161763930999992011070700004+25733-100300FM-12+051599999V0201201N006012200019N0030001N1+03201+01821100911ADDAY111061AY211061GF105991021011017501001081MA1999999095441MD1710171+9999MW1051REMSYN072AAXX  07001 76393 31730 51206 10320 20182 39544 40091 57017 70511 82108;
0217763930999992011070703004+25733-100300FM-12+051599999V0201201N003012200019N0020001N1+02961+01801100991ADDAY101031AY201031GA1021+014701081GF102991021011012501001001IA1019MA1999999095531MD1710011+9999MW1051REMSYN106AAXX  07031 76393 31620 21203 10296 20180 39553 40099 57001 70500 82100 90250 333 00300 30/// 58/// 82849;
0251763930999992011070706004+25733-100300FM-12+051599999V0201201N004012200019N0020001N1+02581+01981101191ADDAY101061AY201061GA1001+999999999GF100991001001999999001001GJ105049IA1019KA1240M+03521KA2240N+02281MA1999999095711MD1210171+0051MW1041REMSYN106AAXX  07061 76393 31520 01204 10258 20198 39571 40119 52017 70400 90550 333 10352 20228 30/// 55084 58005;
0199763930999992011070709004+25733-100300FM-12+051599999V0201101N001012200019N0020001N1+02361+02051101081ADDAY101031AY201031GA1001+999999999GF100991001001999999001001IA1019MA1999999095571MD1710141-0071MW1041REMSYN088AAXX  07091 76393 31920 01101 10236 20205 39557 40108 57014 70400 90850 333 30/// 59007;
0161763930999992011070712004+25733-100300FM-12+051599999V0203301N001012200019N0010001N1+02311+02051101161ADDAY101061AY201061GF101991011051004501001001MA1999999095591MD1210021+9999MW1051REMSYN072AAXX  07121 76393 31410 13301 10231 20205 39559 40116 52002 70500 81500;
0217763930999992011070715004+25733-100300FM-12+051599999V0200701N001010039019N0010001N1+02561+02231101271ADDAY121031AY221031GA1071+003901061GF107991071051004501999999IA1019MA1999999095671MD1210081-0131MW1051REMSYN106AAXX  07151 76393 31410 70701 10256 20223 39567 40127 52008 70522 875// 91457 333 0/399 30/// 59013 87613;
0161763930999992011070718004+25733-100300FM-12+051599999V0200601N004012200019N0010001N1+03061+02081101221ADDAY141061AY241061GF101991011021012501001001MA1999999095631MD1710041+9999MW1051REMSYN072AAXX  07181 76393 31610 10604 10306 20208 39563 40122 57004 70544 81200;
0217763930999992011070721004+25733-100300FM-12+051599999V0201101N006012200019N0020001N1+03381+01911100961ADDAY141031AY241031GA1031+018001081GF104991031021017501001081IA1019MA1999999095431MD1710201-0171MW1051REMSYN106AAXX  07211 76393 31720 41106 10338 20191 39543 40096 57020 70544 83208 92045 333 00305 30/// 59017 83856;
0161763930999992011070800004+25733-100300FM-12+051599999V0201301N006012200019N0020001N1+03321+01831100741ADDAY111061AY211061GF104991031011017501001081MA1999999095271MD1710161+9999MW1051REMSYN072AAXX  08001 76393 31720 41306 10332 20183 39527 40074 57016 70511 83108;
0201763930999992011070803004+25733-100300FM-12+051599999V0201201N006012200019N0020001N1+03121+01821100791ADDAY101031AY201031GF102991021011017501001001IA1019MA1999999095351MD1210081-0191MW1051REMSYN106AAXX  08031 76393 31720 21206 10312 20182 39535 40079 52008 70500 82100 90250 333 00300 30/// 59019 82851;
0161763930999992011070806004+25733-100300FM-12+051599999V0200901N003012200019N0020001N1+02621+01871100941ADDAY101061AY201061GF101991011051008001001001MA1999999095481MD1210131+9999MW1041REMSYN072AAXX  08061 76393 31520 10903 10262 20187 39548 40094 52013 70400 81500;
0217763930999992011070809004+25733-100300FM-12+051599999V0200701N001012200019N0020001N1+02441+01921100841ADDAY101031AY201031GA1021+006301061GF102991021051008001001001IA1019MA1999999095351MD1710131-0221MW1041REMSYN106AAXX  08091 76393 31520 20701 10244 20192 39535 40084 57013 70400 82500 90850 333 0/300 30/// 59022 82621;
0273763930999992011070812004+25733-100300FM-12+051599999V0202401N001012200019N0020001N1+02421+02021100871ADDAA124000091AY101061AY201061GA1001+999999999GF100991001001999999001001IA1019KA1240M+03521KA2120N+02301MA1999999095331MD1710021-0271MW1041REMSYN106AAXX  08121 76393 31920 02401 10242 20202 39533 40087 57002 70400 91150 333 10352 20230 30212 59027 70000;EQDQ01  00002PRCP24
0199763930999992011070815004+25733-100300FM-12+051599999V0200601N001012200019N0030001N1+02621+02021101031ADDAY101031AY201031GA1001+999999999GF100991001001999999001001IA1019MA1999999095451MD1210121-0231MW1041REMSYN088AAXX  08151 76393 31930 00601 10262 20202 39545 40103 52012 70400 91450 333 30/// 59023;
0161763930999992011070818004+25733-100300FM-12+051599999V0200601N001012200019N0030001N1+03101+02101100951ADDAY101061AY201061GF102991021011012501001001MA1999999095401MD1710051+9999MW1041REMSYN072AAXX  08181 76393 31630 20601 10310 20210 39540 40095 57005 70400 82100;
0217763930999992011070821004+25733-100300FM-12+051599999V0201201N002012200019N0040001N1+03361+01971100681ADDAY111031AY211031GA1011+021001081GF104991011011017501041081IA1019MA1999999095171MD1710231-0261MW1041REMSYN106AAXX  08211 76393 31740 41202 10336 20197 39517 40068 57023 70411 81148 92052 333 00355 30/// 59026 81857;
0161763930999992011070900004+25733-100300FM-12+051599999V0201301N004012200019N0040001N1+03381+01841100511ADDAY101061AY201061GF102991011011017501041001MA1999999095061MD1710111+9999MW1051REMSYN072AAXX  09001 76393 31740 21304 10338 20184 39506 40051 57011 70500 81140;
0199763930999992011070903004+25733-100300FM-12+051599999V0201201N003012200019N0020001N1+03141+01741100561ADDAY101031AY201031GA1001+999999999GF100991001001999999001001IA1019MA1999999095141MD1210081-0211MW1051REMSYN088AAXX  09031 76393 31920 01203 10314 20174 39514 40056 52008 70500 90250 333 30/// 59021;
0161763930999992011070906004+25733-100300FM-12+051599999V0201201N003012200019N0020001N1+02621+02081100821ADDAY101061AY201061GF102991021051008001001001MA1999999095381MD1210241+9999MW1041REMSYN072AAXX  09061 76393 31520 21203 10262 20208 39538 40082 52024 70400 82500;
0217763930999992011070909004+25733-100300FM-12+051599999V0200601N001012200019N0020001N1+02441+02161100761ADDAY101031AY201031GA1031+003301061GF103991031051004501001001IA1019MA1999999095281MD1710101-0071MW1041REMSYN106AAXX  09091 76393 31420 30601 10244 20216 39528 40076 57010 70400 83500 90850 333 0/300 30/// 59007 83611;
0161763930999992011070912004+25733-100300FM-12+051599999V0200601N001010021019N0020001N1+02441+02221100801ADDAY121061AY221061GF108991081071002501999999MA1999999095271MD1710011+9999MW1041REMSYN072AAXX  09121 76393 31320 80601 10244 20222 39527 40080 57001 70422 887//;
0217763930999992011070915004+25733-100300FM-12+051599999V0201201N001010060019N0020001N1+02721+02221100961ADDAY121031AY221031GA1061+006001061GF106991061051008001001001IA1019MA1999999095401MD1210131-0051MW1041REMSYN106AAXX  09151 76393 31520 61201 10272 20222 39540 40096 52013 70422 86500 91450 333 0/300 30/// 59005 86620;
0161763930999992011070918004+25733-100300FM-12+051599999V0200601N003012200019N0020001N1+03121+02211100971ADDAY111061AY211061GF104991041051012501001001MA1999999095421MD1210021+9999MW1051REMSYN072AAXX  09181 76393 31620 40603 10312 20221 39542 40097 52002 70511 84500;
0245763930999992011070921004+25733-100300FM-12+051599999V0201201N006010120019N0030001N1+03321+02071100781ADDAY121031AY221031GA1011+015001091GA2031+018001061GF106991061091012501001001MA1999999095271MD1710151+0101MW1041REMSYN124AAXX  09211 76393 31630 61206 10332 20207 39527 40078 57015 70422 86900 86900 92045 333 05300 30/// 58010 81950 83656 82857;
0161763930999992011071000004+25733-100300FM-12+051599999V0201201N003012200019N0040001N1+03281+01851100611ADDAY111061AY211061GF104991041051017501001001MA1999999095151MD1710121+9999MW1051REMSYN072AAXX  10001 76393 31740 41203 10328 20185 39515 40061 57012 70511 84500;
0217763930999992011071003004+25733-100300FM-12+051599999V0201201N006010108019N0020001N1+02961+02091100761ADDAY121031AY221031GA1061+010801061GF106991061051012501001001IA1019MA1999999095311MD1210161+0171MW1041REMSYN106AAXX  10031 76393 31620 61206 10296 20209 39531 40076 52016 70422 86500 90250 333 0/300 30/// 58017 86636;
0161763930999992011071006004+25733-100300FM-12+051599999V0201201N004012200019N0020001N1+02481+02231100941ADDAY101061AY201061GF103991031051004501001001MA1999999095471MD1210161+9999MW1041REMSYN072AAXX  10061 76393 31420 31204 10248 20223 39547 40094 52016 70400 83500;
0217763930999992011071009004+25733-100300FM-12+051599999V0201201N002012200019N0020001N1+02481+02051100911ADDAY101031AY201031GA1031+005101061GF103991031051004501001001IA1019MA1999999095411MD1710061+0131MW1041REMSYN106AAXX  10091 76393 31420 31202 10248 20205 39541 40091 57006 70400 83500 90850 333 0/300 30/// 58013 83617;
0161763930999992011071012004+25733-100300FM-12+051599999V0201201N001010042019N0020001N1+02421+02171101031ADDAY121061AY221061GF106991061051004501001001MA1999999095481MD1210071+9999MW1041REMSYN072AAXX  10121 76393 31420 61201 10242 20217 39548 40103 52007 70422 86500;
0217763930999992011071015004+25733-100300FM-12+051599999V0200501N001012200019N0030001N1+02621+02171101121ADDAY101031AY201031GA1031+005401061GF103991031041008001001001IA1019MA1999999095551MD1210071+0151MW1041REMSYN106AAXX  10151 76393 31530 30501 10262 20217 39555 40112 52007 70400 83400 91450 333 0/300 30/// 58015 83618;
0161763930999992011071018004+25733-100300FM-12+051599999V0201101N006012200019N0030001N1+03161+02171101151ADDAY121061AY221061GF105991031021012501001081MA1999999095591MD1210041+9999MW1041REMSYN072AAXX  10181 76393 31630 51106 10316 20217 39559 40115 52004 70422 83208;
0223763930999992011071021004+25733-100300FM-12+051599999V0201301N00501015001CN0040001N1+03181+01911100971ADDAY121031AY221031GA1021+015001081GF107991051051017501021001IA1019MA1999999095461MD1710131+0191MW1041REMSYN112AAXX  10211 76393 31740 71305 10318 20191 39546 40097 57013 70422 85520 92045 333 08350 30/// 58019 82850 83656;
0161763930999992011071100004+25733-100300FM-12+051599999V0201201N004010120019N0040001N1+03161+02011100851ADDAY121061AY221061GF107991071051012501999999MA1999999095371MD1710091+9999MW1041REMSYN072AAXX  11001 76393 31640 71204 10316 20201 39537 40085 57009 70422 875//;
0217763930999992011071103004+25733-100300FM-12+051599999V0201201N006012200019N0020001N1+02841+02141101001ADDAY111031AY211031GA1041+008701061GF104991041051008001001001IA1019MA1999999095531MD1210161+0221MW1041REMSYN106AAXX  11031 76393 31520 41206 10284 20214 39553 40100 52016 70411 84500 90250 333 0/300 30/// 58022 84629;
0161763930999992011071106004+25733-100300FM-12+051599999V0201201N002012200019N0020001N1+02601+02241101081ADDAY111061AY211061GF103991031051004501001001MA1999999095581MD1210051+9999MW1041REMSYN072AAXX  11061 76393 31420 31202 10260 20224 39558 40108 52005 70411 83500;
0217763930999992011071109004+25733-100300FM-12+051599999V0201101N001010030019N0010001N1+02501+02251101071ADDAY121031AY221031GA1051+003001061GF105991051051004501001001IA1019MA1999999095571MD1710011+0161MW1041REMSYN106AAXX  11091 76393 31410 51101 10250 20225 39557 40107 57001 70422 85500 90854 333 0/300 30/// 58016 85610;
0161763930999992011071112004+25733-100300FM-12+051599999V0200601N001010042019N0020001N1+02421+02171101231ADDAY121061AY221061GF105991051051004501001001MA1999999095661MD1210091+9999MW1041REMSYN072AAXX  11121 76393 31420 50601 10242 20217 39566 40123 52009 70422 85500;
0217763930999992011071115004+25733-100300FM-12+051599999V0200601N001010060019N0020001N1+02741+02241101351ADDAY121031AY221031GA1061+006001061GF106991061051008001001001IA1019MA1999999095771MD1210111+0221MW1041REMSYN106AAXX  11151 76393 31520 60601 10274 20224 39577 40135 52011 70422 86500 91450 333 0/300 30/// 58022 86620;
0161763930999992011071118004+25733-100300FM-12+051599999V0200701N001010075019N0010001N1+03061+02271101301ADDAY141061AY241061GF106991061051008001001001MA1999999095731MD1510041+9999MW1051REMSYN072AAXX  11181 76393 31510 60701 10306 20227 39573 40130 55004 70544 86500;
0217763930999992011071121004+25733-100300FM-12+051599999V0201301N001012200019N0030001N1+03441+02181101081ADDAY121031AY221031GA1031+015001081GF103991031011012501001001IA1019MA1999999095561MD1710171+0101MW1041REMSYN106AAXX  11211 76393 31630 31301 10344 20218 39556 40108 57017 70422 83100 92045 333 01300 30/// 58010 83850;
0161763930999992011071200004+25733-100300FM-12+051599999V0201301N006010360019N0030001N1+03361+02091100891ADDAY121061AY221061GF106991041091017501011081MA1999999095421MD1710141+9999MW1041REMSYN072AAXX  12001 76393 31730 61306 10336 20209 39542 40089 57014 70422 84918;
0217763930999992011071203004+25733-100300FM-12+051599999V0201201N006010078019N0020001N1+02921+02291101051ADDAY121031AY221031GA1061+007801061GF106991061051008001001001IA1019MA1999999095591MD1210171+0061MW1041REMSYN106AAXX  12031 76393 31520 61206 10292 20229 39559 40105 52017 70422 86500 90250 333 0/300 30/// 58006 86626;
0327763930999992011071206004+25733-100300FM-12+051599999V0201201N004012200019N0020001N1+02641+02221101161ADDAA103000291AY101061AY201061GA1031+005101061GF103991031051004501001001GJ104869IA1019KA1240M+03581KA2240N+02401MA1999999095691MD1210101+0101MW1041REMSYN136AAXX  12061 76393 01420 31204 10264 20222 39569 40116 52010 69921 70400 83500 90550 333 0/300 10358 20240 30/// 55081 58010 69927 83617;EQDQ01  00002PRCP06Q02  00002PRCP06
0258763930999992011071209004+25733-100300FM-12+051599999V0201101N002010033019N0020001N1+02481+02201101121ADDAY121031AY221031GA1051+003301061GF105991051051004501001001IA1019MA1999999095621MD1710071+0051MW1041REMSYN112AAXX  12091 76393 11420 51102 10248 20220 39562 40112 57007 69921 70422 85500 90850 333 0/300 30/// 58005 85611;EQDQ01  00002PRCP06Q02  00002PRCP06
0161763930999992011071212004+25733-100300FM-12+051599999V0200601N002010042019N0020001N1+02461+02211101181ADDAY121061AY221061GF106991061051004501001001MA1999999095621MD1410001+9999MW1041REMSYN072AAXX  12121 76393 31420 60602 10246 20221 39562 40118 54000 70422 86500;
0217763930999992011071215004+25733-100300FM-12+051599999V0200601N001010054019N0020001N1+02681+02241101271ADDAY121031AY221031GA1051+005401061GF105991051051004501001001IA1019MA1999999095691MD1210071-0081MW1041REMSYN106AAXX  12151 76393 31420 50601 10268 20224 39569 40127 52007 70422 85500 91450 333 0/300 30/// 59008 85618;
0161763930999992011071218004+25733-100300FM-12+051599999V0201001N003012200019N0010001N1+03021+02191101281ADDAY141061AY241061GF104991041051012501001001MA1999999095711MD1210021+9999MW1051REMSYN072AAXX  12181 76393 31610 41003 10302 20219 39571 40128 52002 70544 84500;
0217763930999992011071221004+25733-100300FM-12+051599999V0201101N003010150019N0040001N1+03421+02131101031ADDAY121031AY221031GA1061+015001061GF106991061051017501001001IA1019MA1999999095511MD1710201-0051MW1041REMSYN106AAXX  12211 76393 31740 61103 10342 20213 39551 40103 57020 70422 86500 92045 333 0/300 30/// 59005 86650;
0161763930999992011071300004+25733-100300FM-12+051599999V0201201N003012200019N0040001N1+03461+01871100801ADDAY111061AY211061GF103991031011017501001001MA1999999095331MD1710181+9999MW1041REMSYN072AAXX  13001 76393 31740 31203 10346 20187 39533 40080 57018 70411 83100;
0217763930999992011071303004+25733-100300FM-12+051599999V0201201N002012200019N0030001N1+03041+01901100961ADDAY101031AY201031GA1011+013801061GF101991011051012501001001IA1019MA1999999095511MD1210181-0081MW1041REMSYN106AAXX  13031 76393 31630 11202 10304 20190 39551 40096 52018 70400 81500 90255 333 0/300 30/// 59008 81646;
0161763930999992011071306004+25733-100300FM-12+051599999V0201201N005012200019N0020001N1+02641+02081101071ADDAY101061AY201061GF102991021051008001001001MA1999999095621MD1210111+9999MW1041REMSYN072AAXX  13061 76393 31520 21205 10264 20208 39562 40107 52011 70400 82500;
0217763930999992011071309004+25733-100300FM-12+051599999V0201101N002012200019N0020001N1+02441+02071101041ADDAY101031AY201031GA1031+004501061GF103991031051004501001001IA1019MA1999999095541MD1210081+0081MW1041REMSYN106AAXX  13091 76393 31420 31102 10244 20207 39554 40104 52008 70400 83500 90850 333 0/300 30/// 58008 83615;
0161763930999992011071312004+25733-100300FM-12+051599999V0200701N001010042019N0020001N1+02321+02061101061ADDAY121061AY221061GF106991061051004501001001MA1999999095521MD1710021+9999MW1041REMSYN072AAXX  13121 76393 31420 60701 10232 20206 39552 40106 57002 70422 86500;
0217763930999992011071315004+25733-100300FM-12+051599999V0200601N001010048019N0020001N1+02521+02131101201ADDAY121031AY221031GA1051+004801061GF105991051051004501001001IA1019MA1999999095621MD1210101-0071MW1041REMSYN106AAXX  13151 76393 31420 50601 10252 20213 39562 40120 52010 70422 85500 91450 333 0/300 30/// 59007 85616;
0161763930999992011071318004+25733-100300FM-12+051599999V0200601N003012200019N0030001N1+03061+02081101171ADDAY101061AY201061GF102991021011012501001001MA1999999095591MD1710031+9999MW1041REMSYN072AAXX  13181 76393 31630 20603 10306 20208 39559 40117 57003 70400 82100;
0217763930999992011071321004+25733-100300FM-12+051599999V0201201N002012200019N0030001N1+03441+01981100931ADDAY111031AY211031GA1041+018001081GF104991041021022501001001IA1019MA1999999095411MD1710181-0101MW1041REMSYN106AAXX  13211 76393 31830 41202 10344 20198 39541 40093 57018 70411 84200 92050 333 02300 30/// 59010 84856;
0161763930999992011071400004+25733-100300FM-12+051599999V0201201N003012200019N0050001N1+03341+01961100701ADDAY101061AY201061GF103991031011017501001001MA1999999095231MD1710181+9999MW1041REMSYN072AAXX  14001 76393 31750 31203 10334 20196 39523 40070 57018 70400 83100;
0217763930999992011071403004+25733-100300FM-12+051599999V0201301N006012200019N0030001N1+03101+01901100691ADDAY101031AY201031GA1021+014701061GF102991021051012501001001IA1019MA1999999095261MD1210031-0251MW1041REMSYN106AAXX  14031 76393 31630 21306 10310 20190 39526 40069 52003 70400 82500 90250 333 0/300 30/// 59025 82649;
0161763930999992011071406004+25733-100300FM-12+051599999V0201101N003012200019N0020001N1+02641+02171100851ADDAY101061AY201061GF101991011051004501001001MA1999999095401MD1210141+9999MW1041REMSYN072AAXX  14061 76393 31420 11103 10264 20217 39540 40085 52014 70400 81500;
0217763930999992011071409004+25733-100300FM-12+051599999V0200201N002012200019N0020001N1+02481+02141100861ADDAY101031AY201031GA1021+004201061GF102991021051004501001001IA1019MA1999999095381MD1710021-0161MW1041REMSYN106AAXX  14091 76393 31420 20202 10248 20214 39538 40086 57002 70400 82500 90850 333 0/300 30/// 59016 82614;
0161763930999992011071412004+25733-100300FM-12+051599999V0201101N001010042019N0010001N1+02461+02151100931ADDAY121061AY221061GF108991081051004501999999MA1999999095391MD1210011+9999MW1041REMSYN072AAXX  14121 76393 31410 81101 10246 20215 39539 40093 52001 70422 885//;
0217763930999992011071415004+25733-100300FM-12+051599999V0200701N001010063019N0010001N1+02631+02111101041ADDAY121031AY221031GA1071+006301061GF107991071051008001999999IA1019MA1999999095481MD1210111-0141MW1041REMSYN106AAXX  14151 76393 31510 70701 10263 20211 39548 40104 52011 70422 875// 91452 333 0/399 30/// 59014 87621;
0161763930999992011071418004+25733-100300FM-12+051599999V0200601N001012200019N0010001N1+03161+02171100981ADDAY141061AY241061GF106991021011012501001011MA1999999095431MD1710051+9999MW1041REMSYN072AAXX  14181 76393 31610 60601 10316 20217 39543 40098 57005 70444 82101;
0195763930999992011071421004+25733-100300FM-12+051599999V0201201N00601220001CN0060001N1+03401+02071100661ADDGA1031+012301061GF108991031051017501001011IA1019MA1999999095171MD1710261-0241REMSYN106AAXX  14211 76393 32756 81206 10340 20207 39517 40066 57026 83501 92045 333 0/305 30/// 59024 83641 85070;
0161763930999992011071500004+25733-100300FM-12+051599999V0201301N006012200019N0050001N1+03321+01971100471ADDAY111061AY211061GF106991021051017501001011MA1999999095031MD1710141+9999MW1051REMSYN072AAXX  15001 76393 31750 61306 10332 20197 39503 40047 57014 70511 82501;
0217763930999992011071503004+25733-100300FM-12+051599999V0201301N003012200019N0030001N1+03101+01971100551ADDAY101031AY201031GA1031+014101061GF103991031051012501001001IA1019MA1999999095131MD1210101-0131MW1041REMSYN106AAXX  15031 76393 31630 31303 10310 20197 39513 40055 52010 70400 83500 90250 333 0/300 30/// 59013 83647;
0161763930999992011071506004+25733-100300FM-12+051599999V0201101N004010900019N0020001N1+02701+02141100731ADDAY121061AY221061GF106991031051008001001081MA1999999095301MD1210131+9999MW1041REMSYN072AAXX  15061 76393 31520 61104 10270 20214 39530 40073 52013 70422 83508;
0217763930999992011071509004+25733-100300FM-12+051599999V0201201N003012200019N0020001N1+02461+02151100701ADDAY101031AY201031GA1031+003601061GF103991031051004501001001IA1019MA1999999095221MD1710081-0161MW1041REMSYN106AAXX  15091 76393 31420 31203 10246 20215 39522 40070 57008 70400 83500 90850 333 0/300 30/// 59016 83612;
0161763930999992011071512004+25733-100300FM-12+051599999V0201101N001010042019N0020001N1+02501+02191100751ADDAY121061AY221061GF107991071051004501001001MA1999999095231MD1210011+9999MW1041REMSYN072AAXX  15121 76393 31420 71101 10250 20219 39523 40075 52001 70422 87500;
0217763930999992011071515004+25733-100300FM-12+051599999V0200601N002010060019N0020001N1+02601+02131100881ADDAY121031AY221031GA1061+006001061GF106991061051004501001001IA1019MA1999999095331MD1210101-0151MW1041REMSYN106AAXX  15151 76393 31420 60602 10260 20213 39533 40088 52010 70422 86500 91450 333 0/300 30/// 59015 86620;
0161763930999992011071518004+25733-100300FM-12+051599999V0200601N001012200019N0030001N1+03161+02201100841ADDAY121061AY221061GF104991041011012501001001MA1999999095301MD1710031+9999MW1041REMSYN072AAXX  15181 76393 31630 40601 10316 20220 39530 40084 57003 70422 84100;
0189763930999992011071521004+25733-100300FM-12+051599999V0201201N002012200019N0050001N1+03561+02031100621ADDGA1031+018001081GF103991031011017501001001IA1019MA1999999095131MD1710171-0041REMSYN100AAXX  15211 76393 32750 31202 10356 20203 39513 40062 57017 83100 92052 333 00300 30/// 59004 83856;
0250763930999992011071600004+25733-100300FM-12+051599999V0201301N006012200019N0060001N1+03441+01621100451ADDAA124000091GA1011+060001081GF103991011011022501001011IA1019KA1120M+03681KA2180N+02381MA1999999095021MD1710111-0011REMSYN124AAXX  16001 76393 32856 31306 10344 20162 39502 40045 57011 81101 92352 333 00305 10368 20238 30/// 51031 59001 70000 81870;
0217763930999992011071603004+25733-100300FM-12+051599999V0201201N003012200019N0020001N1+03161+01731100481ADDAY101031AY201031GA1011+018001081GF102991011011017501001081IA1019MA1999999095081MD1210061-0051MW1041REMSYN106AAXX  16031 76393 31720 21203 10316 20173 39508 40048 52006 70400 81108 90250 333 00305 30/// 59005 81856;
0161763930999992011071606004+25733-100300FM-12+051599999V0201101N003012200019N0020001N1+02701+02201100641ADDAY101061AY201061GF103991031051008001001001MA1999999095221MD1210141+9999MW1041REMSYN072AAXX  16061 76393 31520 31103 10270 20220 39522 40064 52014 70400 83500;
0236763930999992011071609004+25733-100300FM-12+051599999V0201201N003012200019N0020001N1+02501+02221100651ADDAY101031AY201031GA1031+003301061GF199999031051004501001001IA1019MA1999999095191MD1710031-0031MW1041REMSYN106AAXX  16091 76393 31420 21203 10250 20222 39519 40065 57003 70400 83500 90850 333 0/300 30/// 59003 83611;EQDQ01+000022SCOTCV
0161763930999992011071612004+25733-100300FM-12+051599999V0201201N002010042019N0020001N1+02441+02131100801ADDAY121061AY221061GF106991061051004501001001MA1999999095281MD1210091+9999MW1041REMSYN072AAXX  16121 76393 31420 61202 10244 20213 39528 40080 52009 70422 86500;
0217763930999992011071615004+25733-100300FM-12+051599999V0200601N002010057019N0020001N1+02641+02171101021ADDAY121031AY221031GA1051+005701061GF105991051051004501001001IA1019MA1999999095461MD1210181+0131MW1041REMSYN106AAXX  16151 76393 31420 50602 10264 20217 39546 40102 52018 70422 85500 91450 333 0/300 30/// 58013 85619;
0161763930999992011071618004+25733-100300FM-12+051599999V0201201N006012200019N0020001N1+03101+02071101031ADDAY111061AY211061GF104991031011012501001081MA1999999095471MD1210011+9999MW1041REMSYN072AAXX  16181 76393 31620 41206 10310 20207 39547 40103 52001 70411 83108;
0173763930999992011071621004+25733-100300FM-12+051599999V0201201N006012200019N0040001N1+99999+99999100861ADDGF104991999999017501999999MA1999999095351MD1999999+0221REMSYN106AAXX  16211 76393 31740 41206 20196 39535 40086 40342 57012 70411 84500 92042 333 0/300 30/// 58022 84656;
0161763930999992011071700004+25733-100300FM-12+051599999V0201301N006012200019N0050001N1+03341+01821100701ADDAY111061AY211061GF104991041011017501001001MA1999999095231MD1710121+9999MW1041REMSYN072AAXX  17001 76393 31750 41306 10334 20182 39523 40070 57012 70411 84100;
0217763930999992011071703004+25733-100300FM-12+051599999V0201201N006010117019N0020001N1+02921+01981100881ADDAY121031AY221031GA1051+011701061GF105991051051012501001001IA1019MA1999999095431MD1210201+0351MW1041REMSYN106AAXX  17031 76393 31620 51206 10292 20198 39543 40088 52020 70422 85500 90252 333 0/300 30/// 58035 85639;
0161763930999992011071706004+25733-100300FM-12+051599999V0201101N004010360019N0020001N1+02641+02141101051ADDAY121061AY221061GF105991031051008001041081MA1999999095591MD1210161+9999MW1041REMSYN072AAXX  17061 76393 31520 51104 10264 20214 39559 40105 52016 70422 83548;
0217763930999992011071709004+25733-100300FM-12+051599999V0201201N003012200019N0020001N1+02461+02151101051ADDAY101031AY201031GA1021+003601061GF102991021051004501001001IA1019MA1999999095551MD1710041+0361MW1041REMSYN106AAXX  17091 76393 31420 21203 10246 20215 39555 40105 57004 70400 82500 90850 333 0/300 30/// 58036 82612;
0161763930999992011071712004+25733-100300FM-12+051599999V0200601N001010021019N0020001N1+02381+02151101131ADDAY121061AY221061GF108991081061002501999999MA1999999095581MD1210031+9999MW1051REMSYN072AAXX  17121 76393 31320 80601 10238 20215 39558 40113 52003 70522 886//;
0217763930999992011071715004+25733-100300FM-12+051599999V0200601N001010051019N0030001N1+02581+02161101431ADDAY121031AY221031GA1051+005101061GF105991051051004501001001IA1019MA1999999095841MD1210261+0381MW1041REMSYN106AAXX  17151 76393 31430 50601 10258 20216 39584 40143 52026 70422 85500 91455 333 0/300 30/// 58038 85617;
0161763930999992011071718004+25733-100300FM-12+051599999V0201201N006010120019N0040001N1+03161+02041101481ADDAY121061AY221061GF107991051051012501001081MA1999999095901MD1210061+9999MW1041REMSYN072AAXX  17181 76393 31640 71206 10316 20204 39590 40148 52006 70422 85508;
0217763930999992011071721004+25733-100300FM-12+051599999V0201301N007010900019N0040001N1+03381+01541101321ADDAY121031AY221031GA1031+021001081GF106991031021022501001051IA1019MA1999999095791MD1710111+0441MW1041REMSYN106AAXX  17211 76393 31840 61307 10338 20154 39579 40132 57011 70422 83205 92045 333 03305 30/// 58044 83857;
0161763930999992011071800004+25733-100300FM-12+051599999V0201301N006012200019N0040001N1+03301+01511101141ADDAY111061AY211061GF104991021011022501001051MA1999999095651MD1710141+9999MW1041REMSYN072AAXX  18001 76393 31840 41306 10330 20151 39565 40114 57014 70411 82105;
0217763930999992011071803004+25733-100300FM-12+051599999V0201201N003012200019N0020001N1+03041+01761101201ADDAY101031AY201031GA1021+015001061GF102991021051017501001001IA1019MA1999999095741MD1210091+0311MW1041REMSYN106AAXX  18031 76393 31720 21203 10304 20176 39574 40120 52009 70400 82500 90252 333 0/300 30/// 58031 82650;
0251763930999992011071806004+25733-100300FM-12+051599999V0201101N001012200019N0020001N1+02781+01851101381ADDAY101061AY201061GA1001+999999999GF100991001001999999001001GJ105709IA1019KA1240M+03521KA2240N+02381MA1999999095911MD1210171+0341MW1041REMSYN106AAXX  18061 76393 31920 01101 10278 20185 39591 40138 52017 70400 90552 333 10352 20238 30/// 55095 58034;
0199763930999992011071809004+25733-100300FM-12+051599999V0201101N001012200019N0020001N1+02471+02001101341ADDAY101031AY201031GA1001+999999999GF100991001001999999001001IA1019MA1999999095801MD1710111+0251MW1041REMSYN088AAXX  18091 76393 31920 01101 10247 20200 39580 40134 57011 70400 90854 333 30/// 58025;
0273763930999992011071812004+25733-100300FM-12+051599999V0200201N001012200019N0020001N1+02321+02031101461ADDAA124000091AY101061AY201061GA1001+999999999GF100991001001999999001001IA1019KA1240M+03521KA2120N+02301MA1999999095901MD1210101+0321MW1041REMSYN106AAXX  18121 76393 31920 00201 10232 20203 39590 40146 52010 70400 91150 333 10352 20230 30222 58032 70000;EQDQ01  00002PRCP24
0217763930999992011071815004+25733-100300FM-12+051599999V0200601N001012200019N0030001N1+02741+02091101591ADDAY101031AY201031GA1011+008101081GF101991011011008001001001IA1019MA1999999095991MD1210091+0151MW1041REMSYN106AAXX  18151 76393 31530 10601 10274 20209 39599 40159 52009 70400 81100 91450 333 0/300 30/// 58015 81827;
0233763930999992011071818004+25733-100300FM-12+051599999V0201301N006012200019N0060001N1+03201+02091101511ADDGA1011+012001081GF104991041051012501001001IA1019KA1120M+03341KA2240N+02301MA1999999095941MD1710051+0041REMSYN118AAXX  18181 76393 32656 41306 10320 20209 39594 40151 57005 84500 91745 333 00300 10334 20230 30/// 58004 81840 83845;
0189763930999992011071821004+25733-100300FM-12+051599999V0201201N006012200019N0080001N1+03541+01971101161ADDGA1041+018001081GF104991041011017501001001IA1019MA1999999095641MD1710301-0151REMSYN100AAXX  18211 76393 32758 41206 10354 20197 39564 40116 57030 84100 92045 333 01300 30/// 59015 84856;
0250763930999992011071900004+25733-100300FM-12+051599999V0201201N006012200019N0060001N1+03401+01901100961ADDAA124000091GA1041+018001081GF104991041011017501001001IA1019KA1120M+03641KA2180N+02301MA1999999095511MD1710131-0141REMSYN124AAXX  19001 76393 32756 41206 10340 20190 39551 40096 57013 84100 92350 333 01300 10364 20230 30/// 51011 59014 70000 84856;
0217763930999992011071903004+25733-100300FM-12+051599999V0201301N003012200019N0020001N1+03121+01991100991ADDAY101031AY201031GA1011+014101061GF101991011051012501001001IA1019MA1999999095561MD1210051-0181MW1041REMSYN106AAXX  19031 76393 31620 11303 10312 20199 39556 40099 52005 70400 81500 90252 333 0/300 30/// 59018 81647;
0251763930999992011071906004+25733-100300FM-12+051599999V0201201N001012200019N0020001N1+02841+02111101071ADDAY101061AY201061GA1001+999999999GF100991001001999999001001GJ107089IA1019KA1240M+03641KA2240N+02301MA1999999095621MD1210061-0281MW1041REMSYN106AAXX  19061 76393 31920 01201 10284 20211 39562 40107 52006 70400 90850 333 10364 20230 30/// 55118 59028;
0199763930999992011071909004+25733-100300FM-12+051599999V0201101N001012200019N0020001N1+02501+02081101101ADDAY101031AY201031GA1001+999999999GF100991001001999999001001IA1019MA1999999095621MD1410001-0181MW1041REMSYN088AAXX  19091 76393 31920 01101 10250 20208 39562 40110 54000 70400 90850 333 30/// 59018;
0161763930999992011071912004+25733-100300FM-12+051599999V0201101N001012200019N0020001N1+02461+02151101241ADDAY101061AY201061GF102991001001999999001091MA1999999095701MD1210081+9999MW1041REMSYN072AAXX  19121 76393 31920 21101 10246 20215 39570 40124 52008 70400 80009;
0217763930999992011071915004+25733-100300FM-12+051599999V0201101N001010900019N0020001N1+02861+02231101311ADDAY111031AY211031GA1011+007501081GF105991011011008001041081IA1019MA1999999095751MD1210051-0241MW1041REMSYN106AAXX  19151 76393 31520 51101 10286 20223 39575 40131 52005 70411 81148 91452 333 00355 30/// 59024 81825;
0161763930999992011071918004+25733-100300FM-12+051599999V0201201N002012200019N0020001N1+03281+02121101191ADDAY141061AY241061GF103991021021012501001011MA1999999095641MD1710111+9999MW1051REMSYN072AAXX  19181 76393 31620 31202 10328 20212 39564 40119 57011 70544 82201;
0223763930999992011071921004+25733-100300FM-12+051599999V0200601N004010900019N0040001N1+03581+01961100881ADDAY121031AY221031GA1011+021001091GF105991021031017501001021IA1019MA1999999095391MD1710251-0251MW1041REMSYN112AAXX  19211 76393 31740 50604 10358 20196 39539 40088 57025 70422 82302 92050 333 03503 30/// 59025 81957 81858;
0180763930999992011072000004+25733-100300FM-12+051599999V0201201N005012200019N0060001N1+02482+01931100651ADDAY121061AY221061GF105991031041017501001081MA1999999095231MD1710161+9999MW1041REMSYN072AAXX  20001 76393 31756 51205 10248 20193 39523 40065 57016 70422 83408;EQDQ01+002483ATOT  
0199763930999992011072003004+25733-100300FM-12+051599999V0201901N002012200019N0020001N1+03241+02101100651ADDAY101031AY201031GA1001+999999999GF100991001001999999001001IA1019MA1999999095251MD1210021-0311MW1041REMSYN088AAXX  20031 76393 31920 01902 10324 20210 39525 40065 52002 70400 90250 333 30/// 59031;
0251763930999992011072006004+25733-100300FM-12+051599999V0201101N003012200019N0020001N1+02821+01901100811ADDAY101061AY201061GA1001+999999999GF100991001001999999001001GJ106309IA1019KA1240M+03781KA2240N+02401MA1999999095401MD1210151-0221MW1041REMSYN106AAXX  20061 76393 31920 01103 10282 20190 39540 40081 52015 70400 90550 333 10378 20240 30/// 55105 59022;
0199763930999992011072009004+25733-100300FM-12+051599999V0201101N003012200019N0020001N1+02581+02161100781ADDAY151031AY201031GA1001+999999999GF100991001001999999001001IA1019MA1999999095341MD1710061-0281MW1041REMSYN088AAXX  20091 76393 31920 01103 10258 20216 39534 40078 57006 70450 90850 333 30/// 59028;
0161763930999992011072012004+25733-100300FM-12+051599999V0201201N001019999999N0020001N1+02521+02181100911ADDAY121061AY221061GF105991001001999999001081MA1999999095411MD1210071+9999MW1041REMSYN072AAXX  20121 76393 31920 51201 10252 20218 39541 40091 52007 70422 80008;
0217763930999992011072015004+25733-100300FM-12+051599999V0200401N001010054019N0020001N1+02621+02171101071ADDAY121031AY221031GA1051+005401061GF105991051051004501001001IA1019MA1999999095531MD1210121-0221MW1041REMSYN106AAXX  20151 76393 31420 50401 10262 20217 39553 40107 52012 70422 85500 91450 333 0/300 30/// 59022 85618;
0161763930999992011072018004+25733-100300FM-12+051599999V0201101N002010900019N0020001N1+03221+02271101011ADDAY121061AY221061GF106991011021012501001081MA1999999095471MD1710061+9999MW1041REMSYN072AAXX  20181 76393 31620 61102 10322 20227 39547 40101 57006 70422 81208;
0217763930999992011072021004+25733-100300FM-12+051599999V0200701N003010900019N0010001N1+03401+02231100801ADDAY141031AY241031GA1031+030001041GF106991031001012501021081IA1019MA1999999095311MD1710161-0011MW1051REMSYN106AAXX  20211 76393 31610 60703 10340 20223 39531 40080 57016 70544 83028 92045 333 0/055 30/// 59001 83460;
0251763930999992011072106004+25733-100300FM-12+051599999V0201201N004012200019N0020001N1+02761+02081100761ADDAY101061AY201061GA1001+999999999GF100991001001999999001001GJ103609IA1019KA1240M+03601KA2240N+02421MA1999999095331MD1999999-0071MW1041REMSYN106AAXX  21061 76393 31920 01204 10276 20208 39533 40076 5//// 70400 90550 333 10360 20242 30/// 55060 59007;
0199763930999992011072109004+25733-100300FM-12+051599999V0201101N003012200019N0020001N1+02501+02081100721ADDAY101031AY201031GA1001+999999999GF100991001001999999001001IA1019MA1999999095261MD1710071-0081MW1041REMSYN088AAXX  21091 76393 31920 01103 10250 20208 39526 40072 57007 70400 90850 333 30/// 59008;
0161763930999992011072112004+25733-100300FM-12+051599999V0200601N001010042019N0020001N1+02421+02111101071ADDAY121061AY221061GF106991061051004501001001MA1999999095351MD1210091+9999MW1041REMSYN072AAXX  21121 76393 31420 60601 10242 20211 39535 40107 52009 70422 86500;
0217763930999992011072115004+25733-100300FM-12+051599999V0200601N001010060019N0020001N1+02601+02121101031ADDAY121031AY221031GA1071+006001061GF107991071051004501001001IA1019MA1999999095421MD1210071-0111MW1041REMSYN106AAXX  21151 76393 31420 70601 10260 20212 39542 40103 52007 70422 87500 91450 333 0/300 30/// 59011 87620;
0161763930999992011072118004+25733-100300FM-12+051599999V0200701N001012200019N0010001N1+03081+02231100981ADDAY141061AY241061GF102991011021012501001081MA1999999095431MD1310011+9999MW1051REMSYN072AAXX  21181 76393 31610 20701 10308 20223 39543 40098 53001 70544 81208;
0333763930999992011072200004+25733-100300FM-12+051599999V0201201N001010063019N0020001N1+02981+02471100641ADDAA103999999AA206000091AA324000091AY121061AY221061GA1081+006301061GF108991081051008001001001IA1019KA1120M+03381KA2180N+02401MA1999999095161MW1041REMSYN142AAXX  22001 76393 01520 81201 10298 20247 39516 40064 5//// 69901 70422 88500 92350 333 0/300 10338 20240 30/// 5//// 58/// 69907 70000 88621;EQDQ01  00002PRCP06Q02  99992PRCP03
0217763930999992011072203004+25733-100300FM-12+051599999V0201901N003010090019N0020001N1+02881+02161100731ADDAY121031AY221031GA1051+009001061GF105991051051008001001001IA1019MA1999999095251MD1210091+9999MW1041REMSYN106AAXX  22031 76393 31520 51903 10288 20216 39525 40073 52009 70422 85500 90252 333 0/300 30/// 58/// 85630;
0269763930999992011072206004+25733-100300FM-12+051599999V0201201N002012200019N0020001N1+02721+02191999999ADDAY101061AY201061GA1011+006301061GF103991011051008001031001GJ101809IA1019KA1240M+03381KA2240N+02401MA1999999095371MD1210121+0041MW1041REMSYN124AAXX  22061 76393 31520 31202 10272 20219 39537 52012 70400 81530 90550 333 0/330 10338 20240 30/// 55030 58004 81621 82367;
0217763930999992011072209004+25733-100300FM-12+051599999V0201201N002012200019N0020001N1+02621+02321101041ADDAY111031AY211031GA1041+003601061GF104991041051004501001001IA1019MA1999999095431MD1210061+0171MW1041REMSYN106AAXX  22091 76393 31420 41202 10262 20232 39543 40104 52006 70411 84500 90850 333 0/300 30/// 58017 84612;
0161763930999992011072212004+25733-100300FM-12+051599999V0201101N001012200019N0020001N1+02601+02331100971ADDAY121061AY221061GF102991021051004501001001MA1999999095441MD1210011+9999MW1041REMSYN072AAXX  22121 76393 31420 21101 10260 20233 39544 40097 52001 70422 82500;
0217763930999992011072215004+25733-100300FM-12+051599999V0201201N001012200019N0020001N1+02921+02351101071ADDAY101031AY201031GA1021+007201081GF104991021011008001001081IA1019MA1999999095531MD1210091+0111MW1041REMSYN106AAXX  22151 76393 31520 41201 10292 20235 39553 40107 52009 70400 82108 91450 333 0/305 30/// 58011 82824;
0161763930999992011072218004+25733-100300FM-12+051599999V0201101N001010360019N0030001N1+03441+02311100981ADDAY121061AY221061GF106991021021012501031051MA1999999095461MD1710071+9999MW1041REMSYN072AAXX  22181 76393 31630 61101 10344 20231 39546 40098 57007 70422 82235;
0223763930999992011072221004+25733-100300FM-12+051599999V0201801N00101090001CN0040001N1+03321+01901100731ADDAY121031AY221031GA1021+024001091GF107991021031017501001081IA1019MA1999999095271MD1710191+9999MW1041REMSYN112AAXX  22211 76393 31740 71801 10332 20190 39527 40073 57019 70422 82308 92054 333 02055 30/// 58/// 82958 85270;
0191763930999992011072300004+25733-100300FM-12+051599999V0200601N002019999999N0040001N1+03161+01891100611ADDAA106000091AY121061AY221061GF106991999999017501999999MA1999999095181MD1710091+9999MW1041REMSYN072AAXX  23001 76393 01740 60602 10316 20189 39518 40061 57009 69901 70422;EQDQ01  00002PRCP06
0217763930999992011072303004+25733-100300FM-12+051599999V0200601N003012200019N0020001N1+02981+01961100711ADDAY111031AY211031GA1021+012601061GF104991021051012501041081IA1019MA1999999095281MD1210101+0031MW1041REMSYN106AAXX  23031 76393 31620 40603 10298 20196 39528 40071 52010 70411 82548 90250 333 0/355 30/// 58003 82642;
0161763930999992011072306004+25733-100300FM-12+051599999V0200501N001019999999N0020001N1+02881+01971100901ADDAY121061AY221061GF105991051001999999081001MA1999999095441MD1210161+9999MW1041REMSYN072AAXX  23061 76393 31920 50501 10288 20197 39544 40090 52016 70422 85080;
0199763930999992011072309004+25733-100300FM-12+051599999V0201201N003012200019N0020001N1+02561+01931100931ADDAY101031AY201031GA1001+999999999GF100991001001999999001001IA1019MA1999999095441MD1710011+0011MW1041REMSYN088AAXX  23091 76393 31920 01203 10256 20193 39544 40093 57001 70400 90850 333 30/// 58001;
0273763930999992011072312004+25733-100300FM-12+051599999V0200601N001012200019N0020001N1+02441+02221101111ADDAA124000091AY101061AY201061GA1001+999999999GF100991001001999999001001IA1019KA1240M+03021KA2120N+02421MA1999999095581MD1210141+0141MW1041REMSYN106AAXX  23121 76393 31920 00601 10244 20222 39558 40111 52014 70400 91155 333 10302 20242 30232 58014 79999;EQDQ01  00002PRCP24
0217763930999992011072315004+25733-100300FM-12+051599999V0200601N002010057019N0020001N1+02721+02251101291ADDAY121031AY221031GA1051+005701061GF105991051051004501001001IA1019MA1999999095731MD1210151+0201MW1041REMSYN106AAXX  23151 76393 31420 50602 10272 20225 39573 40129 52015 70422 85500 91450 333 0/300 30/// 58020 85619;
0161763930999992011072318004+25733-100300FM-12+051599999V0201001N001012200019N0020001N1+03361+02211101231ADDAY141061AY241061GF102991021021017501001001MA1999999095681MD1710051+9999MW1051REMSYN072AAXX  23181 76393 31720 21001 10336 20221 39568 40123 57005 70544 82200;
0223763930999992011072321004+25733-100300FM-12+051599999V0200901N003012200019N0040001N1+03501+02021100991ADDAY121031AY221031GA1021+018001081GF104991041011017501001001IA1019MA1999999095491MD1710191+0221MW1041REMSYN112AAXX  23211 76393 31740 40903 10350 20202 39549 40099 57019 70422 84100 92045 333 01300 30/// 58022 82856 82657;
0161763930999992011072400004+25733-100300FM-12+051599999V0201801N006010150019N0030001N1+03341+01991100911ADDAY121061AY221061GF108991081051017501999999MA1999999095471MD1710021+9999MW1041REMSYN072AAXX  24001 76393 31730 81806 10334 20199 39547 40091 57002 70422 885//;
0253763930999992011072403004+25733-100300FM-12+051599999V0203501N002010093019N0020001N1+02841+02081101131ADDAA103000091AY121031AY221031GA1061+009301061GF106991061051008001001001IA1019MA1999999095681MD1210211+0401MW1041REMSYN112AAXX  24031 76393 21520 63502 10284 20208 39568 40113 52021 70422 86500 90252 333 0/300 30/// 58040 69907 86631;EQDQ01  00002PRCP03
0332763930999992011072406004+25733-100300FM-12+051599999V0201201N005012200019N0020001N1+02781+02141101201ADDAA103999999AA206000091AY101061AY201061GA1031+007801061GF103991999999008001999999GJ104869IA1019KA1240M+03721KA2240N+02421MA1999999095741MD1210061+0291MW1041REMSYN130AAXX  24061 76393 01520 31205 10278 20214 39574 40120 52006 69901 70400 90550 333 0/300 10372 20242 30/// 55081 58029 69907 83626;EQDQ01  00002PRCP06Q02  99992PRCP03
0217763930999992011072409004+25733-100300FM-12+051599999V0201401N001010057019N0020001N1+02621+02141101281ADDAY101031AY201031GA1071+005701061GF107991071051004501001001IA1019MA1999999095771MD1210031+0331MW1041REMSYN106AAXX  24091 76393 31420 71401 10262 20214 39577 40128 52003 70400 87500 90850 333 0/300 30/// 58033 87619;
0161763930999992011072412004+25733-100300FM-12+051599999V0200901N001010042019N0020001N1+02541+02181101451ADDAY121061AY221061GF107991071051004501999999MA1999999095891MD1210121+9999MW1041REMSYN072AAXX  24121 76393 31420 70901 10254 20218 39589 40145 52012 70422 875//;
0217763930999992011072415004+25733-100300FM-12+051599999V0201101N001010066019N0020001N1+02741+02191101641ADDAY121031AY221031GA1061+006601061GF106991061051008001001001IA1019MA1999999096061MD1210171+0331MW1041REMSYN106AAXX  24151 76393 31520 61101 10274 20219 39606 40164 52017 70422 86500 91452 333 0/100 30/// 58033 86622;
0161763930999992011072418004+25733-100300FM-12+051599999V0201001N001012200019N0020001N1+03381+02211101531ADDAY101061AY201061GF101991011021012501001001MA1999999095981MD1710081+9999MW1041REMSYN072AAXX  24181 76393 31620 11001 10338 20221 39598 40153 57008 70400 81200;
0245763930999992011072421004+25733-100300FM-12+051599999V0201101N002012200019N0030001N1+03561+02171101291ADDAY121031AY221031GA1011+015001091GA2011+018001081GF104991041031017501001001IA1019MA1999999095791MD1710191+0301MW1041REMSYN118AAXX  24211 76393 31730 41102 10356 20217 39579 40129 57019 70422 84300 92045 333 04300 30/// 58030 81950 81856 82656;
0161763930999992011072500004+25733-100300FM-12+051599999V0201401N006012200019N0040001N1+03501+02021101121ADDAY101061AY201061GF104991041011017501001001MA1999999095671MD1710121+9999MW1041REMSYN072AAXX  25001 76393 31740 41406 10350 20202 39567 40112 57012 70400 84100;
0199763930999992011072503004+25733-100300FM-12+051599999V0201501N002012200019N0020001N1+03221+01981101131ADDAY101031AY201031GA1001+999999999GF100991001001999999001001IA1019MA1999999095711MD1210041+0031MW1041REMSYN088AAXX  25031 76393 31920 01502 10322 20198 39571 40113 52004 70400 90250 333 30/// 58003;
0251763930999992011072506004+25733-100300FM-12+051599999V0201201N002012200019N0020001N1+02781+02021101321ADDAY101061AY201061GA1001+999999999GF100991001001999999001001GJ105829IA1019KA1240M+03721KA2240N+02541MA1999999095871MD1210161+0131MW1041REMSYN106AAXX  25061 76393 31920 01202 10278 20202 39587 40132 52016 70400 90552 333 10372 20254 30/// 55097 58013;
0199763930999992011072509004+25733-100300FM-12+051599999V0201101N001012200019N0020001N1+02541+02091101351ADDAY101031AY201031GA1001+999999999GF100991001001999999001001IA1019MA1999999095781MD1710091+0011MW1041REMSYN088AAXX  25091 76393 31920 01101 10254 20209 39578 40135 57009 70400 90855 333 30/// 58001;
0161763930999992011072512004+25733-100300FM-12+051599999V0201101N001012200019N0020001N1+02481+02171101301ADDAY101061AY201061GF103991031051004501001001MA1999999095771MD1210011+9999MW1041REMSYN072AAXX  25121 76393 31420 31101 10248 20217 39577 40130 52001 70400 83500;
0217763930999992011072515004+25733-100300FM-12+051599999V0200401N001010060019N0020001N1+02641+02171101461ADDAY121031AY221031GA1051+006001061GF105991051041004501001001IA1019MA1999999095891MD1210121-0171MW1041REMSYN106AAXX  25151 76393 31420 50401 10264 20217 39589 40146 52012 70422 85400 91450 333 0/700 30/// 59017 85620;
0161763930999992011072518004+25733-100300FM-12+051599999V0200601N002012200019N0020001N1+03281+02091101351ADDAY101061AY201061GF101991011021012501001001MA1999999095791MD1710101+9999MW1051REMSYN072AAXX  25181 76393 31620 10602 10328 20209 39579 40135 57010 70500 81200;
0217763930999992011072521004+25733-100300FM-12+051599999V0201201N006012200019N0040001N1+03581+01891101091ADDAY101031AY201031GA1011+021001081GF101991011011022501001001IA1019MA1999999095591MD1710201-0201MW1041REMSYN106AAXX  25211 76393 31840 11206 10358 20189 39559 40109 57020 70400 81100 92045 333 00300 30/// 59020 81857;
0161763930999992011072600004+25733-100300FM-12+051599999V0201201N004012200019N0040001N1+03541+01831100831ADDAY101061AY201061GF101991011011022501001001MA1999999095391MD1710201+9999MW1041REMSYN072AAXX  26001 76393 31840 11204 10354 20183 39539 40083 57020 70400 81100;
0199763930999992011072603004+25733-100300FM-12+051599999V0201801N003012200019N0020001N1+03181+01791100781ADDAY121031AY221031GA1001+999999999GF100991001001999999001001IA1019MA1999999095371MD1710021-0341MW1041REMSYN088AAXX  26031 76393 31920 01803 10318 20179 39537 40078 57002 70422 90252 333 30/// 59034;
0251763930999992011072606004+25733-100300FM-12+051599999V0201201N003012200019N0020001N1+02761+01901100951ADDAY101061AY201061GA1001+999999999GF100991001001999999001001GJ105949IA1019KA1240M+03741KA2240N+02481MA1999999095521MD1210151-0351MW1041REMSYN106AAXX  26061 76393 31920 01203 10276 20190 39552 40095 52015 70400 90550 333 10374 20248 30/// 55099 59035;
0199763930999992011072609004+25733-100300FM-12+051599999V0201101N002012200019N0020001N1+02541+02151100891ADDAY101031AY201031GA1001+999999999GF100991001001999999001001IA1019MA1999999095431MD1710091-0351MW1041REMSYN088AAXX  26091 76393 31920 01102 10254 20215 39543 40089 57009 70400 90850 333 30/// 59035;
0161763930999992011072612004+25733-100300FM-12+051599999V0200601N001010042019N0020001N1+02501+02161100911ADDAY121061AY221061GF108991081051004501999999MA1999999095401MD1710031+9999MW1041REMSYN072AAXX  26121 76393 31420 80601 10250 20216 39540 40091 57003 70422 885//;
0217763930999992011072615004+25733-100300FM-12+051599999V0200601N001012200019N0020001N1+02661+02301101001ADDAY101031AY201031GA1031+004501061GF103991031041004501001001IA1019MA1999999095451MD1210051-0441MW1041REMSYN106AAXX  26151 76393 31420 30601 10266 20230 39545 40100 52005 70400 83400 91450 333 0/300 30/// 59044 83615;
0161763930999992011072618004+25733-100300FM-12+051599999V0200401N003012200019N0010001N1+03261+02001100951ADDAY141061AY241061GF101991011021017501001001MA1999999095411MD1710011+9999MW1051REMSYN072AAXX  26181 76393 31710 10403 10326 20200 39541 40095 57001 70544 81200;
0217763930999992011072621004+25733-100300FM-12+051599999V0201001N003012200019N0020001N1+03621+01721100691ADDAY101031AY201031GA1011+024001081GF101991011021022501001001IA1019MA1999999095201MD1710211-0391MW1041REMSYN106AAXX  26211 76393 31820 11003 10362 20172 39520 40069 57021 70400 81200 92045 333 00500 30/// 59039 81858;
0161763930999992011072700004+25733-100300FM-12+051599999V0201801N001012200019N0050001N1+03601+01711100451ADDAY141061AY241061GF101991011011022501001001MA1999999095031MD1710171+9999MW1051REMSYN072AAXX  27001 76393 31850 11801 10360 20171 39503 40045 57017 70544 81100;
0199763930999992011072703004+25733-100300FM-12+051599999V0201101N001012200019N0030001N1+03341+01751100431ADDAY101031AY201031GA1001+999999999GF100991001001999999001001IA1019MA1999999095051MD1210021-0331MW1041REMSYN088AAXX  27031 76393 31930 01101 10334 20175 39505 40043 52002 70400 90255 333 30/// 59033;
0251763930999992011072706004+25733-100300FM-12+051599999V0201201N002012200019N0020001N1+02841+01961100651ADDAY101061AY201061GA1001+999999999GF100991001001999999001001GJ106189IA1019KA1240M+03751KA2240N+02361MA1999999095251MD1210201-0271MW1041REMSYN106AAXX  27061 76393 31920 01202 10284 20196 39525 40065 52020 70400 90552 333 10375 20236 30/// 55103 59027;
0199763930999992011072709004+25733-100300FM-12+051599999V0201101N003012200019N0020001N1+02581+02161100661ADDAY101031AY201031GA1001+999999999GF100991001001999999001001IA1019MA1999999095231MD1710021-0201MW1041REMSYN088AAXX  27091 76393 31920 01103 10258 20216 39523 40066 57002 70400 90852 333 30/// 59020;
0161763930999992011072712004+25733-100300FM-12+051599999V0200601N001010042019N0020001N1+02481+02171100751ADDAY121061AY221061GF108991081051004501999999MA1999999095261MD1210031+9999MW1041REMSYN072AAXX  27121 76393 31420 80601 10248 20217 39526 40075 52003 70422 885//;
0217763930999992011072715004+25733-100300FM-12+051599999V0201201N002010057019N0020001N1+02701+02231100921ADDAY121031AY221031GA1061+005701061GF106991061051004501001001IA1019MA1999999095381MD1210121-0071MW1041REMSYN106AAXX  27151 76393 31420 61202 10270 20223 39538 40092 52012 70422 86500 91450 333 0/300 30/// 59007 86619;
0249763930999992011072718004+25733-100300FM-12+051599999V0200701N001012200019N0020001N1+03041+02251100881ADDAY101061AY201061GA1011+009601081GF102991011021008001001081IA1019KA1120M+03281KA2240N+02401MA1999999095341MD1710041-0071MW1041REMSYN112AAXX  27181 76393 31520 20701 10304 20225 39534 40088 57004 70400 81208 91755 333 10328 20240 30/// 59007 81832;
0217763930999992011072721004+25733-100300FM-12+051599999V0201201N002012200019N0030001N1+03541+02171100601ADDAY101031AY201031GA1011+018001081GF102991011021017501001081IA1019MA1999999095121MD1710221-0081MW1041REMSYN106AAXX  27211 76393 31730 21202 10354 20217 39512 40060 57022 70400 81208 92052 333 00507 30/// 59008 81856;
0161763930999992011072800004+25733-100300FM-12+051599999V0201301N003012200019N0040001N1+03541+02011100411ADDAY101061AY201061GF103991021011017501001081MA1999999094981MD1710141+9999MW1041REMSYN072AAXX  28001 76393 31740 31303 10354 20201 39498 40041 57014 70400 82108;
0199763930999992011072803004+25733-100300FM-12+051599999V0201801N002012200019N0020001N1+03221+01951100481ADDAY101031AY201031GA1001+999999999GF100991001001999999001001IA1019MA1999999095081MD1210101+0041MW1041REMSYN088AAXX  28031 76393 31920 01802 10322 20195 39508 40048 52010 70400 90252 333 30/// 58004;
0251763930999992011072806004+25733-100300FM-12+051599999V0201101N003012200019N0020001N1+02801+02101100681ADDAY101061AY201061GA1001+999999999GF100991001001999999001001GJ105169IA1019KA1240M+03701KA2240N+02401MA1999999095271MD1210181+0021MW1041REMSYN106AAXX  28061 76393 31920 01103 10280 20210 39527 40068 52018 70400 90551 333 10370 20240 30/// 55086 58002;
0217763930999992011072809004+25733-100300FM-12+051599999V0201101N002012200019N0020001N1+02541+02181100691ADDAY101031AY201031GA1031+004501061GF103991031051004501001001IA1019MA1999999095241MD1710031+0011MW1041REMSYN106AAXX  28091 76393 31420 31102 10254 20218 39524 40069 57003 70400 83500 90850 333 0/300 30/// 58001 83615;
0161763930999992011072812004+25733-100300FM-12+051599999V0201101N002010042019N0010001N1+02521+02161100811ADDAY121061AY221061GF108991081051004501999999MA1999999095311MD1210071+9999MW1051REMSYN072AAXX  28121 76393 31410 81102 10252 20216 39531 40081 52007 70522 885//;
0217763930999992011072815004+25733-100300FM-12+051599999V0201101N002012200019N0010001N1+02721+02161101021ADDAY101031AY201031GA1031+006901061GF103991031051008001001001IA1019MA1999999095481MD1210171+0141MW1051REMSYN106AAXX  28151 76393 31510 31102 10272 20216 39548 40102 52017 70500 83500 91440 333 0/300 30/// 58014 83623;
0161763930999992011072818004+25733-100300FM-12+051599999V0201101N001010120019N0010001N1+03161+02261101041ADDAY121061AY221061GF105991051051012501001001MA1999999095491MD1210011+9999MW1041REMSYN072AAXX  28181 76393 31610 51101 10316 20226 39549 40104 52001 70422 85500;
0223763930999992011072821004+25733-100300FM-12+051599999V0201201N002010900019N0040001N1+03361+02091100831ADDAY121031AY221031GA1021+015001081GF106991031021017501001081IA1019MA1999999095321MD1710171+0201MW1051REMSYN112AAXX  28211 76393 31740 61202 10336 20209 39532 40083 57017 70522 83208 92052 333 01305 30/// 58020 82850 81650;
0161763930999992011072900004+25733-100300FM-12+051599999V0201201N006012200019N0040001N1+03461+01971100651ADDAY101061AY201061GF102991021011017501001001MA1999999095201MD1710121+9999MW1041REMSYN072AAXX  29001 76393 31740 21206 10346 20197 39520 40065 57012 70400 82100;
0199763930999992011072903004+25733-100300FM-12+051599999V0201701N003012200019N0020001N1+03221+01911100751ADDAY101031AY201031GA1001+999999999GF100991001001999999001001IA1019MA1999999095331MD1210131+0251MW1041REMSYN088AAXX  29031 76393 31920 01703 10322 20191 39533 40075 52013 70400 90254 333 30/// 58025;
0161763930999992011072906004+25733-100300FM-12+051599999V0201201N005012200019N0020001N1+02761+02121100991ADDAY101061AY201061GF103991031051008001001001MA1999999095551MD1210221+9999MW1061REMSYN072AAXX  29061 76393 31520 31205 10276 20212 39555 40099 52022 70600 83500;
0217763930999992011072909004+25733-100300FM-12+051599999V0200801N001012200019N0020001N1+02481+02051100951ADDAY101031AY201031GA1021+005101061GF102991021051004501001001IA1019MA1999999095471MD1710081+0231MW1041REMSYN106AAXX  29091 76393 31420 20801 10248 20205 39547 40095 57008 70400 82500 90855 333 0/300 30/// 58023 82617;
0161763930999992011072912004+25733-100300FM-12+051599999V0201101N002010042019N0020001N1+02441+02071101061ADDAY121061AY221061GF106991061051004501001001MA1999999095531MD1210061+9999MW1041REMSYN072AAXX  29121 76393 31420 61102 10244 20207 39553 40106 52006 70422 86500;
0217763930999992011072915004+25733-100300FM-12+051599999V0200601N002012200019N0030001N1+02821+02181101271ADDAY101031AY201031GA1031+007801061GF103991031051008001001001IA1019MA1999999095711MD1210181+0231MW1041REMSYN106AAXX  29151 76393 31530 30602 10282 20218 39571 40127 52018 70400 83500 91450 333 0/300 30/// 58023 83626;
0161763930999992011072918004+25733-100300FM-12+051599999V0200701N002010900019N0040001N1+03301+02081101201ADDAY121061AY221061GF105991011021017501001051MA1999999095641MD1710071+9999MW1041REMSYN072AAXX  29181 76393 31740 50702 10330 20208 39564 40120 57007 70422 81205;
0189763930999992011072921004+25733-100300FM-12+051599999V0201301N002012200019N0050001N1+03631+01951100981ADDGA1031+021001081GF106991031021022501001061IA1019MA1999999095501MD1710141+0181REMSYN100AAXX  29211 76393 32850 61302 10363 20195 39550 40098 57014 83206 92055 333 01305 30/// 58018 83857;
0161763930999992011073000004+25733-100300FM-12+051599999V0201101N003010900019N0040001N1+03381+01871100861ADDAY121061AY221061GF106991031021017501001081MA1999999095421MD1710081+9999MW1041REMSYN072AAXX  30001 76393 31740 61103 10338 20187 39542 40086 57008 70422 83208;
0217763930999992011073003004+25733-100300FM-12+051599999V0201301N006012200019N0020001N1+03101+01831100901ADDAY101031AY201031GA1011+015001061GF102991011051017501001081IA1019MA1999999095481MD1210061+0151MW1041REMSYN106AAXX  30031 76393 31720 21306 10310 20183 39548 40090 52006 70400 81508 90252 333 0/305 30/// 58015 81650;
0251763930999992011073006004+25733-100300FM-12+051599999V0200601N001012200019N0020001N1+02781+02051101011ADDAY101061AY201061GA1001+999999999GF100991001001999999001001GJ104929IA1019KA1240M+03721KA2240N+02421MA1999999095571MD1210091+0021MW1061REMSYN106AAXX  30061 76393 31920 00601 10278 20205 39557 40101 52009 70600 90550 333 10372 20242 30/// 55082 58002;
0217763930999992011073009004+25733-100300FM-12+051599999V0200401N001012200019N0020001N1+02601+02121101011ADDAY101031AY201031GA1031+005701061GF103991031051004501001001IA1019MA1999999095531MD1710041+0061MW1061REMSYN106AAXX  30091 76393 31420 30401 10260 20212 39553 40101 57004 70600 83500 90851 333 0/300 30/// 58006 83619;
0161763930999992011073012004+25733-100300FM-12+051599999V0201201N003010042019N0020001N1+02601+02241101201ADDAY121061AY221061GF108991081051004501999999MA1999999095681MD1210151+9999MW1041REMSYN072AAXX  30121 76393 31420 81203 10260 20224 39568 40120 52015 70422 885//;
0217763930999992011073015004+25733-100300FM-12+051599999V0200601N003010048019N0020001N1+02721+02341101411ADDAY121031AY221031GA1081+004801061GF108991081051004501999999IA1019MA1999999095851MD1210171+0141MW1041REMSYN106AAXX  30151 76393 31420 80603 10272 20234 39585 40141 52017 70422 885// 91450 333 0/3// 30/// 58014 88616;
0289763930999992011073018004+25733-100300FM-12+051599999V0200701N001010063019N0030001N1+02841+02321101471ADDAA103002091AA206002091AY151061AY251061GA1051+006301081GF107991051031008001031001IA1019KA1120M+02891KA2240N+02481MA1999999095891MD1210041+0251MW1501REMSYN130AAXX  30181 76393 01530 70701 10284 20232 39589 40147 52004 60021 75055 85330 91755 333 02350 10289 20248 30/// 58025 60027 85821;
0189763930999992011073021004+25733-100300FM-12+051599999V0201101N001010150019N0050001N1+03441+02081101181ADDGA1051+015001081GF105991051021017501001001IA1019MA1999999095651MD1710241+0151REMSYN100AAXX  30211 76393 32750 51101 10344 20208 39565 40118 57024 85200 92045 333 01300 30/// 58015 85850;
0250763930999992011073100004+25733-100300FM-12+051599999V0201201N006010180019N0050001N1+03361+01851101021ADDAA124001991GA1051+018001081GF105991051021017501001001IA1019KA1120M+03581KA2180N+02481MA1999999095541MD1710111+0121REMSYN124AAXX  31001 76393 32750 51206 10336 20185 39554 40102 57011 85200 92352 333 01300 10358 20248 30/// 50671 58012 70019 85856;
0217763930999992011073103004+25733-100300FM-12+051599999V0201301N004010150019N0020001N1+03121+01861101171ADDAY121031AY221031GA1071+015001061GF107991071051017501999999IA1019MA1999999095701MD1210161+0221MW1041REMSYN106AAXX  31031 76393 31720 71304 10312 20186 39570 40117 52016 70422 875// 90250 333 0/3// 30/// 58022 87650;
0161763930999992011073106004+25733-100300FM-12+051599999V0201201N005012200019N0020001N1+02681+02091101411ADDAY101061AY201061GF103991031051008001001001MA1999999095931MD1210231+9999MW1061REMSYN072AAXX  31061 76393 31520 31205 10268 20209 39593 40141 52023 70600 83500;
0211763930999992011073109004+25733-100300FM-12+051599999V0201101N004012200019N0020001N1+02501+02161101431ADDAY101031AY201031GA1031+004201061GF103991999999004501999999IA1019MA1999999095921MD1710011+0391MW1061REMSYN100AAXX  31091 76393 31420 31104 10250 20216 39592 40143 57001 70600 90850 333 0/300 30/// 58039 83614;
0161763930999992011073112004+25733-100300FM-12+051599999V0201201N003012200019N0030001N1+02381+02151101541ADDAY101061AY201061GF103991031051002501001001MA1999999095971MD1210051+9999MW1041REMSYN072AAXX  31121 76393 31330 31203 10238 20215 39597 40154 52005 70400 83500;
0217763930999992011073115004+25733-100300FM-12+051599999V0201201N003010054019N0030001N1+02641+02201101731ADDAY121031AY221031GA1051+005401061GF105991051051004501001001IA1019MA1999999096131MD1210161+0281MW1061REMSYN106AAXX  31151 76393 31430 51203 10264 20220 39613 40173 52016 70622 85500 91450 333 0/300 30/// 58028 85618;
0227763930999992011073118004+25733-100300FM-12+051599999V0201101N006012200019N0060001N1+03101+02101101701ADDGA1041+012301081GF104991041011012501001001IA1019KA1120M+03261KA2240N+02361MA1999999096101MD1710021+0211REMSYN112AAXX  31181 76393 32656 41106 10310 20210 39610 40170 57002 84100 91745 333 01300 10326 20236 30/// 58021 84841;
0195763930999992011073121004+25733-100300FM-12+051599999V0201201N00301015001CN0060001N1+03401+01931101481ADDGA1031+018001081GF105991051011017501001001IA1019MA1999999095931MD1710181+0281REMSYN106AAXX  31211 76393 32756 51203 10340 20193 39593 40148 57018 85100 92050 333 01300 30/// 58028 83856 82656;
0161763930999992011080100004+25733-100300FM-12+051599999V0201101N006012200019N0040001N1+03341+01891101291ADDAY101061AY201061GF103991031051017501001001MA1999999095801MD1710131+9999MW1071REMSYN072AAXX  01001 76393 31740 31106 10334 20189 39580 40129 57013 70700 83500;
0217763930999992011080103004+25733-100300FM-12+051599999V0201801N002012200019N0020001N1+03041+02031101311ADDAY101031AY201031GA1041+012601061GF104991041051012501001001IA1019MA1999999095851MD1210051+0151MW1061REMSYN106AAXX  01031 76393 31620 41802 10304 20203 39585 40131 52005 70600 84500 90254 333 0/300 30/// 58015 84642;
0161763930999992011080106004+25733-100300FM-12+051599999V0201201N001012200019N0020001N1+02861+01981101471ADDAY101061AY201061GF101991011051012501001001MA1999999095991MD1210141+9999MW1041REMSYN072AAXX  01061 76393 31620 11201 10286 20198 39599 40147 52014 70400 81500;
0199763930999992011080109004+25733-100300FM-12+051599999V0200701N001012200019N0010001N1+02561+02141101461ADDAY101031AY201031GA1001+999999999GF100991001001999999001001IA1019MA1999999095961MD1710031+0041MW1041REMSYN088AAXX  01091 76393 31910 00701 10256 20214 39596 40146 57003 70400 90854 333 30/// 58004;
0273763930999992011080112004+25733-100300FM-12+051599999V0200701N001012200019N0020001N1+02421+02141101541ADDAA124000091AY101061AY201061GA1001+999999999GF100991001001999999001001IA1019KA1240M+03621KA2120N+02401MA1999999095981MD1210031+0011MW1041REMSYN106AAXX  01121 76393 31920 00701 10242 20214 39598 40154 52003 70400 91150 333 10362 20240 30232 58001 70000;EQDQ01  00002PRCP24
0217763930999992011080115004+25733-100300FM-12+051599999V0203201N001012200019N0020001N1+02801+02191101631ADDAY101031AY201031GA1011+007501011GF101991011011008001001001IA1019MA1999999096051MD1210071-0081MW1041REMSYN106AAXX  01151 76393 31520 13201 10280 20219 39605 40163 52007 70400 81100 91450 333 0/300 30/// 59008 81125;
0227763930999992011080118004+25733-100300FM-12+051599999V0201101N003012200019N0050001N1+03341+01991101541ADDGA1011+018001081GF101991011011017501001001IA1019KA1120M+03461KA2240N+02401MA1999999095981MD1710071-0131REMSYN112AAXX  01181 76393 32750 11103 10334 20199 39598 40154 57007 81100 91745 333 00300 10346 20240 30/// 59013 81856;
0189763930999992011080121004+25733-100300FM-12+051599999V0201401N006012200019N0080001N1+03641+01781101241ADDGA1021+024001081GF103991021011022501001011IA1019MA1999999095731MD1710251-0201REMSYN100AAXX  01211 76393 32858 31406 10364 20178 39573 40124 57025 82101 92045 333 00303 30/// 59020 82858;
0250763930999992011080200004+25733-100300FM-12+051599999V0201301N003012200019N0060001N1+03581+01661101011ADDAA124000091GA1011+024001081GF101991011011022501001001IA1019KA1120M+03761KA2180N+02401MA1999999095571MD1710161-0231REMSYN124AAXX  02001 76393 32856 11303 10358 20166 39557 40101 57016 81100 92352 333 00300 10376 20240 30/// 51141 59023 70000 81858;
0199763930999992011080203004+25733-100300FM-12+051599999V0201501N004012200019N0020001N1+03241+01621101001ADDAY101031AY201031GA1001+999999999GF100991001001999999001001IA1019MA1999999095591MD1210021-0261MW1041REMSYN088AAXX  02031 76393 31920 01504 10324 20162 39559 40100 52002 70400 90250 333 30/// 59026;
0251763930999992011080206004+25733-100300FM-12+051599999V0201201N005012200019N0020001N1+02801+01941101141ADDAY101061AY201061GA1001+999999999GF100991001001999999001001GJ106549IA1019KA1240M+03761KA2240N+02401MA1999999095721MD1210131-0271MW1061REMSYN106AAXX  02061 76393 31920 01205 10280 20194 39572 40114 52013 70600 90551 333 10376 20240 30/// 55109 59027;
0199763930999992011080209004+25733-100300FM-12+051599999V0201201N003012200019N0020001N1+02581+02131101141ADDAY101031AY201031GA1001+999999999GF100991001001999999001001IA1019MA1999999095671MD1710051-0281MW1061REMSYN088AAXX  02091 76393 31920 01203 10258 20213 39567 40114 57005 70600 90850 333 30/// 59028;
0273763930999992011080212004+25733-100300FM-12+051599999V0209999C000012200019N0020001N1+02501+02131101151ADDAA124000091AY101061AY201061GA1001+999999999GF100991001001999999001001IA1019KA1240M+03761KA2120N+02441MA1999999095631MD1710041-0351MW1041REMSYN106AAXX  02121 76393 31920 00000 10250 20213 39563 40115 57004 70400 91150 333 10376 20244 30238 59035 70000;EQDQ01  00002PRCP24
0199763930999992011080215004+25733-100300FM-12+051599999V0200701N001012200019N0040001N1+02881+02161101261ADDAY101031AY201031GA1001+999999999GF100991001001999999001001IA1019MA1999999095711MD1210081-0341MW1041REMSYN088AAXX  02151 76393 31940 00701 10288 20216 39571 40126 52008 70400 91450 333 30/// 59034;
0161763930999992011080218004+25733-100300FM-12+051599999V0201101N003012200019N0040001N1+03381+02011101161ADDAY101061AY201061GF101991011011012501001001MA1999999095631MD1710081+9999MW1041REMSYN072AAXX  02181 76393 31640 11103 10338 20201 39563 40116 57008 70400 81100;
0189763930999992011080221004+25733-100300FM-12+051599999V0201001N004012200019N0060001N1+03681+01801100881ADDGA1031+024001081GF105991031021022501001011IA1019MA1999999095411MD1710221-0321REMSYN100AAXX  02211 76393 32856 51004 10368 20180 39541 40088 57022 83201 92045 333 01303 30/// 59032 83858;
0250763930999992011080300004+25733-100300FM-12+051599999V0201201N002012200019N0060001N1+03581+01701100721ADDAA124000091GA1031+024001081GF104991031011022501001021IA1019KA1120M+03841KA2180N+02441MA1999999095301MD1710111-0271REMSYN124AAXX  03001 76393 32856 41202 10358 20170 39530 40072 57011 83102 92352 333 01305 10384 20244 30/// 50931 59027 70000 83858;
0217763930999992011080303004+25733-100300FM-12+051599999V0201101N001012200019N0030001N1+03301+01881100731ADDAY101031AY201031GA1011+018001061GF101991011051017501001001IA1019MA1999999095351MD1210051-0241MW1041REMSYN106AAXX  03031 76393 31730 11101 10330 20188 39535 40073 52005 70400 81500 90252 333 0/300 30/// 59024 81656;
0251763930999992011080306004+25733-100300FM-12+051599999V0201201N003012200019N0020001N1+02841+02051100861ADDAY101061AY201061GA1001+999999999GF100991001001999999001001GJ106369IA1019KA1240M+03841KA2240N+02441MA1999999095451MD1210101-0271MW1061REMSYN106AAXX  03061 76393 31920 01203 10284 20205 39545 40086 52010 70600 90551 333 10384 20244 30/// 55106 59027;
0199763930999992011080309004+25733-100300FM-12+051599999V0200601N001012200019N0020001N1+02641+02111100831ADDAY101031AY201031GA1001+999999999GF100991001001999999001001IA1019MA1999999095391MD1710061-0281MW1061REMSYN088AAXX  03091 76393 31920 00601 10264 20211 39539 40083 57006 70600 90850 333 30/// 59028;
0273763930999992011080312004+25733-100300FM-12+051599999V0201001N001012200019N0020001N1+02541+02091100901ADDAA124000091AY101061AY201061GA1001+999999999GF100991001001999999001001IA1019KA1240M+03841KA2120N+02501MA1999999095411MD1210021-0221MW1041REMSYN106AAXX  03121 76393 31920 01001 10254 20209 39541 40090 52002 70400 91150 333 10384 20250 30246 59022 70000;EQDQ01  00002PRCP24
0199763930999992011080315004+25733-100300FM-12+051599999V0200601N001012200019N0030001N1+02821+02271101041ADDAY101031AY201031GA1001+999999999GF100991001001999999001001IA1019MA1999999095511MD1210101-0201MW1041REMSYN088AAXX  03151 76393 31930 00601 10282 20227 39551 40104 52010 70400 91450 333 30/// 59020;
0161763930999992011080318004+25733-100300FM-12+051599999V0200701N001012200019N0030001N1+03361+02181101021ADDAY101061AY201061GF101991011011012501001001MA1999999095491MD1710021+9999MW1041REMSYN072AAXX  03181 76393 31630 10701 10336 20218 39549 40102 57002 70400 81100;
0189763930999992011080321004+25733-100300FM-12+051599999V0201201N002012200019N0060001N1+03701+01861100711ADDGA1021+024001081GF102991021011022501001001IA1019MA1999999095241MD1710251-0171REMSYN100AAXX  03211 76393 32856 21202 10370 20186 39524 40071 57025 82100 92045 333 00300 30/// 59017 82858;
0250763930999992011080400004+25733-100300FM-12+051599999V0201201N006012200019N0060001N1+03581+01701100521ADDAA124000091GA1021+024001081GF102991021011022501001001IA1019KA1120M+03841KA2180N+02501MA1999999095111MD1710131-0191REMSYN124AAXX  04001 76393 32856 21206 10358 20170 39511 40052 57013 82100 92352 333 00300 10384 20250 30/// 51131 59019 70000 82858;
0199763930999992011080403004+25733-100300FM-12+051599999V0201201N003012200019N0020001N1+03201+01921100601ADDAY101031AY201031GA1001+999999999GF100991001001999999001001IA1019MA1999999095211MD1210101-0141MW1041REMSYN088AAXX  04031 76393 31920 01203 10320 20192 39521 40060 52010 70400 90250 333 30/// 59014;
0251763930999992011080406004+25733-100300FM-12+051599999V0201301N002012200019N0020001N1+02861+01851100731ADDAY101061AY201061GA1001+999999999GF100991001001999999001001GJ106429IA1019KA1240M+03841KA2240N+02501MA1999999095321MD1210111-0131MW1061REMSYN106AAXX  04061 76393 31920 01302 10286 20185 39532 40073 52011 70600 90551 333 10384 20250 30/// 55107 59013;
0199763930999992011080409004+25733-100300FM-12+051599999V0201101N001012200019N0020001N1+02561+01991100751ADDAY101031AY201031GA1001+999999999GF100991001001999999001001IA1019MA1999999095311MD1710011-0081MW1041REMSYN088AAXX  04091 76393 31920 01101 10256 20199 39531 40075 57001 70400 90850 333 30/// 59008;
0273763930999992011080412004+25733-100300FM-12+051599999V0200601N001012200019N0020001N1+02481+02141100901ADDAA124000091AY101061AY201061GA1001+999999999GF100991001001999999001001IA1019KA1240M+03841KA2120N+02461MA1999999095401MD1210091-0011MW1041REMSYN106AAXX  04121 76393 31920 00601 10248 20214 39540 40090 52009 70400 91152 333 10384 20246 30240 59001 70000;EQDQ01  00002PRCP24
0217763930999992011080415004+25733-100300FM-12+051599999V0200701N001010060019N0040001N1+02731+02231101031ADDAY121031AY221031GA1051+006001061GF105991051051008001001001IA1019MA1999999095531MD1210131+0021MW1051REMSYN106AAXX  04151 76393 31540 50701 10273 20223 39553 40103 52013 70522 85500 91454 333 0/200 30/// 58002 85620;
0161763930999992011080418004+25733-100300FM-12+051599999V0200601N002012200019N0040001N1+03281+02121101061ADDAY101061AY201061GF101991011011012501001001MA1999999095521MD1710011+9999MW1051REMSYN072AAXX  04181 76393 31640 10602 10328 20212 39552 40106 57001 70500 81100;
0189763930999992011080421004+25733-100300FM-12+051599999V0201101N006012200019N0060001N1+03641+02001100771ADDGA1031+021001081GF103991031011022501001001IA1019MA1999999095291MD1710231+0051REMSYN100AAXX  04211 76393 32856 31106 10364 20200 39529 40077 57023 83100 92045 333 01300 30/// 58005 83857;
0250763930999992011080500004+25733-100300FM-12+051599999V0201201N006010900019N0060001N1+03541+01941100631ADDAA124000091GA1031+018001061GF106991031051017501001081IA1019KA1120M+03821KA2180N+02461MA1999999095211MD1710081+0101REMSYN124AAXX  05001 76393 32756 61206 10354 20194 39521 40063 57008 83508 92352 333 0/305 10382 20246 30/// 51141 58010 70000 83656;
0199763930999992011080503004+25733-100300FM-12+051599999V0201301N002012200019N0020001N1+03161+02011100751ADDAY101031AY201031GA1001+999999999GF100991001001999999001001IA1019MA1999999095341MD1210131+0131MW1041REMSYN088AAXX  05031 76393 31920 01302 10316 20201 39534 40075 52013 70400 90252 333 30/// 58013;
0251763930999992011080506004+25733-100300FM-12+051599999V0201201N002012200019N0020001N1+02881+02001100821ADDAY101061AY201061GA1001+999999999GF100991001001999999001001GJ106309IA1019KA1240M+03821KA2240N+02461MA1999999095401MD1210061+0081MW1061REMSYN106AAXX  05061 76393 31920 01202 10288 20200 39540 40082 52006 70600 90551 333 10382 20246 30/// 55105 58008;
0199763930999992011080509004+25733-100300FM-12+051599999V0201101N002012200019N0020001N1+02641+02111100861ADDAY101031AY201031GA1001+999999999GF100991001001999999001001IA1019MA1999999095411MD1210011+0101MW1061REMSYN088AAXX  05091 76393 31920 01102 10264 20211 39541 40086 52001 70600 90852 333 30/// 58010;
0161763930999992011080512004+25733-100300FM-12+051599999V0200601N002012200019N0020001N1+02521+02211101011ADDAY101061AY201061GF102991021051004501001001MA1999999095501MD1210091+9999MW1041REMSYN072AAXX  05121 76393 31420 20602 10252 20221 39550 40101 52009 70400 82500;
0217763930999992011080515004+25733-100300FM-12+051599999V0201201N001010069019N0030001N1+02801+02251101131ADDAY121031AY221031GA1071+006901061GF107991071051008001001001IA1019MA1999999095591MD1210091+0061MW1041REMSYN106AAXX  05151 76393 31530 71201 10280 20225 39559 40113 52009 70422 87500 91450 333 0/700 30/// 58006 87623;
0161763930999992011080518004+25733-100300FM-12+051599999V0200701N001012200019N0020001N1+03261+02161101041ADDAY101061AY201061GF101991011011012501001001MA1999999095511MD1710081+9999MW1041REMSYN072AAXX  05181 76393 31620 10701 10326 20216 39551 40104 57008 70400 81100;
0217763930999992011080521004+25733-100300FM-12+051599999V0201201N002012200019N0030001N1+03661+02091100841ADDAY101031AY201031GA1031+021001081GF103991031021017501001001IA1019MA1999999095341MD1710171+0051MW1041REMSYN106AAXX  05211 76393 31730 31202 10366 20209 39534 40084 57017 70400 83200 92055 333 01500 30/// 58005 83857;
0161763930999992011080600004+25733-100300FM-12+051599999V0201201N004012200019N0040001N1+03541+02041100631ADDAY101061AY201061GF103991031011017501001001MA1999999095211MD1710131+9999MW1041REMSYN072AAXX  06001 76393 31740 31204 10354 20204 39521 40063 57013 70400 83100;
0217763930999992011080603004+25733-100300FM-12+051599999V0201201N003012200019N0020001N1+03281+02021100681ADDAY101031AY201031GA1011+015001061GF101991011051017501001001IA1019MA1999999095281MD1210071-0061MW1041REMSYN106AAXX  06031 76393 31720 11203 10328 20202 39528 40068 52007 70400 81500 90252 333 0/300 30/// 59006 81650;
0251763930999992011080606004+25733-100300FM-12+051599999V0201201N003012200019N0020001N1+02881+02131100861ADDAY101061AY201061GA1001+999999999GF100991001001999999001001GJ104869IA1019KA1240M+03821KA2240N+02501MA1999999095451MD1210171+0051MW1061REMSYN106AAXX  06061 76393 31920 01203 10288 20213 39545 40086 52017 70600 90552 333 10382 20250 30/// 55081 58005;
0217763930999992011080609004+25733-100300FM-12+051599999V0201101N003012200019N0020001N1+02621+02291100871ADDAY101031AY201031GA1011+003601061GF101991011051004501001001IA1019MA1999999095431MD1710021+0021MW1061REMSYN106AAXX  06091 76393 31420 11103 10262 20229 39543 40087 57002 70600 81500 90851 333 0/300 30/// 58002 81612;
0161763930999992011080612004+25733-100300FM-12+051599999V0200601N001010042019N0020001N1+02561+02261101031ADDAY121061AY221061GF106991061051004501001001MA1999999095531MD1210101+9999MW1041REMSYN072AAXX  06121 76393 31420 60601 10256 20226 39553 40103 52010 70422 86500;
0217763930999992011080615004+25733-100300FM-12+051599999V0200601N002012200019N0030001N1+02841+02301101191ADDAY101031AY201031GA1021+006601061GF102991021041008001001001IA1019MA1999999095651MD1210121+0061MW1041REMSYN106AAXX  06151 76393 31530 20602 10284 20230 39565 40119 52012 70400 82400 91450 333 0/700 30/// 58006 82622;
0161763930999992011080618004+25733-100300FM-12+051599999V0201201N003012200019N0030001N1+03301+02301101131ADDAY121061AY221061GF105991011011012501001081MA1999999095601MD1710051+9999MW1051REMSYN072AAXX  06181 76393 31630 51203 10330 20230 39560 40113 57005 70522 81108;
0161763930999992011080700004+25733-100300FM-12+051599999V0201301N006012200019N0040001N1+03581+02021100641ADDAY121061AY221061GF105991031011017501001011MA1999999095231MD1710131+9999MW1041REMSYN072AAXX  07001 76393 31740 51306 10358 20202 39523 40064 57013 70422 83101;
0217763930999992011080703004+25733-100300FM-12+051599999V0201801N001012200019N0020001N1+03301+01941100651ADDAY101031AY201031GA1011+015001061GF101991011051017501001001IA1019MA1999999095271MD1210041-0011MW1041REMSYN106AAXX  07031 76393 31720 11801 10330 20194 39527 40065 52004 70400 81500 90250 333 0/300 30/// 59001 81650;
0251763930999992011080706004+25733-100300FM-12+051599999V0201201N005012200019N0020001N1+02901+02031100561ADDAY101061AY201061GA1001+999999999GF100991001001999999001001GJ105289IA1019KA1240M+03801KA2240N+02541MA1999999095451MD1210181+0001MW1061REMSYN106AAXX  07061 76393 31920 01205 10290 20203 39545 40056 52018 70600 90551 333 10380 20254 30/// 55088 58000;
0199763930999992011080709004+25733-100300FM-12+051599999V0201101N003012200019N0020001N1+02661+02251100891ADDAY101031AY201031GA1001+999999999GF100991001001999999001001IA1019MA1999999095451MD1410001+0021MW1061REMSYN088AAXX  07091 76393 31920 01103 10266 20225 39545 40089 54000 70600 90851 333 30/// 58002;
0161763930999992011080712004+25733-100300FM-12+051599999V0201101N002010042019N0020001N1+02581+02281100991ADDAY121061AY221061GF108991081051004501999999MA1999999095491MD1210041+9999MW1041REMSYN072AAXX  07121 76393 31420 81102 10258 20228 39549 40099 52004 70422 885//;
0217763930999992011080715004+25733-100300FM-12+051599999V0201201N001010066019N0030001N1+02821+02271101141ADDAY121031AY221031GA1051+006601061GF105991051051008001001001IA1019MA1999999095611MD1210121-0041MW1041REMSYN106AAXX  07151 76393 31530 51201 10282 20227 39561 40114 52012 70422 85500 91450 333 0/300 30/// 59004 85622;
0161763930999992011080718004+25733-100300FM-12+051599999V0201201N003012200019N0030001N1+03141+02181101071ADDAY101061AY201061GF101991011021012501001001MA1999999095541MD1710071+9999MW1041REMSYN072AAXX  07181 76393 31630 11203 10314 20218 39554 40107 57007 70400 81200;
0217763930999992011080721004+25733-100300FM-12+051599999V0200701N001012200019N0040001N1+03681+01911100741ADDAY101031AY201031GA1021+021001081GF102991021011022501001001IA1019MA1999999095271MD1710271-0091MW1041REMSYN106AAXX  07211 76393 31840 20701 10368 20191 39527 40074 57027 70400 82100 92045 333 00300 30/// 59009 82857;
0161763930999992011080800004+25733-100300FM-12+051599999V0201301N003012200019N0040001N1+03581+01921100491ADDAY101061AY201061GF103991031011022501001001MA1999999095071MD1710201+9999MW1041REMSYN072AAXX  08001 76393 31840 31303 10358 20192 39507 40049 57020 70400 83100;
0199763930999992011080803004+25733-100300FM-12+051599999V0201501N003012200019N0020001N1+03321+01931100521ADDAY101031AY201031GA1001+999999999GF100991001001999999001001IA1019MA1999999095141MD1210071-0131MW1041REMSYN088AAXX  08031 76393 31920 01503 10332 20193 39514 40052 52007 70400 90254 333 30/// 59013;
0251763930999992011080806004+25733-100300FM-12+051599999V0201201N003012200019N0020001N1+02921+02091100741ADDAY101061AY201061GA1001+999999999GF100991001001999999001001GJ105649IA1019KA1240M+03861KA2240N+02541MA1999999095351MD1210211-0151MW1041REMSYN106AAXX  08061 76393 31920 01203 10292 20209 39535 40074 52021 70400 90555 333 10386 20254 30/// 55094 59015;
0217763930999992011080809004+25733-100300FM-12+051599999V0201101N001012200019N0010001N1+02681+02121100751ADDAY101031AY201031GA1011+006901061GF101991011051008001001001IA1019MA1999999095321MD1710031-0131MW1041REMSYN106AAXX  08091 76393 31510 11101 10268 20212 39532 40075 57003 70400 81500 90855 333 0/700 30/// 59013 81623;
0161763930999992011080812004+25733-100300FM-12+051599999V0200601N001010042019N0010001N1+02621+02201100821ADDAY121061AY221061GF106991061051004501001001MA1999999095341MD1210031+9999MW1041REMSYN072AAXX  08121 76393 31410 60601 10262 20220 39534 40082 52003 70422 86500;
0217763930999992011080815004+25733-100300FM-12+051599999V0200601N002010078019N0020001N1+02901+02271100951ADDAY121031AY221031GA1051+007801061GF105991051041008001001001IA1019MA1999999095431MD1210091-0181MW1041REMSYN106AAXX  08151 76393 31520 50602 10290 20227 39543 40095 52009 70422 85400 91450 333 0/700 30/// 59018 85626;
0161763930999992011080818004+25733-100300FM-12+051599999V0201201N003012200019N0030001N1+03381+02271100821ADDAY101061AY201061GF101991011011012501001001MA1999999095311MD1710121+9999MW1041REMSYN072AAXX  08181 76393 31630 11203 10338 20227 39531 40082 57012 70400 81100;
0217763930999992011080821004+25733-100300FM-12+051599999V0201101N003012200019N0040001N1+03661+02021100571ADDAY111031AY211031GA1011+021001081GF104991011011022501021081IA1019MA1999999095121MD1710191-0151MW1041REMSYN106AAXX  08211 76393 31840 41103 10366 20202 39512 40057 57019 70411 81128 92050 333 01353 30/// 59015 81857;
0161763930999992011080900004+25733-100300FM-12+051599999V0202401N003010900019N0040001N1+03461+02011100381ADDAY121061AY221061GF105991021011017501021081MA1999999094971MD1710151+9999MW1041REMSYN072AAXX  09001 76393 31740 52403 10346 20201 39497 40038 57015 70422 82128;
0199763930999992011080903004+25733-100300FM-12+051599999V0200901N001012200019N0020001N1+03301+02111100401ADDAY101031AY201031GA1001+999999999GF100991001001999999001001IA1019MA1999999095011MD1210041-0131MW1041REMSYN088AAXX  09031 76393 31920 00901 10330 20211 39501 40040 52004 70400 90253 333 30/// 59013;
0161763930999992011080906004+25733-100300FM-12+051599999V0201201N003012200019N0020001N1+02981+02121100531ADDAY101061AY201061GF101991011001999999031001MA1999999095131MD1210121+9999MW1061REMSYN072AAXX  09061 76393 31920 11203 10298 20212 39513 40053 52012 70600 81030;
0199763930999992011080909004+25733-100300FM-12+051599999V0201201N001012200019N0020001N1+02701+02141100511ADDAY101031AY201031GA1001+999999999GF100991001001999999001001IA1019MA1999999095081MD1710051-0231MW1041REMSYN088AAXX  09091 76393 31920 01201 10270 20214 39508 40051 57005 70400 90852 333 30/// 59023;
0273763930999992011080912004+25733-100300FM-12+051599999V0200601N001012200019N0020001N1+02601+02181100631ADDAA124000091AY101061AY201061GA1001+999999999GF100991001001999999001001IA1019KA1240M+03881KA2120N+02601MA1999999095151MD1210071-0191MW1041REMSYN106AAXX  09121 76393 31920 00601 10260 20218 39515 40063 52007 70400 91150 333 10388 20260 30256 59019 70000;EQDQ01  00002PRCP24
0199763930999992011080915004+25733-100300FM-12+051599999V0201201N001012200019N0030001N1+02861+02231100841ADDAY101031AY201031GA1001+999999999GF100991001001999999001001IA1019MA1999999095321MD1210171-0111MW1041REMSYN088AAXX  09151 76393 31930 01201 10286 20223 39532 40084 52017 70400 91450 333 30/// 59011;
0161763930999992011080918004+25733-100300FM-12+051599999V0200601N002012200019N0030001N1+03381+02271100801ADDAY101061AY201061GF102991011021012501001081MA1999999095291MD1710031+9999MW1041REMSYN072AAXX  09181 76393 31630 20602 10338 20227 39529 40080 57003 70400 81208;
0217763930999992011080921004+25733-100300FM-12+051599999V0201101N002012200019N0040001N1+03721+02131100461ADDAY111031AY211031GA1011+018001081GF104991011021017501011071IA1019MA1999999095011MD1710281-0111MW1041REMSYN106AAXX  09211 76393 31740 41102 10372 20213 39501 40046 57028 70411 81217 92045 333 05355 30/// 59011 81856;
0161763930999992011081000004+25733-100300FM-12+051599999V0201501N001010360019N0040001N1+03681+02121100321ADDAY111061AY211061GF107991011021017501031081MA1999999094921MD1710091+9999MW1041REMSYN072AAXX  10001 76393 31740 71501 10368 20212 39492 40032 57009 70411 81238;
0223763930999992011081003004+25733-100300FM-12+051599999V0202101N00101036001CN0030001N1+03341+02161100411ADDAY121031AY221031GA1011+014701081GF106991011051012501031071IA1019MA1999999095051MD1210131+0041MW1041REMSYN112AAXX  10031 76393 31630 62101 10334 20216 39505 40041 52013 70422 81537 90254 333 0/755 30/// 58004 81849 85275;
0251763930999992011081006004+25733-100300FM-12+051599999V0201201N003012200019N0020001N1+03041+02251100511ADDAY101061AY201061GA1001+999999999GF100991001001999999001001GJ104149IA1019KA1240M+03881KA2240N+02601MA1999999095141MD1210091+0011MW1061REMSYN106AAXX  10061 76393 31920 01203 10304 20225 39514 40051 52009 70600 90552 333 10388 20260 30/// 55069 58001;
0199763930999992011081009004+25733-100300FM-12+051599999V0200601N002012200019N0010001N1+02721+02311100631ADDAY101031AY201031GA1001+999999999GF100991001001999999001001IA1019MA1999999095211MD1210071+0131MW1061REMSYN088AAXX  10091 76393 31910 00602 10272 20231 39521 40063 52007 70600 90852 333 30/// 58013;
0273763930999992011081012004+25733-100300FM-12+051599999V0200601N001012200019N0010001N1+02641+02341100721ADDAA124000091AY101061AY201061GA1001+999999999GF100991001001999999001001IA1019KA1240M+03881KA2120N+02581MA1999999095251MD1210041+0101MW1041REMSYN106AAXX  10121 76393 31910 00601 10264 20234 39525 40072 52004 70400 91155 333 10388 20258 30252 58010 70000;EQDQ01  00002PRCP24
0199763930999992011081015004+25733-100300FM-12+051599999V0201201N002012200019N0020001N1+03001+02411100801ADDAY101031AY201031GA1001+999999999GF100991001001999999001001IA1019MA1999999095301MD1210051-0021MW1041REMSYN088AAXX  10151 76393 31920 01202 10300 20241 39530 40080 52005 70400 91450 333 30/// 59002;
0161763930999992011081018004+25733-100300FM-12+051599999V0201101N002012200019N0020001N1+03481+02321100751ADDAY101061AY201061GF102991011021012501001091MA1999999095261MD1710041+9999MW1041REMSYN072AAXX  10181 76393 31620 21102 10348 20232 39526 40075 57004 70400 81209;
0217763930999992011081021004+25733-100300FM-12+051599999V0200501N002012200019N0030001N1+03901+02161100481ADDAY101031AY201031GA1021+021001081GF102991021021022501001001IA1019MA1999999095041MD1710221+0031MW1131REMSYN106AAXX  10211 76393 31830 20502 10390 20216 39504 40048 57022 71300 82200 92050 333 03500 30/// 58003 82857;
0161763930999992011081100004+25733-100300FM-12+051599999V0201201N003012200019N0040001N1+03761+01981100191ADDAY101061AY201061GF102991011011022501001071MA1999999094831MD1710211+9999MW1041REMSYN072AAXX  11001 76393 31840 21203 10376 20198 39483 40019 57021 70400 81107;
0199763930999992011081103004+25733-100300FM-12+051599999V0201201N002012200019N0030001N1+03501+01991100381ADDAY101031AY201031GA1001+999999999GF100991001001999999001001IA1019MA1999999095041MD1210211-0011MW1041REMSYN088AAXX  11031 76393 31930 01202 10350 20199 39504 40038 52021 70400 90250 333 30/// 59001;
0161763930999992011081106004+25733-100300FM-12+051599999V0201101N004012200019N0020001N1+03121+02211100611ADDAY101061AY201061GF101991011051999999001001MA1999999095261MD1210221+9999MW1061REMSYN072AAXX  11061 76393 31920 11104 10312 20221 39526 40061 52022 70600 81500;
0236763930999992011081109004+25733-100300FM-12+051599999V0201201N003012200019N0020001N1+02721+02421100671ADDAY101031AY201031GA1031+003601061GF199999021051002501001001IA1019MA1999999095271MD1210011+0061MW1041REMSYN106AAXX  11091 76393 31320 21203 10272 20242 39527 40067 52001 70400 82500 90852 333 0/300 30/// 58006 83612;EQDQ01+000022SCOTCV
0161763930999992011081112004+25733-100300FM-12+051599999V0201101N001010042019N0020001N1+02741+02451100751ADDAY121061AY221061GF105991051051004501001001MA1999999095291MD1210021+9999MW1041REMSYN072AAXX  11121 76393 31420 51101 10274 20245 39529 40075 52002 70422 85500;
0217763930999992011081115004+25733-100300FM-12+051599999V0200101N001010066019N0020001N1+02931+02391100831ADDAY121031AY221031GA1071+006601061GF107991071051008001999999IA1019MA1999999095341MD1210051+0041MW1041REMSYN106AAXX  11151 76393 31520 70101 10293 20239 39534 40083 52005 70422 875// 91452 333 0/399 30/// 58004 87622;
0161763930999992011081118004+25733-100300FM-12+051599999V0200901N002012200019N0020001N1+03601+02431100811ADDAY101061AY201061GF101991011021012501001001MA1999999095321MD1710021+9999MW1041REMSYN072AAXX  11181 76393 31620 10902 10360 20243 39532 40081 57002 70400 81200;
0217763930999992011081121004+25733-100300FM-12+051599999V0201101N002012200019N0030001N1+03901+02161100521ADDAY101031AY201031GA1031+021001081GF103991031021022501001001IA1019MA1999999095091MD1710231+0051MW1041REMSYN106AAXX  11211 76393 31830 31102 10390 20216 39509 40052 57023 70400 83200 92045 333 01500 30/// 58005 83857;
0161763930999992011081200004+25733-100300FM-12+051599999V0200701N002012200019N0040001N1+03721+02031100401ADDAY101061AY201061GF103991021021022501001071MA1999999095031MD1710061+9999MW1041REMSYN072AAXX  12001 76393 31840 30702 10372 20203 39503 40040 57006 70400 82207;
0217763930999992011081203004+25733-100300FM-12+051599999V0200401N003010180019N0020001N1+03321+01831100561ADDAY121031AY221031GA1051+018001061GF105991051051017501001001IA1019MA1999999095211MD1210181+0171MW1041REMSYN106AAXX  12031 76393 31720 50403 10332 20183 39521 40056 52018 70422 85500 90253 333 0/300 30/// 58017 85656;
0161763930999992011081206004+25733-100300FM-12+051599999V0201101N002010075019N0020001N1+02921+02411100571ADDAY101061AY201061GF107991071051008001001001MA1999999095371MD1210161+9999MW1061REMSYN072AAXX  12061 76393 31520 71102 10292 20241 39537 40057 52016 70600 87500;
0217763930999992011081209004+25733-100300FM-12+051599999V0200701N003010039019N0020001N1+02721+02401100841ADDAY101031AY201031GA1051+003901061GF105991051051004501001001IA1019MA1999999095411MD1210041+0141MW1061REMSYN106AAXX  12091 76393 31420 50703 10272 20240 39541 40084 52004 70600 85500 90851 333 0/300 30/// 58014 85613;
0161763930999992011081212004+25733-100300FM-12+051599999V0200601N001010042019N0010001N1+02781+02401100991ADDAY121061AY221061GF106991061051004501001001MA1999999095511MD1210101+9999MW1041REMSYN072AAXX  12121 76393 31410 60601 10278 20240 39551 40099 52010 70422 86500;
0217763930999992011081215004+25733-100300FM-12+051599999V0201201N002012200019N0020001N1+03021+02401101101ADDAY101031AY201031GA1031+007501081GF103991031041008001001001IA1019MA1999999095581MD1210071+0241MW1041REMSYN106AAXX  12151 76393 31520 31202 10302 20240 39558 40110 52007 70400 83400 91450 333 0/700 30/// 58024 83825;
0161763930999992011081218004+25733-100300FM-12+051599999V0200901N001012200019N0020001N1+03321+02261101121ADDAY101061AY201061GF102991021021012501001001MA1999999095521MD1710061+9999MW1041REMSYN072AAXX  12181 76393 31620 20901 10332 20226 39552 40112 57006 70400 82200;
0217763930999992011081221004+25733-100300FM-12+051599999V0201201N002012200019N0030001N1+03761+02121100751ADDAY111031AY211031GA1041+021001081GF104991041021022501001001IA1019MA1999999095271MD1710251+0181MW1041REMSYN106AAXX  12211 76393 31830 41202 10376 20212 39527 40075 57025 70411 84200 92055 333 01700 30/// 58018 84857;
0161763930999992011081300004+25733-100300FM-12+051599999V0201201N005012200019N0040001N1+03601+01841100551ADDAY121061AY221061GF105991031021022501001081MA1999999095161MD1710111+9999MW1041REMSYN072AAXX  13001 76393 31840 51205 10360 20184 39516 40055 57011 70422 83208;
0217763930999992011081303004+25733-100300FM-12+051599999V0201301N006012200019N0030001N1+03261+02101100661ADDAY111031AY211031GA1041+014401061GF104991041051012501001001IA1019MA1999999095281MD1210121+0071MW1041REMSYN106AAXX  13031 76393 31630 41306 10326 20210 39528 40066 52012 70411 84500 90250 333 0/300 30/// 58007 84648;
0125763930999992011081306004+25733-100300FM-12+051599999V0201101N003012200019N0020001N1+99999+99999100861ADDGF104991999999008001999999MA1999999095461REMSYN072AAXX  13061 76393 31520 41103 20237 39546 40086 40286 52018 70611 84500;
0217763930999992011081309004+25733-100300FM-12+051599999V0201201N004010039019N0020001N1+02681+02351100771ADDAY101031AY201031GA1051+003901061GF105991051051004501001001IA1019MA1999999095341MD1710121-0071MW1061REMSYN106AAXX  13091 76393 31420 51204 10268 20235 39534 40077 57012 70600 85500 90853 333 0/300 30/// 59007 85613;
0161763930999992011081312004+25733-100300FM-12+051599999V0201101N002010042019N0030001N1+02581+02251100941ADDAY121061AY221061GF107991071051004501999999MA1999999095441MD1210101+9999MW1041REMSYN072AAXX  13121 76393 31430 71102 10258 20225 39544 40094 52010 70422 875//;
0217763930999992011081315004+25733-100300FM-12+051599999V0201101N001010069019N0020001N1+02861+02291101071ADDAY121031AY221031GA1071+006901061GF107991071051008001001001IA1019MA1999999095541MD1210101-0041MW1041REMSYN106AAXX  13151 76393 31520 71101 10286 20229 39554 40107 52010 70422 87500 91452 333 0/300 30/// 59004 87623;
0161763930999992011081318004+25733-100300FM-12+051599999V0201201N002012200019N0030001N1+03161+02231101141ADDAY101061AY201061GF103991031041012501001001MA1999999095601MD1210061+9999MW1041REMSYN072AAXX  13181 76393 31630 31202 10316 20223 39560 40114 52006 70400 83400;
0217763930999992011081321004+25733-100300FM-12+051599999V0201201N004012200019N0060001N1+03741+02021100791ADDAY101031AY201031GA1031+021001061GF103991031041022501001001IA1019MA1999999095321MD1710281+0051MW1041REMSYN106AAXX  13211 76393 31856 31204 10374 20202 39532 40079 57028 70400 83400 92055 333 0/300 30/// 58005 83657;
0250763930999992011081400004+25733-100300FM-12+051599999V0201401N003012200019N0060001N1+03681+01531100561ADDAA124000091GA1031+024001081GF103991031011022501001001IA1019KA1120M+03881KA2180N+02581MA1999999095141MD1710181-0021REMSYN124AAXX  14001 76393 32856 31403 10368 20153 39514 40056 57018 83100 92352 333 00300 10388 20258 30/// 51371 59002 70000 83858;
0217763930999992011081403004+25733-100300FM-12+051599999V0201201N006012200019N0020001N1+03281+01851100691ADDAY101031AY201031GA1011+018001061GF101991011051017501001001IA1019MA1999999095301MD1210161+0021MW1041REMSYN106AAXX  14031 76393 31720 11206 10328 20185 39530 40069 52016 70400 81500 90250 333 0/300 30/// 58002 81656;
0263763930999992011081406004+25733-100300FM-12+051599999V0201201N005012200019N0020001N1+02841+02261999999ADDAY101061AY201061GA1031+006901061GF103991031051008001001001GJ105589IA1019KA1240M+03881KA2240N+02581MA1999999095571MD1210271+0111MW1061REMSYN118AAXX  14061 76393 31520 31205 10284 20226 39557 52027 70600 83500 90551 333 0/300 10388 20258 30/// 55093 58011 83623;
0217763930999992011081409004+25733-100300FM-12+051599999V0201201N003012200019N0020001N1+02661+02271101031ADDAY101031AY201031GA1031+004801061GF103991031051004501001001IA1019MA1999999095581MD1210011+0241MW1041REMSYN106AAXX  14091 76393 31420 31203 10266 20227 39558 40103 52001 70400 83500 90854 333 0/300 30/// 58024 83616;
0161763930999992011081412004+25733-100300FM-12+051599999V0201201N002012200019N0020001N1+02541+02211101111ADDAY101061AY201061GF103991031051004501001001MA1999999095611MD1210031+9999MW1041REMSYN072AAXX  14121 76393 31420 31202 10254 20221 39561 40111 52003 70400 83500;
0217763930999992011081415004+25733-100300FM-12+051599999V0201201N001010069019N0030001N1+02801+02251101261ADDAY121031AY221031GA1051+006901061GF105991051051008001001001IA1019MA1999999095711MD1210101+0171MW1041REMSYN106AAXX  14151 76393 31530 51201 10280 20225 39571 40126 52010 70422 85500 91450 333 0/300 30/// 58017 85623;
0161763930999992011081418004+25733-100300FM-12+051599999V0201101N003012200019N0040001N1+03221+02241101241ADDAY111061AY211061GF104991041021012501001001MA1999999095701MD1610011+9999MW1041REMSYN072AAXX  14181 76393 31640 41103 10322 20224 39570 40124 56001 70411 84200;
0217763930999992011081421004+25733-100300FM-12+051599999V0201201N005012200019N0050001N1+03661+01811100931ADDAY111031AY211031GA1041+021001081GF104991041011022501001001IA1019MA1999999095451MD1710251+0131MW1041REMSYN106AAXX  14211 76393 31850 41205 10366 20181 39545 40093 57025 70411 84100 92040 333 01300 30/// 58013 84857;
0161763930999992011081500004+25733-100300FM-12+051599999V0201201N003012200019N0050001N1+03461+01691100681ADDAY111061AY211061GF105991041011022501001011MA1999999095251MD1710201+9999MW1041REMSYN072AAXX  15001 76393 31850 51203 10346 20169 39525 40068 57020 70411 84101;
0217763930999992011081503004+25733-100300FM-12+051599999V0201201N006012200019N0020001N1+03121+01931100861ADDAY101031AY201031GA1031+014701061GF103991031051012501001001IA1019MA1999999095451MD1210201+0151MW1041REMSYN106AAXX  15031 76393 31620 31206 10312 20193 39545 40086 52020 70400 83500 90250 333 0/300 30/// 58015 83649;
0251763930999992011081506004+25733-100300FM-12+051599999V0201201N002012200019N0020001N1+02801+02071100991ADDAY101061AY201061GA1001+999999999GF100991001001999999001001GJ105769IA1019KA1240M+03781KA2240N+02521MA1999999095571MD1210121+0001MW1041REMSYN106AAXX  15061 76393 31920 01202 10280 20207 39557 40099 52012 70400 90552 333 10378 20252 30/// 55096 58000;
0195763930999992011081509004+25733-100300FM-12+051599999V0201101N001012200019N0020001N1+02641+02171100931ADDAY101031AY201031GF101991011001999999031001IA1019MA1999999095471MD1710101-0111MW1041REMSYN100AAXX  15091 76393 31920 11101 10264 20217 39547 40093 57010 70400 81030 90852 333 0/070 30/// 59011;
0273763930999992011081512004+25733-100300FM-12+051599999V0200901N001012200019N0020001N1+02521+02181100981ADDAA124000091AY101061AY201061GA1001+999999999GF100991001001999999001001IA1019KA1240M+03781KA2120N+02501MA1999999095471MD1410001-0141MW1041REMSYN106AAXX  15121 76393 31920 00901 10252 20218 39547 40098 54000 70400 91150 333 10378 20250 30246 59014 70000;EQDQ01  00002PRCP24
0217763930999992011081515004+25733-100300FM-12+051599999V0200601N001010063019N0030001N1+02761+02241101161ADDAY121031AY221031GA1051+006301061GF105991051041008001001001IA1019MA1999999095611MD1210141+0101MW1041REMSYN106AAXX  15151 76393 31530 50601 10276 20224 39561 40116 52014 70422 85400 91450 333 0/700 30/// 58010 85621;
0161763930999992011081518004+25733-100300FM-12+051599999V0201201N002012200019N0040001N1+03301+02051101111ADDAY101061AY201061GF103991031011017501001001MA1999999095571MD1710041+9999MW1041REMSYN072AAXX  15181 76393 31740 31202 10330 20205 39557 40111 57004 70400 83100;
0217763930999992011081521004+25733-100300FM-12+051599999V0201201N006012200019N0050001N1+03681+01911100821ADDAY111031AY211031GA1041+021001081GF104991041011022501001001IA1019MA1999999095341MD1710231-0111MW1041REMSYN106AAXX  15211 76393 31850 41206 10368 20191 39534 40082 57023 70411 84100 92048 333 01300 30/// 59011 84857;
0161763930999992011081600004+25733-100300FM-12+051599999V0201201N006012200019N0050001N1+03621+01561100641ADDAY101061AY201061GF102991021011022501001001MA1999999095211MD1710131+9999MW1041REMSYN072AAXX  16001 76393 31850 21206 10362 20156 39521 40064 57013 70400 82100;
0199763930999992011081603004+25733-100300FM-12+051599999V0201101N003012200019N0020001N1+03281+01671100661ADDAY101031AY201031GA1001+999999999GF100991001001999999001001IA1019MA1999999095311MD1210101-0141MW1041REMSYN088AAXX  16031 76393 31920 01103 10328 20167 39531 40066 52010 70400 90252 333 30/// 59014;
0161763930999992011081606004+25733-100300FM-12+051599999V0201201N002012200019N0020001N1+02901+02091100871ADDAY101061AY201061GF101991011051008001001001MA1999999095471MD1210161+9999MW1041REMSYN072AAXX  16061 76393 31520 11202 10290 20209 39547 40087 52016 70400 81500;
0161763930999992011081612004+25733-100300FM-12+051599999V0200601N001012200019N0020001N1+02421+02081101021ADDAY101061AY201061GF103991031051004501001001MA1999999095511MD1210031+9999MW1041REMSYN072AAXX  16121 76393 31420 30601 10242 20208 39551 40102 52003 70400 83500;
0217763930999992011081615004+25733-100300FM-12+051599999V0200701N001012200019N0030001N1+02701+02141101251ADDAY101031AY201031GA1031+006901061GF103991031041008001001001IA1019MA1999999095701MD1210191+0091MW1041REMSYN106AAXX  16151 76393 31530 30701 10270 20214 39570 40125 52019 70400 83400 91450 333 0/700 30/// 58009 83623;
0161763930999992011081618004+25733-100300FM-12+051599999V0200601N001012200019N0040001N1+03221+02081101211ADDAY101061AY201061GF101991011011012501001001MA1999999095661MD1710041+9999MW1041REMSYN072AAXX  16181 76393 31640 10601 10322 20208 39566 40121 57004 70400 81100;
0217763930999992011081621004+25733-100300FM-12+051599999V0201201N006012200019N0050001N1+03721+01891100931ADDAY101031AY201031GA1011+021001081GF101991011011022501001001IA1019MA1999999095441MD1710221+0101MW1041REMSYN106AAXX  16211 76393 31850 11206 10372 20189 39544 40093 57022 70400 81100 92050 333 00300 30/// 58010 81857;
0161763930999992011081700004+25733-100300FM-12+051599999V0201201N004012200019N0050001N1+03741+01651100771ADDAY101061AY201061GF101991011001999999081001MA1999999095351MD1710091+9999MW1061REMSYN072AAXX  17001 76393 31950 11204 10374 20165 39535 40077 57009 70600 81080;
0199763930999992011081703004+25733-100300FM-12+051599999V0201101N001012200019N0030001N1+03301+01621100891ADDAY101031AY201031GA1001+999999999GF100991001001999999001001IA1019MA1999999095481MD1710131+0171MW1041REMSYN088AAXX  17031 76393 31930 01101 10330 20162 39548 40089 57013 70400 90253 333 30/// 58017;
0251763930999992011081706004+25733-100300FM-12+051599999V0201101N006012200019N0020001N1+02841+01651101101ADDAY101061AY201061GA1001+999999999GF100991001001999999001001GJ106249IA1019KA1240M+03841KA2240N+02401MA1999999095671MD1210191+0211MW1061REMSYN106AAXX  17061 76393 31920 01106 10284 20165 39567 40110 52019 70600 90552 333 10384 20240 30/// 55104 58021;
0199763930999992011081709004+25733-100300FM-12+051599999V0201001N003012200019N0020001N1+02561+01961101161ADDAY101031AY201031GA1001+999999999GF100991001001999999001001IA1019MA1999999095691MD1210021+0211MW1041REMSYN088AAXX  17091 76393 31920 01003 10256 20196 39569 40116 52002 70400 90852 333 30/// 58021;
0161763930999992011081712004+25733-100300FM-12+051599999V0200601N002012200019N0020001N1+02441+02101101311ADDAY101061AY201061GF102991021051004501001001MA1999999095781MD1210091+9999MW1041REMSYN072AAXX  17121 76393 31420 20602 10244 20210 39578 40131 52009 70400 82500;
0217763930999992011081715004+25733-100300FM-12+051599999V0201201N001010078019N0030001N1+02821+02181101531ADDAY121031AY221031GA1051+007801061GF105991051051008001001001IA1019MA1999999095951MD1210171+0251MW1041REMSYN106AAXX  17151 76393 31530 51201 10282 20218 39595 40153 52017 70422 85500 91450 333 0/300 30/// 58025 85626;
0161763930999992011081718004+25733-100300FM-12+051599999V0201201N001012200019N0030001N1+03201+02281101491ADDAY101061AY201061GF101991011011012501001001MA1999999095921MD1710031+9999MW1041REMSYN072AAXX  17181 76393 31630 11201 10320 20228 39592 40149 57003 70400 81100;
0217763930999992011081721004+25733-100300FM-12+051599999V0201201N002012200019N0030001N1+03661+01951101151ADDAY101031AY201031GA1011+021001081GF101991011011017501001001IA1019MA1999999095651MD1710271+0211MW1041REMSYN106AAXX  17211 76393 31730 11202 10366 20195 39565 40115 57027 70400 81100 92052 333 00500 30/// 58021 81857;
0161763930999992011081800004+25733-100300FM-12+051599999V0201201N004012200019N0050001N1+03541+01681100931ADDAY101061AY201061GF102991021051022501001001MA1999999095501MD1710151+9999MW1041REMSYN072AAXX  18001 76393 31850 21204 10354 20168 39550 40093 57015 70400 82500;
0199763930999992011081803004+25733-100300FM-12+051599999V0201301N003012200019N0020001N1+03301+01511101061ADDAY101031AY201031GA1001+999999999GF100991001001999999001001IA1019MA1999999095641MD1210141+0161MW1041REMSYN088AAXX  18031 76393 31920 01303 10330 20151 39564 40106 52014 70400 90253 333 30/// 58016;
0251763930999992011081806004+25733-100300FM-12+051599999V0201201N003012200019N0020001N1+02821+01521101241ADDAY101061AY201061GA1001+999999999GF100991001001999999001001GJ106549IA1019KA1240M+03841KA2240N+02401MA1999999095811MD1210171+0141MW1061REMSYN106AAXX  18061 76393 31920 01203 10282 20152 39581 40124 52017 70600 90550 333 10384 20240 30/// 55109 58014;
0199763930999992011081809004+25733-100300FM-12+051599999V0200601N001012200019N0020001N1+02581+01881101211ADDAY101031AY201031GA1001+999999999GF100991001001999999001001IA1019MA1999999095741MD1710071+0051MW1041REMSYN088AAXX  18091 76393 31920 00601 10258 20188 39574 40121 57007 70400 90853 333 30/// 58005;
0273763930999992011081812004+25733-100300FM-12+051599999V0200201N001012200019N0020001N1+02421+01991101251ADDAA124000091AY101061AY201061GA1001+999999999GF100991001001999999001001IA1019KA1240M+03841KA2120N+02401MA1999999095731MD1710011-0051MW1041REMSYN106AAXX  18121 76393 31920 00201 10242 20199 39573 40125 57001 70400 91152 333 10384 20240 30236 59005 70000;EQDQ01  00002PRCP24
0217763930999992011081815004+25733-100300FM-12+051599999V0200601N001012200019N0020001N1+02701+02141101471ADDAY101031AY201031GA1011+006901081GF101991011011008001001001IA1019MA1999999095901MD1210171-0051MW1041REMSYN106AAXX  18151 76393 31520 10601 10270 20214 39590 40147 52017 70400 81100 91452 333 00200 30/// 59005 81823;
0279763930999992011081900004+25733-100300FM-12+051599999V0201201N005012200019N0050001N1+03701+01351100751ADDAA124000091AY101061AY201061GA1001+999999999GF100991001001999999001001IA1019KA1120M+03881KA2180N+02401MA1999999095321MD1999999-0181MW1041REMSYN112AAXX  19001 76393 31950 01205 10370 20135 39532 40075 5//// 70400 92352 333 10388 20240 30/// 51251 59018 70000;EQDQ01  00002PRCP24
0199763930999992011081903004+25733-100300FM-12+051599999V0201201N003012200019N0020001N1+03301+01511100761ADDAY101031AY201031GA1001+999999999GF100991001001999999001001IA1019MA1999999095361MD1210041-0281MW1041REMSYN088AAXX  19031 76393 31920 01203 10330 20151 39536 40076 52004 70400 90251 333 30/// 59028;
0251763930999992011081906004+25733-100300FM-12+051599999V0201301N003012200019N0020001N1+02881+01971100851ADDAY101061AY201061GA1001+999999999GF100991001001999999001001GJ106729IA1019KA1240M+03881KA2240N+02401MA1999999095451MD1210091-0361MW1061REMSYN106AAXX  19061 76393 31920 01303 10288 20197 39545 40085 52009 70600 90552 333 10388 20240 30/// 55112 59036;
0217763930999992011081909004+25733-100300FM-12+051599999V0200601N002012200019N0020001N1+02581+02131100891ADDAY101031AY201031GA1011+005401061GF101991011051004501001001IA1019MA1999999095441MD1710011-0301MW1041REMSYN106AAXX  19091 76393 31420 10602 10258 20213 39544 40089 57001 70400 81500 90852 333 0/700 30/// 59030 81618;
0161763930999992011081912004+25733-100300FM-12+051599999V0200701N001012200019N0020001N1+02441+02191100931ADDAY101061AY201061GF103991031051004501001001MA1999999095431MD1710011+9999MW1041REMSYN072AAXX  19121 76393 31420 30701 10244 20219 39543 40093 57001 70400 83500;
0217763930999992011081915004+25733-100300FM-12+051599999V0203301N001012200019N0030001N1+02781+02231101051ADDAY101031AY201031GA1021+004801081GF102991021011004501001001IA1019MA1999999095511MD1210081-0391MW1041REMSYN106AAXX  19151 76393 31430 23301 10278 20223 39551 40105 52008 70400 82100 91450 333 0/300 30/// 59039 82816;
0161763930999992011081918004+25733-100300FM-12+051599999V0200601N001012200019N0020001N1+03421+02091101031ADDAY101061AY201061GF101991011011017501001001MA1999999095501MD1710011+9999MW1041REMSYN072AAXX  19181 76393 31720 10601 10342 20209 39550 40103 57001 70400 81100;
0189763930999992011081921004+25733-100300FM-12+051599999V0201201N002012200019N0040001N1+03761+01911100721ADDGA1021+021001081GF103991021011022501001021IA1019MA1999999095251MD1710251-0071REMSYN100AAXX  19211 76393 32840 31202 10376 20191 39525 40072 57025 82102 92055 333 01305 30/// 59007 82857;
0161763930999992011082000004+25733-100300FM-12+051599999V0201201N005012200019N0050001N1+03641+01591100511ADDAY101061AY201061GF102991021001999999081001MA1999999095101MD1710151+9999MW1041REMSYN072AAXX  20001 76393 31950 21205 10364 20159 39510 40051 57015 70400 82080;
0199763930999992011082003004+25733-100300FM-12+051599999V0201201N006012200019N0030001N1+03261+01651100661ADDAY101031AY201031GA1001+999999999GF100991001001999999001001IA1019MA1999999095281MD1210181-0081MW1041REMSYN088AAXX  20031 76393 31930 01206 10326 20165 39528 40066 52018 70400 90253 333 30/// 59008;
0251763930999992011082006004+25733-100300FM-12+051599999V0201201N006012200019N0020001N1+02741+01971100851ADDAY101061AY201061GA1001+999999999GF100991001001999999001001GJ106249IA1019KA1240M+03901KA2240N+02401MA1999999095451MD1210171+0001MW1061REMSYN106AAXX  20061 76393 31920 01206 10274 20197 39545 40085 52017 70600 90553 333 10390 20240 30/// 55104 58000;
0199763930999992011082009004+25733-100300FM-12+051599999V0201201N003012200019N0020001N1+02541+02001100851ADDAY101031AY201031GA1001+999999999GF100991001001999999001001IA1019MA1999999095401MD1710051-0041MW1041REMSYN088AAXX  20091 76393 31920 01203 10254 20200 39540 40085 57005 70400 90851 333 30/// 59004;
0273763930999992011082012004+25733-100300FM-12+051599999V0200601N001012200019N0020001N1+02461+01971100941ADDAA124000091AY101061AY201061GA1001+999999999GF100991001001999999001001IA1019KA1240M+03901KA2120N+02461MA1999999095431MD1210031+0001MW1041REMSYN106AAXX  20121 76393 31920 00601 10246 20197 39543 40094 52003 70400 91155 333 10390 20246 30240 58000 70000;EQDQ01  00002PRCP24
0217763930999992011082015004+25733-100300FM-12+051599999V0200601N002012200019N0030001N1+02681+02091101151ADDAY101031AY201031GA1031+007201061GF103991031051008001001001IA1019MA1999999095591MD1210161+0081MW1041REMSYN106AAXX  20151 76393 31530 30602 10268 20209 39559 40115 52016 70400 83500 91450 333 0/300 30/// 58008 83624;
0161763930999992011082018004+25733-100300FM-12+051599999V0200701N002012200019N0030001N1+03201+01901101151ADDAY101061AY201061GF101991011011017501001001MA1999999095611MD1210021+9999MW1041REMSYN072AAXX  20181 76393 31730 10702 10320 20190 39561 40115 52002 70400 81100;
0217763930999992011082021004+25733-100300FM-12+051599999V0201201N005012200019N0050001N1+03601+01841100881ADDAY101031AY201031GA1021+021001081GF102991021011022501001001IA1019MA1999999095391MD1710221+0141MW1041REMSYN106AAXX  20211 76393 31850 21205 10360 20184 39539 40088 57022 70400 82100 92045 333 00300 30/// 58014 82857;
0161763930999992011082100004+25733-100300FM-12+051599999V0201201N005012200019N0050001N1+03521+01621100671ADDAY101061AY201061GF101991011011022501001001MA1999999095241MD1710151+9999MW1041REMSYN072AAXX  21001 76393 31850 11205 10352 20162 39524 40067 57015 70400 81100;
0199763930999992011082103004+25733-100300FM-12+051599999V0201201N003012200019N0020001N1+03201+01571100761ADDAY101031AY201031GA1001+999999999GF100991001001999999001001IA1019MA1999999095361MD1210121+0081MW1041REMSYN088AAXX  21031 76393 31920 01203 10320 20157 39536 40076 52012 70400 90253 333 30/// 58008;
0161763930999992011082106004+25733-100300FM-12+051599999V0201201N006012200019N0020001N1+02821+02121100961ADDAY101061AY201061GF102991021051008001001001MA1999999095541MD1210181+9999MW1041REMSYN072AAXX  21061 76393 31520 21206 10282 20212 39554 40096 52018 70400 82500;
0217763930999992011082109004+25733-100300FM-12+051599999V0201101N003012200019N0020001N1+02601+02181100991ADDAY101031AY201031GA1031+005101061GF103991031051004501001001IA1019MA1999999095531MD1710011+0131MW1041REMSYN106AAXX  21091 76393 31420 31103 10260 20218 39553 40099 57001 70400 83500 90852 333 0/300 30/// 58013 83617;
0273763930999992011082112004+25733-100300FM-12+051599999V0201201N003012200019N0020001N1+02541+02121101141ADDAA124000091AY101061AY201061GA1001+999999999GF100991001001999999001001IA1019KA1240M+03761KA2120N+02481MA1999999095621MD1210091+0191MW1041REMSYN106AAXX  21121 76393 31920 01203 10254 20212 39562 40114 52009 70400 91150 333 10376 20248 30244 58019 70000;EQDQ01  00002PRCP24
0217763930999992011082115004+25733-100300FM-12+051599999V0200601N001012200019N0030001N1+02801+02251101291ADDAY101031AY201031GA1031+006901061GF103991031051008001001001IA1019MA1999999095741MD1210121+0151MW1041REMSYN106AAXX  21151 76393 31530 30601 10280 20225 39574 40129 52012 70400 83500 91450 333 0/700 30/// 58015 83623;
0161763930999992011082118004+25733-100300FM-12+051599999V0201101N003012200019N0040001N1+03301+02141101301ADDAY101061AY201061GF103991031011012501001001MA1999999095761MD1210021+9999MW1041REMSYN072AAXX  21181 76393 31640 31103 10330 20214 39576 40130 52002 70400 83100;
0217763930999992011082121004+25733-100300FM-12+051599999V0201201N006012200019N0050001N1+03641+01781101011ADDAY101031AY201031GA1031+021001081GF103991031011022501001001IA1019MA1999999095521MD1710241+0131MW1041REMSYN106AAXX  21211 76393 31850 31206 10364 20178 39552 40101 57024 70400 83100 92055 333 00300 30/// 58013 83857;
0161763930999992011082200004+25733-100300FM-12+051599999V0201201N005012200019N0060001N1+03601+01651100881ADDAY101061AY201061GF103991031051022501001001MA1999999095441MD1710081+9999MW1041REMSYN072AAXX  22001 76393 31856 31205 10360 20165 39544 40088 57008 70400 83500;
0217763930999992011082203004+25733-100300FM-12+051599999V0201301N005010150019N0020001N1+03181+01931100741ADDAY121031AY221031GA1061+015001061GF106991061051017501001001IA1019MA1999999095341MD1710101-0021MW1041REMSYN106AAXX  22031 76393 31720 61305 10318 20193 39534 40074 57010 70422 86500 90251 333 0/300 30/// 59002 86650;
0161763930999992011082206004+25733-100300FM-12+051599999V0201201N002012200019N0020001N1+02881+01971101261ADDAY111061AY211061GF102991021051012501001001MA1999999095821MD1210481+9999MW1041REMSYN072AAXX  22061 76393 31620 21202 10288 20197 39582 40126 52048 70411 82500;
0199763930999992011082209004+25733-100300FM-12+051599999V0201101N001012200019N0010001N1+02641+02011101191ADDAY101031AY201031GA1001+999999999GF100991001001999999001001IA1019MA1999999095711MD1710111+0181MW1041REMSYN088AAXX  22091 76393 31910 01101 10264 20201 39571 40119 57011 70400 90852 333 30/// 58018;
0273763930999992011082212004+25733-100300FM-12+051599999V0201201N002012200019N0020001N1+02581+02101101261ADDAA124000091AY101061AY201061GA1001+999999999GF100991001001999999001001IA1019KA1240M+03741KA2120N+02541MA1999999095741MD1210021+0121MW1041REMSYN106AAXX  22121 76393 31920 01202 10258 20210 39574 40126 52002 70400 91150 333 10374 20254 30252 58012 70000;EQDQ01  00002PRCP24
0217763930999992011082215004+25733-100300FM-12+051599999V0201201N002012200019N0040001N1+02861+02171101451ADDAY101031AY201031GA1021+008401061GF102991021041008001001001IA1019MA1999999095901MD1210161+0161MW1041REMSYN106AAXX  22151 76393 31540 21202 10286 20217 39590 40145 52016 70400 82400 91450 333 0/300 30/// 58016 82628;
0161763930999992011082218004+25733-100300FM-12+051599999V0201201N004012200019N0050001N1+03381+02011101331ADDAY101061AY201061GF101991011011017501001001MA1999999095791MD1710111+9999MW1041REMSYN072AAXX  22181 76393 31750 11204 10338 20201 39579 40133 57011 70400 81100;
0217763930999992011082221004+25733-100300FM-12+051599999V0201101N005010210019N0070001N1+03701+02011100991ADDAY121031AY221031GA1051+021001081GF105991051011022501001001IA1019MA1999999095521MD1710271+0001MW1041REMSYN106AAXX  22211 76393 31857 51105 10370 20201 39552 40099 57027 70422 85100 92050 333 02300 30/// 58000 85857;
0331763930999992011082300004+25733-100300FM-12+051599999V0201301N003010150019N0050001N1+03301+02081100881ADDAA103000791AA206000892AA324000792AY121061AY221061GA1041+015001051GF106991061051017501999081IA1099KA1120M+03741KA2180N+02541MA1999999095451MD1710071+0011MW1201REMSYN142AAXX  23001 76393 01750 61303 10330 20208 39545 40088 57007 69971 72022 86508 92352 333 0/303 10374 20254 31/// 51581 58001 69977 70007 84550;EQDQ01    003SCOMCG
0217763930999992011082303004+25733-100300FM-12+051599999V0201101N003012200019N0020001N1+02961+02031101021ADDAY101031AY201031GA1011+011401061GF101991011051012501001001IA1019MA1999999095601MD1210151-0041MW1041REMSYN106AAXX  23031 76393 31620 11103 10296 20203 39560 40102 52015 70400 81500 90251 333 0/300 30/// 59004 81638;
0251763930999992011082306004+25733-100300FM-12+051599999V0201201N003012200019N0020001N1+02721+02101101131ADDAY101061AY201061GA1001+999999999GF100991001001999999001001GJ105769IA1019KA1240M+03741KA2240N+02541MA1999999095681MD1210081-0141MW1041REMSYN106AAXX  23061 76393 31920 01203 10272 20210 39568 40113 52008 70400 90552 333 10374 20254 30/// 55096 59014;
0199763930999992011082309004+25733-100300FM-12+051599999V0200601N001012200019N0020001N1+02501+02081101091ADDAY101031AY201031GA1001+999999999GF100991001001999999001001IA1019MA1999999095601MD1710081-0111MW1041REMSYN088AAXX  23091 76393 31920 00601 10250 20208 39560 40109 57008 70400 90850 333 30/// 59011;
0161763930999992011082312004+25733-100300FM-12+051599999V0200901N001012200019N0020001N1+02461+02091101141ADDAY101061AY201061GF101991011011004501001001MA1999999095601MD1410001+9999MW1041REMSYN072AAXX  23121 76393 31420 10901 10246 20209 39560 40114 54000 70400 81100;
0199763930999992011082315004+25733-100300FM-12+051599999V0200601N001012200019N0030001N1+02841+02171101211ADDAY101031AY201031GA1001+999999999GF100991001001999999001001IA1019MA1999999095651MD1210051-0251MW1041REMSYN088AAXX  23151 76393 31930 00601 10284 20217 39565 40121 52005 70400 91450 333 30/// 59025;
0161763930999992011082318004+25733-100300FM-12+051599999V0200701N001012200019N0030001N1+03301+02071101151ADDAY111061AY211061GF102991021011017501001001MA1999999095601MD1710051+9999MW1041REMSYN072AAXX  23181 76393 31730 20701 10330 20207 39560 40115 57005 70411 82100;
0189763930999992011082321004+25733-100300FM-12+051599999V0201201N002012200019N0060001N1+03661+01991100801ADDGA1031+018001081GF103991031021022501001001IA1019MA1999999095311MD1710291-0211REMSYN100AAXX  23211 76393 32856 31202 10366 20199 39531 40080 57029 83200 92050 333 01500 30/// 59021 83856;
0251763930999992011082406004+25733-100300FM-12+051599999V0201201N006012200019N0020001N1+02901+01991100861ADDAY101061AY201061GA1001+999999999GF100991001001999999001001GJ106309IA1019KA1240M+03841KA2240N+02401MA1999999095471MD1999999-0211MW1041REMSYN106AAXX  24061 76393 31920 01206 10290 20199 39547 40086 5//// 70400 90552 333 10384 20240 30/// 55105 59021;
0199763930999992011082409004+25733-100300FM-12+051599999V0201101N003012200019N0020001N1+02601+02181101221ADDAY101031AY201031GA1001+999999999GF100991001001999999001001IA1019MA1999999095451MD1710021-0151MW1041REMSYN088AAXX  24091 76393 31920 01103 10260 20218 39545 40122 57002 70400 90850 333 30/// 59015;
0273763930999992011082412004+25733-100300FM-12+051599999V0200601N001012200019N0020001N1+02541+02181101211ADDAA124000091AY101061AY201061GA1001+999999999GF100991001001999999001001IA1019KA1240M+03841KA2120N+02501MA1999999095451MD1410001-0151MW1041REMSYN106AAXX  24121 76393 31920 00601 10254 20218 39545 40121 54000 70400 91150 333 10384 20250 30246 59015 70000;EQDQ01  00002PRCP24
0217763930999992011082415004+25733-100300FM-12+051599999V0200701N001012200019N0030001N1+02881+02251101161ADDAY101031AY201031GA1021+007801061GF102991021041008001001001IA1019MA1999999095531MD1210081-0121MW1041REMSYN106AAXX  24151 76393 31530 20701 10288 20225 39553 40116 52008 70400 82400 91450 333 0/300 30/// 59012 82626;
0161763930999992011082418004+25733-100300FM-12+051599999V0200601N001012200019N0040001N1+03361+02021101031ADDAY111061AY211061GF102991021011017501001001MA1999999095511MD1710021+9999MW1041REMSYN072AAXX  24181 76393 31740 20601 10336 20202 39551 40103 57002 70411 82100;
0183763930999992011082421004+25733-100300FM-12+051599999V0201201N002012200019N0050001N1+03761+01941100661ADDGA1031+024001081GF103991999999022501999999IA1019MA1999999095201MD1710311-0111REMSYN094AAXX  24211 76393 32850 31202 10376 20194 39520 40066 57031 92052 333 01500 30/// 59011 83858;
0161763930999992011082500004+25733-100300FM-12+051599999V0201201N005012200019N0060001N1+03681+01681100521ADDAY101061AY201061GF102991021051022501001001MA1999999095121MD1710081+9999MW1041REMSYN072AAXX  25001 76393 31856 21205 10368 20168 39512 40052 57008 70400 82500;
0217763930999992011082503004+25733-100300FM-12+051599999V0201201N007012200019N0020001N1+03261+01861100711ADDAY101031AY201031GA1011+015001061GF101991011051017501001001IA1019MA1999999095321MD1210201+9999MW1061REMSYN106AAXX  25031 76393 31720 11207 10326 20186 39532 40071 52020 70600 81500 90250 333 0/300 30/// 58/// 81650;
0161763930999992011082506004+25733-100300FM-12+051599999V0201201N006012200019N0020001N1+02821+02061100911ADDAY101061AY201061GF102991021051008001001001MA1999999095511MD1210191+9999MW1041REMSYN072AAXX  25061 76393 31520 21206 10282 20206 39551 40091 52019 70400 82500;
0199763930999992011082509004+25733-100300FM-12+051599999V0201201N003012200019N0020001N1+02641+02111100861ADDAY101031AY201031GA1001+999999999GF100991001001999999001001IA1019MA1999999095421MD1710091-0031MW1041REMSYN088AAXX  25091 76393 31920 01203 10264 20211 39542 40086 57009 70400 90851 333 30/// 59003;
0273763930999992011082512004+25733-100300FM-12+051599999V0200601N001012200019N0020001N1+02561+02031100921ADDAA124000091AY101061AY201061GA1001+999999999GF100991001001999999001001IA1019KA1240M+03881KA2120N+02561MA1999999095421MD1410001-0031MW1041REMSYN106AAXX  25121 76393 31920 00601 10256 20203 39542 40092 54000 70400 91152 333 10388 20256 30252 59003 70000;EQDQ01  00002PRCP24
0217763930999992011082515004+25733-100300FM-12+051599999V0200201N001012200019N0030001N1+02911+02181101111ADDAY111031AY211031GA1011+009001081GF102991011011008001031001IA1019MA1999999095571MD1210151+0041MW1041REMSYN106AAXX  25151 76393 31530 20201 10291 20218 39557 40111 52015 70411 81130 91452 333 00550 30/// 58004 81830;
0211763930999992011082603004+25733-100300FM-12+051599999V0201201N003010090019N0020001N1+02941+02201100991ADDAY121031AY221031GA1061+009001061GF106991999999008001999999IA1019MA1999999095571MD1210291+0251MW1041REMSYN100AAXX  26031 76393 31520 61203 10294 20220 39557 40099 52029 70422 90251 333 0/300 30/// 58025 86630;
0327763930999992011082606004+25733-100300FM-12+051599999V0201201N002010018019N0020001N1+02481+02341101161ADDAA103000291AY121061AY221061GA1081+001801061GF108991081051001501001001GJ105709IA1099KA1240M+03761KA2240N+99999MA1999999095691MD1210121+0181MW1211REMSYN136AAXX  26061 76393 01220 81202 10248 20234 39569 40116 52012 69921 72122 88500 90852 333 0/300 10376 20256 31/// 55095 58018 69927 88606;EQDQ01  00002PRCP06Q02 +02562ATMN  
0234763930999992011082609004+25733-100300FM-12+051599999V0201101N001012200019N0020001N1+02461+02291101051ADDAA103003091AY101031AY201031GA1021+002101061GF102991021051002501001001IA1099MA1999999095501MD1710191+0081MW1041REMSYN112AAXX  26091 76393 21320 21101 10246 20229 39550 40105 57019 70400 82500 90853 333 0/300 31/// 58008 60037 82607;
0300763930999992011082612004+25733-100300FM-12+051599999V0200601N001010021019N0010001N1+02421+02251101161ADDAA103002091AA206002091AA324003391AY121061AY221061GA1061+002101061GF106991999999002501999999IA1019KA1240M+03761KA2120N+02401MA1999999095591MD1210091+0171MW1041REMSYN130AAXX  26121 76393 01310 60601 10242 20225 39559 40116 52009 60021 70422 91152 333 0/300 10376 20240 30230 58017 60027 70033 86607;
0217763930999992011082615004+25733-100300FM-12+051599999V0201101N001010360019N0030001N1+02801+02191101391ADDAY121031AY221031GA1041+007501081GF106991041021008001031081IA1099MA1999999095791MD1210201+0221MW1041REMSYN106AAXX  26151 76393 31530 61101 10280 20219 39579 40139 52020 70422 84238 91452 333 02355 31/// 58022 84825;
0251763930999992011082703004+25733-100300FM-12+051599999V0202101N001010009019N0020001N1+02261+02171101351ADDAA103025091AA206054191AY121031AY221031GA1081+000901061GF108991081051001501999999IA1119MA1999999095821MD1710111+0251MW1211REMSYN118AAXX  27031 76393 21220 82101 10226 20217 39582 40135 57011 60541 72122 885// 90253 333 0/300 32/// 58025 60257 88603;
0322763930999992011082706004+25733-100300FM-12+051599999V0200701N001012200019N0020001N1+02261+02171101381ADDAA103002091AA206025991AY101061AY201061GA1021+001201061GF102991021051001501001001GJ103249IA1099KA1240M+03461KA2240N+99999MA1999999095811MD1710011+0121MW1041REMSYN136AAXX  27061 76393 01220 20701 10226 20217 39581 40138 57001 60261 70400 82500 90552 333 0/300 10346 20238 31/// 55054 58012 60027 82604;EQDQ01 +02382ATMN  
0217763930999992011082709004+25733-100300FM-12+051599999V0202201N001012200019N0020001N1+02201+02111101331ADDAY101031AY201031GA1011+001201061GF101991011051001501001001IA1099MA1999999095711MD1710101+0211MW1041REMSYN106AAXX  27091 76393 31220 12201 10220 20211 39571 40133 57010 70400 81500 90852 333 0/300 31/// 58021 81604;
0161763930999992011082712004+25733-100300FM-12+051599999V0202501N001012200019N0010001N1+02231+02061101361ADDAY101061AY201061GF102991021051002501001001MA1999999095721MD1210011+9999MW1041REMSYN072AAXX  27121 76393 31310 22501 10223 20206 39572 40136 52001 70400 82500;
0195763930999992011082715004+25733-100300FM-12+051599999V0202701N001010360019N0050001N1+02781+01921101471ADDGA1011+010501061GF106991011051012501071021IA1099MA1999999095841MD1210121+0251REMSYN106AAXX  27151 76393 32650 62701 10278 20192 39584 40147 52012 81572 91452 333 0/555 31/// 58025 81635 84362;
0147763930999992011082800004+25733-100300FM-12+051599999V0201601N002012200019N0040001N1+03441+01741100901ADDAY101061AY201061GF101991011051022501001001MA1999999095441MW1041REMSYN072AAXX  28001 76393 31840 11602 10344 20174 39544 40090 5//// 70400 81500;
0251763930999992011082806004+25733-100300FM-12+051599999V0201901N001012200019N0020001N1+02761+01801101031ADDAY101061AY201061GA1001+999999999GF100991001001999999001001GJ106789IA1019KA1240M+03581KA2240N+02201MA1999999095571MD1410001-0241MW1041REMSYN106AAXX  28061 76393 31920 01901 10276 20180 39557 40103 54000 70400 90552 333 10358 20220 30/// 55113 59024;
0199763930999992011082809004+25733-100300FM-12+051599999V0200501N001012200019N0020001N1+02561+01931101001ADDAY101031AY201031GA1001+999999999GF100991001001999999001001IA1019MA1999999095511MD1710061-0201MW1041REMSYN088AAXX  28091 76393 31920 00501 10256 20193 39551 40100 57006 70400 90850 333 30/// 59020;
0279763930999992011082900004+25733-100300FM-12+051599999V0201301N003012200019N0050001N1+03621+00981100631ADDAA124000091AY101061AY201061GA1001+999999999GF100991001001999999001001IA1019KA1120M+03821KA2180N+02481MA1999999095201MD1999999-0241MW1051REMSYN112AAXX  29001 76393 31950 01303 10362 20098 39520 40063 5//// 70500 92351 333 10382 20248 30/// 51121 59024 70000;EQDQ01  00002PRCP24
0213763930999992011082903004+25733-100300FM-12+051599999V0201601N001012200019N0030001N1+03141+01371100691ADDAY101031AY201031GA1001+999999999GF100991001001999999001001GJ106909IA1019MA1999999095281MD1210081-0291MW1051REMSYN094AAXX  29031 76393 31930 01601 10314 20137 39528 40069 52008 70500 90250 333 30/// 55115 59029;
0231763930999992011082912004+25733-100300FM-12+051599999V0202201N001012200019N0010001N1+02581+01581100871ADDAA124000091GA1001+999999999GF100991001001999999001001IA1019KA1240M+03821KA2120N+02501MA1999999095371REMSYN100AAXX  29121 76393 32910 02201 10258 20158 39537 40087 5//// 91145 333 10382 20250 30246 58/// 70000;EQDQ01  00002PRCP24
0136763930999992011082915004+25733-100300FM-12+051599999V0202201N001012200019N0020001N1+03021+99999999999ADDGA1001+999999999GF100991001001999999001001REMSYN082AAXX  29151 76393 32920 02201 10302 10148 39554 40106 52017 91445 333 30/// 58///;
0147763930999992011083000004+25733-100300FM-12+051599999V0201201N003012200019N0050001N1+03641+01261100581ADDAY101061AY201061GF101991011011022501001001MA1999999095181MW1041REMSYN072AAXX  30001 76393 31850 11203 10364 20126 39518 40058 5//// 70400 81100;
0199763930999992011083003004+25733-100300FM-12+051599999V0201101N003012200019N0020001N1+03261+01291100721ADDAY101031AY201031GA1001+999999999GF100991001001999999001001IA1019MA1999999095341MD1210161+0061MW1041REMSYN088AAXX  30031 76393 31920 01103 10326 20129 39534 40072 52016 70400 90253 333 30/// 58006;
0251763930999992011083006004+25733-100300FM-12+051599999V0203001N001012200019N0020001N1+02901+01861100841ADDAY101061AY201061GA1001+999999999GF100991001001999999001001GJ106849IA1019KA1240M+03941KA2240N+02501MA1999999095441MD1210101+9999MW1041REMSYN106AAXX  30061 76393 31920 03001 10290 20186 39544 40084 52010 70400 90552 333 10394 20250 30/// 55114 58///;
0199763930999992011083009004+25733-100300FM-12+051599999V0200601N002012200019N0020001N1+02581+01981100851ADDAY101031AY201031GA1001+999999999GF100991001001999999001001IA1019MA1999999095411MD1710031+9999MW1041REMSYN088AAXX  30091 76393 31920 00602 10258 20198 39541 40085 57003 70400 90850 333 30/// 58///;
0147763930999992011083018004+25733-100300FM-12+051599999V0201201N003012200019N0030001N1+03341+02031101011ADDAY101061AY201061GF101991011011017501001001MA1999999095481MW1041REMSYN072AAXX  30181 76393 31730 11203 10334 20203 39548 40101 5//// 70400 81100;
0189763930999992011083021004+25733-100300FM-12+051599999V0201201N003012200019N0050001N1+03621+01521100711ADDGA1011+024001081GF101991011011022501001001IA1019MA1999999095231MD1710251+9999REMSYN100AAXX  30211 76393 32850 11203 10362 20152 39523 40071 57025 81100 92050 333 00300 30/// 58/// 81858;
0147763930999992011083106004+25733-100300FM-12+051599999V0201101N006012200019N0020001N1+02741+02061100861ADDAY101061AY201061GF102991021051008001001001MA1999999095451MW1041REMSYN072AAXX  31061 76393 31520 21106 10274 20206 39545 40086 5//// 70400 82500;
0217763930999992011083109004+25733-100300FM-12+051599999V0201101N003012200019N0020001N1+02561+02111101141ADDAY101031AY201031GA1011+005701061GF101991011051004501001001IA1019MA1999999095411MD1710041+0001MW1041REMSYN106AAXX  31091 76393 31420 11103 10256 20211 39541 40114 57004 70400 81500 90852 333 0/300 30/// 58000 81619;
0147763930999992011083118004+25733-100300FM-12+051599999V0201201N006010120019N0040001N1+03151+02171101141ADDAY121061AY221061GF105991051011012501001001MA1999999095591MW1041REMSYN072AAXX  31181 76393 31640 51206 10315 20217 39559 40114 5//// 70422 85100;
0195763930999992011083121004+25733-100300FM-12+051599999V0201201N00601090001CN0050001N1+03401+01931100861ADDGA1021+018001081GF106991021021017501021041IA1019MA1999999095361MD1710231+0131REMSYN106AAXX  31211 76393 32750 61206 10340 20193 39536 40086 57023 82224 92045 333 03355 30/// 58013 82856 83463;
0161763930999992011090100004+25733-100300FM-12+051599999V0201201N004010042019N0040001N1+02801+02101100901ADDAY121061AY221061GF108991051051004501041021MA1999999095421MD1710061+9999MW1041REMSYN072AAXX  01001 76393 31440 81204 10280 20210 39542 40090 57006 70422 85542;
0199763930999992011090103004+25733-100300FM-12+051599999V0201301N004012200019N0020001N1+02701+02171100971ADDAY101031AY201031GA1001+999999999GF100991001001999999001001IA1019MA1999999095501MD1210081+9999MW1041REMSYN088AAXX  01031 76393 31920 01304 10270 20217 39550 40097 52008 70400 90251 333 30/// 58///;
0161763930999992011090106004+25733-100300FM-12+051599999V0201201N003012200019N0020001N1+02521+02181101101ADDAY101061AY201061GF101991011051004501001001MA1999999095601MD1210101+9999MW1041REMSYN072AAXX  01061 76393 31420 11203 10252 20218 39560 40110 52010 70400 81500;
0217763930999992011090109004+25733-100300FM-12+051599999V0201001N003012200019N0020001N1+02381+02101101081ADDAY101031AY201031GA1011+003601061GF102991011051004501031001IA1019MA1999999095541MD1710061+0131MW1041REMSYN106AAXX  01091 76393 31420 21003 10238 20210 39554 40108 57006 70400 81530 90852 333 0/350 30/// 58013 81612;
0227763930999992011090118004+25733-100300FM-12+051599999V0201101N005010360019N0040001N1+03121+02091101211ADDGA1031+012601081GF106991031011012501031081IA1019KA1120M+03231KA2240N+02321MA1999999095661MD1999999+0071REMSYN112AAXX  01181 76393 32640 61105 10312 20209 39566 40121 5//// 83138 91745 333 03355 10323 20232 30/// 58007 83842;
0189763930999992011090121004+25733-100300FM-12+051599999V0201101N005010900019N0050001N1+03501+01961100871ADDGA1041+018001081GF106991041011017501001081IA1019MA1999999095381MD1710281+0021REMSYN100AAXX  01211 76393 32750 61105 10350 20196 39538 40087 57028 84108 92045 333 02305 30/// 58002 84856;
0161763930999992011090200004+25733-100300FM-12+051599999V0201101N003010360019N0060001N1+03381+01981100711ADDAY121061AY221061GF106991041051017501081081MA1999999095271MD1710111+9999MW1041REMSYN072AAXX  02001 76393 31756 61103 10338 20198 39527 40071 57011 70422 84588;
0217763930999992011090203004+25733-100300FM-12+051599999V0201801N003010090019N0040001N1+02861+02111100871ADDAY121031AY221031GA1061+009001061GF106991061051008001001001IA1019MA1999999095431MD1210161-0071MW1041REMSYN106AAXX  02031 76393 31540 61803 10286 20211 39543 40087 52016 70422 86500 90252 333 0/300 30/// 59007 86630;
0303763930999992011090206004+25733-100300FM-12+051599999V0209999C000010024019N0020001N1+02501+02311100981ADDAA103001091AA206001091AY121061AY221061GA1071+002401061GF107991071051002501001001GJ106129IA1099KA1240M+03581KA2240N+02231MA1999999095521MD1210091-0081MW1201REMSYN136AAXX  02061 76393 01320 71900 10250 20231 39552 40098 52009 60011 72022 87500 90552 333 0/300 10358 20223 31/// 55102 59008 60017 87608;
0234763930999992011090209004+25733-100300FM-12+051599999V0209999C000012200019N0020001N1+02461+02271100941ADDAA103000791AY101031AY201031GA1021+002401061GF103991021051002501031001IA1099MA1999999095441MD1710081-0101MW1041REMSYN112AAXX  02091 76393 21320 31200 10246 20227 39544 40094 57008 70400 82530 90853 333 0/350 31/// 59010 69977 82608;
0203763930999992011090215004+25733-100300FM-12+051599999V0201101N001012200019N0020001N1+02961+02311101151ADDAY101031AY201031GA1011+008101081GF103991011021008001001081IA1019MA1999999095461MW1051REMSYN106AAXX  02151 76393 31520 31101 10296 20231 39546 40115 5//// 70500 81208 91445 333 00305 30/// 58/// 81827;
0161763930999992011090218004+25733-100300FM-12+051599999V0201101N003012200019N0040001N1+03201+02121100901ADDAY111061AY211061GF104991021021012501031081MA1999999095381MD1710081+9999MW1041REMSYN072AAXX  02181 76393 31640 41103 10320 20212 39538 40090 57008 70411 82238;
0217763930999992011090221004+25733-100300FM-12+051599999V0201101N00301015001CN0060001N1+03601+02081100601ADDGA1011+018001091GA2011+021001081GF107991051031017501031081IA1019MA1999999095141MD1710241-0241REMSYN112AAXX  02211 76393 32756 71103 10360 20208 39514 40060 57024 85338 92045 333 06755 30/// 59024 81956 81857 83657;
0161763930999992011090300004+25733-100300FM-12+051599999V0201401N002010360019N0040001N1+03321+01901100531ADDAY121061AY221061GF107991041031017501031081MA1999999095111MD1710031+9999MW1041REMSYN072AAXX  03001 76393 31740 71402 10332 20190 39511 40053 57003 70422 84338;
0195763930999992011090303004+25733-100300FM-12+051599999V0201701N001012200019N0030001N1+03121+02061100611ADDAY111031AY211031GF104991021001999999031081IA1019MA1999999095201MD1210091-0231MW1041REMSYN100AAXX  03031 76393 31930 41701 10312 20206 39520 40061 52009 70411 82038 90251 333 0/055 30/// 59023;
0161763930999992011090306004+25733-100300FM-12+051599999V0201201N002012200019N0020001N1+02921+02081100611ADDAY101061AY201061GF101991011051012501001001MA1999999095201MD1410001+9999MW1041REMSYN072AAXX  03061 76393 31620 11202 10292 20208 39520 40061 54000 70400 81500;
0217763930999992011090309004+25733-100300FM-12+051599999V0201201N003012200019N0020001N1+02641+02111100611ADDAY101031AY201031GA1011+006601061GF102991011051008001031001IA1019MA1999999095161MD1710041-0281MW1041REMSYN106AAXX  03091 76393 31520 21203 10264 20211 39516 40061 57004 70400 81530 90852 333 0/350 30/// 59028 81622;
0161763930999992011090312004+25733-100300FM-12+051599999V0201901N001010360019N0010001N1+02661+02161100661ADDAY111061AY211061GF105991031051008001041001MA1999999095171MD1210011+9999MW1041REMSYN072AAXX  03121 76393 31510 51901 10266 20216 39517 40066 52001 70411 83540;
0195763930999992011090315004+25733-100300FM-12+051599999V0202701N001012200019N0020001N1+03021+02161100741ADDAY101031AY201031GF101991001001999999001081IA1019MA1999999095241MD1210071-0221MW1041REMSYN100AAXX  03151 76393 31920 12701 10302 20216 39524 40074 52007 70400 80008 91445 333 0/005 30/// 59022;
0147763930999992011090400004+25733-100300FM-12+051599999V0201701N002010360019N0050001N1+03501+01961100221ADDAY111061AY211061GF105991031051017501041001MA1999999094841MW1041REMSYN072AAXX  04001 76393 31750 51702 10350 20196 39484 40022 5//// 70411 83540;
0217763930999992011090403004+25733-100300FM-12+051599999V0201801N002010360019N0040001N1+03161+02101100321ADDAY121031AY221031GA1031+012901061GF105991031051012501041001IA1019MA1999999094961MD1210121-0241MW1041REMSYN106AAXX  04031 76393 31640 51802 10316 20210 39496 40032 52012 70422 83540 90251 333 0/350 30/// 59024 83643;
0251763930999992011090406004+25733-100300FM-12+051599999V0202101N002012200019N0020001N1+03021+01861100351ADDAY101061AY201061GA1001+999999999GF100991001001999999001001GJ105529IA1019KA1240M+03881KA2240N+02621MA1999999094971MD1210011-0231MW1041REMSYN106AAXX  04061 76393 31920 02102 10302 20186 39497 40035 52001 70400 90552 333 10388 20262 30/// 55092 59023;
0217763930999992011090409004+25733-100300FM-12+051599999V0202101N001010141019N0020001N1+02921+01781100341ADDAY121031AY221031GA1061+014101061GF106991061051012501001001IA1019MA1999999094931MD1710041-0231MW1041REMSYN106AAXX  04091 76393 31620 62101 10292 20178 39493 40034 57004 70422 86500 90853 333 0/300 30/// 59023 86647;
0161763930999992011090412004+25733-100300FM-12+051599999V0202601N001012200019N0010001N1+02881+01871100461ADDAY101061AY201061GF102991021051012501001001MA1999999095011MD1210081+9999MW1041REMSYN072AAXX  04121 76393 31610 22601 10288 20187 39501 40046 52008 70400 82500;
0217763930999992011090415004+25733-100300FM-12+051599999V0202001N001012200019N0040001N1+03161+01871100691ADDAY101031AY201031GA1031+015001061GF103991031051017501001001IA1019MA1999999095221MD1210211-0021MW1041REMSYN106AAXX  04151 76393 31740 32001 10316 20187 39522 40069 52021 70400 83500 91445 333 0/300 30/// 59002 83650;
0147763930999992011090500004+25733-100300FM-12+051599999V0200601N003012200019N0030001N1+03541+01151100431ADDAY121061AY221061GF105991031051022501001041MA1999999095061MW1051REMSYN072AAXX  05001 76393 31830 50603 10354 20115 39506 40043 5//// 70522 83504;
0195763930999992011090503004+25733-100300FM-12+051599999V0200601N001012200019N0020001N1+03301+01311100701ADDAY101031AY201031GF102991021001999999041001IA1019MA1999999095321MD1210261+0361MW1041REMSYN100AAXX  05031 76393 31920 20601 10330 20131 39532 40070 52026 70400 82040 90253 333 0/030 30/// 58036;
0147763930999992011090512004+25733-100300FM-12+051599999V0200201N002012200019N0020001N1+02821+01541101061ADDAY111061AY211061GF103991031051017501001001MA1999999095581MW1041REMSYN072AAXX  05121 76393 31720 30202 10282 20154 39558 40106 5//// 70411 83500;
0217763930999992011090515004+25733-100300FM-12+051599999V0203001N001010150019N0030001N1+02821+01591101281ADDAY121031AY221031GA1071+015001061GF107991071051017501999999IA1019MA1999999095771MD1210191+0551MW1041REMSYN106AAXX  05151 76393 31730 73001 10282 20159 39577 40128 52019 70422 875// 91455 333 0/399 30/// 58055 87650;
0161763930999992011090518004+25733-100300FM-12+051599999V0203601N005010150019N0040001N1+02941+01631101321ADDAY121061AY221061GF107991071051017501999999MA1999999095801MD1210031+9999MW1041REMSYN072AAXX  05181 76393 31740 73605 10294 20163 39580 40132 52003 70422 875//;
0189763930999992011090521004+25733-100300FM-12+051599999V0200101N003010150019N0040001N1+02861+01641101151ADDGA1081+015001061GF108991081051012501999999IA1019MA1999999095631MD1710171+9999REMSYN100AAXX  05211 76393 32640 80103 10286 20164 39563 40115 57017 885// 92045 333 0/399 30/// 58/// 88650;
0161763930999992011090600004+25733-100300FM-12+051599999V0203601N002010360019N0050001N1+03041+01621101081ADDAY121061AY221061GF105991021051017501041001MA1999999095581MD1710081+9999MW1041REMSYN072AAXX  06001 76393 31750 53602 10304 20162 39558 40108 57008 70422 82540;
0161763930999992011090606004+25733-100300FM-12+051599999V0209999C000012200019N0020001N1+02761+01651101281ADDAY101061AY201061GF102991021051012501001001MA1999999095761MD1210041+9999MW1041REMSYN072AAXX  06061 76393 31620 21600 10276 20165 39576 40128 52004 70400 82500;
0217763930999992011090609004+25733-100300FM-12+051599999V0203501N00301036001CN0020001N1+02561+01061101301ADDAY121031AY221031GA1041+018001061GF105991041051017501031001IA1019MA1999999095771MD1210011+0291MW1041REMSYN106AAXX  06091 76393 31720 53503 10256 20106 39577 40130 52001 70422 84530 90853 333 0/350 30/// 58029 84656;
0161763930999992011090612004+25733-100300FM-12+051599999V0200701N001010150019N0020001N1+02401+01171101471ADDAY121061AY221061GF105991051051017501001001MA1999999095921MD1210151+9999MW1041REMSYN072AAXX  06121 76393 31720 50701 10240 20117 39592 40147 52015 70422 85500;
0161763930999992011090618004+25733-100300FM-12+051599999V0200701N001012200019N0030001N1+03001+01601101551ADDAY101061AY201061GF101991011021017501001001MA1999999095961MD1710071+9999MW1041REMSYN072AAXX  06181 76393 31730 10701 10300 20160 39596 40155 57007 70400 81200;
0217763930999992011090621004+25733-100300FM-12+051599999V0200501N002012200019N0030001N1+03141+01111101321ADDAY101031AY201031GA1011+024001081GF101991011021022501001001IA1019MA1999999095781MD1710181+0151MW1051REMSYN106AAXX  06211 76393 31830 10502 10314 20111 39578 40132 57018 70500 81200 92045 333 00500 30/// 58015 81858;
0251763930999992011090706004+25733-100300FM-12+051599999V0202101N001012200019N0020001N1+02461+00821101371ADDAY101061AY201061GA1001+999999999GF100991001001999999001001GJ106189IA1019KA1240M+03421KA2240N+02381MA1999999095881MD1999999+0121MW1041REMSYN106AAXX  07061 76393 31920 02101 10246 20082 39588 40137 5//// 70400 90552 333 10342 20238 30/// 55103 58012;
0199763930999992011090709004+25733-100300FM-12+051599999V0209999C000012200019N0020001N1+02061+00981101741ADDAY101031AY201031GA1001+999999999GF100991001001999999001001IA1019MA1999999095901MD1210021+0131MW1041REMSYN088AAXX  07091 76393 31920 00100 10206 20098 39590 40174 52002 70400 90851 333 30/// 58013;
0273763930999992011090712004+25733-100300FM-12+051599999V0201801N001012200019N0020001N1+02121+00821101851ADDAA124000091AY101061AY201061GA1001+999999999GF100991001001999999001001IA1019KA1240M+03421KA2120N+02041MA1999999095991MD1210091+0071MW1041REMSYN106AAXX  07121 76393 31920 01801 10212 20082 39599 40185 52009 70400 91153 333 10342 20204 30196 58007 70000;EQDQ01  00002PRCP24
0199763930999992011090715004+25733-100300FM-12+051599999V0200601N001012200019N0030001N1+02541+01461101901ADDAY141031AY241031GA1001+999999999GF100991001001999999001001IA1019MA1999999096161MD1210171+0141MW1041REMSYN088AAXX  07151 76393 31930 00601 10254 20146 39616 40190 52017 70444 91452 333 30/// 58014;
0237763930999992011090718004+25733-100300FM-12+051599999V0200501N003012200019N0030001N1+03061+01301101741ADDAY101061AY201061GA1001+999999999GF100991001001999999001001IA1019KA1120M+03181KA2240N+02041MA1999999096101MD1710061+0141MW1041REMSYN100AAXX  07181 76393 31930 00503 10306 20130 39610 40174 57006 70400 91745 333 10318 20204 30/// 58014;
0199763930999992011090721004+25733-100300FM-12+051599999V0201101N004012200019N0030001N1+03261+00871101431ADDAY101031AY201031GA1001+999999999GF100991001001999999001001IA1019MA1999999095861MD1710241+0081MW1051REMSYN088AAXX  07211 76393 31930 01104 10326 20087 39586 40143 57024 70500 92048 333 30/// 58008;
0279763930999992011090800004+25733-100300FM-12+051599999V0201401N003012200019N0050001N1+03221+00751101341ADDAA124000091AY101061AY201061GA1001+999999999GF100991001001999999001001IA1019KA1120M+03441KA2180N+02041MA1999999095831MD1710031+9999MW1041REMSYN112AAXX  08001 76393 31950 01403 10322 20075 39583 40134 57003 70400 92350 333 10344 20204 30/// 50651 58/// 70000;EQDQ01  00002PRCP24
0199763930999992011090803004+25733-100300FM-12+051599999V0201301N003012200019N0020001N1+02841+00881101541ADDAY101031AY201031GA1001+999999999GF100991001001999999001001IA1019MA1999999096041MD1210211+9999MW1041REMSYN088AAXX  08031 76393 31920 01303 10284 20088 39604 40154 52021 70400 90251 333 30/// 58///;
0251763930999992011090806004+25733-100300FM-12+051599999V0201201N006012200019N0020001N1+02561+01451101611ADDAY101061AY201061GA1001+999999999GF100991001001999999001001GJ106069IA1019KA1240M+03441KA2240N+02041MA1999999096091MD1210051+0211MW1041REMSYN106AAXX  08061 76393 31920 01206 10256 20145 39609 40161 52005 70400 90553 333 10344 20204 30/// 55101 58021;
0199763930999992011090809004+25733-100300FM-12+051599999V0200301N001012200019N0010001N1+02261+01451101681ADDAY101031AY201031GA1001+999999999GF100991001001999999001001IA1019MA1999999096121MD1210031+0221MW1041REMSYN088AAXX  08091 76393 31910 00301 10226 20145 39612 40168 52003 70400 90852 333 30/// 58022;
0273763930999992011090812004+25733-100300FM-12+051599999V0201101N001012200019N0010001N1+02201+01451101651ADDAA124000091AY101061AY201061GA1001+999999999GF100991001001999999001001IA1019KA1240M+03441KA2120N+02161MA1999999096141MD1210021+0151MW1041REMSYN106AAXX  08121 76393 31910 01101 10220 20145 39614 40165 52002 70400 91152 333 10344 20216 30212 58015 70000;EQDQ01  00002PRCP24
0199763930999992011090815004+25733-100300FM-12+051599999V0202301N001012200019N0030001N1+02621+01301101891ADDAY101031AY201031GA1001+999999999GF100991001001999999001001IA1019MA1999999096251MD1210121+0091MW1041REMSYN088AAXX  08151 76393 31930 02301 10262 20130 39625 40189 52012 70400 91452 333 30/// 58009;
0237763930999992011090818004+25733-100300FM-12+051599999V0201101N002012200019N0030001N1+03141+00831101841ADDAY101061AY201061GA1001+999999999GF100991001001999999001001IA1019KA1120M+03361KA2240N+02161MA1999999096221MD1710031+0121MW1051REMSYN100AAXX  08181 76393 31930 01102 10314 20083 39622 40184 57003 70500 91745 333 10336 20216 30/// 58012;
0217763930999992011090821004+25733-100300FM-12+051599999V0200201N003012200019N0040001N1+03331+00921101481ADDAY101031AY201031GA1011+024001081GF101991011011022501001001IA1019MA1999999095921MD1710301+0061MW1041REMSYN106AAXX  08211 76393 31840 10203 10333 20092 39592 40148 57030 70400 81100 92048 333 00700 30/// 58006 81858;
0279763930999992011090900004+25733-100300FM-12+051599999V0201101N004012200019N0030001N1+03281+00961101261ADDAA124000091AY101061AY201061GA1001+999999999GF100991001001999999001001IA1019KA1120M+03541KA2180N+02161MA1999999095761MD1710161-0071MW1051REMSYN112AAXX  09001 76393 31930 01104 10328 20096 39576 40126 57016 70500 92351 333 10354 20216 30/// 51301 59007 70000;EQDQ01  00002PRCP24
0199763930999992011090903004+25733-100300FM-12+051599999V0201301N005012200019N0020001N1+02961+00881101331ADDAY101031AY201031GA1001+999999999GF100991001001999999001001IA1019MA1999999095861MD1210101-0181MW1041REMSYN088AAXX  09031 76393 31920 01305 10296 20088 39586 40133 52010 70400 90245 333 30/// 59018;
0251763930999992011090906004+25733-100300FM-12+051599999V0202101N003012200019N0020001N1+02641+00861101391ADDAY101061AY201061GA1001+999999999GF100991001001999999001001GJ106069IA1019KA1240M+03541KA2240N+02161MA1999999095901MD1210041-0191MW1041REMSYN106AAXX  09061 76393 31920 02103 10264 20086 39590 40139 52004 70400 90552 333 10354 20216 30/// 55101 59019;
0199763930999992011090909004+25733-100300FM-12+051599999V0203001N001012200019N0010001N1+02201+01341101371ADDAY101031AY201031GA1001+999999999GF100991001001999999001001IA1019MA1999999095831MD1710071-0291MW1041REMSYN088AAXX  09091 76393 31910 03001 10220 20134 39583 40137 57007 70400 90850 333 30/// 59029;
0273763930999992011090912004+25733-100300FM-12+051599999V0209999C000012200019N0010001N1+02181+01281101401ADDAA124000091AY101061AY201061GA1001+999999999GF100991001001999999001001IA1019KA1240M+03541KA2120N+02161MA1999999095811MD1710021-0321MW1041REMSYN106AAXX  09121 76393 31910 00000 10218 20128 39581 40140 57002 70400 91150 333 10354 20216 30200 59032 70000;EQDQ01  00002PRCP24
0199763930999992011090915004+25733-100300FM-12+051599999V0202301N001012200019N0030001N1+02861+01091101551ADDAY101031AY201031GA1001+999999999GF100991001001999999001001IA1019MA1999999095941MD1210131-0311MW1041REMSYN088AAXX  09151 76393 31930 02301 10286 20109 39594 40155 52013 70400 91450 333 30/// 59031;
0237763930999992011090918004+25733-100300FM-12+051599999V0203601N001012200019N0030001N1+03341+01101101441ADDAY101061AY201061GA1001+999999999GF100991001001999999001001IA1019KA1120M+03491KA2240N+02141MA1999999095861MD1710041-0361MW1051REMSYN100AAXX  09181 76393 31930 03601 10334 20110 39586 40144 57004 70500 91752 333 10349 20214 30/// 59036;
0217763930999992011090921004+25733-100300FM-12+051599999V0201201N002012200019N0040001N1+03581+01161101081ADDAY101031AY201031GA1011+024001081GF101991011011999999001001IA1019MA1999999095571MD1710291-0351MW1041REMSYN106AAXX  09211 76393 31940 11202 10358 20116 39557 40108 57029 70400 81100 92045 333 00500 30/// 59035 81858;
0279763930999992011091000004+25733-100300FM-12+051599999V0201301N003012200019N0040001N1+03301+01091100941ADDAA124000091AY101061AY201061GA1001+999999999GF100991001001999999001001IA1019KA1120M+03721KA2180N+02141MA1999999095491MD1710081-0271MW1051REMSYN112AAXX  10001 76393 31940 01303 10330 20109 39549 40094 57008 70500 92351 333 10372 20214 30/// 51051 59027 70000;EQDQ01  00002PRCP24
0199763930999992011091003004+25733-100300FM-12+051599999V0201301N002012200019N0030001N1+02941+01121101091ADDAY101031AY201031GA1001+999999999GF100991001001999999001001IA1019MA1999999095661MD1210171-0201MW1041REMSYN088AAXX  10031 76393 31930 01302 10294 20112 39566 40109 52017 70400 90254 333 30/// 59020;
0251763930999992011091006004+25733-100300FM-12+051599999V0201301N006012200019N0020001N1+02501+01381101261ADDAY101061AY201061GA1001+999999999GF100991001001999999001001GJ106129IA1019KA1240M+03721KA2240N+02141MA1999999095791MD1210131-0111MW1041REMSYN106AAXX  10061 76393 31920 01306 10250 20138 39579 40126 52013 70400 90552 333 10372 20214 30/// 55102 59011;
0199763930999992011091009004+25733-100300FM-12+051599999V0209999C000012200019N0020001N1+02261+01521101291ADDAY101031AY201031GA1001+999999999GF100991001001999999001001IA1019MA1999999095771MD1710021-0061MW1041REMSYN088AAXX  10091 76393 31920 00600 10226 20152 39577 40129 57002 70400 90851 333 30/// 59006;
0273763930999992011091012004+25733-100300FM-12+051599999V0209999C000012200019N0020001N1+02161+01541101441ADDAA124000091AY101061AY201061GA1001+999999999GF100991001001999999001001IA1019KA1240M+03721KA2120N+02141MA1999999095851MD1210081+0041MW1041REMSYN106AAXX  10121 76393 31920 00000 10216 20154 39585 40144 52008 70400 91150 333 10372 20214 30206 58004 70000;EQDQ01  00002PRCP24
0199763930999992011091015004+25733-100300FM-12+051599999V0203201N001012200019N0030001N1+02521+01651101631ADDAY101031AY201031GA1001+999999999GF100991001001999999001001IA1019MA1999999096001MD1210151+0061MW1041REMSYN088AAXX  10151 76393 31930 03201 10252 20165 39600 40163 52015 70400 91450 333 30/// 58006;
0161763930999992011091018004+25733-100300FM-12+051599999V0201201N002012200019N0040001N1+03231+01391101571ADDAY101061AY201061GF101991001001999999001011MA1999999095941MD1710061+9999MW1041REMSYN072AAXX  10181 76393 31940 11202 10323 20139 39594 40157 57006 70400 80001;
0171763930999992011091021004+25733-100300FM-12+051599999V0201201N003012200019N0050001N1+03521+01021101221ADDGA1001+999999999GF100991001001999999001001IA1019MA1999999095671MD1710271+0101REMSYN082AAXX  10211 76393 31950 01203 10352 20102 39567 40122 57027 92050 333 30/// 58010;
0279763930999992011091100004+25733-100300FM-12+051599999V0201101N005012200019N0050001N1+03281+00891101151ADDAA124000091AY101061AY201061GA1001+999999999GF100991001001999999001001IA1019KA1120M+03601KA2180N+02141MA1999999095671MD1710011-0181MW1041REMSYN112AAXX  11001 76393 31950 01105 10328 20089 39567 40115 57001 70400 92352 333 10360 20214 30/// 51271 59018 70000;EQDQ01  00002PRCP24
0199763930999992011091103004+25733-100300FM-12+051599999V0201201N006012200019N0030001N1+02961+01021101331ADDAY101031AY201031GA1001+999999999GF100991001001999999001001IA1019MA1999999095871MD1210201-0211MW1041REMSYN088AAXX  11031 76393 31930 01206 10296 20102 39587 40133 52020 70400 90253 333 30/// 59021;
0251763930999992011091106004+25733-100300FM-12+051599999V0201501N001012200019N0020001N1+02621+01181101481ADDAY101061AY201061GA1001+999999999GF100991001001999999001001GJ106129IA1019KA1240M+03601KA2240N+02141MA1999999096001MD1210131+0211MW1041REMSYN106AAXX  11061 76393 31920 01501 10262 20118 39600 40148 52013 70400 90552 333 10360 20214 30/// 55102 58021;
0199763930999992011091109004+25733-100300FM-12+051599999V0209999C000012200019N0020001N1+02261+01271101501ADDAY101031AY201031GA1001+999999999GF100991001001999999001001IA1019MA1999999095971MD1710031+0201MW1041REMSYN088AAXX  11091 76393 31920 03600 10226 20127 39597 40150 57003 70400 90853 333 30/// 58020;
0273763930999992011091112004+25733-100300FM-12+051599999V0203201N001012200019N0020001N1+02181+01391101621ADDAA124000091AY101061AY201061GA1001+999999999GF100991001001999999001001IA1019KA1240M+03601KA2120N+02101MA1999999096031MD1210061+0181MW1041REMSYN106AAXX  11121 76393 31920 03201 10218 20139 39603 40162 52006 70400 91150 333 10360 20210 30194 58018 70000;EQDQ01  00002PRCP24
0199763930999992011091115004+25733-100300FM-12+051599999V0200901N001012200019N0040001N1+02821+01291101791ADDAY101031AY201031GA1001+999999999GF100991001001999999001001IA1019MA1999999096171MD1210141+0171MW1041REMSYN088AAXX  11151 76393 31940 00901 10282 20129 39617 40179 52014 70400 91455 333 30/// 58017;
0237763930999992011091118004+25733-100300FM-12+051599999V0201201N006012200019N0050001N1+03301+00941101791ADDAY101061AY201061GA1001+999999999GF100991001001999999001001IA1019KA1120M+03421KA2240N+02101MA1999999096191MD1210021+0231MW1041REMSYN100AAXX  11181 76393 31950 01206 10330 20094 39619 40179 52002 70400 91745 333 10342 20210 30/// 58023;
0171763930999992011091121004+25733-100300FM-12+051599999V0201101N004012200019N0070001N1+03481+00681101491ADDGA1001+999999999GF100991001001999999001001IA1019MA1999999095961MD1710231+0281REMSYN082AAXX  11211 76393 32957 01104 10348 20068 39596 40149 57023 92045 333 30/// 58028;
0251763930999992011091200004+25733-100300FM-12+051599999V0201201N005012200019N0070001N1+03381+00811101371ADDAA124000091GA1001+999999999GF100991001001999999001001IA1019KA1120M+03641KA2180N+02101MA1999999095891MD1710071+0221REMSYN106AAXX  12001 76393 32957 01205 10338 20081 39589 40137 57007 92345 333 10364 20210 30/// 51231 58022 70000;EQDQ01  00002PRCP24
0132763930999992011091203004+25733-100300FM-12+051599999V0201201N004012200019N0030001N1+02981+01501999999ADDGA1001+999999999GF100991001001999999001001REMSYN078AAXX  12031 76393 32930 01204 10298 20150 30/// 39608 40155 52019 58021 90253;
0273763930999992011091212004+25733-100300FM-12+051599999V0209999C000012200019N0010001N1+02281+01931101771ADDAA124000091AY101061AY201061GA1001+999999999GF100991001001999999001001IA1019KA1240M+03641KA2120N+02181MA1999999096181MD1999999+0151MW1041REMSYN106AAXX  12121 76393 31910 00000 10228 20193 39618 40177 5//// 70400 91150 333 10364 20218 30214 58015 70000;EQDQ01  00002PRCP24
0199763930999992011091215004+25733-100300FM-12+051599999V0200601N001012200019N0030001N1+02581+02041101941ADDAY101031AY201031GA1001+999999999GF100991001001999999001001IA1019MA1999999096311MD1210131+0141MW1041REMSYN088AAXX  12151 76393 31930 00601 10258 20204 39631 40194 52013 70400 91455 333 30/// 58014;
0237763930999992011091218004+25733-100300FM-12+051599999V0201101N001012200019N0020001N1+03221+01841101821ADDAY101061AY201061GA1001+999999999GF100991001001999999001001IA1019KA1120M+03361KA2240N+02181MA1999999096211MD1710101+0021MW1051REMSYN100AAXX  12181 76393 31920 01101 10322 20184 39621 40182 57010 70500 91752 333 10336 20218 30/// 58002;
0217763930999992011091221004+25733-100300FM-12+051599999V0201201N002012200019N0030001N1+03641+01551101401ADDAY101031AY201031GA1011+024001081GF101991011011022501001001IA1019MA1999999095861MD1710351-0101MW1051REMSYN106AAXX  12211 76393 31830 11202 10364 20155 39586 40140 57035 70500 81100 92050 333 00500 30/// 59010 81858;
0161763930999992011091300004+25733-100300FM-12+051599999V0201201N003012200019N0040001N1+03321+01761101231ADDAY101061AY201061GF102991021011017501001001MA1999999095761MD1710161+9999MW1041REMSYN072AAXX  13001 76393 31740 21203 10332 20176 39576 40123 57016 70400 82100;
0199763930999992011091303004+25733-100300FM-12+051599999V0201201N003012200019N0030001N1+03161+01701101331ADDAY101031AY201031GA1001+999999999GF100991001001999999001001IA1019MA1999999095891MD1210131-0191MW1041REMSYN088AAXX  13031 76393 31930 01203 10316 20170 39589 40133 52013 70400 90253 333 30/// 59019;
0251763930999992011091306004+25733-100300FM-12+051599999V0200601N002012200019N0020001N1+02761+01961101441ADDAY101061AY201061GA1001+999999999GF100991001001999999001001GJ106069IA1019KA1240M+03741KA2240N+02181MA1999999095981MD1210091+9999MW1041REMSYN106AAXX  13061 76393 31920 00602 10276 20196 39598 40144 52009 70400 90552 333 10374 20218 30/// 55101 58///;
0199763930999992011091309004+25733-100300FM-12+051599999V0201001N003012200019N0020001N1+02521+02131101391ADDAY101031AY201031GA1001+999999999GF100991001001999999001001IA1019MA1999999095901MD1710081+9999MW1041REMSYN088AAXX  13091 76393 31920 01003 10252 20213 39590 40139 57008 70400 90853 333 30/// 58///;
0273763930999992011091312004+25733-100300FM-12+051599999V0200601N001012200019N0020001N1+02461+02091101421ADDAA124000091AY101061AY201061GA1001+999999999GF100991001001999999001001IA1019KA1240M+03741KA2120N+02441MA1999999095871MD1710031-0311MW1041REMSYN106AAXX  13121 76393 31920 00601 10246 20209 39587 40142 57003 70400 91150 333 10374 20244 30232 59031 70000;EQDQ01  00002PRCP24
0199763930999992011091315004+25733-100300FM-12+051599999V0203101N001012200019N0030001N1+02761+02151101491ADDAY101031AY201031GA1001+999999999GF100991001001999999001001IA1019MA1999999095911MD1210041-0401MW1041REMSYN088AAXX  13151 76393 31930 03101 10276 20215 39591 40149 52004 70400 91450 333 30/// 59040;
0161763930999992011091318004+25733-100300FM-12+051599999V0201401N001012200019N0030001N1+03401+02031101411ADDAY101061AY201061GF101991011011017501001001MA1999999095851MD1710061+9999MW1041REMSYN072AAXX  13181 76393 31730 11401 10340 20203 39585 40141 57006 70400 81100;
0217763930999992011091321004+25733-100300FM-12+051599999V0201101N001012200019N0040001N1+03721+01851101061ADDAY101031AY201031GA1011+024001081GF101991011011022501001001IA1019MA1999999095571MD1710281-0291MW1041REMSYN106AAXX  13211 76393 31840 11101 10372 20185 39557 40106 57028 70400 81100 92052 333 00700 30/// 59029 81858;
0251763930999992011091406004+25733-100300FM-12+051599999V0201201N006012200019N0020001N1+02781+01921101031ADDAY101061AY201061GA1001+999999999GF100991001001999999001001GJ106069IA1019KA1240M+03801KA2240N+02441MA1999999095621MD1999999-0361MW1041REMSYN106AAXX  14061 76393 31920 01206 10278 20192 39562 40103 5//// 70400 90552 333 10380 20244 30/// 55101 59036;
0199763930999992011091409004+25733-100300FM-12+051599999V0201101N003012200019N0020001N1+02521+02071101271ADDAY101031AY201031GA1001+999999999GF100991001001999999001001IA1019MA1999999095541MD1710081-0361MW1041REMSYN088AAXX  14091 76393 31920 01103 10252 20207 39554 40127 57008 70400 90853 333 30/// 59036;
0273763930999992011091412004+25733-100300FM-12+051599999V0201101N001012200019N0020001N1+02461+02091101251ADDAA124000091AY101061AY201061GA1001+999999999GF100991001001999999001001IA1019KA1240M+03801KA2120N+02401MA1999999095521MD1710021-0351MW1041REMSYN106AAXX  14121 76393 31920 01101 10246 20209 39552 40125 57002 70400 91150 333 10380 20240 30234 59035 70000;EQDQ01  00002PRCP24
0199763930999992011091415004+25733-100300FM-12+051599999V0200601N001012200019N0030001N1+02701+02141101221ADDAY101031AY201031GA1001+999999999GF100991001001999999001001IA1019MA1999999095611MD1210091-0301MW1041REMSYN088AAXX  14151 76393 31930 00601 10270 20214 39561 40122 52009 70400 91450 333 30/// 59030;
0161763930999992011091418004+25733-100300FM-12+051599999V0201101N001012200019N0030001N1+03221+02021101101ADDAY101061AY201061GF101991011011012501001001MA1999999095551MD1710061+9999MW1041REMSYN072AAXX  14181 76393 31630 11101 10322 20202 39555 40110 57006 70400 81100;
0217763930999992011091421004+25733-100300FM-12+051599999V0201201N002012200019N0030001N1+03661+01841100821ADDAY111031AY211031GA1031+021001081GF103991031011022501001001IA1019MA1999999095331MD1710201-0241MW1041REMSYN106AAXX  14211 76393 31830 31202 10366 20184 39533 40082 57020 70411 83100 92052 333 00500 30/// 59024 83857;
0196763930999992011091500004+25733-100300FM-12+051599999V0201201N004012200019N0050001N1+03481+01831100631ADDAY121061AY221061GF105991031011022501001081MA1999999999999MD1710131+9999MW1041REMSYN072AAXX  15001 76393 31850 51204 10348 20183 38520 40063 57013 70422 83108;EQDQ01+085203APOSP Q02 085203APOSP 
0199763930999992011091503004+25733-100300FM-12+051599999V0201201N005012200019N0030001N1+03081+01911100761ADDAY101031AY201031GA1001+999999999GF100991001001999999001001IA1019MA1999999095351MD1210151+9999MW1041REMSYN088AAXX  15031 76393 31930 01205 10308 20191 39535 40076 52015 70400 90245 333 30/// 58///;
0161763930999992011091506004+25733-100300FM-12+051599999V0201201N003012200019N0020001N1+02761+02021100871ADDAY101061AY201061GF101991011051008001001001MA1999999095451MD1210101+9999MW1041REMSYN072AAXX  15061 76393 31520 11203 10276 20202 39545 40087 52010 70400 81500;
0217763930999992011091509004+25733-100300FM-12+051599999V0201201N004012200019N0020001N1+02501+02101100971ADDAY111031AY211031GA1041+004801061GF104991041051004501001001IA1019MA1999999095491MD1210041-0051MW1041REMSYN106AAXX  15091 76393 31420 41204 10250 20210 39549 40097 52004 70411 84500 90853 333 0/300 30/// 59005 84616;
0161763930999992011091512004+25733-100300FM-12+051599999V0201101N001010042019N0020001N1+02461+02091101131ADDAY121061AY221061GF107991071051004501999999MA1999999095591MD1210101+9999MW1041REMSYN072AAXX  15121 76393 31420 71101 10246 20209 39559 40113 52010 70422 875//;
0217763930999992011091515004+25733-100300FM-12+051599999V0201101N001010072019N0020001N1+02701+02111101301ADDAY121031AY221031GA1051+007201061GF105991051051008001001001IA1019MA1999999095731MD1210141+0121MW1041REMSYN106AAXX  15151 76393 31520 51101 10270 20211 39573 40130 52014 70422 85500 91455 333 0/300 30/// 58012 85624;
0147763930999992011091600004+25733-100300FM-12+051599999V0201201N003012200019N0040001N1+03241+01761100891ADDAY111061AY211061GF104991021051017501001081MA1999999095411MW1041REMSYN072AAXX  16001 76393 31740 41203 10324 20176 39541 40089 5//// 70411 82508;
0217763930999992011091603004+25733-100300FM-12+051599999V0201101N004012200019N0020001N1+03061+01821101081ADDAY101031AY201031GA1011+015001061GF101991011051017501001001IA1019MA1999999095621MD1210211+0271MW1041REMSYN106AAXX  16031 76393 31720 11104 10306 20182 39562 40108 52021 70400 81500 90251 333 0/300 30/// 58027 81650;
0161763930999992011091606004+25733-100300FM-12+051599999V0201101N003012200019N0020001N1+02641+01981101221ADDAY101061AY201061GF103991031051008001001001MA1999999095731MD1210111+9999MW1041REMSYN072AAXX  16061 76393 31520 31103 10264 20198 39573 40122 52011 70400 83500;
0217763930999992011091609004+25733-100300FM-12+051599999V0201201N003010045019N0020001N1+02461+02091101231ADDAY121031AY221031GA1061+004501061GF106991061051004501001001IA1019MA1999999095721MD1710011+0231MW1041REMSYN106AAXX  16091 76393 31420 61203 10246 20209 39572 40123 57001 70422 86500 90852 333 0/300 30/// 58023 86615;
0161763930999992011091612004+25733-100300FM-12+051599999V0200901N001012200019N0020001N1+02421+02241101331ADDAY111061AY211061GF104991041051002501001001MA1999999095771MD1210051+9999MW1041REMSYN072AAXX  16121 76393 31320 40901 10242 20224 39577 40133 52005 70411 84500;
0223763930999992011091615004+25733-100300FM-12+051599999V0200901N00101036001CN0030001N1+02661+02161101541ADDAY111031AY211031GA1021+006001061GF105991021051008001031001IA1019MA1999999095951MD1210181+0221MW1041REMSYN112AAXX  16151 76393 31530 50901 10266 20216 39595 40154 52018 70411 82530 91452 333 0/350 30/// 58022 82620 83360;
0161763930999992011091618004+25733-100300FM-12+051599999V0201201N004012200019N0030001N1+03021+02101101501ADDAY101061AY201061GF104991041051012501001001MA1999999095911MD1710031+9999MW1041REMSYN072AAXX  16181 76393 31630 41204 10302 20210 39591 40150 57003 70400 84500;
0217763930999992011091621004+25733-100300FM-12+051599999V0201201N004010180019N0050001N1+03441+01881101141ADDAY121031AY221031GA1051+018001061GF105991051041017501001001IA1019MA1999999095611MD1710301+9999MW1041REMSYN106AAXX  16211 76393 31750 51204 10344 20188 39561 40114 57030 70422 85400 92050 333 0/300 30/// 58/// 85656;
0161763930999992011091700004+25733-100300FM-12+051599999V0201301N003010900019N0050001N1+03241+01731101001ADDAY121061AY221061GF107991021051017501001081MA1999999095531MD1710081+9999MW1041REMSYN072AAXX  17001 76393 31750 71303 10324 20173 39553 40100 57008 70422 82508;
0195763930999992011091703004+25733-100300FM-12+051599999V0200401N001012200019N0030001N1+03101+01661101071ADDAY101031AY201031GF102991001001999999001081IA1019MA1999999095621MD1710091+0001MW1041REMSYN100AAXX  17031 76393 31930 20401 10310 20166 39562 40107 57009 70400 80008 90250 333 0/005 30/// 58000;
0251763930999992011091706004+25733-100300FM-12+051599999V0201201N006012200019N0020001N1+02741+01901101181ADDAY101061AY201061GA1001+999999999GF100991001001999999001001GJ104449IA1019KA1240M+03501KA2240N+02401MA1999999095711MD1210091-0021MW1041REMSYN106AAXX  17061 76393 31920 01206 10274 20190 39571 40118 52009 70400 90551 333 10350 20240 30/// 55074 59002;
0199763930999992011091709004+25733-100300FM-12+051599999V0200601N002012200019N0020001N1+02441+02071101181ADDAY101031AY201031GA1001+999999999GF100991001001999999001001IA1019MA1999999095681MD1710031-0041MW1041REMSYN088AAXX  17091 76393 31920 00602 10244 20207 39568 40118 57003 70400 90853 333 30/// 59004;
0161763930999992011091712004+25733-100300FM-12+051599999V0200701N001010042019N0020001N1+02381+02101101281ADDAY101061AY201061GF107991071051004501999999MA1999999095731MD1210051+9999MW1041REMSYN072AAXX  17121 76393 31420 70701 10238 20210 39573 40128 52005 70400 875//;
0217763930999992011091715004+25733-100300FM-12+051599999V0200701N001010060019N0020001N1+02601+02121101461ADDAY121031AY221031GA1071+006001061GF107991071051004501999999IA1019MA1999999095861MD1210131-0091MW1041REMSYN106AAXX  17151 76393 31420 70701 10260 20212 39586 40146 52013 70422 875// 91455 333 0/399 30/// 59009 87620;
0161763930999992011091718004+25733-100300FM-12+051599999V0201101N002010120019N0030001N1+02981+02121101451ADDAY121061AY221061GF106991061051012501001001MA1999999095861MD1710011+9999MW1041REMSYN072AAXX  17181 76393 31630 61102 10298 20212 39586 40145 57001 70422 86500;
0217763930999992011091721004+25733-100300FM-12+051599999V0201201N003010180019N0040001N1+03501+02021101101ADDAY121031AY221031GA1051+018001061GF105991051041017501001001IA1019MA1999999095561MD1710301-0051MW1041REMSYN106AAXX  17211 76393 31740 51203 10350 20202 39556 40110 57030 70422 85400 92050 333 0/300 30/// 59005 85656;
0161763930999992011091800004+25733-100300FM-12+051599999V0201901N002019999999N0040001N1+03301+01981100911ADDAY121061AY221061GF106991041051999999001081MA1999999095431MD1710131+9999MW1041REMSYN072AAXX  18001 76393 31940 61902 10330 20198 39543 40091 57013 70422 84508;
0217763930999992011091803004+25733-100300FM-12+051599999V0201101N002010123019N0020001N1+02901+01901101101ADDAY121031AY221031GA1051+012301061GF105991051051012501001001IA1019MA1999999095641MD1210211+0021MW1041REMSYN106AAXX  18031 76393 31620 51102 10290 20190 39564 40110 52021 70422 85500 90253 333 0/300 30/// 58002 85641;
0161763930999992011091806004+25733-100300FM-12+051599999V0200501N002010042019N0020001N1+02601+02151101311ADDAY121061AY221061GF106991051051004501001071MA1999999095831MD1210191+9999MW1041REMSYN072AAXX  18061 76393 31420 60502 10260 20215 39583 40131 52019 70422 85507;
0253763930999992011091809004+25733-100300FM-12+051599999V0201101N002010024019N0020001N1+02341+02141101371ADDAA103000091AY121031AY221031GA1081+002401061GF108991081051002501999999IA1019MA1999999095841MD1210011+0161MW1041REMSYN112AAXX  18091 76393 21320 81102 10234 20214 39584 40137 52001 70422 885// 90853 333 0/3// 30/// 58016 69907 88608;EQDQ01  00002PRCP03
0357763930999992011091812004+25733-100300FM-12+051599999V0203101N001010039019N0020001N1+02461+02151101291ADDAA103999999AA206000091AA324000091AY121061AY221061GA1071+003901061GF107991071051004501001001IA1019KA1240M+03581KA2120N+02341MA1999999095731MD1710121+0001MW1041REMSYN136AAXX  18121 76393 01420 73101 10246 20215 39573 40129 57012 69901 70422 87500 91155 333 0/300 10358 20234 30228 58000 69907 79999 87613;EQDQ01  00002PRCP06Q02  00002PRCP24Q03  99992PRCP03
0217763930999992011091815004+25733-100300FM-12+051599999V0201201N001010048019N0030001N1+02621+02231101491ADDAY121031AY221031GA1071+004801061GF107991071051004501001001IA1019MA1999999095891MD1210161+0021MW1041REMSYN106AAXX  18151 76393 31430 71201 10262 20223 39589 40149 52016 70422 87500 91450 333 0/300 30/// 58002 87616;
0161763930999992011091818004+25733-100300FM-12+051599999V0201201N002010360019N0030001N1+03001+02231101471ADDAY121061AY221061GF107991021011008001041081MA1999999095891MD1010001+9999MW1051REMSYN072AAXX  18181 76393 31530 71202 10300 20223 39589 40147 50000 70522 82148;
0217763930999992011091821004+25733-100300FM-12+051599999V0200601N002010360019N0020001N1+03221+02141101161ADDAY121031AY221031GA1021+013201081GF106991021011012501041081IA1019MA1999999095621MD1710271+0061MW1051REMSYN106AAXX  18211 76393 31620 60602 10322 20214 39562 40116 57027 70522 82148 92050 333 0/355 30/// 58006 82844;
0312763930999992011091900004+25733-100300FM-12+051599999V0201801N003010021019N0010001N1+02381+02211101271ADDAA103004091AA206004191AA324004491AY161061AY261061GA1081+002101071GF108991081061002501999999IA1119KA1120M+03361KA2180N+02341MA1999999095741MD1210121+0311MW1601REMSYN142AAXX  19001 76393 01310 81803 10238 20221 39574 40127 52012 60041 76066 886// 92358 333 0/399 10336 20234 32/// 50651 58031 60047 70044 88707;
0234763930999992011091903004+25733-100300FM-12+051599999V0202101N005010039019N0010001N1+02261+01941101321ADDAA103000791AY151031AY251031GA1061+003901061GF106991061051004501001001IA1119MA1999999095781MD1210041+0141MW1131REMSYN112AAXX  19031 76393 21410 62105 10226 20194 39578 40132 52004 71355 86500 90250 333 0/300 32/// 58014 69977 86613;
0161763930999992011091906004+25733-100300FM-12+051599999V0200401N001012200019N0010001N1+02261+01941101511ADDAY111061AY211061GF102991021051004501001001MA1999999095931MD1210151+9999MW1041REMSYN072AAXX  19061 76393 31410 20401 10226 20194 39593 40151 52015 70411 82500;
0199763930999992011091909004+25733-100300FM-12+051599999V0202101N001012200019N0010001N1+02171+01881101431ADDAY101031AY201031GA1001+999999999GF100991001001999999001001IA1099MA1999999095821MD1710111-0021MW1041REMSYN088AAXX  19091 76393 31910 02101 10217 20188 39582 40143 57011 70400 90852 333 31/// 59002;
0254763930999992011091912004+25733-100300FM-12+051599999V0202501N001012200019N0010001N1+02241+01951101451ADDAA124005191AY101061AY201061GA1001+999999999GF100991001001999999001001IA1019KA1240M+03361KA2120N+02101MA1999999095801MD1710011+0071MW1041REMSYN106AAXX  19121 76393 31910 02501 10224 20195 39580 40145 57001 70400 91155 333 10336 20210 30198 58007 70051;
0199763930999992011091915004+25733-100300FM-12+051599999V0200601N001012200019N0030001N1+02581+01921101641ADDAY101031AY201031GA1001+999999999GF100991001001999999001001IA1019MA1999999095991MD1210191+0101MW1041REMSYN088AAXX  19151 76393 31930 00601 10258 20192 39599 40164 52019 70400 91450 333 30/// 58010;
0161763930999992011091918004+25733-100300FM-12+051599999V0200701N002012200019N0030001N1+03241+01971101531ADDAY101061AY201061GF102991011021017501021001MA1999999095931MD1710061+9999MW1041REMSYN072AAXX  19181 76393 31730 20702 10324 20197 39593 40153 57006 70400 81220;
0223763930999992011091921004+25733-100300FM-12+051599999V0200301N00601015001CN0050001N1+03041+01651101231ADDAY121031AY221031GA1011+018001081GF105991051051017501001001IA1019MA1999999095701MD1710231+0081MW1041REMSYN112AAXX  19211 76393 31750 50306 10304 20165 39570 40123 57023 70422 85500 92050 333 02300 30/// 58008 81856 84657;
0161763930999992011092000004+25733-100300FM-12+051599999V0201801N003010360019N0040001N1+02961+01831101191ADDAY121061AY221061GF106991021051012501051081MA1999999095691MD1710011+9999MW1041REMSYN072AAXX  20001 76393 31640 61803 10296 20183 39569 40119 57001 70422 82558;
0199763930999992011092003004+25733-100300FM-12+051599999V0202101N001012200019N0020001N1+02781+01981101291ADDAY101031AY201031GA1001+999999999GF100991001001999999001001IA1019MA1999999095811MD1210121+0031MW1041REMSYN088AAXX  20031 76393 31920 02101 10278 20198 39581 40129 52012 70400 90253 333 30/// 58003;
0251763930999992011092006004+25733-100300FM-12+051599999V0209999C000012200019N0020001N1+02561+01931101281ADDAY101061AY201061GA1001+999999999GF100991001001999999001001GJ105649IA1019KA1240M+03681KA2240N+02101MA1999999095761MD1710051-0171MW1041REMSYN106AAXX  20061 76393 31920 02100 10256 20193 39576 40128 57005 70400 90552 333 10368 20210 30/// 55094 59017;
0199763930999992011092009004+25733-100300FM-12+051599999V0209999C000012200019N0010001N1+02401+01971101261ADDAY101031AY201031GA1001+999999999GF100991001001999999001001IA1019MA1999999095721MD1710041-0101MW1041REMSYN088AAXX  20091 76393 31910 01800 10240 20197 39572 40126 57004 70400 90851 333 30/// 59010;
0273763930999992011092012004+25733-100300FM-12+051599999V0202101N001012200019N0010001N1+02401+01781101311ADDAA124000091AY101061AY201061GA1001+999999999GF100991001001999999001001IA1019KA1240M+03681KA2120N+02201MA1999999095731MD1210011-0071MW1041REMSYN106AAXX  20121 76393 31910 02101 10240 20178 39573 40131 52001 70400 91155 333 10368 20220 30216 59007 70000;EQDQ01  00002PRCP24
0199763930999992011092015004+25733-100300FM-12+051599999V0201701N001012200019N0030001N1+02801+01881101431ADDAY101031AY201031GA1001+999999999GF100991001001999999001001IA1019MA1999999095831MD1210101-0161MW1041REMSYN088AAXX  20151 76393 31930 01701 10280 20188 39583 40143 52010 70400 91450 333 30/// 59016;
0249763930999992011092018004+25733-100300FM-12+051599999V0200301N001012200019N0030001N1+03301+99999101311ADDAY111061AY211061GA1031+018001081GF103991031021017501001001IA1019KA1120M+03401KA2240N+02201MA1999999095751MD1710081-0181MW1041REMSYN112AAXX  20181 76393 31730 30301 10330 39575 40131 57008 70411 83200 91745 333 03300 10340 20220 30/// 59018 83856;
0223763930999992011092021004+25733-100300FM-12+051599999V0200501N003012200019N0040001N1+03361+01811101001ADDAY111031AY211031GA1011+018001081GF104991031051017501001091IA1019MA1999999095491MD1710261-0211MW1041REMSYN112AAXX  20211 76393 31740 40503 10336 20181 39549 40100 57026 70411 83509 92050 333 02307 30/// 59021 81856 82657;
0250763930999992011092100004+25733-100300FM-12+051599999V0201501N001012200019N0050001N1+03211+01761100931ADDAA124000091GA1041+018001061GF104991041051017501001001IA1019KA1120M+03541KA2180N+02201MA1999999095471MD1710021-0221REMSYN124AAXX  21001 76393 32750 41501 10321 20176 39547 40093 57002 84500 92352 333 0/300 10354 20220 30/// 50771 59022 70000 84656;
0217763930999992011092103004+25733-100300FM-12+051599999V0201801N001012200019N0030001N1+02971+01911101031ADDAY101031AY201031GA1011+012901061GF101991011051012501001001IA1019MA1999999095581MD1210111-0231MW1041REMSYN106AAXX  21031 76393 31630 11801 10297 20191 39558 40103 52011 70400 81500 90250 333 0/300 30/// 59023 81643;
0251763930999992011092106004+25733-100300FM-12+051599999V0200601N001012200019N0020001N1+02681+01741101111ADDAY101061AY201061GA1001+999999999GF100991001001999999001001GJ105109IA1019KA1240M+03541KA2240N+02201MA1999999095651MD1210071-0111MW1041REMSYN106AAXX  21061 76393 31920 00601 10268 20174 39565 40111 52007 70400 90552 333 10354 20220 30/// 55085 59011;
0199763930999992011092109004+25733-100300FM-12+051599999V0209999C000012200019N0020001N1+02481+01931101101ADDAY101031AY201031GA1001+999999999GF100991001001999999001001IA1019MA1999999095601MD1710051-0121MW1041REMSYN088AAXX  21091 76393 31920 00800 10248 20193 39560 40110 57005 70400 90850 333 30/// 59012;
0273763930999992011092112004+25733-100300FM-12+051599999V0203201N001012200019N0020001N1+02381+01951101211ADDAA124000091AY101061AY201061GA1001+999999999GF100991001001999999001001IA1019KA1240M+03541KA2120N+02301MA1999999095651MD1210011-0081MW1041REMSYN106AAXX  21121 76393 31920 03201 10238 20195 39565 40121 52001 70400 91150 333 10354 20230 30220 59008 70000;EQDQ01  00002PRCP24
0199763930999992011092115004+25733-100300FM-12+051599999V0202901N001012200019N0030001N1+02801+02011101351ADDAY101031AY201031GA1001+999999999GF100991001001999999001001IA1019MA1999999095771MD1210121-0061MW1041REMSYN088AAXX  21151 76393 31930 02901 10280 20201 39577 40135 52012 70400 91450 333 30/// 59006;
0161763930999992011092118004+25733-100300FM-12+051599999V0200601N001012200019N0030001N1+03261+01831101341ADDAY101061AY201061GF103991031021017501001001MA1999999095781MD1710201+9999MW1041REMSYN072AAXX  21181 76393 31730 30601 10326 20183 39578 40134 57020 70400 83200;
0217763930999992011092121004+25733-100300FM-12+051599999V0200601N001012200019N0100001N1+03541+01451101051ADDAY101031AY201031GA1031+024001081GF103991031021022501001001IA1019MA1999999095551MD1710231+0061MW1041REMSYN106AAXX  21211 76393 31860 30601 10354 20145 39555 40105 57023 70400 83200 92050 333 01300 30/// 58006 83858;
0161763930999992011092200004+25733-100300FM-12+051599999V0201201N003012200019N0050001N1+03341+01481100991ADDAY101061AY201061GF102991021011022501001001MA1999999095541MD1710011+9999MW1041REMSYN072AAXX  22001 76393 31850 21203 10334 20148 39554 40099 57001 70400 82100;
0217763930999992011092203004+25733-100300FM-12+051599999V0201201N003012200019N0040001N1+03141+01371101181ADDAY101031AY201031GA1011+021001061GF101991011051999999001001IA1019MA1999999095741MD1210201+0161MW1041REMSYN106AAXX  22031 76393 31940 11203 10314 20137 39574 40118 52020 70400 81500 90245 333 0/300 30/// 58016 81657;
0273763930999992011092212004+25733-100300FM-12+051599999V0200901N001012200019N0020001N1+02381+02071101411ADDAA124000091AY101061AY201061GA1001+999999999GF100991001001999999001001IA1019KA1240M+03701KA2120N+02361MA1999999095861MD1210041+0211MW1041REMSYN106AAXX  22121 76393 31920 00901 10238 20207 39586 40141 52004 70400 91155 333 10370 20236 30228 58021 70000;EQDQ01  00002PRCP24
0217763930999992011092215004+25733-100300FM-12+051599999V0201101N001012200019N0020001N1+02701+02141101571ADDAY101031AY201031GA1011+006901061GF101991011051008001001001IA1019MA1999999095971MD1210111+0201MW1041REMSYN106AAXX  22151 76393 31520 11101 10270 20214 39597 40157 52011 70400 81500 91450 333 0/500 30/// 58020 81623;
0161763930999992011092218004+25733-100300FM-12+051599999V0200501N001012200019N0030001N1+03181+01901101491ADDAY101061AY201061GF101991011011017501001001MA1999999095911MD1710061+9999MW1041REMSYN072AAXX  22181 76393 31730 10501 10318 20190 39591 40149 57006 70400 81100;
0217763930999992011092221004+25733-100300FM-12+051599999V0200701N003012200019N0050001N1+03581+01581101191ADDAY101031AY201031GA1011+024001081GF101991011011022501001001IA1019MA1999999095671MD1710241+0121MW1041REMSYN106AAXX  22211 76393 31850 10703 10358 20158 39567 40119 57024 70400 81100 92045 333 00300 30/// 58012 81858;
0161763930999992011092300004+25733-100300FM-12+051599999V0201101N004012200019N0040001N1+03301+01391101141ADDAY101061AY201061GF102991021011022501001001MA1999999095671MD1410001+9999MW1041REMSYN072AAXX  23001 76393 31840 21104 10330 20139 39567 40114 54000 70400 82100;
0199763930999992011092303004+25733-100300FM-12+051599999V0201201N002012200019N0030001N1+02961+01441101431ADDAY101031AY201031GA1001+999999999GF100991001001999999001001IA1019MA1999999095961MD1210291+0221MW1041REMSYN088AAXX  23031 76393 31930 01202 10296 20144 39596 40143 52029 70400 90255 333 30/// 58022;
0161763930999992011092306004+25733-100300FM-12+051599999V0201201N006012200019N0020001N1+02721+01951101571ADDAY101061AY201061GF103991031051008001001001MA1999999096091MD1210131+9999MW1041REMSYN072AAXX  23061 76393 31520 31206 10272 20195 39609 40157 52013 70400 83500;
0199763930999992011092309004+25733-100300FM-12+051599999V0203401N001012200019N0020001N1+02521+01941101531ADDAY101031AY201031GA1001+999999999GF100991001001999999001001IA1019MA1999999096011MD1710081+0191MW1041REMSYN088AAXX  23091 76393 31920 03401 10252 20194 39601 40153 57008 70400 90851 333 30/// 58019;
0273763930999992011092312004+25733-100300FM-12+051599999V0200201N001012200019N0020001N1+02361+01951101621ADDAA124000091AY101061AY201061GA1001+999999999GF100991001001999999001001IA1019KA1240M+03661KA2120N+02341MA1999999096051MD1210041+0201MW1041REMSYN106AAXX  23121 76393 31920 00201 10236 20195 39605 40162 52004 70400 91150 333 10366 20234 30230 58020 70000;EQDQ01  00002PRCP24
0217763930999992011092315004+25733-100300FM-12+051599999V0200601N001012200019N0030001N1+02661+01911101811ADDAY101031AY201031GA1021+009301061GF102991021041008001001001IA1019MA1999999096211MD1210161+0241MW1041REMSYN106AAXX  23151 76393 31530 20601 10266 20191 39621 40181 52016 70400 82400 91450 333 0/300 30/// 58024 82631;
0161763930999992011092318004+25733-100300FM-12+051599999V0201101N001012200019N0040001N1+03221+01741101701ADDAY101061AY201061GF103991031021017501001001MA1999999096111MD1710101+9999MW1041REMSYN072AAXX  23181 76393 31740 31101 10322 20174 39611 40170 57010 70400 83200;
0217763930999992011092321004+25733-100300FM-12+051599999V0200601N001012200019N0050001N1+03441+01701101441ADDAY121031AY221031GA1041+021001081GF104991041041022501001001IA1019MA1999999095811MD1710301+0141MW1041REMSYN106AAXX  23211 76393 31850 40601 10344 20170 39581 40144 57030 70422 84400 92055 333 02300 30/// 58014 84857;
0161763930999992011092400004+25733-100300FM-12+051599999V0200601N002010150019N0040001N1+03001+01491101281ADDAY121061AY221061GF105991051051017501001001MA1999999095791MD1710021+9999MW1041REMSYN072AAXX  24001 76393 31740 50602 10300 20149 39579 40128 57002 70422 85500;
0199763930999992011092403004+25733-100300FM-12+051599999V0209999C000012200019N0020001N1+02641+01791101491ADDAY101031AY201031GA1001+999999999GF100991001001999999001001IA1019MA1999999096001MD1210211+0041MW1041REMSYN088AAXX  24031 76393 31920 00000 10264 20179 39600 40149 52021 70400 90251 333 30/// 58004;
0251763930999992011092406004+25733-100300FM-12+051599999V0201001N001012200019N0020001N1+02581+01791101481ADDAY101061AY201061GA1001+999999999GF100991001001999999001001GJ105409IA1019KA1240M+03541KA2240N+02361MA1999999095971MD1710031-0121MW1041REMSYN106AAXX  24061 76393 31920 01001 10258 20179 39597 40148 57003 70400 90552 333 10354 20236 30/// 55090 59012;
0199763930999992011092409004+25733-100300FM-12+051599999V0209999C000012200019N0020001N1+02361+01671101421ADDAY101031AY201031GA1001+999999999GF100991001001999999001001IA1019MA1999999095861MD1710111-0151MW1041REMSYN088AAXX  24091 76393 31920 00100 10236 20167 39586 40142 57011 70400 90853 333 30/// 59015;
0254763930999992011092412004+25733-100300FM-12+051599999V0202301N001012200019N0020001N1+02381+01661101421ADDAA124001091AY101061AY201061GA1001+999999999GF100991001001999999001001IA1019KA1240M+03541KA2120N+02281MA1999999095831MD1710031-0221MW1041REMSYN106AAXX  24121 76393 31920 02301 10238 20166 39583 40142 57003 70400 91155 333 10354 20228 30220 59022 70010;
0199763930999992011092415004+25733-100300FM-12+051599999V0202501N001012200019N0030001N1+02761+01831101541ADDAY101031AY201031GA1001+999999999GF100991001001999999001001IA1019MA1999999095931MD1210101-0281MW1041REMSYN088AAXX  24151 76393 31930 02501 10276 20183 39593 40154 52010 70400 91450 333 30/// 59028;
0161763930999992011092418004+25733-100300FM-12+051599999V0200901N001012200019N0030001N1+03281+01741101381ADDAY101061AY201061GF101991011011017501001001MA1999999095811MD1710121+9999MW1041REMSYN072AAXX  24181 76393 31730 10901 10328 20174 39581 40138 57012 70400 81100;
0217763930999992011092421004+25733-100300FM-12+051599999V0201101N003012200019N0040001N1+03541+01491101001ADDAY101031AY201031GA1011+024001081GF101991011011022501001001IA1019MA1999999095491MD1710321-0321MW1041REMSYN106AAXX  24211 76393 31840 11103 10354 20149 39549 40100 57032 70400 81100 92045 333 00500 30/// 59032 81858;
0260763930999992011092500004+25733-100300FM-12+051599999V0201201N002012200019N0040001N1+03421+01441100851ADDAA124001091AY101061AY201061GA1001+999999999GF100991001001999999001001IA1019KA1120M+03681KA2180N+02281MA1999999095401MD1710091-0391MW1041REMSYN112AAXX  25001 76393 31940 01202 10342 20144 39540 40085 57009 70400 92351 333 10368 20228 30/// 50661 59039 70010;
0251763930999992011092506004+25733-100300FM-12+051599999V0200901N003012200019N0020001N1+02661+01681100931ADDAY101061AY201061GA1001+999999999GF100991001001999999001001GJ106189IA1019KA1240M+03681KA2240N+02281MA1999999095491MD1210021-0481MW1041REMSYN106AAXX  25061 76393 31920 00903 10266 20168 39549 40093 52002 70400 90552 333 10368 20228 30/// 55103 59048;
0199763930999992011092509004+25733-100300FM-12+051599999V0209999C000012200019N0020001N1+02401+01781100921ADDAY101031AY201031GA1001+999999999GF100991001001999999001001IA1019MA1999999095441MD1710051-0421MW1041REMSYN088AAXX  25091 76393 31920 01000 10240 20178 39544 40092 57005 70400 90851 333 30/// 59042;
0273763930999992011092512004+25733-100300FM-12+051599999V0209999C000012200019N0020001N1+02381+01521100931ADDAA124000091AY101061AY201061GA1001+999999999GF100991001001999999001001IA1019KA1240M+03681KA2120N+02301MA1999999095401MD1710041-0431MW1041REMSYN106AAXX  25121 76393 31920 00000 10238 20152 39540 40093 57004 70400 91150 333 10368 20230 30224 59043 70000;EQDQ01  00002PRCP24
0199763930999992011092515004+25733-100300FM-12+051599999V0201901N001012200019N0040001N1+03001+01491100991ADDAY101031AY201031GA1001+999999999GF100991001001999999001001IA1019MA1999999095431MD1210031-0501MW1041REMSYN088AAXX  25151 76393 31940 01901 10300 20149 39543 40099 52003 70400 91455 333 30/// 59050;
0161763930999992011092518004+25733-100300FM-12+051599999V0200601N001019999999N0040001N1+03561+01471100861ADDAY121061AY221061GF105991001001999999001061MA1999999095331MD1710101+9999MW1041REMSYN072AAXX  25181 76393 31940 50601 10356 20147 39533 40086 57010 70422 80006;
0217763930999992011092521004+25733-100300FM-12+051599999V0201101N001010900019N0100001N1+03871+01241100491ADDAY121031AY221031GA1071+090001001GF107991001001999999001061IA1019MA1999999095051MD1710281-0441MW1041REMSYN106AAXX  25211 76393 31960 71101 10387 20124 39505 40049 57028 70422 80006 92055 333 0/005 30/// 59044 87080;
0161763930999992011092600004+25733-100300FM-12+051599999V0201201N003019999999N0040001N1+03621+01181100381ADDAY121061AY221061GF106991001001999999001081MA1999999095001MD1710051+9999MW1041REMSYN072AAXX  26001 76393 31940 61203 10362 20118 39500 40038 57005 70422 80008;
0199763930999992011092603004+25733-100300FM-12+051599999V0201201N001012200019N0020001N1+03161+01231100521ADDAY101031AY201031GA1001+999999999GF100991001001999999001001IA1019MA1999999095151MD1210151-0321MW1041REMSYN088AAXX  26031 76393 31920 01201 10316 20123 39515 40052 52015 70400 90250 333 30/// 59032;
0273763930999992011092612004+25733-100300FM-12+051599999V0209999C000012200019N0020001N1+02421+01241100651ADDAA124000091AY101061AY201061GA1001+999999999GF100991001001999999001001IA1019KA1240M+04061KA2120N+02381MA1999999095151MD1999999-0251MW1041REMSYN106AAXX  26121 76393 31920 00000 10242 20124 39515 40065 5//// 70400 91150 333 10406 20238 30230 59025 70000;EQDQ01  00002PRCP24
0199763930999992011092615004+25733-100300FM-12+051599999V0201901N001012200019N0040001N1+03141+01201100841ADDAY101031AY201031GA1001+999999999GF100991001001999999001001IA1019MA1999999095311MD1210161-0121MW1041REMSYN088AAXX  26151 76393 31940 01901 10314 20120 39531 40084 52016 70400 91450 333 30/// 59012;
0161763930999992011092618004+25733-100300FM-12+051599999V0200501N002012200019N0040001N1+03821+01181100751ADDAY101061AY201061GF101991011011022501001001MA1999999095261MD1710051+9999MW1041REMSYN072AAXX  26181 76393 31840 10502 10382 20118 39526 40075 57005 70400 81100;
0217763930999992011092621004+25733-100300FM-12+051599999V0201101N002012200019N0050001N1+04021+00821100461ADDAY101031AY201031GA1011+024001081GF102991011011022501011001IA1019MA1999999095051MD1710211+0001MW1041REMSYN106AAXX  26211 76393 31850 21102 10402 20082 39505 40046 57021 70400 81110 92045 333 00130 30/// 58000 81858;
0279763930999992011092700004+25733-100300FM-12+051599999V0201201N004012200019N0050001N1+03781+00911100371ADDAA124000091AY101061AY201061GA1001+999999999GF100991001001999999001001IA1019KA1120M+04121KA2180N+02381MA1999999095021MD1710031+0021MW1041REMSYN112AAXX  27001 76393 31950 01204 10378 20091 39502 40037 57003 70400 92351 333 10412 20238 30/// 51001 58002 70000;EQDQ01  00002PRCP24
0251763930999992011092706004+25733-100300FM-12+051599999V0201201N002012200019N0020001N1+02761+01801100741ADDAY101061AY201061GA1001+999999999GF100991001001999999001001GJ106969IA1019KA1240M+04121KA2240N+02381MA1999999095361MD1210091+9999MW1041REMSYN106AAXX  27061 76393 31920 01202 10276 20180 39536 40074 52009 70400 90552 333 10412 20238 30/// 55116 58///;
0199763930999992011092709004+25733-100300FM-12+051599999V0201001N001012200019N0020001N1+02501+01981100791ADDAY101031AY201031GA1001+999999999GF100991001001999999001001IA1019MA1999999095351MD1710011+9999MW1041REMSYN088AAXX  27091 76393 31920 01001 10250 20198 39535 40079 57001 70400 90853 333 30/// 58///;
0273763930999992011092712004+25733-100300FM-12+051599999V0209999C000012200019N0020001N1+02541+01741100931ADDAA124000091AY101061AY201061GA1001+999999999GF100991001001999999001001IA1019KA1240M+04121KA2120N+02401MA1999999095421MD1210071+0271MW1041REMSYN106AAXX  27121 76393 31920 00000 10254 20174 39542 40093 52007 70400 91150 333 10412 20240 30230 58027 70000;EQDQ01  00002PRCP24
0195763930999992011092715004+25733-100300FM-12+051599999V0203101N001012200019N0030001N1+02761+02121101081ADDAY101031AY201031GF102991001001999999001021IA1019MA1999999095531MD1210111+0221MW1041REMSYN100AAXX  27151 76393 31930 23101 10276 20212 39553 40108 52011 70400 80002 91450 333 0/005 30/// 58022;
0161763930999992011092718004+25733-100300FM-12+051599999V0201101N005012200019N0030001N1+03361+02091101041ADDAY101061AY201061GF101991001001999999001041MA1999999095511MD1710021+9999MW1041REMSYN072AAXX  27181 76393 31930 11105 10336 20209 39551 40104 57002 70400 80004;
0217763930999992011092721004+25733-100300FM-12+051599999V0201101N005012200019N0040001N1+03721+01851100731ADDAY101031AY201031GA1011+024001081GF102991011021022501001041IA1019MA1999999095261MD1710251+0211MW1041REMSYN106AAXX  27211 76393 31840 21105 10372 20185 39526 40073 57025 70400 81204 92045 333 01705 30/// 58021 81858;
0161763930999992011092800004+25733-100300FM-12+051599999V0201201N002019999999N0050001N1+03601+01491100611ADDAY121061AY221061GF106991011001999999031081MA1999999095201MD1710061+9999MW1041REMSYN072AAXX  28001 76393 31950 61202 10360 20149 39520 40061 57006 70422 81038;
0199763930999992011092803004+25733-100300FM-12+051599999V0201301N001012200019N0030001N1+03271+01601100771ADDAY101031AY201031GA1001+999999999GF100991001001999999001001IA1019MA1999999095371MD1210171+0101MW1041REMSYN088AAXX  28031 76393 31930 01301 10327 20160 39537 40077 52017 70400 90255 333 30/// 58010;
0251763930999992011092806004+25733-100300FM-12+051599999V0201201N003012200019N0020001N1+02761+01861100881ADDAY101061AY201061GA1001+999999999GF100991001001999999001001GJ106549IA1019KA1240M+03841KA2240N+02401MA1999999095481MD1210111+0121MW1041REMSYN106AAXX  28061 76393 31920 01203 10276 20186 39548 40088 52011 70400 90553 333 10384 20240 30/// 55109 58012;
0217763930999992011092809004+25733-100300FM-12+051599999V0201101N002012200019N0020001N1+02501+02161101101ADDAY101031AY201031GA1031+004201061GF103991031051004501001001IA1019MA1999999095631MD1210151+0281MW1041REMSYN106AAXX  28091 76393 31420 31102 10250 20216 39563 40110 52015 70400 83500 90853 333 0/300 30/// 58028 83614;
0273763930999992011092812004+25733-100300FM-12+051599999V0201401N001012200019N0020001N1+02581+02011101051ADDAA124000091AY101061AY201061GA1001+999999999GF100991001001999999001001IA1019KA1240M+03841KA2120N+02461MA1999999095541MD1710091+0121MW1041REMSYN106AAXX  28121 76393 31920 01401 10258 20201 39554 40105 57009 70400 91150 333 10384 20246 30240 58012 70000;EQDQ01  00002PRCP24
0195763930999992011092815004+25733-100300FM-12+051599999V0203301N001012200019N0030001N1+02801+02131101221ADDAY101031AY201031GF102991001001999999001081IA1019MA1999999095671MD1210131+0141MW1041REMSYN100AAXX  28151 76393 31930 23301 10280 20213 39567 40122 52013 70400 80008 91450 333 0/007 30/// 58014;
0161763930999992011092818004+25733-100300FM-12+051599999V0201201N002012200019N0030001N1+03521+02051101121ADDAY101061AY201061GF102991011011017501001081MA1999999095591MD1710081+9999MW1041REMSYN072AAXX  28181 76393 31730 21202 10352 20205 39559 40112 57008 70400 81108;
0223763930999992011092821004+25733-100300FM-12+051599999V0201101N00101090001CN0040001N1+03621+01441100761ADDAY121031AY221031GA1011+024001081GF107991011021022501001081IA1019MA1999999095291MD1710301+0031MW1041REMSYN112AAXX  28211 76393 31840 71101 10362 20144 39529 40076 57030 70422 81208 92048 333 04305 30/// 58003 81858 86270;
0161763930999992011092900004+25733-100300FM-12+051599999V0201201N002012200019N0040001N1+03501+01351100711ADDAY101061AY201061GF103991031001999999081001MA1999999095291MD1410001+9999MW1041REMSYN072AAXX  29001 76393 31940 31202 10350 20135 39529 40071 54000 70400 83080;
0211763930999992011092903004+25733-100300FM-12+051599999V0201201N002012200019N0020001N1+03181+01421100811ADDAY101031AY201031GA1001+999999999GF100991001001999999001001IA1019MA1999999095411MD1210121+0041MW1041REMSYN100AAXX  29031 76393 31920 01202 10318 20142 39541 40081 52012 70400 80008 90245 333 0/001 30/// 58004;
0251763930999992011092906004+25733-100300FM-12+051599999V0201001N003012200019N0020001N1+02781+01941100921ADDAY101061AY201061GA1001+999999999GF100991001001999999001001GJ105169IA1019KA1240M+03841KA2240N+02461MA1999999095501MD1210091+0021MW1041REMSYN106AAXX  29061 76393 31920 01003 10278 20194 39550 40092 52009 70400 90552 333 10384 20246 30/// 55086 58002;
0217763930999992011092909004+25733-100300FM-12+051599999V0209999C000012200019N0020001N1+02561+01961100971ADDAY101031AY201031GA1011+007501061GF101991011051008001001001IA1019MA1999999095501MD1410001-0131MW1041REMSYN106AAXX  29091 76393 31520 10800 10256 20196 39550 40097 54000 70400 81500 90851 333 0/700 30/// 59013 81625;
0273763930999992011092912004+25733-100300FM-12+051599999V0200101N001012200019N0020001N1+02461+02121101071ADDAA124000091AY101061AY201061GA1001+999999999GF100991001001999999001001IA1019KA1240M+03841KA2120N+02461MA1999999095551MD1210051+0011MW1041REMSYN106AAXX  29121 76393 31920 00101 10246 20212 39555 40107 52005 70400 91155 333 10384 20246 30234 58001 70000;EQDQ01  00002PRCP24
0195763930999992011092915004+25733-100300FM-12+051599999V0203201N001012200019N0020001N1+02741+02091101241ADDAY101031AY201031GF102991001001999999001091IA1019MA1999999095681MD1210131+0011MW1041REMSYN100AAXX  29151 76393 31920 23201 10274 20209 39568 40124 52013 70400 80009 91452 333 0/005 30/// 58001;
0161763930999992011092918004+25733-100300FM-12+051599999V0203101N001012200019N0030001N1+03421+01921101121ADDAY121061AY221061GF104991021021017501031091MA1999999095591MD1710091+9999MW1041REMSYN072AAXX  29181 76393 31730 43101 10342 20192 39559 40112 57009 70422 82239;
0223763930999992011092921004+25733-100300FM-12+051599999V0200701N00501021001CN0040001N1+03461+01411100831ADDAY121031AY221031GA1041+021001061GF106991061021022501001001IA1019MA1999999095351MD1710241+0061MW1041REMSYN112AAXX  29211 76393 31840 60705 10346 20141 39535 40083 57024 70422 86200 92045 333 03300 30/// 58006 84657 82858;
0369763930999992011093000004+25733-100300FM-12+051599999V0202001N00301036001CN0040001N1+02961+01591100891ADDAA103999999AA206000091AA324000091AY121061AY221061GA1041+015001051GF106991041051017501021001IA1019KA1120M+03681KA2180N+02461MA1999999095431MD1210081+0141MW1041REMSYN148AAXX  30001 76393 01740 62003 10296 20159 39543 40089 52008 69901 70422 84520 92350 333 0/330 10368 20246 30/// 50791 58014 69907 79999 84550 82460;EQDQ01  00002PRCP06Q02  00002PRCP24Q03  99992PRCP03
0286763930999992011093003004+25733-100300FM-12+051599999V0203101N001012200019N0020001N1+02661+01811101181ADDAA103999999AA206000091AY111031AY211031GA1041+010501061GF104991041051012501001001IA1019MA1999999095711MD1210281+0301MW1041REMSYN118AAXX  30031 76393 21620 43101 10266 20181 39571 40118 52028 69901 70411 84500 90253 333 0/300 30/// 58030 69907 84635;EQDQ01  00002PRCP06Q02  99992PRCP03
0322763930999992011093006004+25733-100300FM-12+051599999V0201801N002010018019N0020001N1+01981+01831101651ADDAA103013091AA206013091AY121061AY221061GA1051+001801061GF105991051051001501001001GJ103309IA1099KA1240M+03681KA2240N+99999MA1999999096101MD1210391+0601MW1211REMSYN136AAXX  30061 76393 01220 51802 10198 20183 39610 40165 52039 60131 72122 85500 90552 333 0/300 10368 20246 31/// 55055 58060 60137 85606;EQDQ01 +02462ATMN  
0216763930999992011093009004+25733-100300FM-12+051599999V0202101N002012200019N0020001N1+02041+01801101331ADDAA103002091AY101031AY201031GA1001+999999999GF100991001001999999001001IA1099MA1999999095731MD1710371+0231MW1041REMSYN094AAXX  30091 76393 21920 02102 10204 20180 39573 40133 57037 70400 90852 333 31/// 58023 60027;
0254763930999992011093012004+25733-100300FM-12+051599999V0203101N001012200019N0020001N1+02021+01781101661ADDAA124013091AY101061AY201061GA1001+999999999GF100991001001999999001001IA1019KA1240M+03681KA2120N+02001MA1999999096001MD1210271+0451MW1041REMSYN106AAXX  30121 76393 31920 03101 10202 20178 39600 40166 52027 70400 91150 333 10368 20200 30198 58045 70130;
0217763930999992011093015004+25733-100300FM-12+051599999V0203101N001010060019N0030001N1+02341+01781101901ADDAY121031AY221031GA1081+006001061GF108991081051008001999999IA1099MA1999999096201MD1210201+0521MW1041REMSYN106AAXX  30151 76393 31530 83101 10234 20178 39620 40190 52020 70422 885// 91450 333 0/1// 31/// 58052 88620;
0161763930999992011093018004+25733-100300FM-12+051599999V0202001N001010360019N0040001N1+02801+01911101791ADDAY121061AY221061GF107991021021012501031091MA1999999096131MD1710071+9999MW1041REMSYN072AAXX  30181 76393 31640 72001 10280 20191 39613 40179 57007 70422 82239;
0223763930999992011093021004+25733-100300FM-12+051599999V0200701N00101012001CN0050001N1+03011+02101101481ADDAY121031AY221031GA1041+010201081GF107991061041012501031001IA1019MA1999999095881MD1710251+0591MW1041REMSYN112AAXX  30211 76393 31650 70701 10301 20210 39588 40148 57025 70422 86430 92055 333 02150 30/// 58059 84834 82632;
0161763930999992011100100004+25733-100300FM-12+051599999V0201701N001010150019N0040001N1+02921+01681101391ADDAY121061AY221061GF107991061051017501081001MA1999999095831MD1710041+9999MW1041REMSYN072AAXX  01001 76393 31740 71701 10292 20168 39583 40139 57004 70422 86580;
0217763930999992011100103004+25733-100300FM-12+051599999V0201901N001012200019N0020001N1+02601+01711101531ADDAY101031AY201031GA1021+027001031GF102991021001999999031001IA1019MA1999999095981MD1210151+0271MW1041REMSYN106AAXX  01031 76393 31920 21901 10260 20171 39598 40153 52015 70400 82030 90245 333 0/030 30/// 58027 82359;
0263763930999992011100106004+25733-100300FM-12+051599999V0203101N001012200019N0020001N1+02501+01731101551ADDAY101061AY201061GA1031+009601061GF103991031041008001001001GJ102289IA1019KA1240M+03201KA2240N+02001MA1999999096001MD1210021-0101MW1041REMSYN118AAXX  01061 76393 31520 33101 10250 20173 39600 40155 52002 70400 83400 90550 333 10320 20200 30/// 55038 59010 83632;
0217763930999992011100109004+25733-100300FM-12+051599999V0209999C000012200019N0010001N1+02361+01631101541ADDAY101031AY201031GA1021+009001061GF102991021051008001001001IA1019MA1999999095961MD1710041+0231MW1041REMSYN106AAXX  01091 76393 31510 20000 10236 20163 39596 40154 57004 70400 82500 90850 333 0/300 30/// 58023 82630;
0161763930999992011100112004+25733-100300FM-12+051599999V0209999C000012200019N0010001N1+02341+01651101661ADDAY101061AY201061GF102991021051008001001001MA1999999096041MD1210081+9999MW1051REMSYN072AAXX  01121 76393 31510 20000 10234 20165 39604 40166 52008 70500 82500;
0217763930999992011100115004+25733-100300FM-12+051599999V0203401N001012200019N0030001N1+02661+01581101871ADDAY101031AY201031GA1011+013201081GF101991011021012501001001IA1019MA1999999096241MD1210201+0561MW1041REMSYN106AAXX  01151 76393 31630 13401 10266 20158 39624 40187 52020 70400 81200 91445 333 00500 30/// 58056 81844;
0161763930999992011100118004+25733-100300FM-12+051599999V0200901N003012200019N0030001N1+02961+01801101861ADDAY101061AY201061GF103991031021012501001001MA1999999096241MD1510001+9999MW1041REMSYN072AAXX  01181 76393 31630 30903 10296 20180 39624 40186 55000 70400 83200;
0217763930999992011100121004+25733-100300FM-12+051599999V0201301N002012200019N0030001N1+03201+01531101551ADDAY101031AY201031GA1021+018001081GF102991021021022501001001IA1019MA1999999095991MD1710251+0121MW1051REMSYN106AAXX  01211 76393 31830 21302 10320 20153 39599 40155 57025 70500 82200 92050 333 0/300 30/// 58012 82856;
0161763930999992011100200004+25733-100300FM-12+051599999V0201201N002012200019N0040001N1+02741+01811101571ADDAY121061AY221061GF104991041051012501001001MA1999999096041MD1210051+9999MW1041REMSYN072AAXX  02001 76393 31640 41202 10274 20181 39604 40157 52005 70422 84500;
0234763930999992011100203004+25733-100300FM-12+051599999V0202101N001010036019N0030001N1+02211+01921101871ADDAA103000391AY121031AY221031GA1071+003601061GF107991071051004501999999IA1099MA1999999096311MD1210271+0321MW1501REMSYN112AAXX  02031 76393 21430 72101 10221 20192 39631 40187 52027 75022 875// 90255 333 0/399 31/// 58032 69937 87612;
0303763930999992011100206004+25733-100300FM-12+051599999V0201701N001010042019N0020001N1+02241+01891101791ADDAA103999929AA206000391AY121061AY221061GA1061+004201061GF106991061051004501001001GJ105829IA1019KA1240M+03321KA2240N+02211MA1999999096201MD1710111+0201MW1041REMSYN136AAXX  02061 76393 01420 61701 10224 20189 39620 40179 57011 69931 70422 86500 90555 333 0/500 10332 20221 30/// 55097 58020 69907 86614;
0217763930999992011100209004+25733-100300FM-12+051599999V0200601N001012200019N0010001N1+02141+01811101781ADDAY101031AY201031GA1031+004201061GF103991031051004501001001IA1019MA1999999096151MD1710051+0191MW1041REMSYN106AAXX  02091 76393 31410 30601 10214 20181 39615 40178 57005 70400 83500 90850 333 0/300 30/// 58019 83614;
0161763930999992011100212004+25733-100300FM-12+051599999V0201201N002010042019N0010001N1+02201+01851101881ADDAY121061AY221061GF107991071051004501001001MA1999999096211MD1210061+9999MW1041REMSYN072AAXX  02121 76393 31410 71202 10220 20185 39621 40188 52006 70422 87500;
0217763930999992011100215004+25733-100300FM-12+051599999V0201201N003010033019N0030001N1+02141+01871102101ADDAY121031AY221031GA1081+003301061GF108991081051004501999999IA1019MA1999999096411MD1210201+0171MW1041REMSYN106AAXX  02151 76393 31430 81203 10214 20187 39641 40210 52020 70422 885// 91451 333 0/3// 30/// 58017 88611;
0161763930999992011100218004+25733-100300FM-12+051599999V0201101N006012200019N0040001N1+02621+01871102071ADDAY121061AY221061GF104991041051008001001001MA1999999096381MD1710031+9999MW1041REMSYN072AAXX  02181 76393 31540 41106 10262 20187 39638 40207 57003 70422 84500;
0223763930999992011100221004+25733-100300FM-12+051599999V0201101N005012200019N0050001N1+02781+01721101781ADDAY111031AY211031GA1021+012601061GF104991041051012501001001IA1019MA1999999096151MD1710231+0161MW1041REMSYN112AAXX  02211 76393 31650 41105 10278 20172 39615 40178 57023 70411 84500 92045 333 00300 30/// 58016 82642 82844;
0161763930999992011100300004+25733-100300FM-12+051599999V0201501N001010900019N0050001N1+02721+01651101711ADDAY121061AY221061GF105991041051012501001021MA1999999096101MD1210011+9999MW1041REMSYN072AAXX  03001 76393 31650 51501 10272 20165 39610 40171 52001 70422 84502;
0217763930999992011100303004+25733-100300FM-12+051599999V0201101N001012200019N0030001N1+02581+02201101821ADDAY121031AY221031GA1021+004801061GF104991021051004501031001IA1019MA1999999096231MD1210131-0081MW1041REMSYN106AAXX  03031 76393 31430 41101 10258 20220 39623 40182 52013 70422 82530 90250 333 0/350 30/// 59008 82616;
0161763930999992011100306004+25733-100300FM-12+051599999V0201101N003012200019N0020001N1+02261+01341101771ADDAY101061AY201061GF101991011051012501001001MA1999999096181MD1710051+9999MW1041REMSYN072AAXX  03061 76393 31620 11103 10226 20134 39618 40177 57005 70400 81500;
0199763930999992011100309004+25733-100300FM-12+051599999V0200901N001012200019N0020001N1+01941+01401101781ADDAY101031AY201031GA1001+999999999GF100991001001999999001001IA1019MA1999999096151MD1710031+0001MW1041REMSYN088AAXX  03091 76393 31920 00901 10194 20140 39615 40178 57003 70400 90852 333 30/// 58000;
0161763930999992011100312004+25733-100300FM-12+051599999V0209999C000012200019N0020001N1+01901+01461101951ADDAY101061AY201061GF103991031051004501001001MA1999999096271MD1210121+9999MW1041REMSYN072AAXX  03121 76393 31420 32400 10190 20146 39627 40195 52012 70400 83500;
0217763930999992011100315004+25733-100300FM-12+051599999V0209999C000012200019N0030001N1+02161+01611102121ADDAY101031AY201031GA1021+006901061GF103991021051008001001081IA1019MA1999999096411MD1210141+0001MW1041REMSYN106AAXX  03151 76393 31530 31400 10216 20161 39641 40212 52014 70400 82508 91451 333 0/305 30/// 58000 82623;
0180763930999992011100318004+25733-100300FM-12+051599999V0201101N005010120019N0050001N1+02581+01651999999ADDAY121061AY221061GF105991051011012501001001MA1999999096371MD1710041+9999MW1041REMSYN072AAXX  03181 76393 31650 51105 10258 20165 39637 40108 57004 70422 85100;EQDQ01+101083APOSLP
0223763930999992011100321004+25733-100300FM-12+051599999V0201201N00501012001CN0050001N1+02801+01671101791ADDAY121031AY221031GA1021+014701061GF106991051011012501001081IA1019MA1999999096131MD1710241-0021MW1041REMSYN112AAXX  03211 76393 31650 61205 10280 20167 39613 40179 57024 70422 85108 92050 333 00305 30/// 59002 82649 83850;
0161763930999992011100400004+25733-100300FM-12+051599999V0201401N001010360019N0050001N1+02741+01601101691ADDAY121061AY221061GF105991041041012501031001MA1999999096071MD1710061+9999MW1041REMSYN072AAXX  04001 76393 31650 51401 10274 20160 39607 40169 57006 70422 84430;
0217763930999992011100403004+25733-100300FM-12+051599999V0201201N002012200019N0040001N1+02561+01491101781ADDAY111031AY211031GA1031+013201061GF103991031051012501001001IA1019MA1999999096191MD1210121-0041MW1041REMSYN106AAXX  04031 76393 31640 31202 10256 20149 39619 40178 52012 70411 83500 90254 333 0/300 30/// 59004 83644;
0161763930999992011100406004+25733-100300FM-12+051599999V0201201N002012200019N0020001N1+02221+01471101791ADDAY101061AY201061GF102991021041008001001001MA1999999096191MD1410001+9999MW1041REMSYN072AAXX  04061 76393 31520 21202 10222 20147 39619 40179 54000 70400 82400;
0217763930999992011100409004+25733-100300FM-12+051599999V0201201N002012200019N0020001N1+02001+01601101781ADDAY101031AY201031GA1031+004801061GF103991031051004501001001IA1019MA1999999096151MD1510041+0001MW1041REMSYN106AAXX  04091 76393 31420 31202 10200 20160 39615 40178 55004 70400 83500 90850 333 0/300 30/// 58000 83616;
0161763930999992011100412004+25733-100300FM-12+051599999V0201201N003010042019N0020001N1+02061+01631101871ADDAY121061AY221061GF108991081051004501999999MA1999999096211MD1210061+9999MW1041REMSYN072AAXX  04121 76393 31420 81203 10206 20163 39621 40187 52006 70422 885//;
0217763930999992011100415004+25733-100300FM-12+051599999V0201101N002010057019N0020001N1+02161+01711102071ADDAY121031AY221031GA1081+005701061GF108991081051004501999999IA1019MA1999999096371MD1210161-0041MW1041REMSYN106AAXX  04151 76393 31420 81102 10216 20171 39637 40207 52016 70422 885// 91452 333 0/3// 30/// 59004 88619;
0161763930999992011100418004+25733-100300FM-12+051599999V0200701N006010075019N0050001N1+02381+01761102011ADDAY121061AY221061GF108991081051008001999999MA1999999096311MD1710061+9999MW1041REMSYN072AAXX  04181 76393 31550 80706 10238 20176 39631 40201 57006 70422 885//;
0223763930999992011100421004+25733-100300FM-12+051599999V0201101N00501012001CN0050001N1+02741+01741101651ADDAY121031AY221031GA1011+012301081GF105991051051012501001001IA1019MA1999999096001MD1710311-0131MW1041REMSYN112AAXX  04211 76393 31650 51105 10274 20174 39600 40165 57031 70422 85500 92045 333 00300 30/// 59013 81841 84644;
0161763930999992011100500004+25733-100300FM-12+051599999V0201201N003012200019N0040001N1+02681+01701101541ADDAY101061AY201061GF103991031051012501001001MA1999999095931MD1710071+9999MW1041REMSYN072AAXX  05001 76393 31640 31203 10268 20170 39593 40154 57007 70400 83500;
0217763930999992011100503004+25733-100300FM-12+051599999V0201001N001012200019N0020001N1+02501+01731101551ADDAY101031AY201031GA1011+009301061GF101991011051008001001001IA1019MA1999999095961MD1210031-0231MW1041REMSYN106AAXX  05031 76393 31520 11001 10250 20173 39596 40155 52003 70400 81500 90245 333 0/300 30/// 59023 81631;
0251763930999992011100506004+25733-100300FM-12+051599999V0201201N003012200019N0020001N1+02321+01451101471ADDAY101061AY201061GA1001+999999999GF100991001001999999001001GJ101869IA1019KA1240M+02861KA2240N+02001MA1999999095891MD1710071-0301MW1041REMSYN106AAXX  05061 76393 31920 01203 10232 20145 39589 40147 57007 70400 90550 333 10286 20200 30/// 55031 59030;
0199763930999992011100509004+25733-100300FM-12+051599999V0201201N003012200019N0010001N1+02061+01661101441ADDAY101031AY201031GA1001+999999999GF100991001001999999001001IA1019MA1999999095831MD1710061-0321MW1041REMSYN088AAXX  05091 76393 31910 01203 10206 20166 39583 40144 57006 70400 90850 333 30/// 59032;
0161763930999992011100512004+25733-100300FM-12+051599999V0209999C000012200019N0010001N1+01901+01591101561ADDAY101061AY201061GF102991021051004501001001MA1999999095911MD1210081+9999MW1041REMSYN072AAXX  05121 76393 31410 23600 10190 20159 39591 40156 52008 70400 82500;
0217763930999992011100515004+25733-100300FM-12+051599999V0201201N001012200019N0020001N1+02241+01761101671ADDAY101031AY201031GA1031+006001061GF103991031051004501001001IA1019MA1999999095991MD1210081-0381MW1041REMSYN106AAXX  05151 76393 31420 31201 10224 20176 39599 40167 52008 70400 83500 91452 333 0/300 30/// 59038 83620;
0161763930999992011100518004+25733-100300FM-12+051599999V0201201N005012200019N0030001N1+02901+01801101591ADDAY101061AY201061GF102991021011012501001001MA1999999095921MD1710071+9999MW1041REMSYN072AAXX  05181 76393 31630 21205 10290 20180 39592 40159 57007 70400 82100;
0217763930999992011100521004+25733-100300FM-12+051599999V0201201N00401036001CN0040001N1+02921+01681101221ADDAY121031AY221031GA1041+015001061GF105991041051017501041001IA1019MA1999999095621MD1710301-0381MW1041REMSYN106AAXX  05211 76393 31740 51204 10292 20168 39562 40122 57030 70422 84540 92045 333 0/350 30/// 59038 84650;
0161763930999992011100600004+25733-100300FM-12+051599999V0201101N001012200019N0040001N1+02981+01611101081ADDAY121061AY221061GF104991041051017501001001MA1999999095521MD1710101+9999MW1041REMSYN072AAXX  06001 76393 31740 41101 10298 20161 39552 40108 57010 70422 84500;
0217763930999992011100603004+25733-100300FM-12+051599999V0201201N002012200019N0030001N1+02701+01711101171ADDAY111031AY211031GA1021+012301061GF102991021051012501001001IA1019MA1999999095651MD1210131-0311MW1041REMSYN106AAXX  06031 76393 31630 21202 10270 20171 39565 40117 52013 70411 82500 90254 333 0/300 30/// 59031 82641;
0161763930999992011100606004+25733-100300FM-12+051599999V0201201N003012200019N0020001N1+02381+01881101241ADDAY101061AY201061GF104991041051008001001001MA1999999095711MD1210061+9999MW1041REMSYN072AAXX  06061 76393 31520 41203 10238 20188 39571 40124 52006 70400 84500;
0199763930999992011100609004+25733-100300FM-12+051599999V0201101N002012200019N0020001N1+02161+01931101121ADDAY101031AY201031GA1001+999999999GF100991001001999999001001IA1019MA1999999095561MD1710151-0271MW1041REMSYN088AAXX  06091 76393 31920 01102 10216 20193 39556 40112 57015 70400 90850 333 30/// 59027;
0161763930999992011100612004+25733-100300FM-12+051599999V0201201N001010042019N0020001N1+02181+01891101141ADDAY121061AY221061GF106991061051004501001001MA1999999095541MD1710021+9999MW1041REMSYN072AAXX  06121 76393 31420 61201 10218 20189 39554 40114 57002 70422 86500;
0217763930999992011100615004+25733-100300FM-12+051599999V0200601N002010042019N0020001N1+02261+01911101301ADDAY121031AY221031GA1071+004201061GF107991071051004501999999IA1019MA1999999095661MD1210121-0331MW1041REMSYN106AAXX  06151 76393 31420 70602 10226 20191 39566 40130 52012 70422 875// 91450 333 0/300 30/// 59033 87614;
0161763930999992011100618004+25733-100300FM-12+051599999V0200501N002012200019N0040001N1+02761+01901101241ADDAY121061AY221061GF104991041011012501001001MA1999999095621MD1710041+9999MW1041REMSYN072AAXX  06181 76393 31640 40502 10276 20190 39562 40124 57004 70422 84100;
0217763930999992011100621004+25733-100300FM-12+051599999V0201201N005012200019N0050001N1+03281+01851100901ADDAY101031AY201031GA1011+018001081GF101991011011017501001001IA1019MA1999999095341MD1710281-0281MW1041REMSYN106AAXX  06211 76393 31750 11205 10328 20185 39534 40090 57028 70400 81100 92048 333 00300 30/// 59028 81856;
0161763930999992011100700004+25733-100300FM-12+051599999V0201801N001012200019N0050001N1+03161+01701100781ADDAY101061AY201061GF101991011011017501001001MA1999999095281MD1710061+9999MW1041REMSYN072AAXX  07001 76393 31750 11801 10316 20170 39528 40078 57006 70400 81100;
0199763930999992011100703004+25733-100300FM-12+051599999V0201201N002012200019N0030001N1+02821+01831100941ADDAY101031AY201031GA1001+999999999GF100991001001999999001001IA1019MA1999999095461MD1210181-0191MW1041REMSYN088AAXX  07031 76393 31930 01202 10282 20183 39546 40094 52018 70400 90255 333 30/// 59019;
0251763930999992011100706004+25733-100300FM-12+051599999V0201201N004012200019N0020001N1+02461+01971101021ADDAY101061AY201061GA1001+999999999GF100991001001999999001001GJ104929IA1019KA1240M+03391KA2240N+02121MA1999999095531MD1210071-0181MW1041REMSYN106AAXX  07061 76393 31920 01204 10246 20197 39553 40102 52007 70400 90550 333 10339 20212 30/// 55082 59018;
0199763930999992011100709004+25733-100300FM-12+051599999V0201201N003012200019N0020001N1+02221+01871101011ADDAY101031AY201031GA1001+999999999GF100991001001999999001001IA1019MA1999999095481MD1710051-0081MW1041REMSYN088AAXX  07091 76393 31920 01203 10222 20187 39548 40101 57005 70400 90850 333 30/// 59008;
0273763930999992011100712004+25733-100300FM-12+051599999V0200901N001012200019N0020001N1+02081+01841101091ADDAA124000091AY101061AY201061GA1001+999999999GF100991001001999999001001IA1019KA1240M+03391KA2120N+02041MA1999999095511MD1210031-0031MW1041REMSYN106AAXX  07121 76393 31920 00901 10208 20184 39551 40109 52003 70400 91151 333 10339 20204 30198 59003 70000;EQDQ01  00002PRCP24
0217763930999992011100715004+25733-100300FM-12+051599999V0209999C000010042019N0020001N1+02221+01871101281ADDAY121031AY221031GA1061+004201061GF106991061051004501001001IA1019MA1999999095651MD1210141-0011MW1041REMSYN106AAXX  07151 76393 31420 60800 10222 20187 39565 40128 52014 70422 86500 91451 333 0/300 30/// 59001 86614;
0161763930999992011100718004+25733-100300FM-12+051599999V0201201N003012200019N0030001N1+02861+01911101231ADDAY101061AY201061GF101991011011012501001001MA1999999095611MD1710041+9999MW1051REMSYN072AAXX  07181 76393 31630 11203 10286 20191 39561 40123 57004 70500 81100;
0217763930999992011100721004+25733-100300FM-12+051599999V0201301N003012200019N0040001N1+03361+01741100851ADDAY101031AY201031GA1021+018001081GF102991021011022501001001IA1019MA1999999095291MD1710321-0051MW1051REMSYN106AAXX  07211 76393 31840 21303 10336 20174 39529 40085 57032 70500 82100 92050 333 0/300 30/// 59005 82856;
0161763930999992011100800004+25733-100300FM-12+051599999V0201301N001012200019N0040001N1+03241+01581100761ADDAY101061AY201061GF102991021051022501001001MA1999999095261MD1710031+9999MW1041REMSYN072AAXX  08001 76393 31840 21301 10324 20158 39526 40076 57003 70400 82500;
0217763930999992011100803004+25733-100300FM-12+051599999V0201101N001012200019N0030001N1+02901+01901100931ADDAY101031AY201031GA1021+012301061GF102991021051012501001001IA1019MA1999999095461MD1210201+0001MW1041REMSYN106AAXX  08031 76393 31630 21101 10290 20190 39546 40093 52020 70400 82500 90255 333 0/300 30/// 58000 82641;
0161763930999992011100806004+25733-100300FM-12+051599999V0201201N006010042019N0020001N1+02521+02101100961ADDAY121061AY221061GF105991051051004501001001MA1999999095481MD1210021+9999MW1041REMSYN072AAXX  08061 76393 31420 51206 10252 20210 39548 40096 52002 70422 85500;
0217763930999992011100809004+25733-100300FM-12+051599999V0201201N006010033019N0020001N1+02401+02121100831ADDAY121031AY221031GA1081+003301061GF108991081051004501999999IA1019MA1999999095331MD1710151-0151MW1041REMSYN106AAXX  08091 76393 31420 81206 10240 20212 39533 40083 57015 70422 885// 90850 333 0/3// 30/// 59015 88611;
0161763930999992011100812004+25733-100300FM-12+051599999V0201001N002010042019N0020001N1+02361+02081101021ADDAY121061AY221061GF108991081051004501999999MA1999999095471MD1210141+9999MW1041REMSYN072AAXX  08121 76393 31420 81002 10236 20208 39547 40102 52014 70422 885//;
0217763930999992011100815004+25733-100300FM-12+051599999V0201001N003010042019N0020001N1+02441+02101101151ADDAY121031AY221031GA1081+004201061GF108991081051004501999999IA1019MA1999999095561MD1210091-0091MW1041REMSYN106AAXX  08151 76393 31420 81003 10244 20210 39556 40115 52009 70422 885// 91445 333 0/3// 30/// 59009 88614;
0161763930999992011100818004+25733-100300FM-12+051599999V0201301N005010075019N0030001N1+02781+02081101081ADDAY121061AY221061GF106991061051008001001001MA1999999095491MD1710071+9999MW1041REMSYN072AAXX  08181 76393 31530 61305 10278 20208 39549 40108 57007 70422 86500;
0223763930999992011100821004+25733-100300FM-12+051599999V0201201N003012200019N0050001N1+03061+01951100721ADDAY111031AY211031GA1011+012901081GF103991031021012501001001IA1019MA1999999095191MD1710301-0101MW1041REMSYN112AAXX  08211 76393 31650 31203 10306 20195 39519 40072 57030 70411 83200 92045 333 02300 30/// 59010 81843 82645;
0196763930999992011100900004+25733-100300FM-12+051599999V0201701N001010360019N0040001N1+03041+01901100561ADDAY121061AY221061GF107991041041012501011071MA1999999095741MD1710161+9999MW1041REMSYN072AAXX  09001 76393 31640 71701 10304 20190 39574 40056 52055 70422 84417;EQDQ01+000022APCTENQ02+000552APC3  
0234763930999992011100903004+25733-100300FM-12+051599999V0201201N002019999999N0030001N1+02681+02041100781ADDAA103000191AY151031AY251031GA1011+007801091GF106991999999008001999999IA1019MA1999999095291MD1710451-0171MW1131REMSYN112AAXX  09031 76393 21530 61202 10268 20204 39529 40078 57045 71355 90255 333 0/300 30/// 59017 69917 81926 85627;
0161763930999992011100906004+25733-100300FM-12+051599999V0201201N004012200019N0020001N1+02541+02121100701ADDAY101061AY201061GF104991041051004501001001MA1999999095201MD1710091+9999MW1041REMSYN072AAXX  09061 76393 31420 41204 10254 20212 39520 40070 57009 70400 84500;
0217763930999992011100909004+25733-100300FM-12+051599999V0201101N003010039019N0020001N1+02421+02111100741ADDAY121031AY221031GA1081+003901061GF108991081051004501999999IA1019MA1999999095221MD1210021-0111MW1041REMSYN106AAXX  09091 76393 31420 81103 10242 20211 39522 40074 52002 70422 885// 90850 333 0/3// 30/// 59011 88613;
0161763930999992011100912004+25733-100300FM-12+051599999V0209999C000010042019N0020001N1+02261+02001100721ADDAY121061AY221061GF105991051051004501001001MA1999999095171MD1710051+9999MW1041REMSYN072AAXX  09121 76393 31420 50000 10226 20200 39517 40072 57005 70422 85500;
0217763930999992011100915004+25733-100300FM-12+051599999V0200301N002010036019N0020001N1+02341+02061100981ADDAY121031AY221031GA1081+003601061GF108991081051004501999999IA1019MA1999999095391MD1210221-0171MW1041REMSYN106AAXX  09151 76393 31420 80302 10234 20206 39539 40098 52022 70422 885// 91450 333 0/399 30/// 59017 88612;
0161763930999992011100918004+25733-100300FM-12+051599999V0200301N003010120019N0030001N1+02761+01991101031ADDAY121061AY221061GF107991071051012501999999MA1999999095441MD1210051+9999MW1041REMSYN072AAXX  09181 76393 31630 70303 10276 20199 39544 40103 52005 70422 875//;
0223763930999992011100921004+25733-100300FM-12+051599999V0201301N00301012001CN0040001N1+02961+02061100751ADDAY121031AY221031GA1011+011101081GF105991051051012501001001IA1019MA1999999095201MD1710241+0011MW1041REMSYN112AAXX  09211 76393 31640 51303 10296 20206 39520 40075 57024 70422 85500 92050 333 00300 30/// 58001 81837 84639;
0312763930999992011101000004+25733-100300FM-12+051599999V0201501N001010129019N0040001N1+02971+01911100741ADDAA103999929AA206000021AA324000191AY121061AY221061GA1071+012901061GF107991071051012501999999IA1019KA1120M+03241KA2180N+02261MA1999999095231MD1210031+0161MW1501REMSYN142AAXX  10001 76393 01640 71501 10297 20191 39523 40074 52003 69901 75022 875// 92352 333 0/399 10324 20226 30/// 50391 58016 69907 70001 87643;
0240763930999992011101003004+25733-100300FM-12+051599999V0203201N001010009019N0008001N1+02101+02091101171ADDAA103088091AY181031AY221031GA1081+000901071GF108991081071000751999999IA1119MA1999999095631MD1210401+0341MW1251REMSYN118AAXX  10031 76393 21108 83201 10210 20209 39563 40117 52040 72582 887// 90255 333 0/399 32/// 54117 58034 60887 88703;
0303763930999992011101006004+25733-100300FM-12+051599999V0203101N001010012019N0010001N1+02101+01981101231ADDAA103076091AA206127091AY121061AY221061GA1081+001201071GF109991091999999999999999GJ102409IA1099KA1240M+03241KA2240N+02021MA1999999095651MD1210021+0451MW1201REMSYN136AAXX  10061 76393 01210 93101 10210 20198 39565 40123 52002 61271 72022 886// 90552 333 0/3// 10324 20202 31/// 55040 58045 60767 88704;
0251763930999992011101009004+25733-100300FM-12+051599999V0203401N003010009019N0008001N1+02041+01951101241ADDAA103080092AA206003092AY121031AY221031GA1081+000901071GF108991081061001501999999IA1099MA1999999095621MD1710031+0401MW1211REMSYN118AAXX  10091 76393 21208 83403 10204 20195 39562 40124 57003 60031 72122 886// 90853 333 0/3// 31/// 58040 60807 88703;
0306763930999992011101012004+25733-100300FM-12+051599999V0209999C000010012019N0010001N1+01981+01891101371ADDAA103007091AA206008991AA324135391AY121061AY221061GA1081+001201071GF108991081061001501999999IA1099KA1240M+03241KA2120N+01941MA1999999095701MD1210081+0531MW1201REMSYN136AAXX  10121 76393 01210 82900 10198 20189 39570 40137 52008 60091 72022 886// 91150 333 0/3// 10324 20194 31182 58053 60077 71353 88704;
0234763930999992011101015004+25733-100300FM-12+051599999V0209999C000010009019N0010001N1+01961+01871101611ADDAA103008091AY121031AY221031GA1081+000901071GF108991081061001501999999IA1119MA1999999095911MD1210211+0521MW1211REMSYN112AAXX  10151 76393 21210 83200 10196 20187 39591 40161 52021 72122 886// 91451 333 0/3// 32/// 58052 60087 88703;
0289763930999992011101018004+25733-100300FM-12+051599999V0200101N003010018019N0010001N1+02061+01911101581ADDAA103000791AA206007991AY151061AY251061GA1081+001801071GF108991081071001501999999IA1119KA1120M+02121KA2240N+01941MA1999999095881MD1710031+0441MW1501REMSYN130AAXX  10181 76393 01210 80103 10206 20191 39588 40158 57003 60081 75055 887// 91755 333 0/899 10212 20194 32/// 58044 69977 88706;
0228763930999992011101021004+25733-100300FM-12+051599999V0200201N002010015019N0007001N1+99999+99999101351ADDAA103000021AY151031AY251031GA1081+001501071GF108991081071001501999999IA1099MA1999999095671MD1710211+0471MW1501REMSYN106AAXX  10211 76393 21207 80202 20197 39567 40135 57021 75055 887// 92050 333 0/899 31/// 58047 69907 88705;
0347763930999992011101100004+25733-100300FM-12+051599999V0201101N001010030019N0010001N1+02271+02031101231ADDAA103999929AA206000021AA324143191AY151061AY251061GA1081+003001071GF108991081071002501999999IA1099KA1120M+02361KA2180N+01941MA1999999096171MD1710121+0941MW1501REMSYN142AAXX  11001 76393 01310 81101 10227 20203 39617 40123 52050 69901 75055 887// 92355 333 0/899 10236 20194 31/// 50320 58094 69907 71431 88710;EQDQ01+000022APCTENQ02+000502APC3  
0234763930999992011101103004+25733-100300FM-12+051599999V0200901N001010021019N0010001N1+02201+02031101391ADDAA103000021AY151031AY251031GA1081+002101061GF108991081051002501999999IA1099MA1999999095711MD1210141+0081MW1501REMSYN112AAXX  11031 76393 21310 80901 10220 20203 39571 40139 52014 75055 885// 90255 333 0/399 31/// 58008 69907 88607;
0303763930999992011101106004+25733-100300FM-12+051599999V0201201N002010027019N0010001N1+02181+01951101291ADDAA103999929AA206000021AY121061AY221061GA1081+002701071GF108991081061002501999999GJ100009IA1099KA1240M+02361KA2240N+01941MA1999999095651MD1710061+0001MW1051REMSYN136AAXX  11061 76393 01310 81202 10218 20195 39565 40129 57006 69911 70522 886// 90550 333 0/3// 10236 20194 31/// 55000 58000 69907 88709;
0234763930999992011101109004+25733-100300FM-12+051599999V0201201N003010012019N0010001N1+02041+01891101141ADDAA103000391AY121031AY221031GA1081+001201071GF108991081061001501999999IA1099MA1999999095501MD1710151-0121MW1051REMSYN112AAXX  11091 76393 21210 81203 10204 20189 39550 40114 57015 70522 886// 90850 333 0/3// 31/// 59012 69937 88704;
0306763930999992011101112004+25733-100300FM-12+051599999V0209999C000010018019N0010001N1+02061+01911101181ADDAA103000191AA206000591AA324008391AY151061AY251061GA1081+001801071GF108991081061001501999999IA1099KA1240M+02361KA2120N+02041MA1999999095531MD1210031-0171MW1501REMSYN136AAXX  11121 76393 01210 83100 10206 20191 39553 40118 52003 69941 75055 886// 91150 333 0/3// 10236 20204 31196 59017 69917 70083 88706;
0234763930999992011101115004+25733-100300FM-12+051599999V0201501N001010024019N0010001N1+02141+01941101311ADDAA103000021AY151031AY251031GA1081+002401071GF108991081061002501999999IA1099MA1999999095651MD1210121-0261MW1501REMSYN112AAXX  11151 76393 21310 81501 10214 20194 39565 40131 52012 75055 886// 91452 333 0/3// 31/// 59026 69907 88708;
0297763930999992011101118004+25733-100300FM-12+051599999V0201101N002010024019N0010001N1+02221+02021101261ADDAA103000291AY151061AY251061GA1081+002401071GF108991081061002501999999IA1099KA1120M+02261KA2240N+02041MA1999999095591MD1710061-0291MW1501REMSYN130AAXX  11181 76393 01310 81102 10222 20202 39559 40126 57006 69921 75055 886// 91755 333 0/399 10226 20204 31/// 59029 69927 88708;EQDQ01  00002PRCP06
0228763930999992011101121004+25733-100300FM-12+051599999V0201101N002010036019N0010001N1+02241+01951999999ADDAA103000591AY151031AY251031GA1081+003601071GF108991081061004501999999IA1099MA1999999095411MD1710181-0261MW1501REMSYN106AAXX  11211 76393 21410 81102 10224 20195 39541 57018 75055 886// 92050 333 0/399 31/// 59026 69957 88712;
0312763930999992011101200004+25733-100300FM-12+051599999V0203101N001010015019N0010001N1+02181+02041101021ADDAA103001091AA206002091AA324002091AY121061AY221061GA1081+001501071GF108991081061001501999999IA1099KA1120M+02321KA2180N+02041MA1999999095391MD1710021-0181MW1201REMSYN142AAXX  12001 76393 01210 83101 10218 20204 39539 40102 57002 60021 72022 886// 92354 333 0/3// 10232 20204 31/// 50041 59018 60017 70020 88705;
0234763930999992011101203004+25733-100300FM-12+051599999V0201101N001010021019N0010001N1+02201+02031101101ADDAA103000891AY121031AY221031GA1081+002101071GF108991081061002501999999IA1099MA1999999095471MD1210081-0241MW1041REMSYN112AAXX  12031 76393 21310 81101 10220 20203 39547 40110 52008 70422 886// 92050 333 0/3// 31/// 59024 69987 88707;
0161763930999992011101206004+25733-100300FM-12+051599999V0202101N002010012019N0010001N1+02161+02021101021ADDAY121061AY221061GF106991061061001501001001MA1999999095391MD1710081+9999MW1041REMSYN072AAXX  12061 76393 31210 62102 10216 20202 39539 40102 57008 70422 86600;
0217763930999992011101209004+25733-100300FM-12+051599999V0209999C000010012019N0010001N1+02101+02011100881ADDAY121031AY221031GA1061+001201071GF106991061061001501001001IA1099MA1999999095251MD1710141-0251MW1051REMSYN106AAXX  12091 76393 31210 60000 10210 20201 39525 40088 57014 70522 86600 90850 333 0/300 31/// 59025 86704;
0161763930999992011101212004+25733-100300FM-12+051599999V0209999C000010012019N0010001N1+02061+01971100861ADDAY121061AY221061GF105991051061001501001001MA1999999095231MD1710021+9999MW1041REMSYN072AAXX  12121 76393 31210 52100 10206 20197 39523 40086 57002 70422 85600;
0217763930999992011101215004+25733-100300FM-12+051599999V0203001N001010039019N0010001N1+02301+01981100981ADDAY121031AY221031GA1061+003901071GF106991061061004501001001IA1099MA1999999095341MD1210111-0311MW1041REMSYN106AAXX  12151 76393 31410 63001 10230 20198 39534 40098 52011 70422 86600 91450 333 0/300 31/// 59031 86713;
0161763930999992011101218004+25733-100300FM-12+051599999V0201101N001019999999N0020001N1+02741+02001100871ADDAY121061AY221061GF108991081001999999011999MA1999999095251MD1710091+9999MW1041REMSYN072AAXX  12181 76393 31920 81101 10274 20200 39525 40087 57009 70422 8801/;
0217763930999992011101221004+25733-100300FM-12+051599999V0201101N002010300019N0005001N1+03001+02141100621ADDAY121031AY221031GA1081+030001041GF108991081001999999011999IA1099MA1999999095061MD1710201-0351MW1041REMSYN106AAXX  12211 76393 31905 81102 10300 20214 39506 40062 57020 70422 8801/ 92045 333 0/050 31/// 59035 88460;
0161763930999992011101300004+25733-100300FM-12+051599999V0201701N001019999999N0040001N1+02901+02151100601ADDAY121061AY221061GF107991071001999999011999MA1999999095081MD1210021+9999MW1041REMSYN072AAXX  13001 76393 31940 71701 10290 20215 39508 40060 52002 70422 8701/;
0194763930999992011101303004+25733-100300FM-12+051599999V0201101N001019999999N0020001N1+02561+02141100791ADDAY121031AY221031GF107991071001999999011091MA1999999095291MD1210211+0181MW1041REMSYN105AAXX  13031 76393 31920 71101 10256 20214 39529 40079 52021 70422 87019 90255 333 0/05/ 30// 58018 87460;
0251763930999992011101306004+25733-100300FM-12+051599999V0202201N001012200019N0020001N1+02381+02041100901ADDAY101061AY201061GA1001+999999999GF100991001001999999001001GJ100009IA1019KA1240M+03101KA2240N+02021MA1999999095371MD1210091-0021MW1041REMSYN106AAXX  13061 76393 31920 02201 10238 20204 39537 40090 52009 70400 90550 333 10310 20202 30/// 55000 59002;
0217763930999992011101309004+25733-100300FM-12+051599999V0202801N001010042019N0010001N1+02361+02021100991ADDAY121031AY221031GA1071+004201061GF107991071051004501001001IA1019MA1999999095441MD1210071+0191MW1041REMSYN106AAXX  13091 76393 31410 72801 10236 20202 39544 40099 52007 70422 87500 90850 333 0/700 30/// 58019 87614;
0161763930999992011101312004+25733-100300FM-12+051599999V0202401N002010075019N0010001N1+02401+01681101151ADDAY121061AY221061GF106991061051008001001001MA1999999095561MD1210121+9999MW1041REMSYN072AAXX  13121 76393 31510 62402 10240 20168 39556 40115 52012 70422 86500;
0217763930999992011101315004+25733-100300FM-12+051599999V0200401N001012200019N0008001N1+02641+01861101341ADDAY101031AY201031GA1011+009601061GF101991011051008001001001IA1019MA1999999095741MD1210181+0401MW1051REMSYN106AAXX  13151 76393 31508 10401 10264 20186 39574 40134 52018 70500 81500 91450 333 0/500 30/// 58040 81632;
0161763930999992011101318004+25733-100300FM-12+051599999V0200501N002012200019N0030001N1+03021+01481101321ADDAY101061AY201061GF102991021021017501001001MA1999999095741MD1410001+9999MW1041REMSYN072AAXX  13181 76393 31730 20502 10302 20148 39574 40132 54000 70400 82200;
0189763930999992011101321004+25733-100300FM-12+051599999V0200601N003012200019N0050001N1+03321+01251101011ADDGA1011+024001081GF101991011011022501001001IA1019MA1999999095481MD1710261+0421REMSYN100AAXX  13211 76393 32850 10603 10332 20125 39548 40101 57026 81100 92048 333 00300 30/// 58042 81858;
0161763930999992011101400004+25733-100300FM-12+051599999V0200401N001012200019N0050001N1+03021+01321100941ADDAY111061AY211061GF102991011011022501031001MA1999999095451MD1710031+9999MW1041REMSYN072AAXX  14001 76393 31850 20401 10302 20132 39545 40094 57003 70411 81130;
0217763930999992011101403004+25733-100300FM-12+051599999V0201801N001012200019N0020001N1+02761+01551101141ADDAY111031AY211031GA1011+015001061GF101991011051012501001001IA1019MA1999999095651MD1210201+0371MW1041REMSYN106AAXX  14031 76393 31620 11801 10276 20155 39565 40114 52020 70411 81500 90255 333 0/300 30/// 58037 81650;
0161763930999992011101406004+25733-100300FM-12+051599999V0201201N002012200019N0020001N1+02501+01921101221ADDAY101061AY201061GF102991021051008001001001MA1999999095711MD1210061+9999MW1041REMSYN072AAXX  14061 76393 31520 21202 10250 20192 39571 40122 52006 70400 82500;
0217763930999992011101409004+25733-100300FM-12+051599999V0203201N002012200019N0020001N1+02341+01871101211ADDAY101031AY201031GA1031+005701061GF103991031051004501001001IA1019MA1999999095651MD1710061+0211MW1041REMSYN106AAXX  14091 76393 31420 33202 10234 20187 39565 40121 57006 70400 83500 90850 333 0/300 30/// 58021 83619;
0273763930999992011101412004+25733-100300FM-12+051599999V0200201N001012200019N0020001N1+02161+01871101271ADDAA124000091AY101061AY201061GA1001+999999999GF100991001001999999001001IA1019KA1240M+03401KA2120N+02161MA1999999095671MD1210021+0111MW1041REMSYN106AAXX  14121 76393 31920 00201 10216 20187 39567 40127 52002 70400 91151 333 10340 20216 30200 58011 70000;EQDQ01  00002PRCP24
0217763930999992011101415004+25733-100300FM-12+051599999V0200601N001012200019N0020001N1+02461+01811101461ADDAY101031AY201031GA1021+008101061GF102991021051008001001001IA1019MA1999999095841MD1210171+0101MW1041REMSYN106AAXX  14151 76393 31520 20601 10246 20181 39584 40146 52017 70400 82500 91452 333 0/300 30/// 58010 82627;
0209763930999992011101418004+25733-100300FM-12+051599999V0201101N005012200019N0040001N1+02961+01401101391ADDGA1001+999999999GF100991001001999999001001IA1019KA1120M+03081KA2240N+02161MA1999999095581MD1710061+0041REMSYN094AAXX  14181 76393 32940 01105 10296 20140 39558 40139 57006 91748 333 10308 20216 30/// 58004;
0189763930999992011101421004+25733-100300FM-12+051599999V0201101N005012200019N0070001N1+03141+01451101031ADDGA1011+021001061GF101991011051999999001001IA1019MA1999999095481MD1710301+0001REMSYN100AAXX  14211 76393 32957 11105 10314 20145 39548 40103 57030 81500 92050 333 0/500 30/// 58000 81657;
0161763930999992011101500004+25733-100300FM-12+051599999V0201301N001012200019N0100001N1+02941+01451101031ADDAY101061AY201061GF101991011051017501001001MA1999999095511MD1210031+9999MW1041REMSYN072AAXX  15001 76393 31760 11301 10294 20145 39551 40103 52003 70400 81500;
0199763930999992011101503004+25733-100300FM-12+051599999V0201301N001012200019N0030001N1+02661+01431101201ADDAY101031AY201031GA1001+999999999GF100991001001999999001001IA1019MA1999999095691MD1210181+0041MW1041REMSYN088AAXX  15031 76393 31930 01301 10266 20143 39569 40120 52018 70400 90255 333 30/// 58004;
0251763930999992011101506004+25733-100300FM-12+051599999V0201201N002012200019N0020001N1+02481+01421101231ADDAY101061AY201061GA1001+999999999GF100991001001999999001001GJ106009IA1019KA1240M+03201KA2240N+02161MA1999999095711MD1210021+0001MW1041REMSYN106AAXX  15061 76393 31920 01202 10248 20142 39571 40123 52002 70400 90550 333 10320 20216 30/// 55100 58000;
0199763930999992011101509004+25733-100300FM-12+051599999V0209999C000012200019N0020001N1+02021+01561101301ADDAY101031AY201031GA1001+999999999GF100991001001999999001001IA1019MA1999999095721MD1210011+0071MW1041REMSYN088AAXX  15091 76393 31920 00000 10202 20156 39572 40130 52001 70400 90850 333 30/// 58007;
0273763930999992011101512004+25733-100300FM-12+051599999V0209999C000012200019N0020001N1+01941+01571101361ADDAA124000091AY101061AY201061GA1001+999999999GF100991001001999999001001IA1019KA1240M+03201KA2120N+01941MA1999999095741MD1210021+0071MW1041REMSYN106AAXX  15121 76393 31920 03200 10194 20157 39574 40136 52002 70400 91151 333 10320 20194 30172 58007 70000;EQDQ01  00002PRCP24
0199763930999992011101515004+25733-100300FM-12+051599999V0209999C000012200019N0030001N1+02261+01551101591ADDAY101031AY201031GA1001+999999999GF100991001001999999001001IA1019MA1999999095921MD1210181+0081MW1041REMSYN088AAXX  15151 76393 31930 03300 10226 20155 39592 40159 52018 70400 91452 333 30/// 58008;
0161763930999992011101518004+25733-100300FM-12+051599999V0201101N002012200019N0020001N1+02761+01591101601ADDAY101061AY201061GF101991011051012501001001MA1999999095931MD1210011+9999MW1051REMSYN072AAXX  15181 76393 31620 11102 10276 20159 39593 40160 52001 70500 81500;
0217763930999992011101521004+25733-100300FM-12+051599999V0201201N004012200019N0050001N1+03081+01631101301ADDAY101031AY201031GA1011+015001061GF101991011051017501001001IA1019MA1999999095701MD1210231+0221MW1051REMSYN106AAXX  15211 76393 31750 11204 10308 20163 39570 40130 52023 70500 81500 92050 333 0/500 30/// 58022 81650;
0161763930999992011101600004+25733-100300FM-12+051599999V0201601N001012200019N0050001N1+02871+01451101271ADDAY101061AY201061GF101991011051017501001001MA1999999095711MD1210011+9999MW1041REMSYN072AAXX  16001 76393 31750 11601 10287 20145 39571 40127 52001 70400 81500;
0199763930999992011101603004+25733-100300FM-12+051599999V0201101N001012200019N0030001N1+02641+01171101461ADDAY101031AY201031GA1001+999999999GF100991001001999999001001IA1019MA1999999095921MD1210211+0231MW1041REMSYN088AAXX  16031 76393 31930 01101 10264 20117 39592 40146 52021 70400 90255 333 30/// 58023;
0251763930999992011101606004+25733-100300FM-12+051599999V0201201N003012200019N0020001N1+02441+01251101521ADDAY101061AY201061GA1001+999999999GF100991001001999999001001GJ106009IA1019KA1240M+03161KA2240N+01941MA1999999095971MD1210051+0261MW1041REMSYN106AAXX  16061 76393 31920 01203 10244 20125 39597 40152 52005 70400 90550 333 10316 20194 30/// 55100 58026;
0199763930999992011101609004+25733-100300FM-12+051599999V0200601N001012200019N0020001N1+02061+01601101551ADDAY101031AY201031GA1001+999999999GF100991001001999999001001IA1019MA1999999095961MD1710011+0241MW1041REMSYN088AAXX  16091 76393 31920 00601 10206 20160 39596 40155 57001 70400 90850 333 30/// 58024;
0161763930999992011101612004+25733-100300FM-12+051599999V0202101N001012200019N0020001N1+01981+01681101621ADDAY111061AY211061GF103991031061004501001001MA1999999095981MD1210021+9999MW1041REMSYN072AAXX  16121 76393 31420 32101 10198 20168 39598 40162 52002 70411 83600;
0217763930999992011101615004+25733-100300FM-12+051599999V0203201N001012200019N0007001N1+02181+01791101801ADDAY141031AY241031GA1041+004801071GF104991041061004501001001IA1019MA1999999096121MD1210141+0201MW1051REMSYN106AAXX  16151 76393 31407 43201 10218 20179 39612 40180 52014 70544 84600 91445 333 0/300 30/// 58020 84716;
0161763930999992011101618004+25733-100300FM-12+051599999V0201101N001012200019N0010001N1+02721+01711101711ADDAY111061AY211061GF101991011011012501001001MA1999999096051MD1710161+9999MW1041REMSYN072AAXX  16181 76393 31610 11101 10272 20171 39605 40171 57016 70411 81100;
0199763930999992011101621004+25733-100300FM-12+051599999V0201201N003012200019N0030001N1+02921+01571101341ADDAY101031AY201031GA1001+999999999GF100991001001999999001001IA1019MA1999999095721MD1710331+0021MW1041REMSYN088AAXX  16211 76393 31930 01203 10292 20157 39572 40134 57033 70400 92052 333 30/// 58002;
0279763930999992011101700004+25733-100300FM-12+051599999V0202001N001012200019N0030001N1+02841+01721101231ADDAA124000091AY101061AY201061GA1001+999999999GF100991001001999999001001IA1019KA1120M+03121KA2180N+01941MA1999999095661MD1710061-0051MW1041REMSYN112AAXX  17001 76393 31930 02001 10284 20172 39566 40123 57006 70400 92355 333 10312 20194 30/// 50661 59005 70000;EQDQ01  00002PRCP24
0199763930999992011101703004+25733-100300FM-12+051599999V0202201N001012200019N0030001N1+02561+01701101321ADDAY101031AY201031GA1001+999999999GF100991001001999999001001IA1019MA1999999095761MD1210101-0161MW1041REMSYN088AAXX  17031 76393 31930 02201 10256 20170 39576 40132 52010 70400 90255 333 30/// 59016;
0251763930999992011101706004+25733-100300FM-12+051599999V0201001N002012200019N0020001N1+02401+01711101301ADDAY101061AY201061GA1001+999999999GF100991001001999999001001GJ106249IA1019KA1240M+03121KA2240N+01941MA1999999095751MD1710011-0221MW1041REMSYN106AAXX  17061 76393 31920 01002 10240 20171 39575 40130 57001 70400 90550 333 10312 20194 30/// 55104 59022;
0199763930999992011101709004+25733-100300FM-12+051599999V0200601N001012200019N0020001N1+02141+01871101271ADDAY101031AY201031GA1001+999999999GF100991001001999999001001IA1019MA1999999095691MD1710061-0271MW1041REMSYN088AAXX  17091 76393 31920 00601 10214 20187 39569 40127 57006 70400 90851 333 30/// 59027;
0273763930999992011101712004+25733-100300FM-12+051599999V0209999C000012200019N0020001N1+02001+01791101281ADDAA124000091AY101061AY201061GA1001+999999999GF100991001001999999001001IA1019KA1240M+03121KA2120N+01981MA1999999095661MD1710031-0321MW1041REMSYN106AAXX  17121 76393 31920 03300 10200 20179 39566 40128 57003 70400 91152 333 10312 20198 30180 59032 70000;EQDQ01  00002PRCP24
0199763930999992011101715004+25733-100300FM-12+051599999V0202501N001012200019N0020001N1+02461+01681101361ADDAY101031AY201031GA1001+999999999GF100991001001999999001001IA1019MA1999999095711MD1210051-0411MW1041REMSYN088AAXX  17151 76393 31920 02501 10246 20168 39571 40136 52005 70400 91450 333 30/// 59041;
0237763930999992011101718004+25733-100300FM-12+051599999V0201301N001012200019N0020001N1+03021+01701101131ADDAY141061AY241061GA1001+999999999GF100991001001999999001001IA1019KA1120M+03221KA2240N+01981MA1999999095521MD1710191-0531MW1051REMSYN100AAXX  17181 76393 31920 01301 10302 20170 39552 40113 57019 70544 91745 333 10322 20198 30/// 59053;
0171763930999992011101721004+25733-100300FM-12+051599999V0201101N002012200019N0040001N1+03361+02131100681ADDGA1001+999999999GF100991001001999999001001IA1019MA1999999095141MD1710381-0581REMSYN082AAXX  17211 76393 32940 01102 10336 20213 39514 40068 57038 92058 333 30/// 59058;
0251763930999992011101800004+25733-100300FM-12+051599999V0201701N001012200019N0050001N1+03051+01821100581ADDAA124000091GA1001+999999999GF100991001001999999001001IA1019KA1120M+03471KA2180N+01981MA1999999095101MD1710041-0561REMSYN106AAXX  18001 76393 32950 01701 10305 20182 39510 40058 57004 92350 333 10347 20198 30/// 50481 59056 70000;EQDQ01  00002PRCP24
0199763930999992011101803004+25733-100300FM-12+051599999V0202001N001012200019N0030001N1+02641+01511100621ADDAY101031AY201031GA1001+999999999GF100991001001999999001001IA1019MA1999999095161MD1210061-0601MW1041REMSYN088AAXX  18031 76393 31930 02001 10264 20151 39516 40062 52006 70400 90255 333 30/// 59060;
0251763930999992011101806004+25733-100300FM-12+051599999V0202301N001012200019N0020001N1+02421+01391100561ADDAY101061AY201061GA1001+999999999GF100991001001999999001001GJ106069IA1019KA1240M+03471KA2240N+01981MA1999999095091MD1710071-0661MW1041REMSYN106AAXX  18061 76393 31920 02301 10242 20139 39509 40056 57007 70400 90550 333 10347 20198 30/// 55101 59066;
0199763930999992011101809004+25733-100300FM-12+051599999V0202501N001012200019N0020001N1+02201+01341100581ADDAY101031AY201031GA1001+999999999GF100991001001999999001001IA1019MA1999999095061MD1710031-0631MW1041REMSYN088AAXX  18091 76393 31920 02501 10220 20134 39506 40058 57003 70400 90850 333 30/// 59063;
0273763930999992011101812004+25733-100300FM-12+051599999V0203601N002012200019N0020001N1+02301+00781100861ADDAA124000091AY101061AY201061GA1001+999999999GF100991001001999999001001IA1019KA1240M+03471KA2120N+02201MA1999999095291MD1210231-0371MW1041REMSYN106AAXX  18121 76393 31920 03602 10230 20078 39529 40086 52023 70400 91151 333 10347 20220 30182 59037 70000;EQDQ01  00002PRCP24
0218763930999992011101815004+25733-100300FM-12+051599999V0203301N006012200019N0020001N1+02381+01071101492ADDAY101031AY201031GA1001+999999999GF100991001001999999001001IA1019MA1999999095861MD1210571+0151MW1041REMSYN088AAXX  18151 76393 31920 03306 10238 20107 39586 40149 52057 70400 91453 333 30/// 58015;EQDQ01+101493APOSLP
0237763930999992011101818004+25733-100300FM-12+051599999V0200201N008012200019N0010001N1+02781+00881101481ADDAY131061AY231061GA1001+999999999GF100991001001999999001001IA1019KA1120M+02821KA2240N+02201MA1999999095861MD1410001+0341MW1071REMSYN100AAXX  18181 76393 31910 00208 10278 20088 39586 40148 54000 70733 91745 333 10282 20220 30/// 58034;
0171763930999992011101821004+25733-100300FM-12+051599999V0200301N005012200019N0040001N1+02901+00781101261ADDGA1001+999999999GF100991001001999999001001IA1019MA1999999095671MD1710191+0531REMSYN082AAXX  18211 76393 32940 00305 10290 20078 39567 40126 57019 92045 333 30/// 58053;
0251763930999992011101900004+25733-100300FM-12+051599999V0201101N001012200019N0050001N1+02481+00611101391ADDAA124000091GA1001+999999999GF100991001001999999001001IA1019KA1120M+03001KA2180N+02201MA1999999095821MD1210151+0721REMSYN106AAXX  19001 76393 32950 01101 10248 20061 39582 40139 52015 92350 333 10300 20220 30/// 50951 58072 70000;EQDQ01  00002PRCP24
0136763930999992011101903004+25733-100300FM-12+051599999V0200601N001012200019N0030001N1+02181+00651999999ADDGA1001+999999999GF100991001001999999001001REMSYN082AAXX  19031 76393 32930 00601 10218 20065 09255 39621 40181 52039 333 30/// 58105;
0242763930999992011101906004+25733-100300FM-12+051599999V0200601N001012200019N0020001N1+01981+00501102051ADDGA1001+999999999GF100991001001999999001001GJ105889IA1019KA1240M+03001KA2240N+99999MA1999999096411MD1210201+1321REMSYN100AAXX  19061 76393 32920 00601 10198 20050 39641 40205 52020 90550 333 10300 20220 30/// 55098 58132;EQDQ01 +02202ATMN  
0175763930999992011101909004+25733-100300FM-12+051599999V0200601N001012200019N0020001N1+01861+00621102081ADDGA1001+999999999GF100991001001999999001001IA1019MD1710011+1341REMSYN082AAXX  19091 76393 32920 00601 10186 20062 39540 40208 57001 90850 333 30/// 58134;EQDQ01+095403APOSP 
0273763930999992011101912004+25733-100300FM-12+051599999V0209999C000012200019N0020001N1+01761+00631102181ADDAA124000091AY101061AY201061GA1001+999999999GF100991001001999999001001IA1019KA1240M+03001KA2120N+01701MA1999999096451MD1210051+1161MW1041REMSYN106AAXX  19121 76393 31920 01800 10176 20063 39645 40218 52005 70400 91150 333 10300 20170 30130 58116 70000;EQDQ01  00002PRCP24
0199763930999992011101915004+25733-100300FM-12+051599999V0201201N001012200019N0030001N1+02101+00531102331ADDAY101031AY201031GA1001+999999999GF100991001001999999001001IA1019MA1999999096581MD1210131+0721MW1041REMSYN088AAXX  19151 76393 31930 01201 10210 20053 39658 40233 52013 70400 91451 333 30/// 58072;
0237763930999992011101918004+25733-100300FM-12+051599999V0201201N001012200019N0050001N1+02401+00481102211ADDAY101061AY201061GA1001+999999999GF100991001001999999001001IA1019KA1120M+02561KA2240N+01701MA1999999096471MD1710111+0611MW1041REMSYN100AAXX  19181 76393 31950 01201 10240 20048 39647 40221 57011 70400 91745 333 10256 20170 30/// 58061;
0199763930999992011101921004+25733-100300FM-12+051599999V0200501N002012200019N0050001N1+02501+00541101841ADDAY101031AY201031GA1001+999999999GF100991001001999999001001IA1019MA1999999096151MD1710321+0481MW1041REMSYN088AAXX  19211 76393 31950 00502 10250 20054 39615 40184 57032 70400 92050 333 30/// 58048;
0251763930999992011102000004+25733-100300FM-12+051599999V0201601N001012200019N0040001N1+02421+00621101761ADDAA124000091GA1001+999999999GF100991001001999999001001IA1019KA1120M+02761KA2180N+01701MA1999999096111MD1710041+1011REMSYN106AAXX  20001 76393 32940 01601 10242 20062 39611 40176 57004 92355 333 10276 20170 30/// 50641 58101 70000;EQDQ01  00002PRCP24
0165763930999992011102003004+25733-100300FM-12+051599999V0201101N001012200019N0030001N1+02201+99999101821ADDGA1001+999999999GF100991001001999999001001IA1019MA1999999096181MD1210071-0031REMSYN076AAXX  20031 76393 32930 01101 10220 39618 40182 52007 90255 333 30/// 59003;
0251763930999992011102006004+25733-100300FM-12+051599999V0202701N001012200019N0020001N1+01901+01101101821ADDAY101061AY201061GA1001+999999999GF100991001001999999001001GJ106249IA1019KA1240M+02761KA2240N+01701MA1999999096171MD1710011-0241MW1041REMSYN106AAXX  20061 76393 31920 02701 10190 20110 39617 40182 57001 70400 90555 333 10276 20170 30/// 55104 59024;
0199763930999992011102009004+25733-100300FM-12+051599999V0202501N001012200019N0020001N1+01681+00561101731ADDAY101031AY201031GA1001+999999999GF100991001001999999001001IA1019MA1999999096051MD1710121-0351MW1041REMSYN088AAXX  20091 76393 31920 02501 10168 20056 39605 40173 57012 70400 90850 333 30/// 59035;
0273763930999992011102012004+25733-100300FM-12+051599999V0201901N001012200019N0020001N1+01601+00601101781ADDAA124000091AY101061AY201061GA1001+999999999GF100991001001999999001001IA1019KA1240M+02761KA2120N+01521MA1999999096051MD1410001-0401MW1041REMSYN106AAXX  20121 76393 31920 01901 10160 20060 39605 40178 54000 70400 91150 333 10276 20152 30120 59040 70000;EQDQ01  00002PRCP24
0199763930999992011102015004+25733-100300FM-12+051599999V0203201N001012200019N0010001N1+01961+00421101941ADDAY101031AY201031GA1001+999999999GF100991001001999999001001IA1019MA1999999096181MD1210131-0401MW1041REMSYN088AAXX  20151 76393 31910 03201 10196 20042 39618 40194 52013 70400 91450 333 30/// 59040;
0237763930999992011102018004+25733-100300FM-12+051599999V0201201N003012200019N0008001N1+02481+00761101851ADDAY141061AY241061GA1001+999999999GF100991001001999999001001IA1019KA1120M+02661KA2240N+01521MA1999999096111MD1710071-0361MW1041REMSYN100AAXX  20181 76393 31908 01203 10248 20076 39611 40185 57007 70444 91745 333 10266 20152 30/// 59036;
0199763930999992011102021004+25733-100300FM-12+051599999V0201201N003012200019N0020001N1+02861+01011101471ADDAY141031AY241031GA1001+999999999GF100991001001999999001001IA1019MA1999999095801MD1710311-0351MW1041REMSYN088AAXX  20211 76393 31920 01203 10286 20101 39580 40147 57031 70444 92045 333 30/// 59035;
0251763930999992011102100004+25733-100300FM-12+051599999V0202201N001012200019N0040001N1+02661+01231101381ADDAA124000091GA1001+999999999GF100991001001999999001001IA1019KA1120M+02991KA2180N+01581MA1999999095771MD1710031-0341REMSYN106AAXX  21001 76393 32940 02201 10266 20123 39577 40138 57003 92355 333 10299 20158 30/// 50701 59034 70000;EQDQ01  00002PRCP24
0171763930999992011102103004+25733-100300FM-12+051599999V0202101N001012200019N0020001N1+02261+01191101491ADDGA1001+999999999GF100991001001999999001001IA1019MA1999999095891MD1210121-0291REMSYN082AAXX  21031 76393 32920 02101 10226 20119 39589 40149 52012 90255 333 30/// 59029;
0251763930999992011102106004+25733-100300FM-12+051599999V0202301N001012200019N0020001N1+02081+01451101511ADDAY101061AY201061GA1001+999999999GF100991001001999999001001GJ106309IA1019KA1240M+02991KA2240N+01581MA1999999095911MD1210011-0261MW1041REMSYN106AAXX  21061 76393 31920 02301 10208 20145 39591 40151 52001 70400 90855 333 10299 20158 30/// 55105 59026;
0199763930999992011102109004+25733-100300FM-12+051599999V0203101N001012200019N0020001N1+01821+01301101481ADDAY101031AY201031GA1001+999999999GF100991001001999999001001IA1019MA1999999095841MD1710071-0211MW1041REMSYN088AAXX  21091 76393 31920 03101 10182 20130 39584 40148 57007 70400 90850 333 30/// 59021;
0273763930999992011102112004+25733-100300FM-12+051599999V0209999C000012200019N0020001N1+01801+01211101581ADDAA124000091AY101061AY201061GA1001+999999999GF100991001001999999001001IA1019KA1240M+02991KA2120N+01781MA1999999095891MD1210051-0161MW1041REMSYN106AAXX  21121 76393 31920 01900 10180 20121 39589 40158 52005 70400 91151 333 10299 20178 30146 59016 70000;EQDQ01  00002PRCP24
0199763930999992011102115004+25733-100300FM-12+051599999V0200601N001012200019N0020001N1+02221+01261101791ADDAY101031AY201031GA1001+999999999GF100991001001999999001001IA1019MA1999999096081MD1210191-0101MW1041REMSYN088AAXX  21151 76393 31920 00601 10222 20126 39608 40179 52019 70400 91452 333 30/// 59010;
0237763930999992011102118004+25733-100300FM-12+051599999V0201101N002012200019N0008001N1+02861+01301101691ADDAY101061AY201061GA1001+999999999GF100991001001999999001001IA1019KA1120M+03061KA2240N+01781MA1999999096001MD1210081-0111MW1051REMSYN100AAXX  21181 76393 31908 01102 10286 20130 39600 40169 52008 70500 91751 333 10306 20178 30/// 59011;
0199763930999992011102121004+25733-100300FM-12+051599999V0201001N004012200019N0010001N1+03161+01311101391ADDAY101031AY201031GA1001+999999999GF100991001001999999001001IA1019MA1999999095771MD1710231-0031MW1051REMSYN088AAXX  21211 76393 31910 01004 10316 20131 39577 40139 57023 70500 92050 333 30/// 59003;
0251763930999992011102200004+25733-100300FM-12+051599999V0201701N001012200019N0030001N1+02961+01241101361ADDAA124000091GA1001+999999999GF100991001001999999001001IA1019KA1120M+03281KA2180N+01781MA1999999095801MD1210031+0031REMSYN106AAXX  22001 76393 32930 01701 10296 20124 39580 40136 52003 92355 333 10328 20178 30/// 50641 58003 70000;EQDQ01  00002PRCP24
0171763930999992011102203004+25733-100300FM-12+051599999V0200601N001012200019N0020001N1+02501+01491101481ADDGA1001+999999999GF100991001001999999001001IA1019MA1999999095941MD1210141+0051REMSYN082AAXX  22031 76393 32920 00601 10250 20149 39594 40148 52014 90255 333 30/// 58005;
0251763930999992011102206004+25733-100300FM-12+051599999V0201201N003012200019N0020001N1+02201+01751101461ADDAY101061AY201061GA1001+999999999GF100991001001999999001001GJ106069IA1019KA1240M+03281KA2240N+01781MA1999999095911MD1710041+0001MW1041REMSYN106AAXX  22061 76393 31920 01203 10220 20175 39591 40146 57004 70400 90555 333 10328 20178 30/// 55101 58000;
0199763930999992011102209004+25733-100300FM-12+051599999V0209999C000012200019N0020001N1+01941+01701101461ADDAY101031AY201031GA1001+999999999GF100991001001999999001001IA1019MA1999999095861MD1710051+0021MW1041REMSYN088AAXX  22091 76393 31920 00000 10194 20170 39586 40146 57005 70400 90850 333 30/// 58002;
0273763930999992011102212004+25733-100300FM-12+051599999V0209999C000012200019N0020001N1+01841+01691101551ADDAA124000091AY101061AY201061GA1001+999999999GF100991001001999999001001IA1019KA1240M+03281KA2120N+01841MA1999999095891MD1210031+0001MW1041REMSYN106AAXX  22121 76393 31920 01000 10184 20169 39589 40155 52003 70400 91151 333 10328 20184 30164 58000 70000;EQDQ01  00002PRCP24
0217763930999992011102215004+25733-100300FM-12+051599999V0209999C000012200019N0008001N1+02001+01731101701ADDAY111031AY211031GA1041+003301071GF104991041061004501001001IA1019MA1999999096001MD1210111-0081MW1041REMSYN106AAXX  22151 76393 31408 43400 10200 20173 39600 40170 52011 70411 84600 91453 333 0/300 30/// 59008 84711;
0161763930999992011102218004+25733-100300FM-12+051599999V0201301N003012200019N0008001N1+02481+01811101611ADDAY101061AY201061GF102991021001999999021001MA1999999095921MD1710081+9999MW1051REMSYN072AAXX  22181 76393 31908 21303 10248 20181 39592 40161 57008 70500 82020;
0217763930999992011102221004+25733-100300FM-12+051599999V0201101N005010600019N0030001N1+03101+01551101231ADDAY121031AY221031GA1061+060001011GF106991001001999999001011IA1019MA1999999095601MD1710321-0171MW1051REMSYN106AAXX  22211 76393 31930 61105 10310 20155 39560 40123 57032 70522 80001 92050 333 0/007 30/// 59017 86170;
0161763930999992011102300004+25733-100300FM-12+051599999V0201101N001019999999N0040001N1+02911+01371101171ADDAY121061AY221061GF106991001001999999001091MA1999999095601MD1410001+9999MW1041REMSYN072AAXX  23001 76393 31940 61101 10291 20137 39560 40117 54000 70422 80009;
0195763930999992011102303004+25733-100300FM-12+051599999V0200601N001012200019N0030001N1+02501+01281101251ADDAY111031AY211031GF103991001001999999001021IA1019MA1999999095701MD1210101-0241MW1041REMSYN100AAXX  23031 76393 31930 30601 10250 20128 39570 40125 52010 70411 80002 90255 333 0/007 30/// 59024;
0251763930999992011102306004+25733-100300FM-12+051599999V0201201N004012200019N0020001N1+02201+01561101261ADDAY101061AY201061GA1001+999999999GF100991001001999999001001GJ104989IA1019KA1240M+03181KA2240N+01841MA1999999095711MD1210011-0201MW1041REMSYN106AAXX  23061 76393 31920 01204 10220 20156 39571 40126 52001 70400 90550 333 10318 20184 30/// 55083 59020;
0236763930999992011102309004+25733-100300FM-12+051599999V0200601N001012200019N0020001N1+01961+01661101241ADDAY101031AY201031GA1031+027001031GF103991999001999999031001IA1019MA1999999095661MD1710051-0201MW1041REMSYN106AAXX  23091 76393 31920 30601 10196 20166 39566 40124 57005 70400 80030 90855 333 0/070 30/// 59020 83359;EQDQ01+000002SCOTLC
0273763930999992011102312004+25733-100300FM-12+051599999V0209999C000012200019N0020001N1+01881+01631101341ADDAA124000091AY101061AY201061GA1001+999999999GF100991001001999999001001IA1019KA1240M+03181KA2120N+01881MA1999999095701MD1210041-0191MW1041REMSYN106AAXX  23121 76393 31920 00200 10188 20163 39570 40134 52004 70400 91152 333 10318 20188 30164 59019 70000;EQDQ01  00002PRCP24
0217763930999992011102315004+25733-100300FM-12+051599999V0202901N001012200019N0010001N1+02221+01641101501ADDAY101031AY201031GA1021+007201011GF102991001001999999001011IA1019MA1999999095821MD1210121-0121MW1041REMSYN106AAXX  23151 76393 31910 22901 10222 20164 39582 40150 52012 70400 80001 91452 333 0/007 30/// 59012 82124;
0161763930999992011102318004+25733-100300FM-12+051599999V0200201N010012200019N0010001N1+02761+01661101471ADDAY111061AY211061GF102991011001012501001021MA1999999095801MD1710021+9999MW1041REMSYN072AAXX  23181 76393 31610 20210 10276 20166 39580 40147 57002 70411 81002;
0167763930999992011102321004+25733-100300FM-12+051599999V0201101N001012200019N0010001N1+03161+01761101201ADDGF101991001001999999001021IA1019MA1999999095601MD1710201+0001REMSYN094AAXX  23211 76393 32910 11101 10316 20176 39560 40120 57020 80002 92055 333 0/005 30/// 58000;
0273763930999992011102412004+25733-100300FM-12+051599999V0209999C000012200019N0020001N1+01921+01681102091ADDAA124000091AY101061AY201061GA1001+999999999GF100991001001999999001001IA1019KA1240M+03201KA2120N+01901MA1999999096161MD1999999+0461MW1041REMSYN106AAXX  24121 76393 31920 00900 10192 20168 39616 40209 5//// 70400 91152 333 10320 20190 30162 58046 70000;EQDQ01  00002PRCP24
0199763930999992011102415004+25733-100300FM-12+051599999V0209999C000012200019N0010001N1+02161+01711102031ADDAY101031AY201031GA1001+999999999GF100991001001999999001001IA1019MA1999999096321MD1210161+0501MW1051REMSYN088AAXX  24151 76393 31910 02600 10216 20171 39632 40203 52016 70500 91452 333 30/// 58050;
0243763930999992011102418004+25733-100300FM-12+051599999V0201101N003012200019N0010001N1+02661+01751102001ADDAY101061AY201061GA1001+999999999GF100991001001999999001001IA1019KA1120M+02861KA2240N+01901MA1999999096311MD1710011+0511MW1051REMSYN106AAXX  24181 76393 31910 01103 10266 20175 39631 40200 57001 70500 91750 333 10286 20190 30/// 50991 58051;
0217763930999992011102421004+25733-100300FM-12+051599999V0201201N003012200019N0030001N1+03001+01601101651ADDAY101031AY201031GA1011+015001081GF101991011011022501001001IA1019MA1999999096021MD1710291+0421MW1041REMSYN106AAXX  24211 76393 31830 11203 10300 20160 39602 40165 57029 70400 81100 92050 333 0/500 30/// 58042 81850;
0250763930999992011102500004+25733-100300FM-12+051599999V0201401N001012200019N0050001N1+02931+01261101611ADDAA124000091GA1011+021001061GF101991011051022501001001IA1019KA1120M+03161KA2180N+01901MA1999999096021MD1410001+9999REMSYN124AAXX  25001 76393 32850 11401 10293 20126 39602 40161 54000 81500 92355 333 0/500 10316 20190 30/// 50451 58/// 70000 81657;
0199763930999992011102503004+25733-100300FM-12+051599999V0201101N001012200019N0020001N1+02601+01391101711ADDAY101031AY201031GA1001+999999999GF100991001001999999001001IA1019MA1999999096141MD1210121+9999MW1041REMSYN088AAXX  25031 76393 31920 01101 10260 20139 39614 40171 52012 70400 90255 333 30/// 58///;
0199763930999992011102509004+25733-100300FM-12+051599999V0200601N001012200019N0020001N1+01941+01701101731ADDAY101031AY201031GA1001+999999999GF100991001001999999001001IA1019MA1999999096111MD1710071+9999MW1041REMSYN088AAXX  25091 76393 31920 00601 10194 20170 39611 40173 57007 70400 90850 333 30/// 58///;
0161763930999992011102512004+25733-100300FM-12+051599999V0209999C000012200019N0020001N1+01961+01721101741ADDAY101061AY201061GF103991031051002501001001MA1999999096071MD1710041+9999MW1041REMSYN072AAXX  25121 76393 31320 31200 10196 20172 39607 40174 57004 70400 83500;
0217763930999992011102515004+25733-100300FM-12+051599999V0203201N001010054019N0010001N1+02081+01651101911ADDAY121031AY221031GA1061+005401061GF106991061051004501001001IA1019MA1999999096201MD1210131-0121MW1041REMSYN106AAXX  25151 76393 31410 63201 10208 20165 39620 40191 52013 70422 86500 91453 333 0/300 30/// 59012 86618;
0237763930999992011102518004+25733-100300FM-12+051599999V0200601N001012200019N0008001N1+02721+01821101781ADDAY101061AY201061GA1001+999999999GF100991001001999999001001IA1019KA1120M+02801KA2240N+01881MA1999999096091MD1710111-0221MW1051REMSYN100AAXX  25181 76393 31908 00601 10272 20182 39609 40178 57011 70500 91750 333 10280 20188 30/// 59022;
0199763930999992011102521004+25733-100300FM-12+051599999V0201201N003012200019N0010001N1+02981+01761101401ADDAY101031AY201031GA1001+999999999GF100991001001999999001001IA1019MA1999999095771MD1710321-0251MW1051REMSYN088AAXX  25211 76393 31910 01203 10298 20176 39577 40140 57032 70500 92050 333 30/// 59025;
0243763930999992011102606004+25733-100300FM-12+051599999V0201201N002012200019N0020001N1+02201+01311101311ADDAY101061AY201061GA1001+999999999GF100991001001999999001001GJ105229IA1019KA1240M+03081KA2240N+01881MA1999999095751MW1041REMSYN112AAXX  26061 76393 31920 01202 10220 20131 39575 40131 5//// 70400 90550 333 10308 20188 30/// 50561 55087 59043;
0199763930999992011102609004+25733-100300FM-12+051599999V0209999C000012200019N0020001N1+01881+01471101221ADDAY101031AY201031GA1001+999999999GF100991001001999999001001IA1019MA1999999095621MD1710131-0491MW1041REMSYN088AAXX  26091 76393 31920 00000 10188 20147 39562 40122 57013 70400 90850 333 30/// 59049;
0273763930999992011102612004+25733-100300FM-12+051599999V0209999C000012200019N0020001N1+01801+01491101231ADDAA124000091AY101061AY201061GA1001+999999999GF100991001001999999001001IA1019KA1240M+03081KA2120N+01801MA1999999095581MD1710041-0491MW1041REMSYN106AAXX  26121 76393 31920 03200 10180 20149 39558 40123 57004 70400 91152 333 10308 20180 30158 59049 70000;EQDQ01  00002PRCP24
0199763930999992011102615004+25733-100300FM-12+051599999V0200201N001012200019N0010001N1+02101+01581101331ADDAY101031AY201031GA1001+999999999GF100991001001999999001001IA1019MA1999999095641MD1210061-0561MW1051REMSYN088AAXX  26151 76393 31910 00201 10210 20158 39564 40133 52006 70500 91450 333 30/// 59056;
0237763930999992011102618004+25733-100300FM-12+051599999V0200601N001012200019N0020001N1+02841+01471101211ADDAY101061AY201061GA1001+999999999GF100991001001999999001001IA1019KA1120M+02881KA2240N+01801MA1999999095551MD1710071-0541MW1051REMSYN100AAXX  26181 76393 31920 00601 10284 20147 39555 40121 57007 70500 91755 333 10288 20180 30/// 59054;
0199763930999992011102621004+25733-100300FM-12+051599999V0200701N001012200019N0020001N1+03081+01671100841ADDAY101031AY201031GA1001+999999999GF100991001001999999001001IA1019MA1999999095251MD1710301-0521MW1051REMSYN088AAXX  26211 76393 31920 00701 10308 20167 39525 40084 57030 70500 92055 333 30/// 59052;
0279763930999992011102700004+25733-100300FM-12+051599999V0201401N001012200019N0020001N1+02821+01561100721ADDAA124000091AY101061AY201061GA1001+999999999GF100991001001999999001001IA1019KA1120M+03161KA2180N+01801MA1999999095191MD1710061+9999MW1051REMSYN112AAXX  27001 76393 31920 01401 10282 20156 39519 40072 57006 70500 92355 333 10316 20180 30/// 50521 58/// 70000;EQDQ01  00002PRCP24
0199763930999992011102703004+25733-100300FM-12+051599999V0202001N001012200019N0020001N1+02481+01501100771ADDAY101031AY201031GA1001+999999999GF100991001001999999001001IA1019MA1999999095261MD1210071+9999MW1051REMSYN088AAXX  27031 76393 31920 02001 10248 20150 39526 40077 52007 70500 90255 333 30/// 58///;
0251763930999992011102706004+25733-100300FM-12+051599999V0200601N001012200019N0020001N1+02141+01381100741ADDAY101061AY201061GA1001+999999999GF100991001001999999001001GJ106069IA1019KA1240M+03161KA2240N+01801MA1999999095221MD1710041-0531MW1041REMSYN106AAXX  27061 76393 31920 00601 10214 20138 39522 40074 57004 70400 90550 333 10316 20180 30/// 55101 59053;
0199763930999992011102709004+25733-100300FM-12+051599999V0209999C000012200019N0020001N1+01901+01321100661ADDAY101031AY201031GA1001+999999999GF100991001001999999001001IA1019MA1999999095091MD1710131-0531MW1041REMSYN088AAXX  27091 76393 31920 00000 10190 20132 39509 40066 57013 70400 90850 333 30/// 59053;
0237763930999992011102718004+25733-100300FM-12+051599999V0200701N001012200019N0020001N1+02781+01511100711ADDAY101061AY201061GA1001+999999999GF100991001001999999001001IA1019KA1120M+02841KA2240N+01761MA1999999095081MD1999999-0471MW1051REMSYN100AAXX  27181 76393 31920 00701 10278 20151 39508 40071 5//// 70500 91755 333 10284 20176 30/// 59047;
0199763930999992011102721004+25733-100300FM-12+051599999V0200701N001012200019N0020001N1+03161+01621100491ADDAY101031AY201031GA1001+999999999GF100991001001999999001001IA1019MA1999999094921MD1710161-0331MW1051REMSYN088AAXX  27211 76393 31920 00701 10316 20162 39492 40049 57016 70500 92055 333 30/// 59033;
0161763930999992011102800004+25733-100300FM-12+051599999V0201201N003012200019N0050001N1+03001+01451100711ADDAY101061AY201061GF102991021051017501001001MA1999999095191MD1210271+9999MW1041REMSYN072AAXX  28001 76393 31750 21203 10300 20145 39519 40071 52027 70400 82500;
0217763930999992011102803004+25733-100300FM-12+051599999V0203601N002010117019N0030001N1+02161+01191101221ADDAY121031AY221031GA1051+011701061GF105991051051012501001001IA1019MA1999999095681MD1210491+0421MW1041REMSYN106AAXX  28031 76393 31630 53602 10216 20119 39568 40122 52049 70422 85500 90250 333 0/300 30/// 58042 85639;
0161763930999992011102806004+25733-100300FM-12+051599999V0200401N003012200019N0020001N1+01681+00951101591ADDAY101061AY201061GF103991031051008001001001MA1999999095991MD1210311+9999MW1041REMSYN072AAXX  28061 76393 31520 30403 10168 20095 39599 40159 52031 70400 83500;
0189763930999992011102809004+25733-100300FM-12+051599999V0200401N002010096019N0020001N1+01461+00691101721ADDGA1081+009601061GF108991081051008001999999IA1019MA1999999096051MD1210061+0961REMSYN100AAXX  28091 76393 32520 80402 10146 20069 39605 40172 52006 885// 90855 333 0/5// 30/// 58096 88632;
0244763930999992011102812004+25733-100300FM-12+051599999V0200401N003010105019N0020001N1+01461+00601101971ADDAA124000091GA1081+010501061GF108991081051012501999999IA1019KA1240M+03291KA2120N+01461MA1999999096211MD1210161+1161REMSYN118AAXX  28121 76393 32620 80403 10146 20060 39621 40197 52016 885// 91150 333 0/3// 10329 20146 30142 58116 70000 88635;
0217763930999992011102815004+25733-100300FM-12+051599999V0200101N003010105019N0020001N1+01481+00621102291ADDAY121031AY221031GA1081+010501061GF108991081051012501999999IA1019MA1999999096471MD1210261+1381MW1041REMSYN106AAXX  28151 76393 31620 80103 10148 20062 39647 40229 52026 70422 885// 91452 333 0/3// 30/// 58138 88635;
0161763930999992011102818004+25733-100300FM-12+051599999V0203301N002010120019N0020001N1+01961+00801102231ADDAY121061AY221061GF106991061051012501001001MA1999999096411MD1710061+9999MW1041REMSYN072AAXX  28181 76393 31620 63302 10196 20080 39641 40223 57006 70422 86500;
0199763930999992011102821004+25733-100300FM-12+051599999V0200501N003012200019N0050001N1+02241+00881101931ADDAY101031AY201031GA1001+999999999GF100991001001999999001001IA1019MA1999999096171MD1710241+1251MW1041REMSYN088AAXX  28211 76393 31950 00503 10224 20088 39617 40193 57024 70400 92050 333 30/// 58125;
0251763930999992011102900004+25733-100300FM-12+051599999V0200401N001012200019N0040001N1+01881+00401102121ADDAA124000091GA1001+999999999GF100991001001999999001001IA1019KA1120M+02411KA2180N+01461MA1999999096371MD1210201+1181REMSYN106AAXX  29001 76393 32940 00401 10188 20040 39637 40212 52020 92355 333 10241 20146 30/// 50531 58118 70000;EQDQ01  00002PRCP24
0171763930999992011102903004+25733-100300FM-12+051599999V0200101N001012200019N0020001N1+01581+00501102431ADDGA1001+999999999GF100991001001999999001001IA1019MA1999999096671MD1210301+0991REMSYN082AAXX  29031 76393 32920 00101 10158 20050 39667 40243 52030 90255 333 30/// 58099;
0241763930999992011102906004+25733-100300FM-12+051599999V0203001N001012200019N0020001N1+01481+00671102521ADDGA1031+009901061GF103991031051008001001001GJ103069IA1019KA1240M+02411KA2240N+01461MA1999999096741MD1210071+0751REMSYN118AAXX  29061 76393 32520 33001 10148 20067 39674 40252 52007 83500 90550 333 0/300 10241 20146 30/// 55051 58075 83633;
0182763930999992011102909004+25733-100300FM-12+051599999V0203201N001012200019N0020001N1+01321+00651102521ADDAA124700092GA1001+999999999GF100991001001999999001001IA1019MA1999999096701MD1999999+0651REMSYN082AAXX  29091 76393 32920 03201 10132 20065 39670 40252 67004 90850 333 30/// 58065;
0273763930999992011102912004+25733-100300FM-12+051599999V0209999C000012200019N0020001N1+01241+00501102641ADDAA124000091AY101061AY201061GA1001+999999999GF100991001001999999001001IA1019KA1240M+02411KA2120N+01241MA1999999096771MD1210071+0561MW1041REMSYN106AAXX  29121 76393 31920 00500 10124 20050 39677 40264 52007 70400 91151 333 10241 20124 30112 58056 70000;EQDQ01  00002PRCP24
0199763930999992011102915004+25733-100300FM-12+051599999V0201101N001012200019N0020001N1+01441+00521102791ADDAY101031AY201031GA1001+999999999GF100991001001999999001001IA1019MA1999999096901MD1210131+0431MW1041REMSYN088AAXX  29151 76393 31920 01101 10144 20052 39690 40279 52013 70400 91450 333 30/// 58043;
0237763930999992011102918004+25733-100300FM-12+051599999V0201401N001012200019N0030001N1+01901+00771102461ADDAY101061AY201061GA1001+999999999GF100991001001999999001001IA1019KA1120M+02041KA2240N+01241MA1999999096601MD1710301+0191MW1051REMSYN100AAXX  29181 76393 31930 01401 10190 20077 39660 40246 57030 70500 91755 333 10204 20124 30/// 58019;
0199763930999992011102921004+25733-100300FM-12+051599999V0200701N001012200019N0050001N1+02141+00821101981ADDAY101031AY201031GA1001+999999999GF100991001001999999001001IA1019MA1999999096181MD1710421+0011MW1041REMSYN088AAXX  29211 76393 31950 00701 10214 20082 39618 40198 57042 70400 92050 333 30/// 58001;
0251763930999992011103000004+25733-100300FM-12+051599999V0201101N001012200019N0040001N1+01981+00701101741ADDAA124000091GA1001+999999999GF100991001001999999001001IA1019KA1120M+02291KA2180N+01241MA1999999096091MD1710091-0281REMSYN106AAXX  30001 76393 32940 01101 10198 20070 39609 40174 57009 92355 333 10229 20124 30/// 50701 59028 70000;EQDQ01  00002PRCP24
0171763930999992011103003004+25733-100300FM-12+051599999V0201601N001012200019N0030001N1+01781+00741101921ADDGA1001+999999999GF100991001001999999001001IA1019MA1999999096181MD1210091-0491REMSYN082AAXX  30031 76393 32930 01601 10178 20074 39618 40192 52009 90255 333 30/// 59049;
0223763930999992011103006004+25733-100300FM-12+051599999V0202301N001012200019N0020001N1+01621+00881101761ADDGA1001+999999999GF100991001001999999001001GJ106129IA1019KA1240M+02291KA2240N+01241MA1999999096041MD1710151-0701REMSYN100AAXX  30061 76393 32920 02301 10162 20088 39604 40176 57015 90550 333 10229 20124 30/// 55102 59070;
0171763930999992011103009004+25733-100300FM-12+051599999V0200401N001012200019N0020001N1+01401+00611101701ADDGA1001+999999999GF100991001001999999001001IA1019MA1999999095951MD1710091-0751REMSYN082AAXX  30091 76393 32920 00401 10140 20061 39595 40170 57009 90850 333 30/// 59075;
0245763930999992011103012004+25733-100300FM-12+051599999V0209999C000012200019N0020001N1+01261+00621101851ADDAA124000091GA1001+999999999GF100991001001999999001001IA1019KA1240M+02291KA2120N+01181MA1999999096051MD1210101-0721REMSYN100AAXX  30121 76393 32920 00000 10126 20062 39605 40185 52010 91150 333 10229 20118 30110 59072 70000;EQDQ01  00002PRCP24
0199763930999992011103015004+25733-100300FM-12+051599999V0209999C000012200019N0020001N1+01581+00701102001ADDAY101031AY201031GA1001+999999999GF100991001001999999001001IA1019MA1999999096171MD1210121-0731MW1041REMSYN088AAXX  30151 76393 31920 03400 10158 20070 39617 40200 52012 70400 91451 333 30/// 59073;
0237763930999992011103018004+25733-100300FM-12+051599999V0201301N001012200019N0030001N1+02201+00861101901ADDAY101061AY201061GA1001+999999999GF100991001001999999001001IA1019KA1120M+02321KA2240N+01181MA1999999096091MD1710081-0511MW1051REMSYN100AAXX  30181 76393 31930 01301 10220 20086 39609 40190 57008 70500 91753 333 10232 20118 30/// 59051;
0251763930999992011103100004+25733-100300FM-12+051599999V0201101N001012200019N0030001N1+02441+01061101671ADDAA124000091GA1001+999999999GF100991001001999999001001IA1019KA1120M+02721KA2180N+01181MA1999999095981MD1999999-0111REMSYN106AAXX  31001 76393 32930 01101 10244 20106 39598 40167 5//// 92355 333 10272 20118 30/// 50421 59011 70000;EQDQ01  00002PRCP24
0171763930999992011103103004+25733-100300FM-12+051599999V0202601N001012200019N0030001N1+02071+01191101811ADDGA1001+999999999GF100991001001999999001001IA1019MA1999999096151MD1210171-0031REMSYN082AAXX  31031 76393 32930 02601 10207 20119 39615 40181 52017 90255 333 30/// 59003;
0223763930999992011103106004+25733-100300FM-12+051599999V0200701N001012200019N0020001N1+01881+01071101891ADDGA1001+999999999GF100991001001999999001001GJ106669IA1019KA1240M+02721KA2240N+01181MA1999999096231MD1210081+0191REMSYN100AAXX  31061 76393 32920 00701 10188 20107 39623 40189 52008 90555 333 10272 20118 30/// 55111 58019;
0273763930999992011103112004+25733-100300FM-12+051599999V0209999C000012200019N0020001N1+01541+01241102191ADDAA124000091AY101061AY201061GA1001+999999999GF100991001001999999001001IA1019KA1240M+02721KA2120N+01501MA1999999096291MD1999999+0241MW1041REMSYN106AAXX  31121 76393 31920 01900 10154 20124 39629 40219 5//// 70400 91150 333 10272 20150 30128 58024 70000;EQDQ01  00002PRCP24
0217763930999992011103115004+25733-100300FM-12+051599999V0203001N001012200019N0020001N1+01801+01451102241ADDAY101031AY201031GA1021+004201061GF102991021051004501001001IA1019MA1999999096451MD1210161+0281MW1051REMSYN106AAXX  31151 76393 31420 23001 10180 20145 39645 40224 52016 70500 82500 91452 333 0/300 30/// 58028 82614;
0237763930999992011103118004+25733-100300FM-12+051599999V0201201N001012200019N0010001N1+02321+01521102141ADDAY101061AY201061GA1001+999999999GF100991001001999999001001IA1019KA1120M+02461KA2240N+01501MA1999999096371MD1710081+0281MW1051REMSYN100AAXX  31181 76393 31910 01201 10232 20152 39637 40214 57008 70500 91751 333 10246 20150 30/// 58028;
0199763930999992011103121004+25733-100300FM-12+051599999V0201101N005012200019N0020001N1+02741+01381101761ADDAY101031AY201031GA1001+999999999GF100991001001999999001001IA1019MA1999999096061MD1710311+9999MW1051REMSYN088AAXX  31211 76393 31920 01105 10274 20138 39606 40176 57031 70500 92050 333 30/// 58///;
0161763930999992011110100004+25733-100300FM-12+051599999V0201301N003012200019N0070001N1+02561+01221101691ADDAY101061AY201061GF101991011051017501001001MA1999999096041MD1710021+9999MW1041REMSYN072AAXX  01001 76393 31757 11303 10256 20122 39604 40169 57002 70400 81500;
0171763930999992011110103004+25733-100300FM-12+051599999V0201601N001012200019N0030001N1+02321+01151101791ADDGA1001+999999999GF100991001001999999001001IA1019MA1999999096161MD1210121+0011REMSYN082AAXX  01031 76393 32930 01601 10232 20115 39616 40179 52012 90255 333 30/// 58001;
0223763930999992011110106004+25733-100300FM-12+051599999V0201201N002012200019N0020001N1+01961+01281101781ADDGA1001+999999999GF100991001001999999001001GJ106009IA1019KA1240M+02821KA2240N+01501MA1999999096161MD1410001-0071REMSYN100AAXX  01061 76393 32920 01202 10196 20128 39616 40178 54000 90555 333 10282 20150 30/// 55100 59007;
0171763930999992011110109004+25733-100300FM-12+051599999V0200601N001012200019N0020001N1+01661+01271102121ADDGA1001+999999999GF100991001001999999001001IA1019MA1999999096081MD1710071+9999REMSYN082AAXX  01091 76393 32920 00601 10166 20127 39608 40212 57007 90850 333 30/// 58///;
0273763930999992011110112004+25733-100300FM-12+051599999V0209999C000012200019N0020001N1+01521+01321101981ADDAA124000091AY101061AY201061GA1001+999999999GF100991001001999999001001IA1019KA1240M+02821KA2120N+01441MA1999999096021MD1710021-0271MW1041REMSYN106AAXX  01121 76393 31920 00000 10152 20132 39602 40198 57002 70400 91150 333 10282 20144 30134 59027 70000;EQDQ01  00002PRCP24
0199763930999992011110115004+25733-100300FM-12+051599999V0203201N001012200019N0010001N1+01781+01331102021ADDAY101031AY201031GA1001+999999999GF100991001001999999001001IA1019MA1999999096151MD1210131-0301MW1051REMSYN088AAXX  01151 76393 31910 03201 10178 20133 39615 40202 52013 70500 91451 333 30/// 59030;
0237763930999992011110118004+25733-100300FM-12+051599999V0200501N001012200019N0010001N1+02221+01411101821ADDAY101061AY201061GA1001+999999999GF100991001001999999001001IA1019KA1120M+02441KA2240N+01441MA1999999096061MD1710091-0311MW1051REMSYN100AAXX  01181 76393 31910 00501 10222 20141 39606 40182 57009 70500 91750 333 10244 20144 30/// 59031;
0199763930999992011110121004+25733-100300FM-12+051599999V0201301N003012200019N0030001N1+02741+01451101451ADDAY101031AY201031GA1001+999999999GF100991001001999999001001IA1019MA1999999095751MD1710311-0311MW1041REMSYN088AAXX  01211 76393 31930 01303 10274 20145 39575 40145 57031 70400 92053 333 30/// 59031;
0279763930999992011110200004+25733-100300FM-12+051599999V0201301N002012200019N0050001N1+02641+01401101371ADDAA124000091AY101061AY201061GA1001+999999999GF100991001001999999001001IA1019KA1120M+02861KA2180N+01441MA1999999095741MD1710011-0301MW1041REMSYN112AAXX  02001 76393 31950 01302 10264 20140 39574 40137 57001 70400 92345 333 10286 20144 30/// 50451 59030 70000;EQDQ01  00002PRCP24
0251763930999992011110206004+25733-100300FM-12+051599999V0201201N002012200019N0020001N1+02001+01291101351ADDAY101061AY201061GA1001+999999999GF100991001001999999001001GJ105649IA1019KA1240M+02861KA2240N+01441MA1999999095751MD1999999-0401MW1041REMSYN106AAXX  02061 76393 31920 01202 10200 20129 39575 40135 5//// 70400 90555 333 10286 20144 30/// 55094 59040;
0199763930999992011110209004+25733-100300FM-12+051599999V0203601N001012200019N0020001N1+01701+01441101311ADDAY101031AY201031GA1001+999999999GF100991001001999999001001IA1019MA1999999095671MD1710081-0411MW1041REMSYN088AAXX  02091 76393 31920 03601 10170 20144 39567 40131 57008 70400 90850 333 30/// 59041;
0237763930999992011110212004+25733-100300FM-12+051599999V0209999C000012200019N0020001N1+01561+99999101341ADDAY101061AY201061GA1001+999999999GF100991001001999999001001IA1019KA1240M+02861KA2120N+01401MA1999999095651MD1710021-0371MW1041REMSYN100AAXX  02121 76393 31920 00000 10156 20159 39565 40134 57002 70400 91150 333 10286 20140 30150 59037;
0199763930999992011110215004+25733-100300FM-12+051599999V0209999C000012200019N0010001N1+01801+01521101551ADDAY101031AY201031GA1001+999999999GF100991001001999999001001IA1019MA1999999095811MD1210161-0341MW1051REMSYN088AAXX  02151 76393 31910 03200 10180 20152 39581 40155 52016 70500 91451 333 30/// 59034;
0237763930999992011110218004+25733-100300FM-12+051599999V0200601N001012200019N0010001N1+02541+01541101441ADDAY101061AY201061GA1001+999999999GF100991001001999999001001IA1019KA1120M+02701KA2240N+01501MA1999999095731MD1710081-0331MW1051REMSYN100AAXX  02181 76393 31910 00601 10254 20154 39573 40144 57008 70500 91751 333 10270 20150 30/// 59033;
0199763930999992011110221004+25733-100300FM-12+051599999V0200901N003012200019N0020001N1+03001+01561101181ADDAY101031AY201031GA1001+999999999GF100991001001999999001001IA1019MA1999999095531MD1710201-0221MW1051REMSYN088AAXX  02211 76393 31920 00903 10300 20156 39553 40118 57020 70500 92050 333 30/// 59022;
0279763930999992011110300004+25733-100300FM-12+051599999V0202301N001012200019N0030001N1+02801+01491101251ADDAA124000091AY101061AY201061GA1001+999999999GF100991001001999999001001IA1019KA1120M+03141KA2180N+01501MA1999999095651MD1210121+9999MW1041REMSYN112AAXX  03001 76393 31930 02301 10280 20149 39565 40125 52012 70400 92350 333 10314 20150 30/// 50971 50009 70000;EQDQ01  00002PRCP24
0171763930999992011110303004+25733-100300FM-12+051599999V0201901N001012200019N0030001N1+02451+01451101391ADDGA1001+999999999GF100991001001999999001001IA1019MA1999999095831MD1210181+9999REMSYN082AAXX  03031 76393 32930 01901 10245 20145 39583 40139 52018 90255 333 30/// 58///;
0223763930999992011110306004+25733-100300FM-12+051599999V0203401N001012200019N0020001N1+02161+01281101641ADDGA1001+999999999GF100991001001999999001001GJ105109IA1019KA1240M+03141KA2240N+01501MA1999999096051MD1210221+0301REMSYN100AAXX  03061 76393 32920 03401 10216 20128 39605 40164 52022 90555 333 10314 20150 30/// 55085 58030;
0217763930999992011110309004+25733-100300FM-12+051599999V0200401N002012200019N0010001N1+01861+00421102131ADDAY101031AY201031GA1041+018001061GF104991041051017501001001IA1019MA1999999096471MD1210411+0801MW1041REMSYN106AAXX  03091 76393 31710 40402 10186 20042 39647 40213 52041 70400 84500 90850 333 0/700 30/// 58080 84656;
0244763930999992011110312004+25733-100300FM-12+051599999V0200401N003010210019N0010001N1+01681-00031102381ADDAA124000091GA1081+021001061GF108991081051022501999999IA1019KA1240M+03141KA2120N+01621MA1999999096661MD1210181+1011REMSYN118AAXX  03121 76393 32810 80403 10168 21003 39666 40238 52018 885// 91150 333 0/7// 10314 20162 30156 58101 70000 88657;
0147763930999992011110318004+25733-100300FM-12+051599999V0200601N003019999999N0010001N1+01801-00021102731ADDAY121061AY221061GF107991071001999999031001MA1999999096931MW1051REMSYN072AAXX  03181 76393 31910 70603 10180 21002 39693 40273 5//// 70522 87030;
0199763930999992011110321004+25733-100300FM-12+051599999V0200801N001012200019N0040001N1+02061+00061102371ADDAY101031AY201031GA1001+999999999GF100991001001999999001001IA1019MA1999999096591MD1710341+1061MW1041REMSYN088AAXX  03211 76393 31940 00801 10206 20006 39659 40237 57034 70400 92052 333 30/// 58106;
0161763930999992011110400004+25733-100300FM-12+051599999V0200701N001012200019N0050001N1+01821-00041102321ADDAY101061AY201061GF101991011001999999021001MA1999999096551MD1710041+9999MW1041REMSYN072AAXX  04001 76393 31950 10701 10182 21004 39655 40232 57004 70400 81020;
0171763930999992011110403004+25733-100300FM-12+051599999V0202301N001012200019N0030001N1+01601+00381102451ADDGA1001+999999999GF100991001001999999001001IA1019MA1999999096671MD1210121+0841REMSYN082AAXX  04031 76393 32930 02301 10160 20038 39667 40245 52012 90255 333 30/// 58084;
0242763930999992011110406004+25733-100300FM-12+051599999V0203401N001012200019N0020001N1+01381+00381102411ADDGA1001+999999999GF100991001001999999001001GJ103129IA1019KA1240M+02261KA2240N+99999MA1999999096621MD1710051+0571REMSYN100AAXX  04061 76393 32920 03401 10138 20038 39662 40241 57005 90555 333 10226 20162 30/// 55052 58057;EQDQ01 +01622ATMN  
0199763930999992011110415004+25733-100300FM-12+051599999V0201401N001012200019N0020001N1+01561+00241102401ADDAY101031AY201031GA1001+999999999GF100991001001999999001001IA1019MA1999999096521MD1210101+9999MW1041REMSYN088AAXX  04151 76393 31920 01401 10156 20024 39652 40240 52010 70400 91451 333 30/// 58///;
0237763930999992011110418004+25733-100300FM-12+051599999V0201201N003012200019N0030001N1+01941+00271102191ADDAY101061AY201061GA1001+999999999GF100991001001999999001001IA1019KA1120M+02041KA2240N+01121MA1999999096351MD1710171-0581MW1041REMSYN100AAXX  04181 76393 31930 01203 10194 20027 39635 40219 57017 70400 91752 333 10204 20112 30/// 59058;
0199763930999992011110421004+25733-100300FM-12+051599999V0201201N002012200019N0040001N1+02201+00371101801ADDAY101031AY201031GA1001+999999999GF100991001001999999001001IA1019MA1999999096021MD1710331-0571MW1041REMSYN088AAXX  04211 76393 31940 01202 10220 20037 39602 40180 57033 70400 92050 333 30/// 59057;
0279763930999992011110500004+25733-100300FM-12+051599999V0201201N003012200019N0050001N1+02021+00461101651ADDAA124000091AY101061AY201061GA1001+999999999GF100991001001999999001001IA1019KA1120M+02311KA2180N+01121MA1999999095921MD1710091-0631MW1041REMSYN112AAXX  05001 76393 31950 01203 10202 20046 39592 40165 57009 70400 92345 333 10231 20112 30/// 50571 59063 70000;EQDQ01  00002PRCP24
0171763930999992011110503004+25733-100300FM-12+051599999V0201401N001012200019N0030001N1+01901+00381101681ADDGA1001+999999999GF100991001001999999001001IA1019MA1999999095971MD1210051-0701REMSYN082AAXX  05031 76393 32930 01401 10190 20038 39597 40168 52005 90255 333 30/// 59070;
0223763930999992011110506004+25733-100300FM-12+051599999V0203201N001012200019N0020001N1+01701+00111101531ADDGA1001+999999999GF100991001001999999001001GJ106069IA1019KA1240M+02311KA2240N+01121MA1999999095831MD1710141-0791REMSYN100AAXX  05061 76393 32920 03201 10170 20011 39583 40153 57014 90555 333 10231 20112 30/// 55101 59079;
0199763930999992011110509004+25733-100300FM-12+051599999V0203601N001012200019N0020001N1+01321+00601101431ADDAY101031AY201031GA1001+999999999GF100991001001999999001001IA1019MA1999999095701MD1710121+9999MW1041REMSYN088AAXX  05091 76393 31920 03601 10132 20060 39570 40143 57012 70400 90855 333 30/// 58///;
0273763930999992011110512004+25733-100300FM-12+051599999V0201101N001012200019N0020001N1+01281+00691101381ADDAA124000091AY101061AY201061GA1001+999999999GF100991001001999999001001IA1019KA1240M+02311KA2120N+01241MA1999999095611MD1710091-0811MW1041REMSYN106AAXX  05121 76393 31920 01101 10128 20069 39561 40138 57009 70400 91150 333 10231 20124 30110 59081 70000;EQDQ01  00002PRCP24
0195763930999992011110515004+25733-100300FM-12+051599999V0203201N001012200019N0010001N1+01621+00711101541ADDAY141031AY241031GF102991011001999999031081IA1019MA1999999095741MD1710131-0781MW1051REMSYN100AAXX  05151 76393 32910 23201 10162 20071 39574 40154 57013 70544 81038 91445 333 0/035 30/// 59078;
0161763930999992011110518004+25733-100300FM-12+051599999V0201101N001012200019N0010001N1+02321+01071101381ADDAY141061AY241061GF101991011041017501001001MA1999999095601MD1710141+9999MW1051REMSYN072AAXX  05181 76393 31710 11101 10232 20107 39560 40138 57014 70544 81400;
0217763930999992011110521004+25733-100300FM-12+051599999V0201201N003012200019N0020001N1+02661+01201100951ADDAY101031AY201031GA1011+018001061GF101991011041017501001001IA1019MA1999999095261MD1710341-0761MW1051REMSYN106AAXX  05211 76393 31720 11203 10266 20120 39526 40095 57034 70500 81400 92050 333 0/500 30/// 59076 81656;
0161763930999992011110600004+25733-100300FM-12+051599999V0209999C000010900019N0020001N1+02501+01261100801ADDAY121061AY221061GF107991011051017501001051MA1999999095181MD1710081+9999MW1041REMSYN072AAXX  06001 76393 31720 71500 10250 20126 39518 40080 57008 70422 81505;
0189763930999992011110603004+25733-100300FM-12+051599999V0202901N001012200019N0030001N1+02341+01371100871ADDGA1011+012001061GF101991011051012501001001IA1019MA1999999095281MD1210101-0691REMSYN100AAXX  06031 76393 32630 12901 10234 20137 39528 40087 52010 81500 90255 333 0/500 30/// 59069 81640;
0147763930999992011110612004+25733-100300FM-12+051599999V0202701N001012200019N0020001N1+01761+01471101301ADDAY101061AY201061GF103991031051004501001001MA1999999095481MW1041REMSYN072AAXX  06121 76393 31420 32701 10176 20147 39548 40130 5//// 70400 83500;
0217763930999992011110615004+25733-100300FM-12+051599999V0202801N001012200019N0010001N1+02061+01661101341ADDAY101031AY201031GA1011+004801061GF102991011041004501001081IA1019MA1999999095631MD1210151-0111MW1051REMSYN106AAXX  06151 76393 31410 22801 10206 20166 39563 40134 52015 70500 81408 91452 333 0/305 30/// 59011 81616;
0161763930999992011110618004+25733-100300FM-12+051599999V0203601N001012200019N0010001N1+02701+01661101301ADDAY141061AY241061GF102991011041012501001011MA1999999095621MD1710011+9999MW1051REMSYN072AAXX  06181 76393 31610 23601 10270 20166 39562 40130 57001 70544 81401;
0217763930999992011110621004+25733-100300FM-12+051599999V0201201N003012200019N0030001N1+03161+01591100981ADDAY111031AY211031GA1011+018001061GF104991011041017501001011IA1019MA1999999095371MD1710251+0111MW1041REMSYN106AAXX  06211 76393 31730 41203 10316 20159 39537 40098 57025 70411 81401 92050 333 0/505 30/// 58011 81656;
0146763930999992011110700004+25733-100300FM-12+051599999V0201101N999999999999N0030001N1+99999+99999999999ADDGF105991999999017501999999REMSYN073AAXX  07001 76393 31730 511801 10284 20143 39544 40100 57007 70422 81508;EQDQ01+008003WOSPD Q020008003WOSPD 
0217763930999992011110703004+25733-100300FM-12+051599999V0201501N001012200019N0030001N1+02511+01431101081ADDAY111031AY211031GA1021+013201061GF104991021051012501001081IA1019MA1999999095551MD1210111+0271MW1041REMSYN106AAXX  07031 76393 31630 41501 10251 20143 39555 40108 52011 70411 82508 90255 333 0/305 30/// 58027 82644;
0161763930999992011110706004+25733-100300FM-12+051599999V0201101N001012200019N0020001N1+02311+01871101171ADDAY121061AY221061GF104991011051004501031081MA1999999095621MD1210071+9999MW1041REMSYN072AAXX  07061 76393 31420 41101 10231 20187 39562 40117 52007 70422 81538;
0195763930999992011110709004+25733-100300FM-12+051599999V0203201N001012200019N0020001N1+02181+01861101111ADDAY111031AY211031GF104991041051004501001001IA1019MA1999999095541MD1710091+9999MW1041REMSYN100AAXX  07091 76393 31420 43201 10218 20186 39554 40111 57009 70411 84500 90850 333 0/300 30/// 58///;
0161763930999992011110712004+25733-100300FM-12+051599999V0201201N001010021019N0010001N1+02221+02021101161ADDAY121061AY221061GF108991081051002501999999MA1999999095551MD1710011+9999MW1041REMSYN072AAXX  07121 76393 31310 81201 10222 20202 39555 40116 57001 70422 885//;
0217763930999992011110715004+25733-100300FM-12+051599999V0201301N001012200019N0010001N1+02401+02001101321ADDAY101031AY201031GA1031+004801061GF103991031051004501001001IA1019MA1999999095681MD1210131+0051MW1041REMSYN106AAXX  07151 76393 31410 31301 10240 20200 39568 40132 52013 70400 83500 91452 333 0/300 30/// 58005 83616;
0161763930999992011110718004+25733-100300FM-12+051599999V0201201N003019999999N0010001N1+02681+01971101231ADDAY141061AY241061GF106991051001999999031011MA1999999095611MD1710071+9999MW1051REMSYN072AAXX  07181 76393 31910 61203 10268 20197 39561 40123 57007 70544 85031;
0217763930999992011110721004+25733-100300FM-12+051599999V0201201N003010360019N0020001N1+02971+01961100861ADDAY121031AY221031GA1011+012601061GF107991011041012501021051IA1019MA1999999095291MD1710321-0081MW1041REMSYN106AAXX  07211 76393 31620 71203 10297 20196 39529 40086 57032 70422 81425 92050 333 0/555 30/// 59008 81642;
0161763930999992011110800004+25733-100300FM-12+051599999V0201601N005019999999N0040001N1+02861+01911100811ADDAY121061AY221061GF106991021001999999011051MA1999999095281MD1710011+9999MW1041REMSYN072AAXX  08001 76393 31940 61605 10286 20191 39528 40081 57001 70422 82015;
0171763930999992011110803004+25733-100300FM-12+051599999V0201901N001012200019N0030001N1+02691+01911100851ADDGA1001+999999999GF100991001001999999001001IA1019MA1999999095331MD1210051-0221REMSYN082AAXX  08031 76393 32930 01901 10269 20191 39533 40085 52005 90255 333 30/// 59022;
0161763930999992011110806004+25733-100300FM-12+051599999V0201201N002012200019N0020001N1+02301+01861100901ADDAY101061AY201061GF101991011051012501001001MA1999999095371MD1210041+9999MW1041REMSYN072AAXX  08061 76393 31620 11202 10230 20186 39537 40090 52004 70400 81500;
0211763930999992011110809004+25733-100300FM-12+051599999V0201101N002010033019N0020001N1+02201+01911100901ADDAY121031AY221031GA1081+003301061GF108991081051004501999999IA1019MA1999999095341MD1710031-0201MW1041REMSYN100AAXX  08091 76393 31420 81102 10220 20191 39534 40090 57003 70422 885// 90845 333 30/// 59020 88611;
0161763930999992011110812004+25733-100300FM-12+051599999V0200601N001012200019N0010001N1+02061+01881100961ADDAY101061AY201061GF102991021051002501001001MA1999999095361MD1210021+9999MW1041REMSYN072AAXX  08121 76393 31310 20601 10206 20188 39536 40096 52002 70400 82500;
0217763930999992011110815004+25733-100300FM-12+051599999V0203401N001012200019N0010001N1+02361+01931101121ADDAY101031AY201031GA1011+005401061GF101991011051004501001001IA1019MA1999999095481MD1210121-0201MW1051REMSYN106AAXX  08151 76393 31410 13401 10236 20193 39548 40112 52012 70500 81500 91453 333 0/300 30/// 59020 81618;
0161763930999992011110818004+25733-100300FM-12+051599999V0201501N002012200019N0010001N1+03101+01691101051ADDAY141061AY241061GF101991011041017501001001MA1999999095441MD1710041+9999MW1051REMSYN072AAXX  08181 76393 31710 11502 10310 20169 39544 40105 57004 70544 81400;
0217763930999992011110821004+25733-100300FM-12+051599999V0201301N003012200019N0050001N1+03501+01081100781ADDAY101031AY201031GA1011+024001061GF101991011041022501001001IA1019MA1999999095241MD1710201-0051MW1041REMSYN106AAXX  08211 76393 31850 11303 10350 20108 39524 40078 57020 70400 81400 92045 333 0/100 30/// 59005 81658;
0161763930999992011110900004+25733-100300FM-12+051599999V0201201N005010360019N0040001N1+02941+01601100971ADDAY121061AY221061GF105991031051017501071001MA1999999095461MD1210221+9999MW1041REMSYN072AAXX  09001 76393 31740 51205 10294 20160 39546 40097 52022 70422 83570;
0147763930999992011110906004+25733-100300FM-12+051599999V0203301N002010120019N0020001N1+02301+01121101621ADDAY121061AY221061GF108991081051012501999999MA1999999096081MW1041REMSYN072AAXX  09061 76393 31620 83302 10230 20112 39608 40162 5//// 70422 885//;
0217763930999992011110909004+25733-100300FM-12+051599999V0203401N002010138019N0020001N1+02161+01021101701ADDAY121031AY221031GA1081+013801061GF108991081051012501999999IA1019MA1999999096111MD1710031+0771MW1041REMSYN106AAXX  09091 76393 31620 83402 10216 20102 39611 40170 57003 70422 885// 90850 333 0/3// 30/// 58077 88646;
0181763930999992011110912004+25733-100300FM-12+051599999V0203601N003019999999N9999999N1+01881-00332101991ADDAY141061AY221061GF108991999999017501999999MA1999999096321MD1210211+9999MW1001REMSYN073AAXX  09121 76393 31730 83603 10188 21033 39632 40199 52021 700422 885//;EQDQ01+030002VODIS 
0217763930999992011110915004+25733-100300FM-12+051599999V0200401N002010180019N0030001N1+01841-00271102471ADDAY121031AY221031GA1081+018001061GF108991081051017501999999IA1019MA1999999096741MD1210421+1261MW1041REMSYN106AAXX  09151 76393 31730 80402 10184 21027 39674 40247 52042 70422 885// 91453 333 0/3// 30/// 58126 88656;
0161763930999992011110918004+25733-100300FM-12+051599999V0203501N002010210019N0030001N1+01901-00091102451ADDAY121061AY221061GF108991081051022501999999MA1999999096701MD1710041+9999MW1041REMSYN072AAXX  09181 76393 31830 83502 10190 21009 39670 40245 57004 70422 885//;
0217763930999992011110921004+25733-100300FM-12+051599999V0203601N003010300019N0050001N1+01921+00001102191ADDAY121031AY221031GA1081+030001031GF108991081001999999071999IA1019MA1999999096441MD1710301+1201MW1041REMSYN106AAXX  09211 76393 31950 83603 10192 20000 39644 40219 57030 70422 8807/ 92045 333 0/08/ 30/// 58120 88360;
0161763930999992011111000004+25733-100300FM-12+051599999V0200201N002019999999N0050001N1+01601+00191102421ADDAY121061AY221061GF108991081001999999071999MA1999999096641MD1210201+9999MW1041REMSYN072AAXX  10001 76393 31950 80202 10160 20019 39664 40242 52020 70422 8807/;
0217763930999992011111003004+25733-100300FM-12+051599999V0200401N001010360019N0030001N1+01481+00281102781ADDAY121031AY221031GA1081+036001041GF108991081001999999021999IA1019MA1999999096971MD1210331+9999MW1041REMSYN106AAXX  10031 76393 31930 80401 10148 20028 39697 40278 52033 70422 8802/ 90255 333 0/08/ 30/// 58/// 88462;
0161763930999992011111006004+25733-100300FM-12+051599999V0200701N001019999999N0030001N1+01401+00521102911ADDAY121061AY221061GF108991081001999999011091MA1999999097071MD1210101+9999MW1041REMSYN072AAXX  10061 76393 31930 80701 10140 20052 39707 40291 52010 70422 88019;
0217763930999992011111009004+25733-100300FM-12+051599999V0200201N004010126019N0030001N1+01281+00261102971ADDAY121031AY221031GA1081+012601061GF108991081051012501999999IA1019MA1999999097091MD1210091+0981MW1041REMSYN106AAXX  10091 76393 31630 80204 10128 20026 39709 40297 52009 70422 885// 90850 333 0/3// 30/// 58098 88642;
0266763930999992011111012004+25733-100300FM-12+051599999V0202001N001010084019N0030001N1+99999+99999103101ADDAA124000091AY121061AY221061GA1081+008401061GF108991081051008001999999IA1019KA1240M+02141KA2120N+01241MA1999999097191MD1210101+0861MW1041REMSYN118AAXX  10121 76393 31530 82001 20057 39719 40310 52010 70422 885// 91155 333 0/3// 10214 20124 30118 58086 70000 88628;
0161763930999992011111018004+25733-100300FM-12+051599999V0201001N001012200019N0050001N1+01721+00091103221ADDAY101061AY201061GF102991011041022501011001MA1999999097311MD1710091+9999MW1041REMSYN072AAXX  10181 76393 31850 21001 10172 20009 39731 40322 57009 70400 81410;
0171763930999992011111021004+25733-100300FM-12+051599999V0200601N002012200019N0060001N1+01861+00081102781ADDGA1001+999999999GF100991001001999999001001IA1019MA1999999096931MD1710381+0491REMSYN082AAXX  10211 76393 32956 00602 10186 20008 39693 40278 57038 92045 333 30/// 58049;
0251763930999992011111100004+25733-100300FM-12+051599999V0201101N002012200019N0060001N1+01801-00021102671ADDAA124000091GA1001+999999999GF100991001001999999001001IA1019KA1120M+02081KA2180N+01241MA1999999096851MD1710081+0211REMSYN106AAXX  11001 76393 32956 01102 10180 21002 39685 40267 57008 92345 333 10208 20124 30/// 50491 58021 70000;EQDQ01  00002PRCP24
0171763930999992011111103004+25733-100300FM-12+051599999V0201201N001012200019N0040001N1+01571+00141102751ADDGA1001+999999999GF100991001001999999001001IA1019MA1999999096941MD1210091-0031REMSYN082AAXX  11031 76393 32940 01201 10157 20014 39694 40275 52009 90255 333 30/// 59003;
0223763930999992011111106004+25733-100300FM-12+051599999V0202901N001012200019N0030001N1+01261+00391102661ADDGA1001+999999999GF100991001001999999001001GJ104689IA1019KA1240M+02081KA2240N+01241MA1999999096841MD1710101-0231REMSYN100AAXX  11061 76393 32930 02901 10126 20039 39684 40266 57010 90555 333 10208 20124 30/// 55078 59023;
0171763930999992011111109004+25733-100300FM-12+051599999V0209999C000012200019N0020001N1+01041+00351102551ADDGA1001+999999999GF100991001001999999001001IA1019MA1999999096691MD1710151-0401REMSYN082AAXX  11091 76393 32920 00000 10104 20035 39669 40255 57015 90850 333 30/// 59040;
0245763930999992011111112004+25733-100300FM-12+051599999V0202201N001012200019N0020001N1+01021+00421102541ADDAA124000091GA1001+999999999GF100991001001999999001001IA1019KA1240M+02081KA2120N+00981MA1999999096651MD1710041-0541REMSYN100AAXX  11121 76393 32920 02201 10102 20042 39665 40254 57004 91150 333 10208 20098 30086 59054 70000;EQDQ01  00002PRCP24
0199763930999992011111115004+25733-100300FM-12+051599999V0201101N001012200019N0030001N1+01421+00351102611ADDAY101031AY201031GA1001+999999999GF100991001001999999001001IA1019MA1999999096691MD1210041-0711MW1051REMSYN088AAXX  11151 76393 31930 01101 10142 20035 39669 40261 52004 70500 91452 333 30/// 59071;
0237763930999992011111118004+25733-100300FM-12+051599999V0201201N003012200019N0030001N1+01941+00391102361ADDAY101061AY201061GA1001+999999999GF100991001001999999001001IA1019KA1120M+02061KA2240N+00981MA1999999096481MD1710211-0831MW1051REMSYN100AAXX  11181 76393 31930 01203 10194 20039 39648 40236 57021 70500 91751 333 10206 20098 30/// 59083;
0199763930999992011111121004+25733-100300FM-12+051599999V0201201N005012200019N0030001N1+02101+00431101911ADDAY101031AY201031GA1001+999999999GF100991001001999999001001IA1019MA1999999096111MD1710371-1201MW1041REMSYN088AAXX  11211 76393 31930 01205 10210 20043 39611 40191 57037 70400 92050 333 30/// 59120;
0161763930999992011111200004+25733-100300FM-12+051599999V0201201N003012200019N0050001N1+01961+00471101771ADDAY101061AY201061GF101991001001999999001011MA1999999096021MD1710091+9999MW1041REMSYN072AAXX  12001 76393 31950 11203 10196 20047 39602 40177 57009 70400 80001;
0189763930999992011111203004+25733-100300FM-12+051599999V0202501N001012200019N0040001N1+01681+00661101811ADDAY101031AY201031GF101991001001999999001071IA1019MA1999999096081MD1210061-0861MW1041REMSYN094AAXX  12031 76393 31940 12501 10168 20066 39608 40181 52006 70400 80007 90255 333 30/// 59086;
0223763930999992011111206004+25733-100300FM-12+051599999V0200401N001012200019N0020001N1+01421+00401101681ADDGA1001+999999999GF100991001001999999001001GJ105829IA1019KA1240M+02241KA2240N+00981MA1999999095951MD1710131-0891REMSYN100AAXX  12061 76393 32920 00401 10142 20040 39595 40168 57013 90555 333 10224 20098 30/// 55097 59089;
0199763930999992011111209004+25733-100300FM-12+051599999V0209999C000012200019N0020001N1+01201+00991101601ADDAY101031AY201031GA1001+999999999GF100991001001999999001001IA1019MA1999999095831MD1710121-0861MW1041REMSYN088AAXX  12091 76393 31920 00000 10120 20099 39583 40160 57012 70400 90850 333 30/// 59086;
0273763930999992011111212004+25733-100300FM-12+051599999V0203101N001012200019N0020001N1+01181+00891101571ADDAA124000091AY101061AY201061GA1001+999999999GF100991001001999999001001IA1019KA1240M+02241KA2120N+01101MA1999999095771MD1710061-0881MW1041REMSYN106AAXX  12121 76393 31920 03101 10118 20089 39577 40157 57006 70400 91150 333 10224 20110 30096 59088 70000;EQDQ01  00002PRCP24
0217763930999992011111215004+25733-100300FM-12+051599999V0202601N001012200019N0030001N1+01621+00751101681ADDAY111031AY211031GA1041+060001001GF104991001001999999001011IA1019MA1999999095841MD1210071-0851MW1051REMSYN106AAXX  12151 76393 31930 42601 10162 20075 39584 40168 52007 70511 80001 91452 333 0/001 30/// 59085 84070;
0161763930999992011111218004+25733-100300FM-12+051599999V0209999C000012200019N0020001N1+02301+00731101561ADDAY101061AY201061GF103991001001999999001011MA1999999095771MD1710071+9999MW1051REMSYN072AAXX  12181 76393 31920 30900 10230 20073 39577 40156 57007 70500 80001;
0195763930999992011111221004+25733-100300FM-12+051599999V0201201N003012200019N0040001N1+02741+00961101231ADDAY101031AY201031GF103991011001999999011081IA1019MA1999999095531MD1710241-0581MW1041REMSYN100AAXX  12211 76393 31940 31203 10274 20096 39553 40123 57024 70400 81018 92045 333 0/035 30/// 59058;
0251763930999992011111300004+25733-100300FM-12+051599999V0201101N003012200019N0050001N1+02501+00931101151ADDAA124000091GA1001+999999999GF100991001001999999001001IA1019KA1120M+02881KA2180N+01101MA1999999095511MD1710021-0511REMSYN106AAXX  13001 76393 32950 01103 10250 20093 39551 40115 57002 92345 333 10288 20110 30/// 50481 59051 70000;EQDQ01  00002PRCP24
0171763930999992011111303004+25733-100300FM-12+051599999V0203201N001012200019N0030001N1+02081+01091101211ADDGA1001+999999999GF100991001001999999001001IA1019MA1999999095611MD1210101-0471REMSYN082AAXX  13031 76393 32930 03201 10208 20109 39561 40121 52010 90255 333 30/// 59047;
0204763930999992011111306004+25733-100300FM-12+051599999V0200401N001012200019N0020001N1+01901+01101101241ADDGA1001+999999999GF100991001001999999001001GJ105289KA1240N+01101MA1999999095621MD1210011+9999REMSYN100AAXX  13061 76393 32920 00401 10190 20110 39562 40124 52001 9055 333 1 0288 20110 30/// 55088 59033;
0199763930999992011111309004+25733-100300FM-12+051599999V0209999C000012200019N0020001N1+01601+01271101221ADDAY101031AY201031GA1001+999999999GF100991001001999999001001IA1019MA1999999095561MD1710061-0271MW1041REMSYN088AAXX  13091 76393 31920 00000 10160 20127 39556 40122 57006 70400 90855 333 30/// 59027;
0273763930999992011111312004+25733-100300FM-12+051599999V0203101N001012200019N0020001N1+02541+01311101291ADDAA124000091AY141061AY241061GA1001+999999999GF100991001001999999001001IA1019KA1240M+02881KA2120N+01321MA1999999095571MD1210011-0201MW1051REMSYN106AAXX  13121 76393 31920 03101 10254 20131 39557 40129 52001 70544 91150 333 10288 20132 30128 59020 70000;EQDQ01  00002PRCP24
0199763930999992011111315004+25733-100300FM-12+051599999V0203201N001012200019N0006001N1+01901+01251101401ADDAY141031AY241031GA1001+999999999GF100991001001999999001001IA1019MA1999999095651MD1210081-0191MW1051REMSYN088AAXX  13151 76393 31906 03201 10190 20125 39565 40140 52008 70544 91445 333 30/// 59019;
0199763930999992011111321004+25733-100300FM-12+051599999V0201201N003012200019N0020001N1+03061+01451100861ADDAY101031AY201031GA1001+999999999GF100991001001999999001001IA1019MA1999999095231MD1710311-0301MW1051REMSYN088AAXX  13211 76393 31920 01203 10306 20145 39523 40086 57031 70500 92050 333 30/// 59030;
0279763930999992011111400004+25733-100300FM-12+051599999V0201201N001012200019N0030001N1+02721+01321100801ADDAA124000091AY101061AY201061GA1001+999999999GF100991001001999999001001IA1019KA1120M+03181KA2180N+01321MA1999999095241MD1210011-0271MW1041REMSYN112AAXX  14001 76393 31930 01201 10272 20132 39524 40080 52001 70400 92351 333 10318 20132 30/// 50301 59027 70000;EQDQ01  00002PRCP24
0171763930999992011111403004+25733-100300FM-12+051599999V0203101N001012200019N0020001N1+02341+01401100861ADDGA1001+999999999GF100991001001999999001001IA1019MA1999999095331MD1210091-0281REMSYN082AAXX  14031 76393 32920 03101 10234 20140 39533 40086 52009 90255 333 30/// 59028;
0223763930999992011111406004+25733-100300FM-12+051599999V0200701N001012200019N0020001N1+02101+01481100891ADDGA1001+999999999GF100991001001999999001001GJ105889IA1019KA1240M+03181KA2240N+01321MA1999999095341MD1210011-0281REMSYN100AAXX  14061 76393 32920 00701 10210 20148 39534 40089 52001 90555 333 10318 20132 30/// 55098 59028;
0199763930999992011111409004+25733-100300FM-12+051599999V0200101N001012200019N0010001N1+01861+01741100891ADDAY101031AY201031GA1001+999999999GF100991001001999999001001IA1019MA1999999095291MD1710051-0271MW1041REMSYN088AAXX  14091 76393 31910 00101 10186 20174 39529 40089 57005 70400 90855 333 30/// 59027;
0161763930999992011111412004+25733-100300FM-12+051599999V0202901N001010012019N0010001N1+01881+01731100891ADDAY121061AY221061GF107991071061001501999999MA1999999095251MD1710041+9999MW1041REMSYN072AAXX  14121 76393 31210 72901 10188 20173 39525 40089 57004 70422 876//;
0161763930999992011111418004+25733-100300FM-12+051599999V0201301N002012200019N0010001N1+02741+01641100831ADDAY141061AY241061GF102991011001999999031011MA1999999095191MD1710081+9999MW1051REMSYN072AAXX  14181 76393 31910 21302 10274 20164 39519 40083 57008 70544 81031;
0217763930999992011111421004+25733-100300FM-12+051599999V0201201N005019999999N0010001N1+03101+01471100441ADDAY141031AY241031GA1041+060001041GF107991041001999999011081IA1019MA1999999094871MD1710321-0361MW1041REMSYN106AAXX  14211 76393 31910 71205 10310 20147 39487 40044 57032 70444 84018 92045 333 0/035 30/// 59036 84470;
0161763930999992011111500004+25733-100300FM-12+051599999V0201601N001019999999N0040001N1+02841+01361100381ADDAY121061AY221061GF108991011001999999011081MA1999999094861MD1710011+9999MW1041REMSYN072AAXX  15001 76393 31940 81601 10284 20136 39486 40038 57001 70422 81018;
0171763930999992011111503004+25733-100300FM-12+051599999V0202101N001012200019N0030001N1+02421+01561100411ADDGA1001+999999999GF100991001001999999001001IA1019MA1999999094911MD1210051-0421REMSYN082AAXX  15031 76393 32930 02101 10242 20156 39491 40041 52005 90255 333 30/// 59042;
0223763930999992011111506004+25733-100300FM-12+051599999V0202301N001012200019N0020001N1+02211+01671100471ADDGA1001+999999999GF100991001001999999001001GJ103909IA1019KA1240M+03211KA2240N+01861MA1999999094951MD1210041-0401REMSYN100AAXX  15061 76393 32920 02301 10221 20167 39495 40047 52004 90555 333 10321 20186 30/// 55065 59040;
0199763930999992011111509004+25733-100300FM-12+051599999V0203501N001012200019N0010001N1+01981+01681100491ADDAY101031AY201031GA1001+999999999GF100991001001999999001001IA1019MA1999999094931MD1710021-0361MW1041REMSYN088AAXX  15091 76393 31910 03501 10198 20168 39493 40049 57002 70400 90850 333 30/// 59036;
0161763930999992011111512004+25733-100300FM-12+051599999V0201201N001012200019N0010001N1+01961+01721100631ADDAY101061AY201061GF102991021051002501001001MA1999999095021MD1210091+9999MW1041REMSYN072AAXX  15121 76393 31310 21201 10196 20172 39502 40063 52009 70400 82500;
0217763930999992011111515004+25733-100300FM-12+051599999V0203401N003012200019N0020001N1+02281+01101100921ADDAY101031AY201031GA1021+014701061GF102991021041012501001001IA1019MA1999999095281MD1210261+0011MW1051REMSYN106AAXX  15151 76393 31620 23403 10228 20110 39528 40092 52026 70500 82400 91453 333 0/500 30/// 58001 82649;
0161763930999992011111518004+25733-100300FM-12+051599999V0203201N006012200019N0040001N1+02801+00501100891ADDAY101061AY201061GF101991011041022501001001MA1999999095271MD1710011+9999MW1041REMSYN072AAXX  15181 76393 31840 13206 10280 20050 39527 40089 57001 70400 81400;
0171763930999992011111521004+25733-100300FM-12+051599999V0203201N009012200019N0050001N1+03001+00081100491ADDGA1001+999999999GF100991001001999999001001IA1019MA1999999094931MD1710341+0061REMSYN082AAXX  15211 76393 32950 03209 10300 20008 39493 40049 57034 92045 333 30/// 58006;
0251763930999992011111600004+25733-100300FM-12+051599999V0203201N003012200019N0040001N1+02721+00361100641ADDAA124000091GA1001+999999999GF100991001001999999001001IA1019KA1120M+03141KA2180N+01861MA1999999095111MD1210181+0251REMSYN106AAXX  16001 76393 32940 03203 10272 20036 39511 40064 52018 92345 333 10314 20186 30/// 50731 58025 70000;EQDQ01  00002PRCP24
0199763930999992011111603004+25733-100300FM-12+051599999V0201801N001012200019N0020001N1+02361+01161100881ADDAY101031AY201031GA1001+999999999GF100991001001999999001001IA1019MA1999999095361MD1210251+0451MW1041REMSYN088AAXX  16031 76393 31920 01801 10236 20116 39536 40088 52025 70400 90250 333 30/// 58045;
0223763930999992011111606004+25733-100300FM-12+051599999V0209999C000012200019N0020001N1+02101+01151100981ADDGA1001+999999999GF100991001001999999001001GJ105769IA1019KA1240M+03141KA2240N+01861MA1999999095421MD1210061+0471REMSYN100AAXX  16061 76393 32920 00000 10210 20115 39542 40098 52006 90550 333 10314 20186 30/// 55096 58047;
0171763930999992011111609004+25733-100300FM-12+051599999V0202401N001012200019N0020001N1+01831+00931101011ADDGA1001+999999999GF100991001001999999001001IA1019MA1999999095381MD1710041+0451REMSYN082AAXX  16091 76393 32920 02401 10183 20093 39538 40101 57004 90855 333 30/// 58045;
0197763930999992011111612004+25733-100300FM-12+051599999V0202401N001012200019N0020001N1+01711+00701101131ADDGA1001+999999999GF100991001001999999001001KA1120N+01701MA1999999095471MD1210091+0451REMSYN101AAXX  16121 76393 32920 02401 10171 20070 39547 40113 52009 91150 333 1 0314 20170 30160 58045 70000;
0199763930999992011111615004+25733-100300FM-12+051599999V0202501N001012200019N0020001N1+02241+00781101391ADDAY101031AY201031GA1001+999999999GF100991001001999999001001IA1019MA1999999095691MD1210221+0411MW1051REMSYN088AAXX  16151 76393 31920 02501 10224 20078 39569 40139 52022 70500 91452 333 30/// 58041;
0237763930999992011111618004+25733-100300FM-12+051599999V0200401N003012200019N0030001N1+02861+00611101341ADDAY101061AY201061GA1001+999999999GF100991001001999999001001IA1019KA1120M+03021KA2240N+01701MA1999999095671MD1710021+0041MW1051REMSYN100AAXX  16181 76393 31930 00403 10286 20061 39567 40134 57002 70500 91750 333 10302 20170 30/// 58004;
0199763930999992011111621004+25733-100300FM-12+051599999V0200601N003012200019N0030001N1+03101+00761101071ADDAY101031AY201031GA1001+999999999GF100991001001999999001001IA1019MA1999999095461MD1710211+0531MW1051REMSYN088AAXX  16211 76393 31930 00603 10310 20076 39546 40107 57021 70500 92050 333 30/// 58053;
0279763930999992011111700004+25733-100300FM-12+051599999V0201901N002012200019N0040001N1+02841+00731101201ADDAA124000091AY101061AY201061GA1001+999999999GF100991001001999999001001IA1019KA1120M+03261KA2180N+01701MA1999999095641MD1210181+0531MW1051REMSYN112AAXX  17001 76393 31940 01902 10284 20073 39564 40120 52018 70500 92350 333 10326 20170 30/// 50431 58053 70000;EQDQ01  00002PRCP24
0171763930999992011111703004+25733-100300FM-12+051599999V0201401N001012200019N0020001N1+02541+00991101571ADDGA1001+999999999GF100991001001999999001001IA1019MA1999999096031MD1210391+0671REMSYN082AAXX  17031 76393 32920 01401 10254 20099 39603 40157 52039 90250 333 30/// 58067;
0161763930999992011111706004+25733-100300FM-12+051599999V0203201N001012200019N0020001N1+02141+01041101781ADDAY101061AY201061GF102991021011012501001001MA1999999096201MD1210171+9999MW1041REMSYN072AAXX  17061 76393 31620 23201 10214 20104 39620 40178 52017 70400 82100;
0195763930999992011111709004+25733-100300FM-12+051599999V0202301N001012200019N0030001N1+01901+00961101971ADDAY111031AY211031GF101991011001999999041001IA1019MA1999999096331MD1210131+0951MW1041REMSYN100AAXX  17091 76393 31930 12301 10190 20096 39633 40197 52013 70411 81040 90855 333 0/010 30/// 58095;
0161763930999992011111712004+25733-100300FM-12+051599999V0203601N001012200019N0020001N1+01681+01071102411ADDAY111061AY211061GF101991011051008001001001MA1999999096701MD1210371+9999MW1041REMSYN072AAXX  17121 76393 31520 13601 10168 20107 39670 40241 52037 70411 81500;
0217763930999992011111715004+25733-100300FM-12+051599999V0200601N001010072019N0030001N1+01561+00971102691ADDAY121031AY221031GA1071+007201061GF107991071051008001999999IA1019MA1999999096911MD1210211+1221MW1051REMSYN106AAXX  17151 76393 31530 70601 10156 20097 39691 40269 52021 70522 875// 91450 333 0/3// 30/// 58122 87624;
0161763930999992011111718004+25733-100300FM-12+051599999V0200601N001010075019N0030001N1+01741+01021102571ADDAY121061AY221061GF108991081051008001999999MA1999999096771MD1710141+9999MW1051REMSYN072AAXX  17181 76393 31530 80601 10174 20102 39677 40257 57014 70522 885//;
0189763930999992011111803004+25733-100300FM-12+051599999V0201201N005010081019N0020001N1+01601+00941102381ADDGA1081+008101061GF108991081051008001999999IA1019MA1999999096591MD1210091+0561REMSYN100AAXX  18031 76393 32520 81205 10160 20094 39659 40238 52009 885// 90250 333 0/3// 30/// 58056 88627;
0217763930999992011111815004+25733-100300FM-12+051599999V0209999C000010054019N0020001N1+01601+01161102021ADDAY121031AY221031GA1061+005401061GF106991061051004501001001IA1019MA1999999096201MD1210051-0711MW1041REMSYN106AAXX  18151 76393 31420 60900 10160 20116 39620 40202 52005 70422 86500 91452 333 0/300 30/// 59071 86618;
0171763930999992011111903004+25733-100300FM-12+051599999V0202301N001012200019N0020001N1+02021+01491101301ADDGA1001+999999999GF100991001001999999001001IA1019MA1999999095651MD1410001-0941REMSYN082AAXX  19031 76393 31920 02301 10202 20149 39565 40130 54000 90250 333 30/// 59094;
0229763930999992011111906004+25733-100300FM-12+051599999V0201201N001012200019N0020001N1+01921+01411101261ADDGA1001+999999999GF100991001001999999001001GJ103249IA1019KA1240M+02561KA2240N+01401MA1999999095611MD1710041+9999REMSYN106AAXX  19061 76393 32920 01201 10192 20141 39561 40126 57004 90550 333 10256 20140 30/// 50511 55054 59088;
0199763930999992011111909004+25733-100300FM-12+051599999V0202501N001012200019N0020001N1+01681+01491101161ADDAY101031AY201031GA1001+999999999GF100991001001999999001001IA1019MA1999999095491MD1710121-0731MW1041REMSYN088AAXX  19091 76393 31920 02501 10168 20149 39549 40116 57012 70400 90851 333 30/// 59073;
0199763930999992011111915004+25733-100300FM-12+051599999V0201801N001012200019N0010001N1+01961+01391101331ADDAY101031AY201031GA1001+999999999GF100991001001999999001001IA1019MA1999999095611MD1210111-0591MW1051REMSYN088AAXX  19151 76393 31910 01801 10196 20139 39561 40133 52011 70500 91447 333 30/// 59059;
0237763930999992011111918004+25733-100300FM-12+051599999V0201101N002012200019N0010001N1+02921+01571101251ADDAY141061AY241061GA1001+999999999GF100991001001999999001001IA1019KA1120M+03021KA2240N+01641MA1999999095561MD1710051-0471MW1051REMSYN100AAXX  19181 76393 31910 01102 10292 20157 39556 40125 57005 70544 91752 333 10302 20164 30/// 59047;
0217763930999992011111921004+25733-100300FM-12+051599999V0201201N006012200019N0040001N1+03141+01411100881ADDAY101031AY201031GA1011+021001081GF101991011011022501001001IA1019MA1999999095271MD1710291+9999MW1041REMSYN106AAXX  19211 76393 31840 11206 10314 20141 39527 40088 57029 70400 81100 92045 333 00500 30/// 58/// 81857;
0250763930999992011112000004+25733-100300FM-12+051599999V0201201N001012200019N0050001N1+02981+01421100861ADDAA124000091GA1011+018001081GF101991011011017501001001IA1019KA1120M+03301KA2180N+01641MA1999999095321MD1210051-0331REMSYN124AAXX  20001 76393 32750 11201 10298 20142 39532 40086 52005 81100 92350 333 00500 10330 20164 30/// 50161 59033 70000 81856;
0189763930999992011112003004+25733-100300FM-12+051599999V0209999C000012200019N0020001N1+02521+01851101001ADDGA1031+008401061GF103991031041008001001001IA1019MA1999999095501MD1210181-0151REMSYN100AAXX  20031 76393 32520 30000 10252 20185 39550 40100 52018 83400 90250 333 0/500 30/// 59015 83628;
0223763930999992011112006004+25733-100300FM-12+051599999V0201201N002012200019N0020001N1+02361+01831101041ADDGA1001+999999999GF100991001001999999001001GJ103249IA1019KA1240M+03301KA2240N+01641MA1999999095521MD1210071-0091REMSYN100AAXX  20061 76393 32920 01202 10236 20183 39552 40104 52007 90550 333 10330 20164 30/// 55054 59009;
0273763930999992011112012004+25733-100300FM-12+051599999V0209999C000012200019N0020001N1+01921+01741101431ADDAA124000091AY101061AY201061GA1001+999999999GF100991001001999999001001IA1019KA1240M+03301KA2120N+01901MA1999999095631MD1999999+0131MW1041REMSYN106AAXX  20121 76393 31920 00600 10192 20174 39563 40143 5//// 70400 91153 333 10330 20190 30170 58013 70000;EQDQ01  00002PRCP24
0217763930999992011112015004+25733-100300FM-12+051599999V0209999C000010027019N0010001N1+02081+01871101681ADDAY121031AY221031GA1061+002701061GF106991061051002501001001IA1019MA1999999095841MD1210211+0231MW1041REMSYN106AAXX  20151 76393 31310 63500 10208 20187 39584 40168 52021 70422 86500 91452 333 0/300 30/// 58023 86609;
0212763930999992011112018004+25733-100300FM-12+051599999V0201001N001012200019N0010001N1+02561+99999101491ADDAY141061AY241061GA1001+999999999GF100991001001999999001001IA1019KA1120M+02721MA1999999095821MD1710021+0261MW1051REMSYN088AAXX  20181 76393 31910 01001 10256 39582 40149 57002 70544 91748 333 10272 30/// 58026;
0217763930999992011112021004+25733-100300FM-12+051599999V0201201N005012200019N0020001N1+03001+01851101191ADDAY101031AY201031GA1011+014101081GF101991011011012501001001IA1019MA1999999095571MD1710251+0301MW1041REMSYN106AAXX  20211 76393 31620 11205 10300 20185 39557 40119 57025 70400 81100 92045 333 00500 30/// 58030 81847;
0247763930999992011112100004+25733-100300FM-12+051599999V0201201N003012200019N0040001N1+02861+01751101171ADDAA124000091GF103991001001999999001041IA1019KA1120M+03181KA2180N+01861MA1999999095601MD1210031+0281REMSYN118AAXX  21001 76393 32940 31203 10286 20175 39560 40117 52003 80004 92345 333 0/005 10318 20186 30/// 50421 58028 70000;EQDQ01  00002PRCP24
0199763930999992011112103004+25733-100300FM-12+051599999V0201201N001012200019N0020001N1+02461+01811101281ADDAY101031AY201031GA1001+999999999GF100991001001999999001001IA1019MA1999999095731MD1210131+0231MW1041REMSYN088AAXX  21031 76393 31920 01201 10246 20181 39573 40128 52013 70400 90250 333 30/// 58023;
0223763930999992011112106004+25733-100300FM-12+051599999V0201201N003012200019N0020001N1+02261+01721101361ADDGA1001+999999999GF100991001001999999001001GJ104389IA1019KA1240M+03181KA2240N+01861MA1999999095801MD1210071+0281REMSYN100AAXX  21061 76393 32920 01203 10226 20172 39580 40136 52007 90550 333 10318 20186 30/// 55073 58028;
0147763930999992011112112004+25733-100300FM-12+051599999V0209999C000010042019N0020001N1+02041+01771101571ADDAY121061AY221061GF108991081051004501999999MA1999999095761MW1041REMSYN072AAXX  21121 76393 31420 80500 10204 20177 39576 40157 5//// 70422 885//;
0217763930999992011112115004+25733-100300FM-12+051599999V0209999C000010036019N0010001N1+02121+01851101731ADDAY121031AY221031GA1081+003601061GF108991081051004501999999IA1019MA1999999095881MD1210121+0041MW1041REMSYN106AAXX  21151 76393 31410 80200 10212 20185 39588 40173 52012 70422 885// 91452 333 0/3// 30/// 58004 88612;
0237763930999992011112118004+25733-100300FM-12+051599999V0201001N003012200019N0010001N1+02601+01941101411ADDAY141061AY241061GA1001+999999999GF100991001001999999001001IA1019KA1120M+02721KA2240N+01861MA1999999095771MD1710111-0051MW1051REMSYN100AAXX  21181 76393 31910 01003 10260 20194 39577 40141 57011 70544 91751 333 10272 20186 30/// 59005;
0217763930999992011112121004+25733-100300FM-12+051599999V0200701N003010600019N0010001N1+02841+01891101021ADDAY141031AY241031GA1081+060001021GF108991001001999999001081IA1019MA1999999095421MD1710351-0151MW1051REMSYN106AAXX  21211 76393 31910 80703 10284 20189 39542 40102 57035 70544 80008 92045 333 0/005 30/// 59015 88270;
0161763930999992011112200004+25733-100300FM-12+051599999V0201201N002019999999N0010001N1+02701+01921100971ADDAY141061AY241061GF108991041001999999021071MA1999999095401MD1710021+9999MW1051REMSYN072AAXX  22001 76393 31910 81202 10270 20192 39540 40097 57002 70544 84027;
0199763930999992011112203004+25733-100300FM-12+051599999V0202601N001012200019N0010001N1+02421+01831100971ADDAY101031AY201031GA1001+999999999GF100991001001999999001001IA1019MA1999999095411MD1210011-0321MW1041REMSYN088AAXX  22031 76393 31910 02601 10242 20183 39541 40097 52001 70400 90250 333 30/// 59032;
0251763930999992011112206004+25733-100300FM-12+051599999V0200501N001012200019N0010001N1+02261+01751100971ADDAY101061AY201061GA1001+999999999GF100991001001999999001001GJ104389IA1019KA1240M+02961KA2240N+01861MA1999999095411MD1710021-0391MW1041REMSYN106AAXX  22061 76393 31910 00501 10226 20175 39541 40097 57002 70400 90550 333 10296 20186 30/// 55073 59039;
0199763930999992011112209004+25733-100300FM-12+051599999V0203101N001012200019N0020001N1+02041+01681100991ADDAY101031AY201031GA1001+999999999GF100991001001999999001001IA1019MA1999999095401MD1710011+9999MW1041REMSYN088AAXX  22091 76393 31920 03101 10204 20168 39540 40099 57001 70400 90850 333 30/// 58///;
0273763930999992011112212004+25733-100300FM-12+051599999V0201201N001012200019N0020001N1+01981+01641101211ADDAA124000091AY101061AY201061GA1001+999999999GF100991001001999999001001IA1019KA1240M+02961KA2120N+01961MA1999999095581MD1210181-0181MW1041REMSYN106AAXX  22121 76393 31920 01201 10198 20164 39558 40121 52018 70400 91155 333 10296 20196 30180 59018 70000;EQDQ01  00002PRCP24
0217763930999992011112215004+25733-100300FM-12+051599999V0203601N005012200019N0020001N1+02261+01491101671ADDAY101031AY201031GA1011+009601061GF102991011041008001001011IA1019MA1999999095991MD1210411+0111MW1051REMSYN106AAXX  22151 76393 31520 23605 10226 20149 39599 40167 52041 70500 81401 91453 333 0/305 30/// 58011 81632;
0161763930999992011112218004+25733-100300FM-12+051599999V0200201N006012200019N0030001N1+02701+00551101701ADDAY101061AY201061GF103991001001999999001011MA1999999096031MD1210041+9999MW1051REMSYN072AAXX  22181 76393 31930 30206 10270 20055 39603 40170 52004 70500 80001;
0195763930999992011112221004+25733-100300FM-12+051599999V0200301N001012200019N0050001N1+02861+00711101461ADDAY111031AY211031GF104991001001999999001081IA1019MA1999999095841MD1710191+0421MW1041REMSYN100AAXX  22211 76393 31950 40301 10286 20071 39584 40146 57019 70411 80008 92045 333 0/005 30/// 58042;
0250763930999992011112300004+25733-100300FM-12+051599999V0200201N002010600019N0050001N1+02621+00731101561ADDAA124000091GA1061+060001001GF106991001001999999001011IA1019KA1120M+03041KA2180N+01961MA1999999095971MD1210131+0571REMSYN124AAXX  23001 76393 32950 60202 10262 20073 39597 40156 52013 80001 92345 333 0/005 10304 20196 30/// 50551 58057 70000 86070;
0251763930999992011112306004+25733-100300FM-12+051599999V0201601N001012200019N0020001N1+02021+00841102031ADDAY101061AY201061GA1001+999999999GF100991001001999999001001GJ105529IA1019KA1240M+03041KA2240N+01961MA1999999096411MD1999999+1001MW1041REMSYN106AAXX  23061 76393 31920 01601 10202 20084 39641 40203 5//// 70400 90555 333 10304 20196 30/// 55092 58100;
0199763930999992011112309004+25733-100300FM-12+051599999V0202601N001012200019N0020001N1+01781+00791102111ADDAY101031AY201031GA1001+999999999GF100991001001999999001001IA1019MA1999999096441MD1210031+1041MW1041REMSYN088AAXX  23091 76393 31920 02601 10178 20079 39644 40211 52003 70400 90851 333 30/// 58104;
0273763930999992011112312004+25733-100300FM-12+051599999V0200601N002012200019N0020001N1+01701+00491102221ADDAA124000091AY101061AY201061GA1001+999999999GF100991001001999999001001IA1019KA1240M+03041KA2120N+01601MA1999999096501MD1210061+0921MW1041REMSYN106AAXX  23121 76393 31920 00602 10170 20049 39650 40222 52006 70400 91150 333 10304 20160 30140 58092 70000;EQDQ01  00002PRCP24
0199763930999992011112315004+25733-100300FM-12+051599999V0203501N001012200019N0030001N1+01921+00791102581ADDAY101031AY201031GA1001+999999999GF100991001001999999001001IA1019MA1999999096731MD1210231+0741MW1051REMSYN088AAXX  23151 76393 31930 03501 10192 20079 39673 40258 52023 70500 91451 333 30/// 58074;
0237763930999992011112318004+25733-100300FM-12+051599999V0200601N001012200019N0030001N1+02301+01161102411ADDAY141061AY241061GA1001+999999999GF100991001001999999001001IA1019KA1120M+02461KA2240N+01601MA1999999096641MD1710091+0611MW1051REMSYN100AAXX  23181 76393 31930 00601 10230 20116 39664 40241 57009 70544 91752 333 10246 20160 30/// 58061;
0171763930999992011112321004+25733-100300FM-12+051599999V0201101N003012200019N0050001N1+02601+00891102041ADDGA1001+999999999GF100991001001999999001001IA1019MA1999999096331MD1710311+0491REMSYN082AAXX  23211 76393 32950 01103 10260 20089 39633 40204 57031 92050 333 30/// 58049;
0251763930999992011112400004+25733-100300FM-12+051599999V0201201N006012200019N0050001N1+02341+00791102041ADDAA124000091GA1001+999999999GF100991001001999999001001IA1019KA1120M+02751KA2180N+01601MA1999999096371MD1210041+0401REMSYN106AAXX  24001 76393 32950 01206 10234 20079 39637 40204 52004 92345 333 10275 20160 30/// 5//// 58040 70000;EQDQ01  00002PRCP24
0171763930999992011112403004+25733-100300FM-12+051599999V0201201N004012200019N0020001N1+02061+00891102251ADDGA1001+999999999GF100991001001999999001001IA1019MA1999999096581MD1210211+9999REMSYN082AAXX  24031 76393 32920 01204 10206 20089 39658 40225 52021 90250 333 30/// 58///;
0223763930999992011112406004+25733-100300FM-12+051599999V0200701N001012200019N0020001N1+01941+00861102251ADDGA1001+999999999GF100991001001999999001001GJ105589IA1019KA1240M+02751KA2240N+01601MA1999999096571MD1710011+0161REMSYN100AAXX  24061 76393 32920 00701 10194 20086 39657 40225 57001 90550 333 10275 20160 30/// 55093 58016;
0199763930999992011112415004+25733-100300FM-12+051599999V0200501N001012200019N0010001N1+01701+01021102381ADDAY101031AY201031GA1001+999999999GF100991001001999999001001IA1019MA1999999096571MD1210111+0161MW1051REMSYN088AAXX  24151 76393 31910 00501 10170 20102 39657 40238 52011 70500 91450 333 30/// 58016;
0237763930999992011112418004+25733-100300FM-12+051599999V0200601N003012200019N0010001N1+02161+01151102251ADDAY101061AY201061GA1001+999999999GF100991001001999999001001IA1019KA1120M+02321KA2240N+01301MA1999999096461MD1710111-0181MW1051REMSYN100AAXX  24181 76393 31910 00603 10216 20115 39646 40225 57011 70500 91750 333 10232 20130 30/// 59018;
0171763930999992011112421004+25733-100300FM-12+051599999V0201201N003012200019N0050001N1+02461+01051101921ADDGA1001+999999999GF100991001001999999001001IA1019MA1999999096181MD1710281-0141REMSYN082AAXX  24211 76393 32950 01203 10246 20105 39618 40192 57028 92045 333 30/// 59014;
0251763930999992011112500004+25733-100300FM-12+051599999V0201101N003012200019N0050001N1+02321+01031101831ADDAA124000091GA1001+999999999GF100991001001999999001001IA1019KA1120M+02601KA2180N+01301MA1999999096141MD1710041-0231REMSYN106AAXX  25001 76393 32950 01103 10232 20103 39614 40183 57004 92345 333 10260 20130 30/// 50381 59023 70000;EQDQ01  00002PRCP24
0171763930999992011112503004+25733-100300FM-12+051599999V0201201N003012200019N0020001N1+02161+01141101861ADDGA1001+999999999GF100991001001999999001001IA1019MA1999999096191MD1210051-0391REMSYN082AAXX  25031 76393 32920 01203 10216 20114 39619 40186 52005 90250 333 30/// 59039;
0223763930999992011112506004+25733-100300FM-12+051599999V0201201N002012200019N0020001N1+01841+01361101771ADDGA1001+999999999GF100991001001999999001001GJ105649IA1019KA1240M+02601KA2240N+01301MA1999999096101MD1710091-0471REMSYN100AAXX  25061 76393 32920 01202 10184 20136 39610 40177 57009 90550 333 10260 20130 30/// 55094 59047;
0171763930999992011112509004+25733-100300FM-12+051599999V0200701N001012200019N0020001N1+01601+01371101591ADDGA1001+999999999GF100991001001999999001001IA1019MA1999999095911MD1710191+9999REMSYN082AAXX  25091 76393 32920 00701 10160 20137 39591 40159 57019 90855 333 30/// 58///;
0161763930999992011112512004+25733-100300FM-12+051599999V0201401N001010012019N0010001N1+01541+01381101541ADDAY121061AY221061GF107991071051001501999999MA1999999095811MD1710101+9999MW1041REMSYN072AAXX  25121 76393 31210 71401 10154 20138 39581 40154 57010 70422 875//;
0217763930999992011112515004+25733-100300FM-12+051599999V0209999C000010042019N0010001N1+01741+01391101641ADDAY121031AY221031GA1081+004201061GF108991081051004501999999IA1019MA1999999095881MD1210071-0691MW1041REMSYN106AAXX  25151 76393 31410 82200 10174 20139 39588 40164 52007 70422 885// 91452 333 0/7// 30/// 59069 88614;
0217763930999992011112621004+25733-100300FM-12+051599999V0200301N005010180019N0030001N1+02521+01081101271ADDAY121031AY221031GA1061+018001061GF106991061051017501001001IA1019MA1999999095631MD1710101+0301MW1041REMSYN106AAXX  26211 76393 31730 60305 10252 20108 39563 40127 57010 70422 86500 92050 333 0/500 30/// 58030 86656;
0162763930999992011112700004+25733-100300FM-12+051599999V0200401N005019999999N0030001N1+02161+00361101611ADDAY121061AY221061GF108991999999022501999999MA1999999095971MD1210341+9999MW1041REMSYN073AAXX  27001 76393 31830 80405 10216 20036 39597 40161 52034 70422 885/ 9;
0199763930999992011112715004+25733-100300FM-12+051599999V0203101N003012200019N0010001N1+01301-00551103191ADDAY141031AY241031GA1001+999999999GF100991001001999999001001IA1019MA1999999097271MD1210191+1561MW1051REMSYN088AAXX  27151 76393 31910 03103 10130 21055 39727 40319 52019 70544 91450 333 30/// 58156;
0237763930999992011112718004+25733-100300FM-12+051599999V0203201N006012200019N0010001N1+01681-00591103031ADDAY141061AY241061GA1001+999999999GF100991001001999999001001IA1019KA1120M+01761KA2240N+01121MA1999999097121MD1710151+1391MW1071REMSYN100AAXX  27181 76393 31910 03206 10168 21059 39712 40303 57015 70744 91751 333 10176 20112 30/// 58139;
0175763930999992011112721004+25733-100300FM-12+051599999V0203201N006012200019N0050001N1+01931-01211102691ADDGA1001+999999999GF100991001001999999001001IA1019MD1710131+0191REMSYN082AAXX  27211 76393 32950 03206 10193 21121 39582 40269 57013 92045 333 30/// 58019;EQDQ01+095823APOSP 
0251763930999992011112800004+25733-100300FM-12+051599999V0203101N006012200019N0050001N1+01581-01251102611ADDAA124000091GA1001+999999999GF100991001001999999001001IA1019KA1120M+02041KA2180N+01121MA1999999096781MD1710041+0811REMSYN106AAXX  28001 76393 32950 03106 10158 21125 39678 40261 57004 92345 333 10204 20112 30/// 50721 58081 70000;EQDQ01  00002PRCP24
0171763930999992011112803004+25733-100300FM-12+051599999V0209999C000012200019N0020001N1+01241-00131102681ADDGA1001+999999999GF100991001001999999001001IA1019MA1999999096851MD1210071+0341REMSYN082AAXX  28031 76393 32920 00000 10124 21013 39685 40268 52007 90250 333 30/// 58034;
0223763930999992011112806004+25733-100300FM-12+051599999V0202301N001012200019N0020001N1+01081+00091102721ADDGA1001+999999999GF100991001001999999001001GJ105349IA1019KA1240M+02041KA2240N+01081MA1999999096871MD1210021+0061REMSYN100AAXX  28061 76393 32920 02301 10108 20009 39687 40272 52002 90550 333 10204 20108 30/// 55089 58006;
0171763930999992011112809004+25733-100300FM-12+051599999V0202301N001012200019N0020001N1+00901-00451102561ADDGA1001+999999999GF100991001001999999001001IA1019MA1999999096671MD1710201-0281REMSYN082AAXX  28091 76393 31920 02301 10090 21045 39667 40256 57020 90855 333 30/// 59028;
0273763930999992011112812004+25733-100300FM-12+051599999V0203401N001012200019N0020001N1+00921+99999102501ADDAA124000091AY101061AY201061GA1001+999999999GF100991001001999999001001IA1019KA1240M+02041KA2120N+00801MA1999999096581MD1710091-0501MW1041REMSYN106AAXX  28121 76393 31920 03401 10092 20142 39658 40250 57009 70400 91155 333 10204 20080 30060 59050 70000;EQDQ01  00002PRCP24
0199763930999992011112815004+25733-100300FM-12+051599999V0209999C000012200019N0020001N1+01521-00371102571ADDAY141031AY241031GA1001+999999999GF100991001001999999001001IA1019MA1999999096631MD1210051-0641MW1051REMSYN088AAXX  28151 76393 31920 01700 10152 21037 39663 40257 52005 70544 91452 333 30/// 59064;
0237763930999992011112818004+25733-100300FM-12+051599999V0201201N002012200019N0020001N1+02081-00091102321ADDAY141061AY241061GA1001+999999999GF100991001001999999001001IA1019KA1120M+02221KA2240N+00801MA1999999096441MD1710191-0681MW1051REMSYN100AAXX  28181 76393 31920 01202 10208 21009 39644 40232 57019 70544 91751 333 10222 20080 30/// 59068;
0171763930999992011112821004+25733-100300FM-12+051599999V0200901N004012200019N0040001N1+02421-00241101871ADDGA1001+999999999GF100991001001999999001001IA1019MA1999999096081MD1710361-0741REMSYN082AAXX  28211 76393 32940 00904 10242 21024 39608 40187 57036 92045 333 30/// 59074;
0251763930999992011112900004+25733-100300FM-12+051599999V0202101N003012200019N0050001N1+02061+00001101751ADDAA124000091GA1001+999999999GF100991001001999999001001IA1019KA1120M+02521KA2180N+00801MA1999999096031MD1710051-0751REMSYN106AAXX  29001 76393 32950 02103 10206 20000 39603 40175 57005 92345 333 10252 20080 30/// 50741 59075 70000;EQDQ01  00002PRCP24
0171763930999992011112903004+25733-100300FM-12+051599999V0202301N001012200019N0020001N1+01701-00011101781ADDGA1001+999999999GF100991001001999999001001IA1019MA1999999096091MD1210061-0761REMSYN082AAXX  29031 76393 32920 02301 10170 21001 39609 40178 52006 90250 333 30/// 59076;
0223763930999992011112906004+25733-100300FM-12+051599999V0202301N001012200019N0020001N1+01301+00291101851ADDGA1001+999999999GF100991001001999999001001GJ105889IA1019KA1240M+02521KA2240N+00801MA1999999096121MD1210031-0751REMSYN100AAXX  29061 76393 32920 02301 10130 20029 39612 40185 52003 90550 333 10252 20080 30/// 55098 59075;
0171763930999992011112909004+25733-100300FM-12+051599999V0202301N001012200019N0010001N1+01271-00081101801ADDGA1001+999999999GF100991001001999999001001IA1019MA1999999096021MD1710101-0651REMSYN082AAXX  29091 76393 32910 02301 10127 21008 39602 40180 57010 90855 333 30/// 59065;
0245763930999992011112912004+25733-100300FM-12+051599999V0202301N001012200019N0010001N1+01171-00261101921ADDAA124000091GA1001+999999999GF100991001001999999001001IA1019KA1240M+02521KA2120N+01131MA1999999096081MD1210061-0501REMSYN100AAXX  29121 76393 32910 02301 10117 21026 39608 40192 52006 91155 333 10252 20113 30086 59050 70000;EQDQ01  00002PRCP24
0195763930999992011112915004+25733-100300FM-12+051599999V0202401N001012200019N0020001N1+01661-00131102121ADDAY141031AY241031GF101991001001999999001011IA1019MA1999999096251MD1210171-0381MW1051REMSYN100AAXX  29151 76393 31920 12401 10166 21013 39625 40212 52017 70544 80001 91452 333 0/005 30/// 59038;
0205763930999992011112918004+25733-100300FM-12+051599999V0209999C000012200019N0040001N1+02541-00061102031ADDGF102991001001999999001011IA1019KA1120M+02721KA2240N+01131MA1999999096221MD1710031-0221REMSYN106AAXX  29181 76393 32940 20500 10254 21006 39622 40203 57003 80001 91750 333 0/005 10272 20113 30/// 59022;
0167763930999992011112921004+25733-100300FM-12+051599999V0201201N001012200019N0050001N1+02781-00351101721ADDGF102991001001999999001081IA1019MA1999999095991MD1710231-0091REMSYN094AAXX  29211 76393 32950 21201 10278 21035 39599 40172 57023 80008 92045 333 0/005 30/// 59009;
0247763930999992011113000004+25733-100300FM-12+051599999V0201601N003019999999N0050001N1+02441+00201101701ADDAA124000091GF106991021001999999011081IA1019KA1120M+02981KA2180N+01131MA1999999096051MD1210061+0021REMSYN118AAXX  30001 76393 32950 61603 10244 20020 39605 40170 52006 82018 92345 333 0/055 10298 20113 30/// 50501 58002 70000;EQDQ01  00002PRCP24
0199763930999992011113003004+25733-100300FM-12+051599999V0201201N001012200019N0020001N1+01941+00161101981ADDAY101031AY201031GA1001+999999999GF100991001001999999001001IA1019MA1999999096341MD1210291-0251MW1041REMSYN088AAXX  30031 76393 31920 01201 10194 20016 39634 40198 52029 70400 90255 333 30/// 59025;
0243763930999992011113006004+25733-100300FM-12+051599999V0201301N001012200019N0020001N1+01581+00271102091ADDAY101061AY201061GA1001+999999999GF100991001001999999001001IA1019KA1240M+02981KA2240N+01131MA1999999096411MD1210071+0291MW1041REMSYN106AAXX  30061 76393 31920 01301 10158 20027 39641 40209 52007 70400 90555 333 10298 20113 30/// 50091 58029;
0171763930999992011113009004+25733-100300FM-12+051599999V0200401N001012200019N0010001N1+01321+00161102141ADDGA1001+999999999GF100991001001999999001001IA1019MA1999999096401MD1710011+0381REMSYN082AAXX  30091 76393 32910 00401 10132 20016 39640 40214 57001 90855 333 30/// 58038;
0245763930999992011113012004+25733-100300FM-12+051599999V0201101N001012200019N0010001N1+01151+00341102261ADDAA124000091GA1001+999999999GF100991001001999999001001IA1019KA1240M+02981KA2120N+01131MA1999999096441MD1210041+0361REMSYN100AAXX  30121 76393 32910 01101 10115 20034 39644 40226 52004 91155 333 10298 20113 30081 58036 70000;EQDQ01  00002PRCP24
0195763930999992011113015004+25733-100300FM-12+051599999V0209999C000012200019N0020001N1+01461+00511102471ADDAY101031AY201031GF102991001001999999001011IA1019MA1999999096601MD1210161+0351MW1051REMSYN100AAXX  30151 76393 31920 21800 10146 20051 39660 40247 52016 70500 80001 91452 333 0/005 30/// 58035;
0205763930999992011113018004+25733-100300FM-12+051599999V0209999C000012200019N0040001N1+01921+00751102251ADDGF103991001001999999001011IA1019KA1120M+02061KA2240N+01131MA1999999096401MD1710201+0181REMSYN106AAXX  30181 76393 32940 31200 10192 20075 39640 40225 57020 80001 91750 333 0/003 10206 20113 30/// 58018;
0199763930999992011113021004+25733-100300FM-12+051599999V0201301N003012200019N0050001N1+02161+00761101821ADDAY101031AY201031GA1001+999999999GF100991001001999999001001IA1019MA1999999096031MD1710371+0041MW1051REMSYN088AAXX  30211 76393 31950 01303 10216 20076 39603 40182 57037 70500 92050 333 30/// 58004;
0171763930999992011120103004+25733-100300FM-12+051599999V0203101N002012200019N0020001N1+01681+00751101721ADDGA1001+999999999GF100991001001999999001001IA1019MA1999999096001MD1410001-0341REMSYN082AAXX  01031 76393 32920 03102 10168 20075 39600 40172 54000 90250 333 30/// 59034;
0223763930999992011120106004+25733-100300FM-12+051599999V0203101N001012200019N0020001N1+01501+00691101591ADDGA1001+999999999GF100991001001999999001001GJ105589IA1019KA1240M+02291KA2240N+01131MA1999999095871MD1710131-0541REMSYN100AAXX  01061 76393 32920 03101 10150 20069 39587 40159 57013 90550 333 10229 20113 30/// 55093 59054;
0171763930999992011120109004+25733-100300FM-12+051599999V0200401N001012200019N0010001N1+01221+00701101791ADDGA1001+999999999GF100991001001999999001001IA1019MA1999999095741MD1710131-0661REMSYN082AAXX  01091 76393 32910 00401 10122 20070 39574 40179 57013 90855 333 30/// 59066;
0245763930999992011120112004+25733-100300FM-12+051599999V0203401N001012200019N0010001N1+01081+00761101731ADDAA124000091GA1001+999999999GF100991001001999999001001IA1019KA1240M+02291KA2120N+01081MA1999999095751MD1210011-0691REMSYN100AAXX  01121 76393 32910 03401 10108 20076 39575 40173 52001 91155 333 10229 20108 30080 59069 70000;EQDQ01  00002PRCP24
0199763930999992011120115004+25733-100300FM-12+051599999V0203101N002012200019N0010001N1+01321+00971101841ADDAY101031AY201031GA1001+999999999GF100991001001999999001001IA1019MA1999999095911MD1210191-0691MW1051REMSYN088AAXX  01151 76393 31910 03102 10132 20097 39591 40184 52019 70500 91450 333 30/// 59069;
0233763930999992011120118004+25733-100300FM-12+051599999V0201201N001012200019N0010001N1+02001+01061101631ADDAY101061AY201061GF102991001001999999001011IA1019KA1120M+02161KA2240N+01061MA1999999095811MD1710101-0591MW1051REMSYN112AAXX  01181 76393 31910 21201 10200 20106 39581 40163 57010 70500 80001 91750 333 10216 20106 30/// 56007 59059;
0199763930999992011120121004+25733-100300FM-12+051599999V0201201N003012200019N0010001N1+02401+00961101371ADDAY141031AY241031GA1001+999999999GF100991001001999999001001IA1019MA1999999095611MD1710201-0421MW1041REMSYN088AAXX  01211 76393 31910 01203 10240 20096 39561 40137 57020 70444 92045 333 30/// 59042;
0217763930999992011120200004+25733-100300FM-12+051599999V0201801N001012200019N0030001N1+02281+00931101381ADDGF101991011001999999031001IA1019KA1120M+02501KA2180N+01061MA1999999095681MD1210071-0321REMSYN118AAXX  02001 76393 32930 11801 10228 20093 39568 40138 52007 81030 92345 333 10250 20106 30/// 50241 56040 59032 70000;
0171763930999992011120203004+25733-100300FM-12+051599999V0202201N001012200019N0020001N1+02001+00941101521ADDGA1001+999999999GF100991001001999999001001IA1019MA1999999095851MD1210171-0151REMSYN082AAXX  02031 76393 32920 02201 10200 20094 39585 40152 52017 90250 333 30/// 59015;
0266763930999992011120212004+25733-100300FM-12+051599999V0203201N001012200019N0010001N1+01301+01131101841ADDAA124000091AY101061AY201061GA1011+002101061GF101991011051002501001001IA1019KA1240M+02501KA2120N+01301MA1999999096071MD1210071+9999MW1041REMSYN118AAXX  02121 76393 31310 13201 10130 20113 39607 40184 52007 70400 81500 91155 333 10250 20130 30104 56500 70000 81607;
0217763930999992011120215004+25733-100300FM-12+051599999V0203001N001012200019N0020001N1+01561+01191102081ADDAY101031AY201031GA1021+004501061GF102991021041004501001001IA1019MA1999999096271MD1210201+0361MW1051REMSYN106AAXX  02151 76393 31420 23001 10156 20119 39627 40208 52020 70500 82400 91450 333 30/// 56300 58036 82615;
0255763930999992011120218004+25733-100300FM-12+051599999V0200601N001012200019N0020001N1+02101+01331102021ADDAY141061AY241061GA1021+009601061GF102991021041008001001001IA1019KA1120M+02221KA2240N+01301MA1999999096211MD1710061+0401MW1051REMSYN118AAXX  02181 76393 31520 20601 10210 20133 39621 40202 57006 70544 82400 91752 333 10222 20130 30/// 56300 58040 82632;
0217763930999992011120221004+25733-100300FM-12+051599999V0201201N004012200019N0030001N1+02541+01031101561ADDAY101031AY201031GA1031+018001061GF103991031051017501001001IA1019MA1999999095821MD1710391+0211MW1041REMSYN106AAXX  02211 76393 31730 31204 10254 20103 39582 40156 57039 70400 83500 92050 333 30/// 56300 58021 83656;
0262763930999992011120300004+25733-100300FM-12+051599999V0201201N004010075019N0030001N1+02381+01231101471ADDAA124000091AY121061AY221061GF105991051051008001001001IA1019KA1120M+02691KA2180N+01301MA1999999095781MD1710041+0101MW1051REMSYN130AAXX  03001 76393 31530 51204 10238 20123 39578 40147 57004 70522 85500 92350 333 10269 20130 30/// 50391 56300 58010 70000 85629;
0167763930999992011120303004+25733-100300FM-12+051599999V0201201N005010042019N0020001N1+02061+01661101541ADDGF105991051051004501001001IA1019MA1999999095891MD1210111+0041REMSYN094AAXX  03031 76393 32420 51205 10206 20166 39589 40154 52011 85500 90250 333 30/// 56300 58004;
0219763930999992011120306004+25733-100300FM-12+051599999V0201201N002012200019N0020001N1+01921+01311101391ADDGF102991021041008001001001GJ104509IA1019KA1240M+02691KA2240N+01301MA1999999095741MD1710151+9999REMSYN112AAXX  03061 76393 32520 21202 10192 20131 39574 40139 57015 82400 90550 333 10269 20130 30/// 55075 56700 59022;
0171763930999992011120309004+25733-100300FM-12+051599999V0200901N001012200019N0010001N1+01671+01291101261ADDGA1001+999999999GF100991001001999999001001IA1019MA1999999095571MD1710171-0431REMSYN082AAXX  03091 76393 31910 00901 10167 20129 39557 40126 57017 90855 333 30/// 59043;
0245763930999992011120312004+25733-100300FM-12+051599999V0200101N001012200019N0010001N1+01501+01281101281ADDAA124000091GA1001+999999999GF100991001001999999001001IA1019KA1240M+02691KA2120N+01501MA1999999095571MD1410001-0501REMSYN100AAXX  03121 76393 31910 00101 10150 20128 39557 40128 54000 91155 333 10269 20150 30130 59050 70000;EQDQ01  00002PRCP24
0217763930999992011120315004+25733-100300FM-12+051599999V0200601N001010360019N0005001N1+01701+01381101441ADDAY141031AY241031GA1021+003901071GF107991021061004501011011IA1019MA1999999095691MD1210121-0581MW1051REMSYN106AAXX  03151 76393 31405 70601 10170 20138 39569 40144 52012 70544 82611 91445 333 30/// 56435 59058 82713;
0255763930999992011120318004+25733-100300FM-12+051599999V0200401N001010600019N0005001N1+02101+01441101381ADDAY141061AY241061GA1081+060001021GF108991001001999999001071IA1019KA1120M+02211KA2240N+01461MA1999999095631MD1710061-0581MW1051REMSYN118AAXX  03181 76393 31905 80401 10210 20144 39563 40138 57006 70544 80007 91750 333 10221 20146 30/// 56001 59058 88270;
0217763930999992011120321004+25733-100300FM-12+051599999V0200501N002010600019N0010001N1+02501+01491101081ADDAY141031AY241031GA1081+060001021GF108991001001999999001071IA1019MA1999999095381MD1710251-0441MW1051REMSYN106AAXX  03211 76393 31910 80502 10250 20149 39538 40108 57025 70544 80007 92051 333 30/// 56001 59044 88270;
0284763930999992011120400004+25733-100300FM-12+051599999V0203501N001010900019N0010001N1+02221+01441101081ADDAA124000091AY121061AY221061GA1021+009601061GF108991021041008001001081IA1019KA1120M+02581KA2180N+01461MA1999999095421MD1210041-0361MW1051REMSYN136AAXX  04001 76393 31510 83501 10222 20144 39542 40108 52004 70522 82408 92352 333 10258 20146 30/// 50301 56301 59036 70000 82632 86270;
0211763930999992011120403004+25733-100300FM-12+051599999V0201201N001012200019N0010001N1+02141+01491101181ADDAY101031AY201031GA1021+008101061GF102991021041008001001001IA1019MA1999999095541MD1210121-0351MW1041REMSYN100AAXX  04031 76393 31510 21201 10214 20149 39554 40118 52012 70400 82400 90250 333 30/// 59035 82627;
0253763930999992011120406004+25733-100300FM-12+051599999V0209999C000019999999N0010001N1+01961+01461101181ADDAY141061AY211061GF106991061001999999011001GJ100789IA1019KA1240M+02581KA2240N+01461MA1999999095541MD1410001-0201MW1051REMSYN124AAXX  04061 76393 31910 60000 10196 20146 39554 40118 54000 70541 86010 90550 333 10258 20146 30/// 55013 56070 59020 86465;
0189763930999992011120409004+25733-100300FM-12+051599999V0200701N001010300019N0010001N1+01801+01351101151ADDGA1071+030001041GF107991071001999999021999IA1019MA1999999095491MD1710051-0081REMSYN100AAXX  04091 76393 31910 70701 10180 20135 39549 40115 57005 8702/ 90855 333 30/// 56/7/ 59008 87460;
0272763930999992011120412004+25733-100300FM-12+051599999V0203201N001010450019N0010001N1+01621+01381101121ADDAA124000091AY141061AY211061GA1071+045001041GF107991071001999999021999IA1019KA1240M+02581KA2120N+01601MA1999999095441MD1710051-0131MW1051REMSYN124AAXX  04121 76393 32910 73201 10162 20138 39544 40112 57005 70541 8702/ 91155 333 10258 20160 30144 56/7/ 59013 70000 87465;
0217763930999992011120415004+25733-100300FM-12+051599999V0209999C000010300019N0010001N1+01681+01461101341ADDAY141031AY241031GA1081+030001041GF108991081001999999011999IA1019MA1999999095621MD1210181-0071MW1051REMSYN106AAXX  04151 76393 31910 83500 10168 20146 39562 40134 52018 70544 8801/ 91452 333 30/// 56/7/ 59007 88460;
0255763930999992011120418004+25733-100300FM-12+051599999V0209999C000010450019N0010001N1+02001+01501101281ADDAY141061AY241061GA1081+045001041GF108991081001999999011999IA1019KA1120M+02141KA2240N+01601MA1999999095561MD1710061-0071MW1051REMSYN118AAXX  04181 76393 31910 81500 10200 20150 39556 40128 57006 70544 8801/ 91744 333 10214 20160 30/// 5601/ 59007 88465;
0217763930999992011120421004+25733-100300FM-12+051599999V0201101N003010300019N0010001N1+02501+01591100941ADDAY141031AY241031GA1051+030001041GF108991051001999999011081IA1019MA1999999095261MD1710301-0121MW1051REMSYN106AAXX  04211 76393 31910 81103 10250 20159 39526 40094 57030 70544 85018 92045 333 30/// 56057 59012 85460;
0272763930999992011120500004+25733-100300FM-12+051599999V0201201N003010099019N0020001N1+02281+01471100881ADDAA124000091AY141061AY241061GA1061+009901061GF106991061071008001001001IA1019KA1120M+02621KA2180N+01601MA1999999095231MD1710031-0191MW1051REMSYN124AAXX  05001 76393 31520 61203 10228 20147 39523 40088 57003 70544 86700 92345 333 10262 20160 30/// 50351 59019 70000 86633;
0189763930999992011120503004+25733-100300FM-12+051599999V0203201N002010054019N0010001N1+01781+01331101021ADDGA1081+005401061GF108991081051004501999999IA1019MA1999999095381MD1210151-0161REMSYN100AAXX  05031 76393 32410 83202 10178 20133 39538 40102 52015 885// 90250 333 30/// 563// 59016 88618;
0225763930999992011120506004+25733-100300FM-12+051599999V0200401N003010042019N0010001N1+01561+01121101111ADDGF108991081051004501999999GJ101989IA1019KA1240M+02621KA2240N+01561MA1999999095451MD1210071-0091REMSYN118AAXX  05061 76393 32410 80403 10156 20112 39545 40111 52007 885// 90550 333 10262 20156 30/// 55033 563// 59009 88618;
0217763930999992011120509004+25733-100300FM-12+051599999V0200401N001010051019N0010001N1+01421+01001101231ADDAY121031AY221031GA1081+005101061GF108991081051004501999999IA1019MA1999999095521MD1210071+0031MW1051REMSYN106AAXX  05091 76393 31410 80401 10142 20100 39552 40123 52007 70522 885// 90850 333 30/// 563// 58003 88617;
0272763930999992011120512004+25733-100300FM-12+051599999V0203401N002010042019N0010001N1+01281+00921101511ADDAA124000091AY121061AY221061GA1081+004201061GF108991081051004501999999IA1019KA1240M+02621KA2120N+01201MA1999999095731MD1210211+0291MW1041REMSYN124AAXX  05121 76393 31410 83402 10128 20092 39573 40151 52021 70422 885// 91150 333 10262 20120 30110 563// 58029 70000 88614;
0217763930999992011120515004+25733-100300FM-12+051599999V0200301N001010048019N0010001N1+01281+00881101871ADDAY121031AY221031GA1081+004801061GF108991081051004501999999IA1019MA1999999096041MD1210311+0421MW1041REMSYN106AAXX  05151 76393 31410 80301 10128 20088 39604 40187 52031 70422 885// 91452 333 30/// 563// 58042 88616;
0255763930999992011120518004+25733-100300FM-12+051599999V0209999C000010063019N0020001N1+01341+00831101971ADDAY121061AY221061GA1081+006301061GF108991081051008001999999IA1019KA1120M+01381KA2240N+01201MA1999999096121MD1210081+0561MW1041REMSYN118AAXX  05181 76393 31520 80200 10134 20083 39612 40197 52008 70422 885// 91749 333 10138 20120 30/// 563// 58056 88621;
0217763930999992011120521004+25733-100300FM-12+051599999V0200201N003010072019N0030001N1+01541+00951101741ADDAY121031AY221031GA1081+007201071GF108991081071008001999999IA1019MA1999999095911MD1710211+0651MW1051REMSYN106AAXX  05211 76393 31530 80203 10154 20095 39591 40174 57021 70522 887// 92045 333 30/// 568// 58065 88724;
0262763930999992011120600004+25733-100300FM-12+051599999V0200201N003010075019N0030001N1+01461+00811101791ADDAA124000091AY121061AY221061GF108991081051008001999999IA1019KA1120M+01661KA2180N+01201MA1999999095961MD1210051+0731MW1051REMSYN130AAXX  06001 76393 31530 80203 10146 20081 39596 40179 52005 70522 885// 92345 333 10166 20120 30/// 50171 568// 58073 70000 88622;
0217763930999992011120603004+25733-100300FM-12+051599999V0202401N001010054019N0020001N1+01381+00951101981ADDAY121031AY221031GA1081+005401061GF108991081051004501999999IA1019MA1999999096151MD1210191+0771MW1051REMSYN106AAXX  06031 76393 31420 82401 10138 20095 39615 40198 52019 70522 885// 90250 333 30/// 568// 58077 88618;
0225763930999992011120606004+25733-100300FM-12+051599999V0201201N005010075019N0010001N1+01301+00531102031ADDGF108991081051008001999999GJ100009IA1019KA1240M+01661KA2240N+01201MA1999999096201MD1210051+0751REMSYN118AAXX  06061 76393 32510 81205 10130 20053 39620 40203 52005 885// 90550 333 10166 20120 30/// 55000 568// 58075 88632;
0191763930999992011120612004+25733-100300FM-12+051599999V0200301N002019999999N0020001N1+00701+00531102291ADDAA106000091AY121061AY221061GF108991999999002501999999MA1999999096381MD1210111+9999MW1041REMSYN072AAXX  06121 76393 01320 80302 10070 20053 39638 40229 52011 69901 70422;EQDQ01  00002PRCP06
0253763930999992011120615004+25733-100300FM-12+051599999V0203501N001010027019N0010001N1+00601+00391102641ADDAA103000091AY121031AY221031GA1081+002701071GF108991081071002501999999IA1019MA1999999096671MD1210291+0631MW1041REMSYN112AAXX  06151 76393 21310 83501 10060 20039 39667 40264 52029 70422 887// 91452 333 30/// 563// 58063 69907 88709;EQDQ01  00002PRCP03
0191763930999992011120618004+25733-100300FM-12+051599999V0203601N002019999999N0020001N1+00761+00291102641ADDAA106000091AY121061AY221061GF108991999999004501999999MA1999999096641MD1710031+9999MW1041REMSYN072AAXX  06181 76393 01420 83602 10076 20029 39664 40264 57003 69901 70422;EQDQ01  00002PRCP06
0217763930999992011120621004+25733-100300FM-12+051599999V0203401N001010063019N0040001N1+00781+00271102511ADDAY121031AY221031GA1081+006301071GF108991081071008001999999IA1019MA1999999096511MD1710131+0601MW1041REMSYN106AAXX  06211 76393 31540 83401 10078 20027 39651 40251 57013 70422 887// 92045 333 30/// 568// 58060 88721;
0281763930999992011120700004+25733-100300FM-12+051599999V0203601N003010042019N0040001N1+00661+00181102691ADDAA124999999AY121061AY221061GF108991081071004501999999IA1019KA1120M+00841KA2180N+00601MA1999999096671MD1210161+0711MW1051REMSYN130AAXX  07001 76393 31440 83603 10066 20018 39667 40269 52016 70522 887// 92345 333 10084 20060 30/// 50181 568// 58071 79999 88720;EQDQ01  99992PRCP24
0217763930999992011120715004+25733-100300FM-12+051599999V0201101N001012200019N0020001N1+00681+00201103211ADDAY141031AY241031GA1041+030001041GF104991041001999999011001IA1019MA1999999097111MD1210141+0441MW1051REMSYN106AAXX  07151 76393 31920 41101 10068 20020 39711 40321 52014 70544 84010 91455 333 30/// 56030 58044 84460;
0255763930999992011120718004+25733-100300FM-12+051599999V0201201N002010600019N0010001N1+01161+00361103041ADDAY141061AY241061GA1061+060001001GF106991001001999999001011IA1019KA1120M+01321KA2240N+00361MA1999999096991MD1710121+0351MW1051REMSYN118AAXX  07181 76393 31910 61202 10116 20036 39699 40304 57012 70544 80001 91750 333 10132 20036 30/// 56005 58035 86070;
0217763930999992011120721004+25733-100300FM-12+051599999V0200601N005019999999N0020001N1+01601+00401102551ADDAY121031AY221031GA1031+030001041GF107991031001999999011081IA1019MA1999999096571MD1710421+0061MW1051REMSYN106AAXX  07211 76393 31920 70605 10160 20040 39657 40255 57042 70522 83018 92045 333 30/// 56035 58006 83460;
0262763930999992011120800004+25733-100300FM-12+051599999V0201201N007019999999N0040001N1+01381+00191102441ADDAA124000091AY121061AY221061GF106991031001999999021081IA1019KA1120M+01711KA2180N+00361MA1999999096521MD1710051+0151MW1051REMSYN130AAXX  08001 76393 31940 61207 10138 20019 39652 40244 57005 70522 83028 92345 333 10171 20036 30/// 50241 56058 58015 70000 83460;
0171763930999992011120803004+25733-100300FM-12+051599999V0201201N005012200019N0020001N1+01061+00121102531ADDGA1001+999999999GF100991001001999999001001IA1019MA1999999096641MD1210121+9999REMSYN082AAXX  08031 76393 32920 01205 10106 20012 39664 40253 52012 90250 333 30/// 58///;
0223763930999992011120806004+25733-100300FM-12+051599999V0200601N001012200019N0020001N1+00881-00061102511ADDGA1001+999999999GF100991001001999999001001GJ104689IA1019KA1240M+01711KA2240N+00361MA1999999096611MD1710031-0281REMSYN100AAXX  08061 76393 32920 00601 10088 21006 39661 40251 57003 90550 333 10171 20036 30/// 55078 59028;
0199763930999992011120815004+25733-100300FM-12+051599999V0200201N001012200019N0010001N1+00761-00111102521ADDAY101031AY201031GA1001+999999999GF100991001001999999001001IA1019MA1999999096511MD1710081-0601MW1051REMSYN088AAXX  08151 76393 31910 00201 10076 21011 39651 40252 57008 70500 91445 333 30/// 59060;
0233763930999992011120818004+25733-100300FM-12+051599999V0200301N001012200019N0010001N1+01381+00241102331ADDAY101061AY201061GF104991001001999999001011IA1019KA1120M+01461KA2240N+00401MA1999999096351MD1710161-0641MW1051REMSYN112AAXX  08181 76393 31910 40301 10138 20024 39635 40233 57016 70500 80001 91750 333 10146 20040 30/// 56007 59064;
0195763930999992011120821004+25733-100300FM-12+051599999V0200601N001012200019N0020001N1+01801+00491101921ADDAY101031AY201031GF101991001001999999001081IA1019MA1999999096011MD1710341-0561MW1051REMSYN100AAXX  08211 76393 31920 10601 10180 20049 39601 40192 57034 70500 80008 92045 333 30/// 56003 59056;
0264763930999992011120900004+25733-100300FM-12+051599999V0203401N001012200019N0040001N1+01661+00441101801ADDAY101061AY201061GF102991001001999999001081IA1019KA1120M+01941KA2180N+00401MA1999999095951MD1710061-0571MW1051REMSYN124AAXX  09001 76393 31940 23401 10166 20044 39595 40180 57006 70500 81008 92345 333 10194 20040 30/// 50391 56035 59057 70000;EQDQ01+000012SCOTLC
0195763930999992011120903004+25733-100300FM-12+051599999V0202201N001012200019N0020001N1+01401+00701101871ADDAY101031AY201031GF102991021001999999011001IA1019MA1999999096061MD1210111-0581MW1051REMSYN100AAXX  09031 76393 31920 22201 10140 20070 39606 40187 52011 70500 82010 90250 333 30/// 56050 59058;
0253763930999992011120906004+25733-100300FM-12+051599999V0209999C000012200019N0020001N1+01261+00741101621ADDAY121061AY221061GF104991041001999999011001GJ105469IA1019KA1240M+01941KA2240N+00401MA1999999095831MD1710231-0781MW1051REMSYN124AAXX  09061 76393 31920 40000 10126 20074 39583 40162 57023 70522 84010 90550 333 10194 20040 30/// 55091 56050 59078 84462;
0211763930999992011120909004+25733-100300FM-12+051599999V0202101N001010450019N0010001N1+01051+00631101771ADDAY121031AY221031GA1051+045001041GF105991999999999999999999IA1019MA1999999095941MD1710111+9999MW1051REMSYN100AAXX  09091 76393 31910 52101 10105 20063 39594 40177 57011 70522 90855 333 30/// 56050 58/// 85465;
0272763930999992011120912004+25733-100300FM-12+051599999V0202701N001012200019N0010001N1+01001+00551101851ADDAA124000091AY121061AY221061GA1031+030001031GF103991031001999999031001IA1019KA1240M+01941KA2120N+01001MA1999999095981MD1210041-0461MW1051REMSYN124AAXX  09121 76393 31910 32701 10100 20055 39598 40185 52004 70522 83030 91155 333 10194 20100 30078 56050 59046 70000 83360;
0195763930999992011120915004+25733-100300FM-12+051599999V0203101N001012200019N0010001N1+01361+00611102111ADDAY141031AY241031GF103991001001999999001011IA1019MA1999999096221MD1210241-0291MW1051REMSYN100AAXX  09151 76393 31910 33101 10136 20061 39622 40211 52024 70544 80001 91452 333 30/// 56007 59029;
0233763930999992011120918004+25733-100300FM-12+051599999V0200401N001012200019N0020001N1+02021+00971102101ADDAY141061AY241061GF103991001001999999001011IA1019KA1120M+02121KA2240N+01001MA1999999096231MD1210011-0121MW1051REMSYN112AAXX  09181 76393 31920 30401 10202 20097 39623 40210 52001 70544 80001 91751 333 10212 20100 30/// 56007 59012;
0217763930999992011120921004+25733-100300FM-12+051599999V0200701N003010600019N0010001N1+02281+01021101841ADDAY121031AY221031GA1071+060001001GF107991001001999999001011IA1019MA1999999096051MD1710181+0041MW1051REMSYN106AAXX  09211 76393 31910 70703 10228 20102 39605 40184 57018 70522 80001 92050 333 30/// 56007 58004 87070;
0262763930999992011121000004+25733-100300FM-12+051599999V0201101N003010120019N0020001N1+02081+01161101911ADDAA124000091AY121061AY221061GF105991051051012501001001IA1019KA1120M+02421KA2180N+01001MA1999999096171MD1210121+0221MW1051REMSYN130AAXX  10001 76393 31620 51103 10208 20116 39617 40191 52012 70522 85500 92355 333 10242 20100 30/// 50161 56500 58022 70000 85638;
0189763930999992011121003004+25733-100300FM-12+051599999V0200601N002010096019N0020001N1+02021+01241102121ADDGA1081+009601061GF108991081051008001999999IA1019MA1999999096401MD1210231+0341REMSYN100AAXX  10031 76393 32520 80602 10202 20124 39640 40212 52023 885// 90250 333 30/// 563// 58034 88632;
0294763930999992011121006004+25733-100300FM-12+051599999V0200301N003019999999N0020001N1+01661+00971102251ADDAA103999999AA206000091GF108991081001999999021999GJ105229IA1019KA1240M+02421KA2240N+01001MA1999999096521MD1210121+0471REMSYN130AAXX  10061 76393 02920 80303 10166 20097 39652 40225 52012 69901 8802/ 90550 333 10242 20100 30/// 55087 5603/ 58047 69907 88462;EQDQ01  00002PRCP06Q02  99992PRCP03
0234763930999992011121009004+25733-100300FM-12+051599999V0203201N001010009019N0010001N1+01371+01301102351ADDAA103001091AY151031AY251031GA1081+000901071GF108991081061000751999999IA1099MA1999999096571MD1210051+0631MW1501REMSYN112AAXX  10091 76393 21110 83201 10137 20130 39657 40235 52005 75055 886// 90855 333 31/// 56/5/ 58063 60017 88703;
0300763930999992011121012004+25733-100300FM-12+051599999V0200301N001010006019N0010001N1+99999+99999102431ADDAA103003092AA206001092AA324004091AY151061AY251061GA1081+000601071GF108991081061000751999999IA1019KA1240M+02421KA2120N+01241MA1999999096611MD1210041+0631MW1501REMSYN130AAXX  10121 76393 01110 80301 20119 39661 40243 52004 60011 75055 886// 91155 333 10242 20124 30120 56/5/ 58063 60037 70040 88702;
0234763930999992011121015004+25733-100300FM-12+051599999V0200301N001010009019N0005001N1+01201+01131102701ADDAA103002091AY151031AY251031GA1081+000901071GF108991081071001501999999IA1119MA1999999096821MD1210221+0601MW1501REMSYN112AAXX  10151 76393 21205 80301 10120 20113 39682 40270 52022 75055 887// 91450 333 32/// 569// 58060 60027 88703;
0172763930999992011121018004+25733-100300FM-12+051599999V0200401N001019999999N0003001N1+01221+01151102791ADDAA106005191AY151061AY251061GF108991999999000751999999MA1999999096881MD1210061+9999MW1501REMSYN072AAXX  10181 76393 01103 80401 10122 20115 39688 40279 52006 60051 75055;
0234763930999992011121021004+25733-100300FM-12+051599999V0200501N003010009019N0003001N1+01101+01031102581ADDAA103001091AY151031AY251031GA1081+000901071GF108991081071000751999999IA1119MA1999999096671MD1710211+0621MW1501REMSYN112AAXX  10211 76393 21103 80503 10110 20103 39667 40258 57021 75055 887// 92055 333 32/// 569// 58062 60017 88703;
0172763930999992011121100004+25733-100300FM-12+051599999V0209999C000019999999N0002001N1+00981+00911102711ADDAA106003091AY151061AY251061GF108991999999000751999999MA1999999096781MD1210111+9999MW1501REMSYN072AAXX  11001 76393 01102 80400 10098 20091 39678 40271 52011 60031 75055;
0228763930999992011121103004+25733-100300FM-12+051599999V0200401N001010009019N0010001N1+00901+00821102801ADDAA103000591AY151031AY251031GA1081+000901071GF108991081071000751999999IA1119MA1999999096851MD1210071+0451MW1051REMSYN106AAXX  11031 76393 21110 80401 10090 20082 39685 40280 52007 70555 887// 90250 333 32/// 58045 69957 88703;
0172763930999992011121106004+25733-100300FM-12+051599999V0200301N001019999999N0005001N1+00861+00781102811ADDAA106003091AY151061AY251061GF108991999999000751999999MA1999999096851MD1410001+9999MW1051REMSYN072AAXX  11061 76393 01105 80301 10086 20078 39685 40281 54000 60031 70555;
0234763930999992011121109004+25733-100300FM-12+051599999V0200301N001010006019N0005001N1+00821+00781102711ADDAA103003091AY151031AY251031GA1081+000601071GF108991081071000251999999IA1119MA1999999096741MD1710111+0171MW1501REMSYN112AAXX  11091 76393 21005 80301 10082 20078 39674 40271 57011 75055 887// 90855 333 32/// 569// 58017 60037 88702;
0172763930999992011121112004+25733-100300FM-12+051599999V0200301N001019999999N0005001N1+00801+00761102611ADDAA106006191AY151061AY251061GF108991999999000251999999MA1999999096631MD1710111+9999MW1501REMSYN072AAXX  11121 76393 01005 80301 10080 20076 39663 40261 57011 60061 75055;
0234763930999992011121115004+25733-100300FM-12+051599999V0209999C000010009019N0003001N1+00861+00781102731ADDAA103003091AY151031AY251031GA1081+000901071GF108991081071000751999999IA1119MA1999999096731MD1210101-0091MW1501REMSYN112AAXX  11151 76393 21103 80100 10086 20078 39673 40273 52010 75055 887// 91452 333 32/// 569// 59009 60037 88703;
0172763930999992011121118004+25733-100300FM-12+051599999V0200201N001019999999N0003001N1+00861+00821102631ADDAA106005191AY151061AY251061GF108991999999000251999999MA1999999096641MD1710091+9999MW1501REMSYN072AAXX  11181 76393 01003 80201 10086 20082 39664 40263 57009 60051 75055;
0234763930999992011121121004+25733-100300FM-12+051599999V0203601N003010001519N0002001N1+00941+00921102281ADDAA103002091AY151031AY251031GA1081+000151071GF108991081071000251999999IA1119MA1999999096311MD1710331-0361MW1501REMSYN112AAXX  11211 76393 21002 83603 10094 20092 39631 40228 57033 75055 887// 92055 333 32/// 56999 59036 60027 88700;
0172763930999992011121200004+25733-100300FM-12+051599999V0203601N002019999999N0002001N1+01001+00981102221ADDAA106005191AY151061AY251061GF108991999999000251999999MA1999999096271MD1710041+9999MW1501REMSYN072AAXX  12001 76393 01002 83602 10100 20098 39627 40222 57004 60051 75055;
0234763930999992011121203004+25733-100300FM-12+051599999V0201201N002010001519N0002001N1+01021+00981102281ADDAA103001091AY151031AY251031GA1081+000151071GF108991081071000251999999IA1119MA1999999096341MD1210071-0511MW1051REMSYN112AAXX  12031 76393 21002 81202 10102 20098 39634 40228 52007 70555 887// 90250 333 32/// 56999 59051 60017 88700;
0172763930999992011121206004+25733-100300FM-12+051599999V0200601N001019999999N0002001N1+00981+00941102231ADDAA106002091AY151061AY251061GF108991999999000251999999MA1999999096301MD1710041+9999MW1051REMSYN072AAXX  12061 76393 01002 80601 10098 20094 39630 40223 57004 60021 70555;
0253763930999992011121215004+25733-100300FM-12+051599999V0209999C000010006019N0003001N1+01061+01021102201ADDAA103000091AY121031AY221031GA1081+000601071GF108991081071000251999999IA1099MA1999999096271MD1210191-0461MW1051REMSYN112AAXX  12151 76393 21003 80800 10106 20102 39627 40220 52019 70522 887// 91453 333 31/// 569// 59046 69907 88702;EQDQ01  00002PRCP03
0191763930999992011121218004+25733-100300FM-12+051599999V0209999C000019999999N0003001N1+01141+01031102191ADDAA106000091AY121061AY221061GF108991999999001501999999MA1999999096271MD1410001+9999MW1041REMSYN072AAXX  12181 76393 01203 80600 10114 20103 39627 40219 54000 69901 70422;EQDQ01  00002PRCP06
0217763930999992011121221004+25733-100300FM-12+051599999V0201301N002010024019N0003001N1+01321+01111101921ADDAY141031AY241031GA1081+002401071GF108991081071002501999999IA1099MA1999999096021MD1710251-0291MW1051REMSYN106AAXX  12211 76393 31303 81302 10132 20111 39602 40192 57025 70544 887// 92050 333 31/// 569// 59029 88708;
0278763930999992011121300004+25733-100300FM-12+051599999V0201201N002010001519N0001001N1+01221+01111101921ADDAA124004091AY141061AY241061GA1091+999999999GF109991091999999999999999IA1099KA1120M+01361KA2180N+00901MA1999999096041MD1210021-0231MW1101REMSYN130AAXX  13001 76393 31001 91202 10122 20111 39604 40192 52002 71044 89/// 92350 333 10136 20090 31/// 50301 56999 59023 70040 89///;
0217763930999992011121303004+25733-100300FM-12+051599999V0201201N002010015019N0005001N1+01181+01071102111ADDAY141031AY241031GA1081+001501071GF108991081071001501999999IA1099MA1999999096231MD1210191-0111MW1101REMSYN106AAXX  13031 76393 31205 81202 10118 20107 39623 40211 52019 71044 887// 90250 333 31/// 56999 59011 88705;
0253763930999992011121306004+25733-100300FM-12+051599999V0200601N001010006019N0010001N1+01161+01091102111ADDAY141061AY241061GF108991081071000751999999GJ100009IA1099KA1240M+01361KA2240N+00901MA1999999096231MD1410001-0071MW1051REMSYN124AAXX  13061 76393 31110 80601 10116 20109 39623 40211 54000 70544 887// 90550 333 10136 20090 31/// 55000 56999 59007 88703;
0172763930999992011121312004+25733-100300FM-12+051599999V0202101N001019999999N0004001N1+01211+01171102001ADDAA106000021AY151061AY251061GF108991999999000251999999MA1999999096121MD1710041+9999MW1501REMSYN072AAXX  13121 76393 01004 82101 10121 20117 39612 40200 57004 69901 75055;
0217763930999992011121315004+25733-100300FM-12+051599999V0209999C000010012019N0003001N1+01321+01221102171ADDAY141031AY241031GA1081+001201071GF108991081071001501999999IA1099MA1999999096281MD1210161+0011MW1101REMSYN106AAXX  13151 76393 31203 83100 10132 20122 39628 40217 52016 71044 887// 91451 333 31/// 569// 58001 88704;
0255763930999992011121318004+25733-100300FM-12+051599999V0203101N001010021019N0005001N1+01581+01421102101ADDAY141061AY241061GA1081+002101071GF108991081071001501999999IA1099KA1120M+01681KA2240N+01101MA1999999096241MD1710041-0031MW1101REMSYN118AAXX  13181 76393 31205 83101 10158 20142 39624 40210 57004 71044 887// 91752 333 10168 20110 31/// 569// 59003 88707;
0236763930999992011121321004+25733-100300FM-12+051599999V0202901N001010054019N0003001N1+01901+01461101791ADDAY141031AY241031GA1081+005401071GF199999071071004501999999IA1019MA1999999095981MD1710261-0041MW1051REMSYN106AAXX  13211 76393 31403 72901 10190 20146 39598 40179 57026 70544 877// 92050 333 30/// 567// 59004 88718;EQDQ01+000072SCOTCV
0262763930999992011121400004+25733-100300FM-12+051599999V0200201N001010360019N0008001N1+01801+01521101721ADDAA124999929AY121061AY221061GF107991011051004501011081IA1019KA1120M+01961KA2180N+01101MA1999999095941MD1710041-0101MW1051REMSYN130AAXX  14001 76393 31408 70201 10180 20152 39594 40172 57004 70522 81518 92345 333 10196 20110 30/// 50161 56777 59010 79999 81612;
0217763930999992011121403004+25733-100300FM-12+051599999V0201701N001012200019N0003001N1+01621+01431101731ADDAY101031AY201031GA1021+002401061GF102991021051002501001001IA1019MA1999999095961MD1210021-0271MW1041REMSYN106AAXX  14031 76393 31303 21701 10162 20143 39596 40173 52002 70400 82500 90250 333 30/// 56700 59027 82608;
0253763930999992011121406004+25733-100300FM-12+051599999V0202201N001010012019N0002001N1+01581+01421101641ADDAY111061AY211061GF105991051061001501001001GJ100069IA1019KA1240M+01961KA2240N+01101MA1999999095891MD1710071-0341MW1041REMSYN124AAXX  14061 76393 31202 52201 10158 20142 39589 40164 57007 70411 85600 90545 333 10196 20110 30/// 55001 56500 59034 85706;
0217763930999992011121409004+25733-100300FM-12+051599999V0201601N001010009019N0002001N1+01551+01471101471ADDAY121031AY221031GA1071+000901071GF107991071071000751999999IA1019MA1999999095711MD1710181-0451MW1041REMSYN106AAXX  14091 76393 31102 71601 10155 20147 39571 40147 57018 70422 877// 90855 333 30/// 569// 59045 87703;
0272763930999992011121412004+25733-100300FM-12+051599999V0201101N001010021019N0002001N1+01581+01421101391ADDAA124000091AY121061AY221061GA1081+002101071GF108991081071001501999999IA1019KA1240M+01961KA2120N+01501MA1999999095621MD1710091-0501MW1041REMSYN124AAXX  14121 76393 31202 81101 10158 20142 39562 40139 57009 70422 887// 91155 333 10196 20150 30138 569// 59050 70000 88707;
0217763930999992011121415004+25733-100300FM-12+051599999V0202701N001010036019N0003001N1+01701+01411101551ADDAY121031AY221031GA1081+003601071GF108991081071004501999999IA1019MA1999999095771MD1210151-0511MW1041REMSYN106AAXX  14151 76393 31403 82701 10170 20141 39577 40155 52015 70422 887// 91451 333 30/// 569// 59051 88712;
0255763930999992011121418004+25733-100300FM-12+051599999V0200701N001012200019N0005001N1+02181+01701101461ADDAY111061AY211061GA1041+006001061GF104991041051004501001001IA1019KA1120M+02321KA2240N+01501MA1999999095701MD1710071-0541MW1051REMSYN118AAXX  14181 76393 31405 40701 10218 20170 39570 40146 57007 70511 84500 91752 333 10232 20150 30/// 56700 59054 84620;
0199763930999992011121421004+25733-100300FM-12+051599999V0201201N002012200019N0008001N1+02561+01731101101ADDAY141031AY241031GA1001+999999999GF100991001001999999001001IA1019MA1999999095421MD1710281-0561MW1051REMSYN088AAXX  14211 76393 31908 01202 10256 20173 39542 40110 57028 70544 92045 333 30/// 59056;
0279763930999992011121500004+25733-100300FM-12+051599999V0201301N001012200019N0010001N1+02421+01741101081ADDAA124000091AY141061AY241061GA1001+999999999GF100991001001999999001001IA1019KA1120M+02701KA2180N+01501MA1999999095441MD1210021-0501MW1051REMSYN112AAXX  15001 76393 31910 01301 10242 20174 39544 40108 52002 70544 92350 333 10270 20150 30/// 50031 59050 70000;EQDQ01  00002PRCP24
0199763930999992011121503004+25733-100300FM-12+051599999V0209999C000012200019N0010001N1+02121+01671101161ADDAY141031AY241031GA1001+999999999GF100991001001999999001001IA1019MA1999999095541MD1210101-0421MW1051REMSYN088AAXX  15031 76393 31910 00000 10212 20167 39554 40116 52010 70544 90250 333 30/// 59042;
0217763930999992011121509004+25733-100300FM-12+051599999V0203501N001010006019N0008001N1+01691+01631101181ADDAY121031AY221031GA1071+000601071GF107991071071000751999999IA1019MA1999999095521MD1710051-0191MW1041REMSYN106AAXX  15091 76393 31108 73501 10169 20163 39552 40118 57005 70422 877// 90855 333 30/// 568// 59019 87702;
0172763930999992011121512004+25733-100300FM-12+051599999V0202701N001019999999N0006001N1+01801+01691101241ADDAA106000021AY121061AY221061GF108991999999001501999999MA1999999095531MD1210011+9999MW1501REMSYN072AAXX  15121 76393 01206 82701 10180 20169 39553 40124 52001 69901 75022;
0234763930999992011121515004+25733-100300FM-12+051599999V0202401N001010018019N0003001N1+01881+01731101491ADDAA103001091AY121031AY221031GA1081+001801071GF108991081061001501999999IA1099MA1999999095761MD1210231-0011MW1051REMSYN112AAXX  15151 76393 21203 82401 10188 20173 39576 40149 52023 70522 886// 91455 333 31/// 56999 59001 60017 88706;
0180763930999992011121518004+25733-100300FM-12+051599999V0201301N001019999999N0003001N1+02121+01821101471ADDAY121061AY221061GF108991999999004501999999MA1999999095741MD1710021+9999MW1051REMSYN072AAXX  15181 76393 01403 81301 10212 20182 39574 40147 57002 69911 70522;EQDQ01  00002PRCP06
0217763930999992011121615004+25733-100300FM-12+051599999V0200201N002010048019N0010001N1+01381+01001102471ADDAY121031AY221031GA1081+004801071GF108991081071004501999999IA1019MA1999999096421MD1210231+0661MW1041REMSYN106AAXX  16151 76393 31410 80202 10138 20100 39642 40247 52023 70422 887// 91452 333 30/// 569// 58066 88716;
0255763930999992011121618004+25733-100300FM-12+051599999V0203601N001010042019N0010001N1+01401+01061102411ADDAY121061AY221061GA1081+004201071GF108991081071004501999999IA1019KA1120M+01441KA2240N+01361MA1999999096551MD1210131+0811MW1041REMSYN118AAXX  16181 76393 31410 83601 10140 20106 39655 40241 52013 70422 887// 91751 333 10144 20136 30/// 569// 58081 88714;
0253763930999992011121621004+25733-100300FM-12+051599999V0203601N001010024019N0005001N1+01281+01071102331ADDAA103000091AY121031AY221031GA1081+002401071GF108991081061002501999999IA1019MA1999999096461MD1710091+9999MW1051REMSYN112AAXX  16211 76393 21305 83601 10128 20107 39646 40233 57009 70522 886// 92050 333 30/// 56999 58/// 69907 88708;EQDQ01  00002PRCP03
0191763930999992011121700004+25733-100300FM-12+051599999V0200201N001019999999N0005001N1+01201+01061102471ADDAA106000091AY121061AY221061GF108991999999001501999999MA1999999096591MD1210131+9999MW1051REMSYN072AAXX  17001 76393 01205 80201 10120 20106 39659 40247 52013 69901 70522;EQDQ01  00002PRCP06
0253763930999992011121703004+25733-100300FM-12+051599999V0200601N001010009019N0005001N1+01141+01071102761ADDAA103000091AY151031AY251031GA1081+000901071GF108991081061000751999999IA1099MA1999999096851MD1210261+9999MW1051REMSYN112AAXX  17031 76393 21105 80601 10114 20107 39685 40276 52026 70555 886// 90250 333 31/// 56999 58/// 69907 88703;EQDQ01  00002PRCP03
0172763930999992011121706004+25733-100300FM-12+051599999V0200301N002019999999N0008001N1+01041+00971102861ADDAA106000021AY151061AY251061GF108991999999000751999999MA1999999096931MD1210081+9999MW1501REMSYN072AAXX  17061 76393 01108 80302 10104 20097 39693 40286 52008 69901 75055;
0234763930999992011121709004+25733-100300FM-12+051599999V0201101N001010006019N0008001N1+01041+01001102801ADDAA103000391AY151031AY251031GA1081+000601071GF108991081071000251999999IA1099MA1999999096851MD1710081+9999MW1501REMSYN112AAXX  17091 76393 21008 81101 10104 20100 39685 40280 57008 75055 887// 90855 333 31/// 569// 58/// 69937 88702;
0172763930999992011121712004+25733-100300FM-12+051599999V0200101N001019999999N0008001N1+01041+00971102881ADDAA106001091AY151061AY251061GF108991999999000251999999MA1999999096921MD1210071+9999MW1501REMSYN072AAXX  17121 76393 01008 80101 10104 20097 39692 40288 52007 60011 75055;
0234763930999992011121715004+25733-100300FM-12+051599999V0200201N003010009019N0005001N1+01041+00971103121ADDAA103000021AY151031AY251031GA1081+000901071GF108991081061000751999999IA1099MA1999999097151MD1210231+0731MW1501REMSYN112AAXX  17151 76393 21105 80203 10104 20097 39715 40312 52023 75055 886// 91452 333 31/// 56999 58073 69907 88703;
0172763930999992011121718004+25733-100300FM-12+051599999V0200301N001019999999N0008001N1+01241+00951103101ADDAA106000021AY121061AY221061GF108991999999004501999999MA1999999097131MD1710021+9999MW1041REMSYN072AAXX  17181 76393 01408 80301 10124 20095 39713 40310 57002 69911 70422;
0217763930999992011121721004+25733-100300FM-12+051599999V0200301N002010030019N0010001N1+01261+01011102841ADDAY141031AY241031GA1081+003001071GF108991081071004501999999IA1099MA1999999096901MD1710231+0441MW1051REMSYN106AAXX  17211 76393 31410 80302 10126 20101 39690 40284 57023 70544 887// 92045 333 31/// 568// 58044 88710;
0172763930999992011121800004+25733-100300FM-12+051599999V0201201N001019999999N0006001N1+01261+01161102841ADDAA106000021AY151061AY251061GF108991999999001501999999MA1999999096911MD1210011+9999MW1501REMSYN072AAXX  18001 76393 01206 81201 10126 20116 39691 40284 52001 69901 75055;
0234763930999992011121803004+25733-100300FM-12+051599999V0200601N001010009019N0005001N1+01141+01071102991ADDAA103000191AY151031AY251031GA1081+000901071GF108991081071000751999999IA1099MA1999999097061MD1210151+0211MW1051REMSYN112AAXX  18031 76393 21105 80601 10114 20107 39706 40299 52015 70555 887// 90250 333 31/// 563// 58021 69917 88703;
0172763930999992011121806004+25733-100300FM-12+051599999V0200701N002019999999N0002001N1+01121+01081102941ADDAA106000591AY141061AY241061GF108991999999000251999999MA1999999097011MD1710051+9999MW1501REMSYN072AAXX  18061 76393 01002 80702 10112 20108 39701 40294 57005 69961 75044;
0234763930999992011121809004+25733-100300FM-12+051599999V0201101N001010001519N0002001N1+01101+01081102711ADDAA103000021AY151031AY251031GA1081+000151071GF108991081071000251999999IA1099MA1999999096791MD1710221-0061MW1501REMSYN112AAXX  18091 76393 21002 81101 10110 20108 39679 40271 57022 75055 887// 90855 333 31/// 569// 59006 69907 88700;
0172763930999992011121812004+25733-100300FM-12+051599999V0200701N001019999999N0002001N1+01021+01001102611ADDAA106000021AY151061AY251061GF108991999999000251999999MA1999999096671MD1710121+9999MW1501REMSYN072AAXX  18121 76393 01002 80701 10102 20100 39667 40261 57012 69901 75055;
0234763930999992011121815004+25733-100300FM-12+051599999V0201201N002010003019N0003001N1+01061+01021102691ADDAA103002091AY151031AY251031GA1081+000301071GF108991081071000251999999IA1119MA1999999096751MD1210081-0341MW1501REMSYN112AAXX  18151 76393 21003 81202 10106 20102 39675 40269 52008 75055 887// 91450 333 32/// 569// 59034 60027 88701;
0172763930999992011121818004+25733-100300FM-12+051599999V0200501N001019999999N0008001N1+01181+01111102601ADDAA106002091AY151061AY251061GF108991999999000751999999MA1999999096661MD1710091+9999MW1501REMSYN072AAXX  18181 76393 01108 80501 10118 20111 39666 40260 57009 60021 75055;
0217763930999992011121821004+25733-100300FM-12+051599999V0200401N001010009019N0005001N1+01201+01131102201ADDAY141031AY241031GA1081+000901071GF108991081071000751999999IA1099MA1999999096291MD1710371-0611MW1051REMSYN106AAXX  18211 76393 31105 80401 10120 20113 39629 40220 57037 70544 887// 92052 333 31/// 569// 59061 88703;
0254763930999992011121903004+25733-100300FM-12+051599999V0200701N001010003019N0003001N1+01241+01211999999ADDAA103000021AY141031AY241031GA1081+000301071GF108991081071000251999999IA1099MD1710041-0941MW1501REMSYN112AAXX  19031 76393 21003 80701 10124 20121 33612 49199 57004 75044 887// 90250 333 31/// 56999 59094 69907 88701;EQDQ01+036121APOSP Q02 091993APOSLP
0191763930999992011121906004+25733-100300FM-12+051599999V0200601N001019999999N0008001N1+01201+01161101722ADDAA106000021AY141061AY241061GF108991999999000251999999MA1999999095871MD1710251+9999MW1051REMSYN072AAXX  19061 76393 01008 80601 10120 20116 39587 40172 57025 69901 70544;EQDQ01+101723APOSLP
0253763930999992011121909004+25733-100300FM-12+051599999V0201101N001010003019N0005001N1+01161+01121101311ADDAA103000091AY121031AY221031GA1081+000301071GF108991081061000251999999IA1099MA1999999095471MD1710401-1321MW1041REMSYN112AAXX  19091 76393 21005 81101 10116 20112 39547 40131 57040 70422 886// 90855 333 31/// 56999 59132 69907 88701;EQDQ01  00002PRCP03
0191763930999992011121912004+25733-100300FM-12+051599999V0209999C000019999999N0005001N1+01201+01161101121ADDAA106000091AY121061AY221061GF108991999999000251999999MA1999999095291MD1710181+9999MW1041REMSYN072AAXX  19121 76393 01005 80000 10120 20116 39529 40112 57018 69901 70422;EQDQ01  00002PRCP06
0217763930999992011121915004+25733-100300FM-12+051599999V0209999C000010012019N0008001N1+01321+01221101071ADDAY121031AY221031GA1081+001201071GF108991081061001501999999IA1099MA1999999095251MD1710041-1501MW1041REMSYN106AAXX  19151 76393 31208 80000 10132 20122 39525 40107 57004 70422 886// 91451 333 31/// 568// 59150 88704;
0237763930999992011121918004+25733-100300FM-12+051599999V0203001N001012200019N0005001N1+01701+01311100971ADDAY141061AY241061GA1001+999999999GF100991001001999999001001IA1019KA1120M+01781KA2240N+01101MA1999999095171MD1710081-1491MW1051REMSYN100AAXX  19181 76393 31405 03001 10170 20131 39517 40097 57008 70544 91752 333 10178 20110 30/// 59149;
0223763930999992011121921004+25733-100300FM-12+051599999V0201301N00101036001CN0008001N1+02201+01521100671ADDAY141031AY241031GA1011+008401061GF107991011051008001011081IA1019MA1999999094931MD1710241-1361MW1051REMSYN112AAXX  19211 76393 31508 71301 10220 20152 39493 40067 57024 70544 81518 92045 333 30/// 56555 59136 81628 85270;
0262763930999992011122000004+25733-100300FM-12+051599999V0209999C000012200019N0010001N1+02121+01531100751ADDAA124999929AY141061AY241061GF103991011051008001011001IA1019KA1120M+02281KA2180N+01101MA1999999095041MD1210111-1121MW1051REMSYN130AAXX  20001 76393 31510 30000 10212 20153 39504 40075 52011 70544 81510 92350 333 10228 20110 30/// 50121 56530 59112 79999 81624;
0199763930999992011122003004+25733-100300FM-12+051599999V0209999C000012200019N0010001N1+01761+01441100911ADDAY141031AY241031GA1001+999999999GF100991001001999999001001IA1019MA1999999095231MD1210191-0891MW1051REMSYN088AAXX  20031 76393 31910 00000 10176 20144 39523 40091 52019 70544 90250 333 30/// 59089;
0253763930999992011122006004+25733-100300FM-12+051599999V0200601N001010075019N0010001N1+01721+01231101061ADDAY141061AY241061GF106991061051008001001001GJ103309IA1019KA1240M+02281KA2240N+01101MA1999999095381MD1210151-0491MW1051REMSYN124AAXX  20061 76393 31510 60601 10172 20123 39538 40106 52015 70544 86500 90550 333 10228 20110 30/// 55055 56500 59049 86620;
0217763930999992011122009004+25733-100300FM-12+051599999V0209999C000012200019N0010001N1+01541+01241101111ADDAY111031AY211031GA1031+003601061GF103991031051004501001001IA1019MA1999999095411MD1210031-0061MW1041REMSYN106AAXX  20091 76393 31410 30000 10154 20124 39541 40111 52003 70411 83500 90855 333 30/// 56500 59006 83612;
0272763930999992011122012004+25733-100300FM-12+051599999V0201701N001012200019N0010001N1+01421+01111101181ADDAA124000091AY111061AY211061GA1041+003601061GF104991041051004501001001IA1019KA1240M+02281KA2120N+01401MA1999999095441MD1210031+0151MW1041REMSYN124AAXX  20121 76393 31410 41701 10142 20111 39544 40118 52003 70411 84500 91155 333 10228 20140 30120 56500 58015 70000 84612;
0217763930999992011122015004+25733-100300FM-12+051599999V0200101N002012200019N0020001N1+01561+01121101481ADDAY141031AY241031GA1031+005401061GF103991031051004501001001IA1019MA1999999095711MD1210271+0461MW1051REMSYN106AAXX  20151 76393 31420 30102 10156 20112 39571 40148 52027 70544 83500 91453 333 30/// 56500 58046 83618;
0227763930999992011122018004+25733-100300FM-12+051599999V0200301N001012200019N0040001N1+01901+00901101471ADDGA1011+012301061GF101991011041012501001001IA1019KA1120M+02061KA2240N+01401MA1999999095701MD1710011+0531REMSYN112AAXX  20181 76393 32640 10301 10190 20090 39570 40147 57001 81400 91750 333 10206 20140 30/// 56300 58053 81641;
0195763930999992011122021004+25733-100300FM-12+051599999V0200401N003012200019N0050001N1+02141+00641101191ADDAY101031AY201031GF101991011001999999011001IA1019MA1999999095461MD1710241+0531MW1051REMSYN100AAXX  20211 76393 31950 10403 10214 20064 39546 40119 57024 70500 81010 92045 333 30/// 56030 58053;
0253763930999992011122100004+25733-100300FM-12+051599999V0201201N050022200019N0050001N1+01841+00821101231ADDAA124000091GF103991031001999999011001IA1019KA1120M+02281KA2180N+01401MA1999999095531MD1210071+0491REMSYN124AAXX  21001 76393 32950 31250 10184 20082 39553 40123 52007 83010 92345 333 10228 20140 30/// 50421 56030 58049 70000 83460;EQDQ01+005003WOSPD 
0199763930999992011122109004+25733-100300FM-12+051599999V0203301N002012200019N0020001N1+01141+00521101441ADDAY101031AY201031GA1001+999999999GF100991001001999999001001IA1019MA1999999095671MD1710101+0261MW1041REMSYN088AAXX  21091 76393 31920 03302 10114 20052 39567 40144 57010 70400 90855 333 30/// 58026;
0273763930999992011122112004+25733-100300FM-12+051599999V0202401N001012200019N0020001N1+00961+00611101501ADDAA124000091AY101061AY201061GA1001+999999999GF100991001001999999001001IA1019KA1240M+02281KA2120N+00801MA1999999095671MD1410001+0231MW1041REMSYN106AAXX  21121 76393 31920 02401 10096 20061 39567 40150 54000 70400 91155 333 10228 20080 30072 58023 70000;EQDQ01  00002PRCP24
0195763930999992011122115004+25733-100300FM-12+051599999V0201701N001012200019N0030001N1+01261+00661101741ADDAY101031AY201031GF101991001001999999001011IA1019MA1999999095821MD1210151+0111MW1051REMSYN100AAXX  21151 76393 31930 11701 10126 20066 39582 40174 52015 70500 80001 91450 333 30/// 56100 58011;
0209763930999992011122118004+25733-100300FM-12+051599999V0201201N002012200019N0050001N1+01661+00681101521ADDGF101991011001999999011001IA1019KA1120M+01781KA2240N+00801MD1710151-0031REMSYN106AAXX  21181 76393 32950 11202 10166 20068 39657 40152 57015 81010 91749 333 10178 20080 30/// 56300 59003;EQDQ01+096573APOSP 
0189763930999992011122121004+25733-100300FM-12+051599999V0201201N006010900019N0050001N1+01901+00721101021ADDGA1011+014401061GF106991011051012501011041IA1019MA1999999095231MD1710441-0231REMSYN100AAXX  21211 76393 32650 61206 10190 20072 39523 40102 57044 81514 92045 333 30/// 56535 59023 81648;
0244763930999992011122200004+25733-100300FM-12+051599999V0201101N003012200019N0050001N1+01621+00751100891ADDAA124000091GA1031+010801061GF105991031051012501001041IA1019KA1120M+01991KA2180N+00801MA1999999095151MD1710081-0381REMSYN118AAXX  22001 76393 32650 51103 10162 20075 39515 40089 57008 83504 92345 333 10199 20080 30/// 50291 59038 70000 83636;
0189763930999992011122203004+25733-100300FM-12+051599999V0201201N002012200019N0020001N1+01341+00911101071ADDGA1021+005401061GF102991021051004501001001IA1019MA1999999095331MD1210181+9999REMSYN100AAXX  22031 76393 32420 21202 10134 20091 39533 40107 52018 82500 90250 333 30/// 56700 58/// 82618;
0225763930999992011122206004+25733-100300FM-12+051599999V0203101N001012200019N0020001N1+01201+00841101251ADDGF102991021051004501001001GJ105409IA1019KA1240M+01991KA2240N+00801MA1999999095491MD1210161-0281REMSYN118AAXX  22061 76393 32420 23101 10120 20084 39549 40125 52016 82500 90550 333 10199 20080 30/// 55090 56500 59028 82615;
0273763930999992011122212004+25733-100300FM-12+051599999V0202201N001012200019N0010001N1+01221+00801101451ADDAA124000091AY141061AY241061GA1001+999999999GF100991001001999999001001IA1019KA1240M+01991KA2120N+01061MA1999999095611MD1210131-0061MW1041REMSYN106AAXX  22121 76393 31910 02201 10122 20080 39561 40145 52013 70444 91155 333 10199 20106 30090 59006 70000;EQDQ01  00002PRCP24
0199763930999992011122215004+25733-100300FM-12+051599999V0201901N001012200019N0010001N1+01401+00861101761ADDAY141031AY241031GA1001+999999999GF100991001001999999001001IA1019MA1999999095901MD1210291+0081MW1051REMSYN088AAXX  22151 76393 31910 01901 10140 20086 39590 40176 52029 70544 91445 333 30/// 58008;
0233763930999992011122218004+25733-100300FM-12+051599999V0201201N001012200019N0010001N1+02101+00821101841ADDAY141061AY241061GF101991011001999999011001IA1019KA1120M+02221KA2240N+01061MA1999999096001MD1210101+0331MW1051REMSYN112AAXX  22181 76393 31910 11201 10210 20082 39600 40184 52010 70544 81010 91745 333 10222 20106 30/// 56030 58033;
0199763930999992011122221004+25733-100300FM-12+051599999V0200601N003012200019N0050001N1+02361+00621101571ADDAY101031AY201031GA1001+999999999GF100991001001999999001001IA1019MA1999999095811MD1710191+0581MW1041REMSYN088AAXX  22211 76393 31950 00603 10236 20062 39581 40157 57019 70400 92050 333 30/// 58058;
0245763930999992011122300004+25733-100300FM-12+051599999V0201201N002012200019N0050001N1+01921+00841101661ADDAY141061AY241061GF102991001001999999001081IA1019KA1120M+02461KA2180N+01061MA1999999095931MD1210121+0771MW1051REMSYN124AAXX  23001 76393 31950 21202 10192 20084 39593 40166 52012 70544 80008 92350 333 10246 20106 30/// 50331 56005 58077 70000;
0171763930999992011122309004+25733-100300FM-12+051599999V0203601N001012200019N0020001N1+01201+00631102021ADDGA1001+999999999GF100991001001999999001001IA1019MA1999999096231MD1710021+0751REMSYN082AAXX  23091 76393 32920 03601 10120 20063 39623 40202 57002 90850 333 30/// 58075;
0197763930999992011122312004+25733-100300FM-12+051599999V0209999C000012200019N0020001N1+01021+00721102151ADDGA1001+999999999GF100991001001999999001001KA1120N+01001MA1999999096301MD1210071+0691REMSYN101AAXX  23121 76393 32920 00000 10102 20072 39630 40215 52007 91155 333 1 0246 20100 30090 58069 70000;
0217763930999992011122315004+25733-100300FM-12+051599999V0200301N002012200019N0020001N1+00961+00531102591ADDAY141031AY241031GA1021+005401061GF102991021051004501001001IA1019MA1999999096631MD1210331+0731MW1051REMSYN106AAXX  23151 76393 31420 20302 10096 20053 39663 40259 52033 70544 82500 91453 333 30/// 56400 58073 82618;
0255763930999992011122318004+25733-100300FM-12+051599999V0200201N001010081019N0020001N1+01161+00501102521ADDAY121061AY221061GA1071+008101061GF107991071051008001001001IA1019KA1120M+01281KA2240N+00901MA1999999096601MD1710031+0601MW1041REMSYN118AAXX  23181 76393 31520 70201 10116 20050 39660 40252 57003 70422 87500 91750 333 10128 20090 30/// 56300 58060 87627;
0217763930999992011122321004+25733-100300FM-12+051599999V0201201N002010048019N0030001N1+01241+00841102231ADDAY141031AY241031GA1081+004801061GF108991081051004501999999IA1019MA1999999096321MD1710281+0511MW1051REMSYN106AAXX  23211 76393 31430 81202 10124 20084 39632 40223 57028 70544 885// 92050 333 30/// 563// 58051 88616;
0262763930999992011122400004+25733-100300FM-12+051599999V0201201N003010042019N0020001N1+01141+00811102211ADDAA124000091AY141061AY241061GF108991081051004501999999IA1019KA1120M+01341KA2180N+00901MA1999999096311MD1710011+0381MW1051REMSYN130AAXX  24001 76393 31420 81203 10114 20081 39631 40221 57001 70544 885// 92350 333 10134 20090 30/// 50331 563// 58038 70000 88614;
0177763930999992011122406004+25733-100300FM-12+051599999V0200501N002019999999N0010001N1+00821+00741102411ADDAA106000091AY151061AY251061GF108991999999000751999999MA1999999096481MW1041REMSYN072AAXX  24061 76393 01110 80502 10082 20074 39648 40241 5//// 69901 70455;EQDQ01  00002PRCP06
0234763930999992011122409004+25733-100300FM-12+051599999V0200101N002010003019N0008001N1+00641+00601102441ADDAA103000591AY151031AY251031GA1081+000301071GF108991081061000251999999IA1099MA1999999096481MD1210231+1001MW1041REMSYN112AAXX  24091 76393 21008 80102 10064 20060 39648 40244 52023 70455 886// 90852 333 31/// 56999 58100 69957 88701;
0172763930999992011122412004+25733-100300FM-12+051599999V0200501N001019999999N0008001N1+00621+00541102441ADDAA106001091AY151061AY251061GF108991999999000751999999MA1999999096461MD1710021+9999MW1041REMSYN072AAXX  24121 76393 01108 80501 10062 20054 39646 40244 57002 60011 70455;
0234763930999992011122415004+25733-100300FM-12+051599999V0200201N001010006019N0005001N1+00621+00581102671ADDAA103000891AY151031AY251031GA1081+000601071GF108991081071000251999999IA1099MA1999999096621MD1210161-0011MW1501REMSYN112AAXX  24151 76393 21005 80201 10062 20058 39662 40267 52016 75055 887// 91455 333 31/// 569// 59001 69987 88702;
0172763930999992011122418004+25733-100300FM-12+051599999V0203201N001019999999N0008001N1+00841+00561102681ADDAA106001091AY121061AY221061GF108991999999004501999999MA1999999096651MD1210031+9999MW1041REMSYN072AAXX  24181 76393 01408 83201 10084 20056 39665 40268 52003 69991 70422;
0217763930999992011122421004+25733-100300FM-12+051599999V0203301N003010054019N0020001N1+01021+00551102441ADDAY121031AY221031GA1081+005401071GF108991081071004501999999IA1019MA1999999096441MD1710211+0121MW1051REMSYN106AAXX  24211 76393 31420 83303 10102 20055 39644 40244 57021 70522 887// 92050 333 30/// 568// 58012 88718;
0262763930999992011122500004+25733-100300FM-12+051599999V0200201N003010042019N0020001N1+00861+00501102521ADDAA124002091AY121061AY221061GF108991081071004501999999IA1019KA1120M+01081KA2180N+00541MA1999999096541MD1210101+0231MW1051REMSYN130AAXX  25001 76393 31420 80203 10086 20050 39654 40252 52010 70522 887// 92355 333 10108 20054 30/// 50101 568// 58023 70020 88715;
0217763930999992011122515004+25733-100300FM-12+051599999V0200501N001012200019N0020001N1+00641+00301103201ADDAY141031AY241031GA1041+030001031GF104991041001999999031001IA1019MA1999999097051MD1210191+0431MW1051REMSYN106AAXX  25151 76393 31920 40501 10064 20030 39705 40320 52019 70544 84030 91452 333 30/// 56050 58043 84360;
0255763930999992011122518004+25733-100300FM-12+051599999V0209999C000012200019N0020001N1+01061+00601103031ADDAY141061AY241061GA1031+005701061GF104991031051004501001091IA1019KA1120M+01181KA2240N+00641MA1999999097001MD1710051+0351MW1051REMSYN118AAXX  25181 76393 31420 40000 10106 20060 39700 40303 57005 70544 83509 91750 333 10118 20064 30/// 56303 58035 83619;
0223763930999992011122521004+25733-100300FM-12+051599999V0200201N00301036001CN0020001N1+01461+00601102671ADDAY121031AY221031GA1021+010501061GF106991021051012501031081IA1019MA1999999096701MD1710301+0261MW1051REMSYN112AAXX  25211 76393 31620 60203 10146 20060 39670 40267 57030 70522 82538 92045 333 30/// 56355 58026 82635 83360;
0284763930999992011122600004+25733-100300FM-12+051599999V0201201N003010075019N0020001N1+01201+00591102601ADDAA124000091AY141061AY241061GA1051+007501061GF108991051051008001071001IA1019KA1120M+01581KA2180N+00641MA1999999096671MD1710031+0131MW1051REMSYN136AAXX  26001 76393 31520 81203 10120 20059 39667 40260 57003 70544 85570 92350 333 10158 20064 30/// 50261 56880 58013 70000 85625 83360;
0217763930999992011122603004+25733-100300FM-12+051599999V0201201N003010072019N0020001N1+00981+00411102801ADDAY141031AY241031GA1081+007201061GF108991081051008001999999IA1019MA1999999096871MD1210201+9999MW1051REMSYN106AAXX  26031 76393 31520 81203 10098 20041 39687 40280 52020 70544 885// 90250 333 30/// 568// 58/// 88624;
0253763930999992011122606004+25733-100300FM-12+051599999V0200601N002010075019N0020001N1+00881+00251102831ADDAY141061AY241061GF108991081051008001999999GJ102709IA1019KA1240M+01581KA2240N+00641MA1999999096891MD1210021+9999MW1051REMSYN124AAXX  26061 76393 31520 80602 10088 20025 39689 40283 52002 70544 885// 90550 333 10158 20064 30/// 55045 568// 58/// 88626;
0217763930999992011122609004+25733-100300FM-12+051599999V0200201N001010069019N0020001N1+00741+00171102691ADDAY121031AY221031GA1081+006901061GF108991081051008001999999IA1019MA1999999096731MD1710161+9999MW1041REMSYN106AAXX  26091 76393 31520 80201 10074 20017 39673 40269 57016 70422 885// 90855 333 30/// 568// 58/// 88623;
0284763930999992011122612004+25733-100300FM-12+051599999V0200301N001010048019N0020001N1+00661+00271102681ADDAA124000091AY121061AY221061GA1081+004801061GF108991081051004501999999IA1019IA2999+00509KA1240M+01581KA2120N+00561MA1999999096691MD1710041-0171MW1041REMSYN124AAXX  26121 76393 31420 80301 10066 20027 39669 40268 57004 70422 885// 91150 333 10158 20056 30050 568// 59017 70000 88616;
0217763930999992011122615004+25733-100300FM-12+051599999V0201201N001010057019N0020001N1+00761+00291102771ADDAY121031AY221031GA1081+005701061GF108991081051004501999999IA1019MA1999999096761MD1210071-0291MW1041REMSYN106AAXX  26151 76393 31420 81201 10076 20029 39676 40277 52007 70422 885// 91451 333 30/// 565// 59029 88619;
0233763930999992011122618004+25733-100300FM-12+051599999V0201001N001012200019N0010001N1+01381+00401102511ADDAY141061AY241061GF102991021001999999031001IA1019KA1120M+01481KA2240N+00561MA1999999096531MD1710231-0471MW1051REMSYN112AAXX  26181 76393 31910 21001 10138 20040 39653 40251 57023 70544 82030 91750 333 10148 20056 30/// 56050 59047;
0195763930999992011122621004+25733-100300FM-12+051599999V0200201N001012200019N0020001N1+01761+00431102111ADDAY101031AY201031GF101991011001999999011001IA1019MA1999999096201MD1710331-0501MW1051REMSYN100AAXX  26211 76393 31920 10201 10176 20043 39620 40211 57033 70500 81010 92045 333 30/// 56050 59050;
0281763930999992011122700004+25733-100300FM-12+051599999V0201101N002012200019N0020001N1+01601+00501102091ADDAA124000091AY141061AY241061GF103991999001999999011001IA1019KA1120M+01941KA2180N+00561MA1999999096231MD1210031-0441MW1051REMSYN130AAXX  27001 76393 31920 31102 10160 20050 39623 40209 52003 70544 81010 92345 333 10194 20056 30/// 50161 56050 59044 70000 83460;EQDQ01+000012SCOTLC
0199763930999992011122703004+25733-100300FM-12+051599999V0201101N002012200019N0020001N1+01161+00501102211ADDAY141031AY241031GA1001+999999999GF100991001001999999001001IA1019MA1999999096371MD1210141-0501MW1051REMSYN088AAXX  27031 76393 31920 01102 10116 20050 39637 40221 52014 70544 90250 333 30/// 59050;
0251763930999992011122706004+25733-100300FM-12+051599999V0201401N001012200019N0020001N1+01101+00511102241ADDAY141061AY241061GA1001+999999999GF100991001001999999001001GJ104569IA1019KA1240M+01941KA2240N+00561MA1999999096401MD1210031-0491MW1051REMSYN106AAXX  27061 76393 31920 01401 10110 20051 39640 40224 52003 70544 90550 333 10194 20056 30/// 55076 59049;
0199763930999992011122709004+25733-100300FM-12+051599999V0202601N001012200019N0010001N1+00761+00481102271ADDAY101031AY201031GA1001+999999999GF100991001001999999001001IA1019MA1999999096391MD1710011-0341MW1041REMSYN088AAXX  27091 76393 31910 02601 10076 20048 39639 40227 57001 70400 90850 333 30/// 59034;
0285763930999992011122712004+25733-100300FM-12+051599999V0202801N001012200019N0010001N1+00681+00431102431ADDAA124000091AY101061AY201061GA1001+999999999GF100991001001999999001001IA1019IA2999+00409KA1240M+01941KA2120N+00501MA1999999096481MD1710041-0211MW1041REMSYN106AAXX  27121 76393 31910 02801 10068 20043 39648 40243 57004 70400 91150 333 10194 20050 30040 59021 70000;EQDQ01  00002PRCP24
0195763930999992011122715004+25733-100300FM-12+051599999V0201901N001012200019N0020001N1+01081+00301102691ADDAY101031AY201031GF102991001001999999001011IA1019MA1999999096711MD1210231-0051MW1051REMSYN100AAXX  27151 76393 31920 21901 10108 20030 39671 40269 52023 70500 80001 91452 333 30/// 56001 59005;
0233763930999992011122718004+25733-100300FM-12+051599999V0203101N001012200019N0020001N1+02001+00201102601ADDAY101061AY201061GF103991011001999999011011IA1019KA1120M+02161KA2240N+00501MA1999999096661MD1710051+0131MW1051REMSYN112AAXX  27181 76393 31920 33101 10200 20020 39666 40260 57005 70500 81011 91751 333 10216 20050 30/// 56035 58013;
0195763930999992011122721004+25733-100300FM-12+051599999V0201101N001012200019N0040001N1+02261+00121102201ADDAY101031AY201031GF102991001001999999001081IA1019MA1999999096351MD1710311+0151MW1051REMSYN100AAXX  27211 76393 31940 21101 10226 20012 39635 40220 57031 70500 80008 92045 333 30/// 56005 58015;
0245763930999992011122800004+25733-100300FM-12+051599999V0201201N001012200019N0040001N1+02101+00141102051ADDAY101061AY201061GF101991001001999999001081IA1019KA1120M+02421KA2180N+00501MA1999999096281MD1710081+0051MW1051REMSYN124AAXX  28001 76393 31940 11201 10210 20014 39628 40205 57008 70500 80008 92345 333 10242 20050 30/// 50421 56005 58005 70000;
0171763930999992011122809004+25733-100300FM-12+051599999V0202301N001012200019N0020001N1+00981+00321102101ADDGA1001+999999999GF100991001001999999001001IA1019MA1999999096291MD1710131-0101REMSYN082AAXX  28091 76393 32920 02301 10098 20032 39629 40210 57013 90850 333 30/// 59010;
0217763930999992011122815004+25733-100300FM-12+051599999V0202901N001010300019N0020001N1+01261+00241102071ADDAY121031AY221031GA1071+030001031GF107991071001999999071999IA1019MA1999999096181MD1210021-0531MW1041REMSYN106AAXX  28151 76393 31920 72901 10126 20024 39618 40207 52002 70422 8707/ 91445 333 30/// 5605/ 59053 87360;
0233763930999992011122818004+25733-100300FM-12+051599999V0202901N001012200019N0020001N1+02021+00291101921ADDAY101061AY201061GF103991021001999999031081IA1019KA1120M+02221KA2240N+00801MA1999999096061MD1710121-0601MW1051REMSYN112AAXX  28181 76393 31920 32901 10202 20029 39606 40192 57012 70500 82038 91750 333 10222 20080 30/// 56055 59060;
0195763930999992011122821004+25733-100300FM-12+051599999V0201201N001012200019N0030001N1+02501+00431101511ADDAY101031AY201031GF103991021001999999031081IA1019MA1999999095731MD1710331-0621MW1041REMSYN100AAXX  28211 76393 31930 31201 10250 20043 39573 40151 57033 70400 82038 92051 333 30/// 56051 59062;
0262763930999992011122900004+25733-100300FM-12+051599999V0200601N002019999999N0030001N1+02241+00321101561ADDAA124000091AY121061AY221061GF105991051001999999031001IA1019KA1120M+02681KA2180N+00801MA1999999095851MD1210121-0431MW1041REMSYN130AAXX  29001 76393 31930 50602 10224 20032 39585 40156 52012 70422 85030 92352 333 10268 20080 30/// 50261 56050 59043 70000 85360;
0199763930999992011122903004+25733-100300FM-12+051599999V0203401N002012200019N0020001N1+01801+00391101851ADDAY101031AY201031GA1001+999999999GF100991001001999999001001IA1019MA1999999096161MD1210311+9999MW1051REMSYN088AAXX  29031 76393 31920 03402 10180 20039 39616 40185 52031 70500 90250 333 30/// 58///;
0251763930999992011122906004+25733-100300FM-12+051599999V0202201N001012200019N0020001N1+01501+00601101841ADDAY101061AY201061GA1001+999999999GF100991001001999999001001GJ103189IA1019KA1240M+02681KA2240N+00801MA1999999096141MD1710021-0281MW1051REMSYN106AAXX  29061 76393 31920 02201 10150 20060 39614 40184 57002 70500 90550 333 10268 20080 30/// 55053 59028;
0171763930999992011122909004+25733-100300FM-12+051599999V0202101N001012200019N0020001N1+01201+00591101841ADDGA1001+999999999GF100991001001999999001001IA1019MA1999999096091MD1710051-0291REMSYN082AAXX  29091 76393 32920 02101 10120 20059 39609 40184 57005 90855 333 30/// 59029;
0245763930999992011122912004+25733-100300FM-12+051599999V0202201N002012200019N0020001N1+01161+00361101881ADDAA124000091GA1001+999999999GF100991001001999999001001IA1019KA1240M+02681KA2120N+01101MA1999999096061MD1710031-0101REMSYN100AAXX  29121 76393 32920 02202 10116 20036 39606 40188 57003 91155 333 10268 20110 30100 59010 70000;EQDQ01  00002PRCP24
0233763930999992011122918004+25733-100300FM-12+051599999V0201601N001012200019N0010001N1+02161+00571101881ADDAY141061AY241061GF101991001001999999001081IA1019KA1120M+02381KA2240N+01101MA1999999096051MD1710051-0011MW1051REMSYN112AAXX  29181 76393 31910 11601 10216 20057 39605 40188 57005 70544 80008 91750 333 10238 20110 30/// 56005 59001;
0195763930999992011122921004+25733-100300FM-12+051599999V0200401N001012200019N0040001N1+02481+00391101341ADDAY101031AY201031GF104991001001999999001011IA1019MA1999999095601MD1710451-0131MW1051REMSYN100AAXX  29211 76393 31940 40401 10248 20039 39560 40134 57045 70500 80001 92045 333 30/// 56005 59013;
0269763930999992011123000004+25733-100300FM-12+051599999V0201101N001012200019N0040001N1+02441+00541101251ADDAA124000091AY101061AY201061GF103991001001999999001081IA1019KA1120M+02701KA2180N+01101MA1999999095541MD1710021+9999MW1041REMSYN118AAXX  30001 76393 31940 31101 10244 20054 39554 40125 57002 70400 80008 92345 333 10270 20110 30/// 50361 56005 70000;EQDQ01  00002PRCP24
0199763930999992011123003004+25733-100300FM-12+051599999V0202201N001012200019N0020001N1+01821+00791101311ADDAY101031AY201031GA1001+999999999GF100991001001999999001001IA1019MA1999999095671MD1210091-0491MW1051REMSYN088AAXX  30031 76393 31920 02201 10182 20079 39567 40131 52009 70500 90250 333 30/// 59049;
0251763930999992011123006004+25733-100300FM-12+051599999V0202701N001012200019N0020001N1+01461+00601101321ADDAY101061AY201061GA1001+999999999GF100991001001999999001001GJ105589IA1019KA1240M+02701KA2240N+01101MA1999999095661MD1710011-0481MW1051REMSYN106AAXX  30061 76393 31920 02701 10146 20060 39566 40132 57001 70500 90550 333 10270 20110 30/// 55093 59048;
0245763930999992011123012004+25733-100300FM-12+051599999V0203001N002012200019N0020001N1+01121+00091101671ADDAA124000091GA1001+999999999GF100991001001999999001001IA1019KA1240M+02701KA2120N+00901MA1999999095701MD1210081-0361REMSYN100AAXX  30121 76393 32920 03002 10112 20009 39570 40167 52008 91155 333 10270 20090 30082 59036 70000;EQDQ01  00002PRCP24
0199763930999992011123015004+25733-100300FM-12+051599999V0202201N001012200019N0020001N1+01661+00171101791ADDAY101031AY201031GA1001+999999999GF100991001001999999001001IA1019MA1999999095881MD1210181-0131MW1051REMSYN088AAXX  30151 76393 31920 02201 10166 20017 39588 40179 52018 70500 91450 333 30/// 59013;
0233763930999992011123018004+25733-100300FM-12+051599999V0200601N001012200019N0030001N1+02501-00301101691ADDAY101061AY201061GF103991001001999999001011IA1019KA1120M+02721KA2240N+00901MA1999999095901MD1210021-0151MW1051REMSYN112AAXX  30181 76393 31930 30601 10250 21030 39590 40169 52002 70500 80001 91752 333 10272 20090 30/// 56005 59015;
0195763930999992011123021004+25733-100300FM-12+051599999V0200601N002012200019N0050001N1+02961-00401101321ADDAY101031AY201031GF102991001001999999001081IA1019MA1999999095631MD1710271+0031MW1041REMSYN100AAXX  30211 76393 31950 20602 10296 21040 39563 40132 57027 70400 80008 92045 333 30/// 56005 58003;
0245763930999992011123100004+25733-100300FM-12+051599999V0201201N002012200019N0050001N1+02521+00571101381ADDAY101061AY201061GF104991001001999999001081IA1019KA1120M+03141KA2180N+00901MA1999999095761MD1210131+0781MW1041REMSYN124AAXX  31001 76393 31950 41202 10252 20057 39576 40138 52013 70400 80008 92355 333 10314 20090 30/// 50521 56005 58078 70000;
0199763930999992011123103004+25733-100300FM-12+051599999V0202501N002012200019N0020001N1+02081+00551101511ADDAY101031AY201031GA1001+999999999GF100991001001999999001001IA1019MA1999999095921MD1210161+0251MW1051REMSYN088AAXX  31031 76393 31920 02502 10208 20055 39592 40151 52016 70500 90250 333 30/// 58025;
0251763930999992011123106004+25733-100300FM-12+051599999V0209999C000012200019N0020001N1+01601+00901101601ADDAY101061AY201061GA1001+999999999GF100991001001999999001001GJ105709IA1019KA1240M+03141KA2240N+00901MA1999999095971MD1210051+0311MW1051REMSYN106AAXX  31061 76393 31920 00000 10160 20090 39597 40160 52005 70500 90550 333 10314 20090 30/// 55095 58031;
0245763930999992011123112004+25733-100300FM-12+051599999V0201901N001012200019N0020001N1+01241+00411101701ADDAA124000091GA1001+999999999GF100991001001999999001001IA1019KA1240M+03141KA2120N+01101MA1999999095911MD1210031+0211REMSYN100AAXX  31121 76393 32920 01901 10124 20041 39591 40170 52003 91155 333 10314 20110 30100 58021 70000;EQDQ01  00002PRCP24
0189763930999992011123115004+25733-100300FM-12+051599999V0202101N001010300019N0030001N1+01521+00341101891ADDGA1061+030001031GF106991061001999999031001IA1019MA1999999096061MD1210151+0181REMSYN100AAXX  31151 76393 32930 62101 10152 20034 39606 40189 52015 86030 91452 333 30/// 56050 58018 86360;
0233763930999992011123118004+25733-100300FM-12+051599999V0200601N001019999999N0030001N1+02281+00601101821ADDAY121061AY221061GF106991021001999999041081IA1019KA1120M+02421KA2240N+01101MA1999999096011MD1710051+0111MW1051REMSYN112AAXX  31181 76393 31930 60601 10228 20060 39601 40182 57005 70522 82048 91751 333 10242 20110 30/// 56055 58011;
0223763930999992011123121004+25733-100300FM-12+051599999V0201201N00101021001CN0040001N1+02421+00671101481ADDAY141031AY241031GA1021+021001061GF107991071051022501021001IA1019MA1999999095741MD1710271-0111MW1051REMSYN112AAXX  31211 76393 31840 71201 10242 20067 39574 40148 57027 70544 87520 90255 333 30/// 56550 59011 82657 85460;
