0245763930999992010010100004+25733-100300FM-12+051599999V0200201N003012200019N0020001N1+02361+00771101521ADDAY141061AY201061GF102991001001999999001041IA1019KA1120M+02961KA2180N+01001MA1999999095851MD1210241+0021MW1051REMSYN124AAXX  01001 76393 31920 20203 10236 20077 39585 40152 52024 70540 80004 92355 333 10296 20100 30/// 50101 56005 58002 70000;
0195763930999992010010121004+25733-100300FM-12+051599999V0200701N001012200019N0040001N1+01421+00141102761ADDAY101031AY201031GF104991001001999999001011IA1019MA1999999096871MD1710311+1261MW1041REMSYN100AAXX  01211 76393 31940 40701 10142 20014 39687 40276 57031 70400 80001 92050 333 30/// 56003 58126;
0245763930999992010010200004+25733-100300FM-12+051599999V0201301N001012200019N0060001N1+01401+00431102641ADDAY101061AY201061GF103991001001999999001031IA1019KA1120M+01661KA2180N+00681MA1999999096771MD1710101+0921MW1041REMSYN124AAXX  02001 76393 31956 31301 10140 20043 39677 40264 57010 70400 80003 92350 333 10166 20068 30/// 50411 56003 58092 70000;
0195763930999992010010203004+25733-100300FM-12+051599999V0201001N002012200019N0040001N1+01061+00121102611ADDAY141031AY211031GF104991001001999999001041IA1019MA1999999096721MD1410001+9999MW1051REMSYN100AAXX  02031 76393 31940 41002 10106 20012 39672 40261 54005 70541 80004 90255 333 30/// 56005 59///;
0247763930999992010010206004+25733-100300FM-12+051599999V0200301N002012200019N0060001N1+00961+00041102641ADDAY141061AY211061GF104991001001999999001041GJ104449IA1019KA1240M+01661KA2240N+00681MA1999999096731MD1410001+9999MW1051REMSYN118AAXX  02061 76393 31956 40302 10096 20004 39673 40264 54001 70541 80004 90555 333 10166 20068 30/// 55074 56005 59///;
0283763930999992010010212004+25733-100300FM-12+051599999V0201101N001012200019N0010001N1+00581+00321102521ADDAA124000091AY101061AY201061GF103991999001999999031001IA1019IA2999+00469KA1240M+01661KA2120N+00521MA1999999096551MW1051REMSYN118AAXX  02121 76393 31910 31101 10058 20032 39655 40252 5//// 70500 82030 91150 333 10166 20052 30046 56050 58/// 70000;EQDQ01+000022SCOTLCQ02  00002PRCP24
0236763930999992010010215004+25733-100300FM-12+051599999V0209999C000010600019N0080001N1+00661+00341102711ADDAY111031AY211031GA1071+060001001GF107991001001999999001091IA1019MA1999999096701MD1210151+9999MW1051REMSYN106AAXX  02151 76393 31958 70000 10066 20034 39670 40271 52015 70511 87009 91450 333 30/// 5620/ 59/// 87070;EQDQ01+000072SCOTLC
0274763930999992010010218004+25733-100300FM-12+051599999V0200301N001010600019N0060001N1+01021+00461102561ADDAY121061AY221061GA1081+060001001GF108991001001999999001071IA1019KA1120M+01231KA2240N+00521MA1999999096561MD1710141-0621MW1051REMSYN118AAXX  02181 76393 31956 80301 10102 20046 39656 40256 57014 70522 88007 91750 333 10123 20052 30/// 56004 59062 88070;EQDQ01+000082SCOTLC
0223763930999992010010221004+25733-100300FM-12+051599999V0201401N00201036001CN0030001N1+01241+00431102211ADDAY141031AY241031GA1021+008101061GF108991021051008001021999IA1019MA1999999096261MD1710301-0211MW1041REMSYN112AAXX  02211 76393 31530 81402 10124 20043 39626 40221 57030 70444 8252/ 92055 333 30/// 5645/ 59021 82627 86456;
0284763930999992010010300004+25733-100300FM-12+051599999V0201401N002010360019N0030001N1+01171+00531102141ADDAA124000091AY141061AY241061GA1021+006301061GF108991021051008001021999IA1019KA1120M+01381KA2180N+00521MA1999999096221MD1710041-0551MW1041REMSYN136AAXX  03001 76393 31530 81402 10117 20053 39622 40214 57004 70444 8252/ 92350 333 10138 20052 30/// 50291 5635/ 59055 70000 82621 87456;
0217763930999992010010303004+25733-100300FM-12+051599999V0200901N001010048019N0020001N1+01021+00551102101ADDAY141031AY221031GA1081+004801061GF108991081061004501999999IA1019MA1999999096201MD1410001-0521MW1051REMSYN106AAXX  03031 76393 31420 80901 10102 20055 39620 40210 54002 70542 886// 90255 333 30/// 56399 59052 88616;
0253763930999992010010306004+25733-100300FM-12+051599999V0202801N001010042019N0020001N1+01001+00621102021ADDAY141061AY221061GF108991081061004501999999GJ100009IA1019KA1240M+01381KA2240N+00521MA1999999096131MD1410001-0601MW1051REMSYN124AAXX  03061 76393 31420 82801 10100 20062 39613 40202 54007 70542 886// 90555 333 10138 20052 30/// 55000 56399 59060 88613;
0217763930999992010010309004+25733-100300FM-12+051599999V0202901N001010036019N0020001N1+01001+00701101841ADDAY141031AY221031GA1081+003601061GF108991081051004501999999IA1019MA1999999095951MD1710181+9999MW1051REMSYN106AAXX  03091 76393 31420 82901 10100 20070 39595 40184 57018 70542 885// 90850 333 30/// 56399 59/// 88612;
0272763930999992010010312004+25733-100300FM-12+051599999V0209999C000010033019N0020001N1+00941+00671101851ADDAA124000091AY141061AY221061GA1071+003301061GF107991071051004501999999IA1019KA1240M+01361KA2120N+00901MA1999999095941MD1710011-0611MW1051REMSYN124AAXX  03121 76393 31420 70000 10094 20067 39594 40185 57001 70542 875// 91150 333 10136 20090 30074 56399 59061 70000 87611;
0255763930999992010010318004+25733-100300FM-12+051599999V0201201N001012200019N0020001N1+01511+00701102181ADDAY141061AY241061GA1011+008101081GF101991011011008001001001IA1019KA1120M+01671KA2240N+00801MA1999999096261MD1210061-0301MW1041REMSYN118AAXX  03181 76393 31520 11201 10151 20070 39626 40218 52006 70444 81100 91755 333 10167 20080 30/// 56600 59030 81827;
0199763930999992010010321004+25733-100300FM-12+051599999V0200601N001012200019N0020001N1+01861+00761101891ADDAY101031AY201031GA1001+999999999GF100991001001999999001001IA1019MA1999999096031MD1710231-0231MW1041REMSYN088AAXX  03211 76393 31920 00601 10186 20076 39603 40189 57023 70400 92050 333 30/// 59023;
0262763930999992010010400004+25733-100300FM-12+051599999V0200601N001012200019N0030001N1+01741+00731101981ADDAA124000091AY141061AY201061GF102991021051012501001001IA1019KA1120M+02101KA2180N+00801MA1999999096171MD1210141-0051MW1041REMSYN130AAXX  04001 76393 31630 20601 10174 20073 39617 40198 52014 70440 82500 92350 333 10210 20080 30/// 50191 56500 59005 70000 82641;
0217763930999992010010403004+25733-100300FM-12+051599999V0200401N001010075019N0020001N1+01501+00741102211ADDAY141031AY221031GA1081+007501061GF108991081061008001999999IA1019MA1999999096411MD1210241+0211MW1051REMSYN106AAXX  04031 76393 31520 80401 10150 20074 39641 40221 52024 70542 886// 90255 333 30/// 56399 58021 88625;
0253763930999992010010406004+25733-100300FM-12+051599999V0202901N001010042019N0020001N1+01361+00851102381ADDAY141061AY281061GF108991081061004501999999GJ105169IA1019KA1240M+02101KA2240N+00801MA1999999096561MD1310151+0431MW1051REMSYN124AAXX  04061 76393 31420 82901 10136 20085 39656 40238 53015 70548 886// 90555 333 10210 20080 30/// 55086 56399 58043 88617;
0217763930999992010010409004+25733-100300FM-12+051599999V0202701N001010045019N0020001N1+01241+00881102491ADDAY141031AY221031GA1071+004501061GF107991071051004501999999IA1019MA1999999096651MD1010091+0701MW1051REMSYN106AAXX  04091 76393 31420 72701 10124 20088 39665 40249 50009 70542 875// 90850 333 30/// 56399 58070 87615;
0161763930999992010010412004+25733-100300FM-12+051599999V0200101N002019999999N0030001N1+01221+00901999999ADDGF108991999999004501999999REMSYN123AAXX  04121 76393 31430 80102 10122 20090 1150 39667 40255 53002 70542 885// 333 10210 20122 30120 56399 58073 70000 88613;
0234763930999992010010415004+25733-100300FM-12+051599999V0209999C000010015019N0010001N1+01041+00931102921ADDAA103000021AY141031AY221031GA1081+001501071GF108991081071001501999999IA1099MA1999999096991MD1210321+0791MW1501REMSYN112AAXX  04151 76393 21210 80000 10104 20093 39699 40292 52032 75042 887// 91450 333 31/// 568// 58079 69907 88705;
0172763930999992010010418004+25733-100300FM-12+051599999V0200501N001019999999N0010001N1+00961+00851102991ADDAA106002091AY141061AY221061GF108991999999001501999999MA1999999097051MD1410001+9999MW1501REMSYN072AAXX  04181 76393 01210 80501 10096 20085 39705 40299 54006 60021 75042;
0234763930999992010010421004+25733-100300FM-12+051599999V0200401N002010015019N0040001N1+00901+00821102831ADDAA103000991AY121031AY221031GA1081+001501071GF108991081071000751999999IA1119MA1999999096871MD1710181+0841MW1051REMSYN112AAXX  04211 76393 21140 80402 10090 20082 39687 40283 57018 70522 887// 92040 333 32/// 564// 58084 69997 88705;
0172763930999992010010500004+25733-100300FM-12+051599999V0200801N001019999999N0006001N1+00881+00841102911ADDAA106003091AY121061AY221061GF108991999999000251999999MA1999999096931MD1210081+9999MW1501REMSYN072AAXX  05001 76393 01006 80801 10088 20084 39693 40291 52008 60031 75022;
0234763930999992010010503004+25733-100300FM-12+051599999V0200901N002010012019N0010001N1+00821+00701103001ADDAA103001091AY151031AY221031GA1081+001201071GF108991081061001501999999IA1119MA1999999097011MD1410001+0601MW1501REMSYN112AAXX  05031 76393 21210 80902 10082 20070 39701 40300 54008 75052 886// 90255 333 32/// 56399 58060 60017 88704;
0172763930999992010010506004+25733-100300FM-12+051599999V0201301N003019999999N0010001N1+00861+00501103031ADDAA106001091AY151061AY221061GF108991999999004501999999MA1999999097031MD1410001+9999MW1501REMSYN072AAXX  05061 76393 11410 81303 10086 20050 39703 40303 54002 60011 75052;
0223763930999992010010509004+25733-100300FM-12+051599999V0200101N01101001201CN0020001N1+00761+00641102981ADDAY141031AY221031GA1021+001501071GF108991081021001501999999IA1099MA1999999096981MD1710051+0351MW1051REMSYN112AAXX  05091 76393 31220 80111 10076 20064 39698 40298 57005 70542 882// 90850 333 31/// 56399 58035 82705 86608;
0172763930999992010010512004+25733-100300FM-12+051599999V0201001N002019999999N0020001N1+00661+00541102971ADDAA106000021AY151061AY221061GF108991999999001501999999MA1999999096951MD1710031+9999MW1051REMSYN072AAXX  05121 76393 01220 81002 10066 20054 39695 40297 57003 69921 70552;
0234763930999992010010515004+25733-100300FM-12+051599999V0201401N001010015019N0010001N1+00641+00521103141ADDAA103002091AY141031AY221031GA1081+001501071GF108991081061001501999999IA1099MA1999999097101MD1210151+0111MW1051REMSYN112AAXX  05151 76393 21210 81401 10064 20052 39710 40314 52015 70542 886// 91450 333 31/// 563// 58011 60027 88705;
0255763930999992010010518004+25733-100300FM-12+051599999V0201401N010010021019N0010001N1+00661+00491103111ADDAY141061AY221061GA1081+002101071GF108991081061002501999999IA1099KA1120M+00741KA2240N+00581MA1999999097071MD1410001+0021MW1051REMSYN118AAXX  05181 76393 31310 81410 10066 20049 39707 40311 54003 70542 886// 91750 333 10074 20058 31/// 563// 58002 88707;
0217763930999992010010521004+25733-100300FM-12+051599999V0200901N001010030019N0020001N1+00781+00541102781ADDAY121031AY221031GA1081+003001071GF108991081061002501999999IA1019MA1999999096751MD1710321-0121MW1051REMSYN106AAXX  05211 76393 31320 80901 10078 20054 39675 40278 57032 70522 886// 92040 333 30/// 563// 59012 88710;
0279763930999992010010600004+25733-100300FM-12+051599999V0201101N003010021019N0010001N1+00781+00581102691ADDAA103000291AA224000291AY121061AY221061GF108991081061002501999999IA1019KA1120M+00841KA2180N+00601MA1999999096671MD1710081-0261MW1051REMSYN136AAXX  06001 76393 21310 81103 10078 20058 39667 40269 57008 70522 886// 92340 333 10084 20060 30/// 50051 563// 59026 69927 70002 88708;
0253763930999992010010603004+25733-100300FM-12+051599999V0200901N002010012019N0010001N1+00681+00561102681ADDAA103000091AY151031AY241031GA1081+001201061GF108991081051001501999999IA1099MA1999999096661MD1710011-0381MW1051REMSYN112AAXX  06031 76393 21210 80902 10068 20056 39666 40268 57001 70554 885// 90250 333 31/// 563// 59038 69907 88604;EQDQ01  00002PRCP03
0191763930999992010010606004+25733-100300FM-12+051599999V0200901N001019999999N0010001N1+00701+00601102601ADDAA106000091AY141061AY241061GF108991999999001501999999MA1999999096601MD1710061+9999MW1051REMSYN072AAXX  06061 76393 01210 80901 10070 20060 39660 40260 57006 69901 70544;EQDQ01  00002PRCP06
0217763930999992010010609004+25733-100300FM-12+051599999V0209999C000010015019N0010001N1+00761+00641102341ADDAY141031AY221031GA1081+001501071GF108991081021001501999999IA1019MA1999999096351MD1710251-0631MW1051REMSYN106AAXX  06091 76393 31210 80000 10076 20064 39635 40234 57025 70542 882// 90850 333 30/// 56399 59063 88705;
0291763930999992010010612004+25733-100300FM-12+051599999V0209999C000010009019N0010001N1+00801+00721102251ADDAA124000091AY141061AY221061GA1081+000901071GF108991081021000751999999IA1019KA1240M+00841KA2120N+00741MA1999999096261MD1710341-0691MW1051REMSYN124AAXX  06121 76393 31110 80000 10080 20072 39626 40225 57034 70542 882// 91150 333 10084 20074 30072 56399 59069 79999 88703;EQDQ01  00002PRCP24
0217763930999992010010615004+25733-100300FM-12+051599999V0209999C000010015019N0010001N1+00821+00701102311ADDAY141031AY221031GA1081+001501071GF108991081061001501999999IA1019MA1999999096331MD1410001-0771MW1051REMSYN106AAXX  06151 76393 31210 80000 10082 20070 39633 40231 54007 70542 886// 91450 333 30/// 563// 59077 88705;
0255763930999992010010618004+25733-100300FM-12+051599999V0203101N001010045019N0010001N1+01101+00731102231ADDAY141061AY221061GA1081+004501071GF108991081061004501999999IA1019KA1120M+01141KA2240N+00721MA1999999096271MD1410001-0801MW1051REMSYN118AAXX  06181 76393 31410 83101 10110 20073 39627 40223 54006 70542 886// 91750 333 10114 20072 30/// 563// 59080 88715;
0242763930999992010010621004+25733-100300FM-12+051599999V0200601N002019999999N0020001N1+01501+00781101881ADDAY111031AY211031GA1011+030001031GF106991999001999999031011IA1019MA1999999095901MD1710371-0651MW1051REMSYN112AAXX  06211 76393 31920 60602 10150 20078 39590 40188 57037 70511 80031 92040 333 30/// 56057 59065 81360 85070;EQDQ01+000002SCOTLC
0297763930999992010010700004+25733-100300FM-12+051599999V0201301N001019999999N0030001N1+01461+00931101691ADDAA124999999AY121061AY221061GF107991001001999999001011IA1019KA1120M+01641KA2180N+00741MA1999999095831MD1610071-0841MW1051REMSYN130AAXX  07001 76393 31930 71301 10146 20093 39583 40169 56007 70522 87001 92340 333 10164 20074 30/// 50011 56007 59084 79999 87070;EQDQ01+000072SCOTLCQ02  99992PRCP24
0217763930999992010010703004+25733-100300FM-12+051599999V0201801N001010720019N0010001N1+01201+00871101631ADDAY141031AY211031GA1061+072001001GF106991001001999999001041IA1019MA1999999095791MD1410001-0871MW1051REMSYN106AAXX  07031 76393 31910 61801 10120 20087 39579 40163 54004 70541 80004 90255 333 30/// 56005 59087 86074;
0253763930999992010010706004+25733-100300FM-12+051599999V0202401N001019999999N0010001N1+00961+00811101601ADDAY141061AY221061GF106991001001999999001041GJ102589IA1019KA1240M+01641KA2240N+00741MA1999999095761MD1410001-0841MW1051REMSYN124AAXX  07061 76393 31910 62401 10096 20081 39576 40160 54003 70542 80004 90555 333 10164 20074 30/// 55043 56005 59084 88074;
0195763930999992010010709004+25733-100300FM-12+051599999V0202301N001012200019N0010001N1+00841+00701101601ADDAY141031AY241031GF101991001001999999001011IA1099MA1999999095741MD1710021-0611MW1051REMSYN100AAXX  07091 76393 31910 12301 10084 20070 39574 40160 57002 70544 80001 90850 333 31/// 56003 59061;
0305763930999992010010712004+25733-100300FM-12+051599999V0202101N001012200019N0020001N1+00851+00641101621ADDAA124000091AY141061AY241061GA1001+999999999GF100991001001999999001001IA1019KA1240M+99999KA2120N+99999MA1999999095711MD1710031-0551MW1051REMSYN106AAXX  07121 76393 31920 02101 10085 20064 39571 40162 57003 70544 91150 333 10064 20070 30058 59055 70000;EQDQ01  00002PRCP24Q02 +00643ATMM  Q03 +00703ATMM  
0195763930999992010010715004+25733-100300FM-12+051599999V0200401N001012200019N0030001N1+01201+00801102121ADDAY141031AY201031GF103991031001999999011001IA1019MA1999999096181MD1210471-0151MW1051REMSYN100AAXX  07151 76393 31930 30401 10120 20080 39618 40212 52047 70540 83010 91450 333 30/// 56030 59015;
0255763930999992010010718004+25733-100300FM-12+051599999V0200201N001010069019N0030001N1+01321+00771102451ADDAY141061AY201061GA1061+006901061GF106991061051008001001001IA1019KA1120M+01421KA2240N+00701MA1999999096511MD1210331+0241MW1051REMSYN118AAXX  07181 76393 31530 60201 10132 20077 39651 40245 52033 70540 86500 91750 333 10142 20070 30/// 56800 58024 86623;
0207763930999992010010721004+25733-100300FM-12+051599999V0203601N003010042019N0030001N1+00861+00411102431ADDAY121031AY221031GF108991081041004501999999IA1019MA1999999096491MD1210021+0591MW1051REMSYN112AAXX  07211 76393 31430 83603 10086 20041 39649 40243 52002 70522 884// 92040 333 30/// 54315 568// 58059 88618;
0172763930999992010010800004+25733-100300FM-12+051599999V0203601N004019999999N0030001N1+00561+00261102641ADDAA106001091AY121061AY221061GF108991999999004501999999MA1999999096681MD1210191+9999MW1501REMSYN072AAXX  08001 76393 01430 83604 10056 20026 39668 40264 52019 69991 75022;
0234763930999992010010803004+25733-100300FM-12+051599999V0200501N001010051019N0010001N1+00521+00011102861ADDAA103000021AY151031AY221031GA1081+005101061GF108991081061004501999999IA1019MA1999999096871MD1310191+1081MW1501REMSYN112AAXX  08031 76393 21410 80501 10052 20001 39687 40286 53019 75052 886// 90255 333 30/// 56399 58108 69907 88617;
0172763930999992010010806004+25733-100300FM-12+051599999V0200501N003019999999N0010001N1+00341-00191103121ADDAA106000021AY151061AY221061GF108991999999001501999999MA1999999097071MD1310201+9999MW1501REMSYN072AAXX  08061 76393 01210 80503 10034 21019 39707 40312 53020 69901 75052;
0243763930999992010010818004+25733-100300FM-12+051599999V0200201N001010060019N0050001N1+00221-00711103681ADDAY141061AY221061GA1081+006001061GF108991081061008001999999KA1120M+00301KA2240N+00081MA1999999097481MD1410001+0971MW1051REMSYN112AAXX  08181 76393 31550 80201 10022 21071 39748 40368 54006 70542 886// 91750 333 10030 20008 568// 58097 88620;
0217763930999992010010821004+25733-100300FM-12+051599999V0203101N001010024019N0040001N1+00341-00531103391ADDAY121031AY221031GA1081+002401061GF108991081041002501999999IA1019MA1999999097221MD1710261+0731MW1051REMSYN106AAXX  08211 76393 31340 83101 10034 21053 39722 40339 57026 70522 884// 92040 333 30/// 568// 58073 88608;
0270763930999992010010900004+25733-100300FM-12+051599999V0203601N003010006019N0040001N1+00301-00381103351ADDAA124000091AY121061AY221061GF108991081041000751999999GJ100669IA1019KA1120M+00601KA2180N+00051MA1999999097201MD1510021+0521MW1051REMSYN130AAXX  09001 76393 31140 83603 10030 21038 39720 40335 55002 70522 884// 92340 333 10060 20005 30/// 55011 568// 58052 70000 88604;
0217763930999992010010903004+25733-100300FM-12+051599999V0200501N001010009019N0060001N1+00221+00131103471ADDAY141031AY221031GA1081+000901061GF108991081061000751999999IA1019MA1999999097311MD1310111+0441MW1051REMSYN106AAXX  09031 76393 31156 80501 10022 20013 39731 40347 53011 70542 886// 90255 333 30/// 56399 58044 88603;
0253763930999992010010906004+25733-100300FM-12+051599999V0203401N001010006019N0060001N1+00201+00151103581ADDAY141061AY221061GF108991081061000751999999GJ100009IA1019KA1240M+00601KA2240N+00051MA1999999097421MD1310111+0351MW1051REMSYN124AAXX  09061 76393 31156 83401 10020 20015 39742 40358 53011 70542 886// 90555 333 10060 20005 30/// 55000 56399 58035 88602;
0217763930999992010010909004+25733-100300FM-12+051599999V0202401N001010015019N0020001N1+00261-00381103441ADDAY141031AY221031GA1081+001501061GF108991081051001501999999IA1019MA1999999097291MD1710131+9999MW1051REMSYN106AAXX  09091 76393 31220 82401 10026 21038 39729 40344 57013 70542 885// 90850 333 30/// 56399 58/// 88605;
0284763930999992010010912004+25733-100300FM-12+051599999V0200301N001010015019N0020001N1+00121-00551103491ADDAA124000091AY141061AY221061GA1081+001501061GF108991081051000751999999IA1019IA2999+00109KA1240M+00601KA2120N+00121MA1999999097321MD1210031+0161MW1051REMSYN124AAXX  09121 76393 31120 80301 10012 21055 39732 40349 52003 70542 885// 91150 333 10060 20012 30010 56399 58016 70000 88605;
0199763930999992010010915004+25733-100300FM-12+051599999V0200601N001012200019N0050001N1+00121-01051103621ADDAY141031AY201031GA1001+999999999GF100991001001999999001001IA1019MA1999999097431MD1210111-0051MW1051REMSYN088AAXX  09151 76393 31950 00601 10012 21105 39743 40362 52011 70540 91450 333 30/// 59005;
0215763930999992010010918004+25733-100300FM-12+051599999V0200901N003012200019N0040001N1+00721-00451103421ADDGA1001+999999999GF100991001001999999001001IA1019KA1120M+00821KA2240N+00001MA1999999097271MD1710161-0211REMSYN100AAXX  09181 76393 32940 00903 10072 21045 39727 40342 57016 91755 333 10082 20000 30/// 54306 59021;
0199763930999992010010921004+25733-100300FM-12+051599999V0201101N002012200019N0030001N1+01081-00301102981ADDAY141031AY201031GA1001+999999999GF100991001001999999001001IA1019MA1999999096891MD1710381-0331MW1051REMSYN088AAXX  09211 76393 31930 01102 10108 21030 39689 40298 57038 70540 91755 333 30/// 59033;
0279763930999992010011000004+25733-100300FM-12+051599999V0201101N003012200019N0030001N1+00901-00451102971ADDAA124000091AY141061AY201061GA1001+999999999GF100991001001999999001001IA1019KA1120M+01161KA2180N+00001MA1999999096931MD1410001-0271MW1051REMSYN112AAXX  10001 76393 31930 01103 10090 21045 39693 40297 54004 70540 92055 333 10116 20000 30/// 50351 59027 70000;EQDQ01  00002PRCP24
0199763930999992010011003004+25733-100300FM-12+051599999V0201101N002012200019N0020001N1+00541-00591103271ADDAY141031AY241031GA1001+999999999GF100991001001999999001001IA1019MA1999999097241MD1210311-0071MW1051REMSYN088AAXX  10031 76393 31920 01102 10054 21059 39724 40327 52031 70544 90250 333 30/// 59007;
0251763930999992010011006004+25733-100300FM-12+051599999V0203001N001012200019N0020001N1+00341-00531103321ADDAY141061AY241061GA1001+999999999GF100991001001999999001001GJ105289IA1019KA1240M+01161KA2240N+00001MA1999999097271MD1210031-0151MW1051REMSYN106AAXX  10061 76393 31920 03001 10034 21053 39727 40332 52003 70544 90550 333 10116 20000 30/// 55088 59015;
0199763930999992010011009004+25733-100300FM-12+051599999V0201001N001012200019N0030001N1+00241+99999103301ADDAY141031AY201031GA1001+999999999GF100991001001999999001001IA1019MA1999999097221MD1710061-0071MW1051REMSYN088AAXX  10091 76393 31930 01001 10024 20035 39722 40330 57006 70540 90850 333 30/// 59007;
0285763930999992010011012004+25733-100300FM-12+051599999V0200901N001012200019N0030001N1+00061-00081103471ADDAA124000091AY141061AY201061GA1001+999999999GF100991001001999999001001IA1099IA2999-00149KA1240M+01081KA2120N-00081MA1999999097331MD1210111+0011MW1051REMSYN106AAXX  10121 76393 31930 00901 10006 21008 39733 40347 52011 70540 91150 333 10108 21008 31014 58001 70000;EQDQ01  00002PRCP24
0217763930999992010011015004+25733-100300FM-12+051599999V0209999C000012200019N0060001N1+00181-00431103701ADDAY101031AY201031GA1011+060001001GF101991001001999999001011IA1019MA1999999097521MD1210191+0091MW1051REMSYN106AAXX  10151 76393 31956 10000 10018 21043 39752 40370 52019 70500 80001 91440 333 30/// 56005 58009 81070;
0209763930999992010011018004+25733-100300FM-12+051599999V0201101N001012200019N0060001N1+00701-00491103651ADDGA1001+999999999GF100991001001999999001001IA1019KA1120M+00801KA2240N-00081MA1999999097481MD1010041+0211REMSYN094AAXX  10181 76393 32956 01101 10070 21049 39748 40365 50004 91740 333 10080 21008 30/// 58021;
0199763930999992010011021004+25733-100300FM-12+051599999V0201201N004012200019N0040001N1+01141-00271103291ADDAY141031AY241031GA1001+999999999GF100991001001999999001001IA1019MA1999999097181MD1710301-0291MW1041REMSYN088AAXX  10211 76393 31940 01204 10114 21027 39718 40329 57030 70444 92050 333 30/// 59029;
0279763930999992010011100004+25733-100300FM-12+051599999V0201401N003012200019N0040001N1+00911-00051103201ADDAA124000091AY141061AY241061GA1001+999999999GF100991001001999999001001IA1019KA1120M+01221KA2180N-00081MA1999999097151MD1710031+0221MW1041REMSYN112AAXX  11001 76393 31940 01403 10091 21005 39715 40320 57003 70444 92350 333 10122 21008 30/// 50251 58022 70000;EQDQ01  00002PRCP24
0195763930999992010011103004+25733-100300FM-12+051599999V0201101N001012200019N0040001N1+00821-00431103181ADDAY141031AY201031GF101991001001999999001041IA1019MA1999999097171MD1410001-0071MW1051REMSYN100AAXX  11031 76393 31940 11101 10082 21043 39717 40318 54002 70540 80004 90255 333 30/// 56005 59007;
0247763930999992010011106004+25733-100300FM-12+051599999V0202501N001012200019N0040001N1+00621-00291103181ADDAY141061AY201061GF101991001001999999001041GJ105289IA1019KA1240M+01221KA2240N-00881MA1999999097181MD1410001+9999MW1051REMSYN118AAXX  11061 76393 31940 12501 10062 21029 39718 40318 54001 70540 80004 90555 333 10122 21088 30/// 55088 56005 59009;
0217763930999992010011109004+25733-100300FM-12+051599999V0201401N001012200019N0030001N1+00381-00051102991ADDAY141031AY201031GA1021+003901061GF102991021051004501999999IA1019MA1999999096971MD1810211-0251MW1051REMSYN106AAXX  11091 76393 31430 21401 10038 21005 39697 40299 58021 70540 825// 90850 333 30/// 56399 59025 82613;
0284763930999992010011112004+25733-100300FM-12+051599999V0201901N001012200019N0030001N1+00401+00081103091ADDAA124000091AY141061AY201061GA1041+003901061GF104991041041004501999999IA1019IA2999+00089KA1240M+01151KA2120N+00221MA1999999097021MD1310051-0311MW1051REMSYN124AAXX  11121 76393 31430 41901 10040 20008 39702 40309 53005 70540 844// 91150 333 10115 20022 30008 56399 59031 70000 84613;
0217763930999992010011115004+25733-100300FM-12+051599999V0202501N001010075019N0030001N1+00621-00021103191ADDAY121031AY221031GA1081+007501061GF108991081041008001999999IA1019MA1999999097101MD1210081-0421MW1051REMSYN106AAXX  11151 76393 31530 82501 10062 21002 39710 40319 52008 70522 884// 91440 333 30/// 563// 59042 88625;
0255763930999992010011118004+25733-100300FM-12+051599999V0200901N002010087019N0040001N1+01061+00371103081ADDAY111061AY211061GA1051+008701061GF105991051041008001001001IA1019KA1120M+01161KA2240N+00181MA1999999097451MD1010351-0031MW1051REMSYN118AAXX  11181 76393 31540 50902 10106 20037 39745 40308 50035 70511 85400 91740 333 10116 20018 30/// 56300 59003 85629;
0269763930999992010011200004+25733-100300FM-12+051599999V0201301N002012200019N0040001N1+01221+00571999999ADDAA124000091GF103991031051008001001001IA1019KA1120M+01561KA2180N+00181MA1999999096681MD1410001-0471REMSYN124AAXX  12001 76393 32540 31302 10122 20057 39668 40063 54001 83500 92350 333 10156 20018 30/// 50111 56300 59047 70000 83627;EQDQ01+100633APOSLPQ02 100633APOSLP
0217763930999992010011203004+25733-100300FM-12+051599999V0203201N001010042019N0020001N1+01101+00691102811ADDAY141031AY221031GA1071+004201061GF107991071061004501999999IA1019MA1999999096881MD1210201-0291MW1051REMSYN106AAXX  12031 76393 31420 73201 10110 20069 39688 40281 52020 70542 876// 90255 333 30/// 56399 59029 87614;
0253763930999992010011206004+25733-100300FM-12+051599999V0200701N001010042019N0030001N1+01021+00591102851ADDAY141061AY201061GF108991081051004501999999GJ103729IA1019KA1240M+01561KA2240N+00181MA1999999096921MD1410001-0261MW1051REMSYN124AAXX  12061 76393 31430 80701 10102 20059 39692 40285 54004 70540 885// 90555 333 10156 20018 30/// 55062 56399 59026 88614;
0253763930999992010011209004+25733-100300FM-12+051599999V0209999C000010006019N0020001N1+00941+00901102831ADDAA103000091AY151031AY221031GA1081+000601071GF108991081061000251999999IA1099MA1999999096891MD1810031-0081MW1051REMSYN112AAXX  12091 76393 21020 80000 10094 20090 39689 40283 58003 70552 886// 90850 333 31/// 56399 59008 69907 88702;EQDQ01  00002PRCP03
0172763930999992010011212004+25733-100300FM-12+051599999V0202501N001019999999N0020001N1+00921+00871102871ADDAA106002091AY151061AY221061GF108991999999000751999999MA1999999096911MD1310021+9999MW1051REMSYN072AAXX  12121 76393 01120 82501 10092 20087 39691 40287 53002 60021 70552;
0234763930999992010011215004+25733-100300FM-12+051599999V0209999C000010009019N0010001N1+00921+00851103051ADDAA103000491AY121031AY221031GA1081+000901071GF108991081071000751999999IA1099MA1999999097071MD1210161-0031MW1501REMSYN112AAXX  12151 76393 21110 80000 10092 20085 39707 40305 52016 75022 887// 91440 333 31/// 563// 59003 69947 88703;
0172763930999992010011218004+25733-100300FM-12+051599999V0200901N001019999999N0008001N1+01001+00891103111ADDAA106000591AY121061AY221061GF108991999999000751999999MA1999999097121MD1010051+9999MW1531REMSYN072AAXX  12181 76393 01108 80901 10100 20089 39712 40311 50005 69961 75322;
0272763930999992010011412004+25733-100300FM-12+051599999V0209999C000010012019N0010001N1+01221+01081101501ADDAA124000791AY141061AY241061GA1081+001201061GF108991081051001501999999IA1019KA1240M+01401KA2120N+01171MA1999999095651MD1710221-1031MW1051REMSYN124AAXX  14121 76393 31210 80000 10122 20108 39565 40150 57022 70544 885// 91150 333 10140 20117 30117 563// 59103 70007 88604;
0217763930999992010011415004+25733-100300FM-12+051599999V0202501N001010039019N0030001N1+01261+00941101531ADDAY121031AY221031GA1081+003901061GF108991081041004501999999IA1019MA1999999095681MD1510031-1071MW1051REMSYN106AAXX  14151 76393 31430 82501 10126 20094 39568 40153 55003 70522 884// 91440 333 30/// 563// 59107 88613;
0255763930999992010011418004+25733-100300FM-12+051599999V0209999C000010045019N0020001N1+01421+01081101461ADDAY121061AY221061GA1081+004501071GF108991081061004501999999IA1019KA1120M+01501KA2240N+01171MA1999999095621MD1710061-1051MW1051REMSYN118AAXX  14181 76393 31420 80000 10142 20108 39562 40146 57006 70522 886// 91740 333 10150 20117 30/// 563// 59105 88715;
0189763930999992010011421004+25733-100300FM-12+051599999V0209999C000010042019N0010001N1+01441+01101101191ADDGA1081+004201071GF108991081061004501999999IA1019MA1999999095381MD1710241-0891REMSYN100AAXX  14211 76393 32410 80000 10144 20110 39538 40119 57024 886// 92050 333 30/// 563// 59089 88714;
0234763930999992010011500004+25733-100300FM-12+051599999V0200201N001010021019N0010001N1+01401+01161101151ADDAA124000091GF108991081061002501999999IA1019KA1120M+01521KA2180N+01171MA1999999095361MD1410001-0841REMSYN124AAXX  15001 76393 32310 80201 10140 20116 39536 40115 54002 886// 92350 333 10152 20117 30/// 50051 563// 59084 70000 88710;
0217763930999992010011503004+25733-100300FM-12+051599999V0209999C000010018019N0010001N1+01381+01211101071ADDAY151031AY221031GA1081+001801061GF108991081051001501999999IA1019MA1999999095291MD1410001-0861MW1501REMSYN106AAXX  15031 76393 31210 80000 10138 20121 39529 40107 54007 75052 885// 90255 333 30/// 56399 59086 88606;
0253763930999992010011506004+25733-100300FM-12+051599999V0202901N001010021019N0010001N1+01361+01121101221ADDAY141061AY221061GF108991081051002501999999GJ100009IA1019KA1240M+01521KA2240N+01171MA1999999095431MD1210141-0701MW1051REMSYN124AAXX  15061 76393 31310 82901 10136 20112 39543 40122 52014 70542 885// 90555 333 10152 20117 30/// 55000 56399 59070 88608;
0253763930999992010011509004+25733-100300FM-12+051599999V0203201N001010003019N0020001N1+01281+01261101081ADDAA103000091AY151031AY221031GA1081+000301071GF108991081061000251999999IA1099MA1999999095291MD1810141-0581MW1051REMSYN112AAXX  15091 76393 21020 83201 10128 20126 39529 40108 58014 70552 886// 90850 333 31/// 563// 59058 69907 88701;EQDQ01  00002PRCP03
0191763930999992010011512004+25733-100300FM-12+051599999V0200301N001019999999N0020001N1+01201+01061101051ADDAA103000091AY141061AY221061GF107991999999001501999999MA1999999095261MD1510031+9999MW1051REMSYN072AAXX  15121 76393 01220 70301 10120 20106 39526 40105 55003 69907 70542;EQDQ01  00002PRCP03
0234763930999992010011515004+25733-100300FM-12+051599999V0200201N001010030019N0030001N1+01261+01051101281ADDAA103000391AY121031AY221031GA1081+003001061GF108991081041002501999999IA1099MA1999999095471MD1210211-0211MW1501REMSYN112AAXX  15151 76393 21330 80201 10126 20105 39547 40128 52021 75022 884// 91440 333 31/// 563// 59021 69937 88610;
0172763930999992010011518004+25733-100300FM-12+051599999V0203201N005019999999N0080001N1+01821+00711101161ADDAA106000391AY111061AY211061GF106991999999999999999999MA1999999095371MD1710101+9999MW1051REMSYN072AAXX  15181 76393 01958 63205 10182 20071 39537 40116 57010 69931 70511;
0189763930999992010011521004+25733-100300FM-12+051599999V0203101N006010147019N0080001N1+01881+00691101021ADDGA1071+014701061GF107991071061012501001001IA1019MA1999999095261MD1710111-0121REMSYN100AAXX  15211 76393 32658 73106 10188 20069 39526 40102 57011 87600 92050 333 30/// 563// 59012 87649;
0234763930999992010011600004+25733-100300FM-12+051599999V0203101N006010075019N0060001N1+01561+00851101281ADDAA124000391GF106991061051008001001001IA1019KA1120M+02121KA2180N+01201MA1999999095531MD1210271+0171REMSYN124AAXX  16001 76393 32556 63106 10156 20085 39553 40128 52027 86500 92350 333 10212 20120 30/// 50441 567// 58017 70003 86629;
0234763930999992010011603004+25733-100300FM-12+051599999V0203501N003010024019N0020001N1+01161+00911101581ADDAA103000021AY151031AY221031GA1081+002401061GF108991081051002501999999IA1019MA1999999095811MD1210281+0521MW1501REMSYN112AAXX  16031 76393 21320 83503 10116 20091 39581 40158 52028 75052 885// 90255 333 30/// 56399 58052 69907 88608;
0172763930999992010011606004+25733-100300FM-12+051599999V0203601N002019999999N0060001N1+01161+00791101721ADDAA106000021AY141061AY221061GF108991999999004501999999MA1999999095921MD1310111+9999MW1051REMSYN072AAXX  16061 76393 11456 83602 10116 20079 39592 40172 53011 69901 70542;
0272763930999992010011612004+25733-100300FM-12+051599999V0203201N003012200019N0030001N1+01281+00731101801ADDAA124000391AY141061AY221061GA1021+006901061GF102991021051008001999999IA1019KA1240M+02121KA2120N+01041MA1999999095951MD1210041+0691MW1051REMSYN124AAXX  16121 76393 31530 23203 10128 20073 39595 40180 52004 70542 825// 91150 333 10212 20104 30098 56399 58069 70003 82623;
0199763930999992010011615004+25733-100300FM-12+051599999V0200501N001012200019N0100001N1+01401+00861101941ADDAY101031AY201031GA1001+999999999GF100991001001999999001001IA1019MA1999999096081MD1210131+0611MW1051REMSYN088AAXX  16151 76393 31960 00501 10140 20086 39608 40194 52013 70500 91440 333 30/// 58061;
0255763930999992010011618004+25733-100300FM-12+051599999V0203101N003012200019N0060001N1+01941+00821101831ADDAY101061AY201061GA1011+013201061GF101991011041012501001001IA1019KA1120M+02001KA2240N+01041MA1999999096011MD1010071+0641MW1051REMSYN118AAXX  16181 76393 31656 13103 10194 20082 39601 40183 50007 70500 81400 91740 333 10200 20104 30/// 56500 58064 81644;
0217763930999992010011621004+25733-100300FM-12+051599999V0202701N002012200019N0050001N1+02261+00621101391ADDAY141031AY241031GA1011+015001081GF101991011011017501001001IA1019MA1999999095641MD1710371+0381MW1041REMSYN106AAXX  16211 76393 31750 12702 10226 20062 39564 40139 57037 70444 81100 92050 333 30/// 56500 58038 81850;
0245763930999992010011700004+25733-100300FM-12+051599999V0201401N001012200019N0050001N1+02081+00591101411ADDAY141061AY241061GF101991001001999999001051IA1019KA1120M+02351KA2180N+01041MA1999999095691MD1210051+0161MW1041REMSYN124AAXX  17001 76393 31950 11401 10208 20059 39569 40141 52005 70444 80005 92350 333 10235 20104 30/// 50421 56006 58016 79999;
0195763930999992010011703004+25733-100300FM-12+051599999V0200601N001012200019N0020001N1+01661+00721101511ADDAY141031AY211031GF104991001001999999001041IA1019MA1999999095811MD1210121+0001MW1051REMSYN100AAXX  17031 76393 31920 40601 10166 20072 39581 40151 52012 70541 80004 90255 333 30/// 56005 59000;
0247763930999992010011706004+25733-100300FM-12+051599999V0202701N001012200019N0020001N1+01361+00861101651ADDAY141061AY211061GF104991001001999999001041GJ105349IA1019KA1240M+02351KA2240N+01041MA1999999095921MD1310111+9999MW1051REMSYN118AAXX  17061 76393 31920 42701 10136 20086 39592 40165 53011 70541 80004 90555 333 10235 20104 30/// 55089 56005 59000;
0199763930999992010011709004+25733-100300FM-12+051599999V0202201N001012200019N0030001N1+01221+00861101671ADDAY141031AY201031GA1001+999999999GF100991001001999999001001IA1019MA1999999095901MD1710021-0011MW1051REMSYN088AAXX  17091 76393 31930 02201 10122 20086 39590 40167 57002 70540 90850 333 30/// 59001;
0273763930999992010011712004+25733-100300FM-12+051599999V0202301N001012200019N0030001N1+01041+00861101701ADDAA124000091AY141061AY201061GA1001+999999999GF100991001001999999001001IA1019KA1240M+02351KA2120N+01001MA1999999095871MD1610031-0081MW1051REMSYN106AAXX  17121 76393 31930 02301 10104 20086 39587 40170 56003 70540 91150 333 10235 20100 30080 59008 70000;EQDQ01  00002PRCP24
0217763930999992010011715004+25733-100300FM-12+051599999V0202101N001010600019N0020001N1+01271+00791101901ADDAY141031AY241031GA1071+060001021GF107991001001999999001081IA1019MA1999999096021MD1210151-0061MW1041REMSYN106AAXX  17151 76393 31920 72101 10127 20079 39602 40190 52015 70444 80008 91450 333 30/// 56005 59006 87270;
0233763930999992010011718004+25733-100300FM-12+051599999V0201001N001012200019N0020001N1+01981+00961101801ADDAY141061AY241061GF102991001001999999001011IA1019KA1120M+02081KA2240N+01001MA1999999095961MD1710061-0051MW1041REMSYN112AAXX  17181 76393 31920 21001 10198 20096 39596 40180 57006 70444 80001 91750 333 10208 20100 30/// 56005 59005;
0167763930999992010011721004+25733-100300FM-12+051599999V0200601N002012200019N0040001N1+02301+00821101361ADDGF102991001001999999001011IA1019MA1999999095571MD1710391-0071REMSYN094AAXX  17211 76393 32940 20602 10230 20082 39557 40136 57039 80001 92050 333 30/// 56005 59007;
0217763930999992010011800004+25733-100300FM-12+051599999V0201301N002012200019N0060001N1+02201+00951101281ADDGF102991001001999999001041IA1019KA1120M+02481KA2180N+01001MA1999999095571MD1410001-0121REMSYN118AAXX  18001 76393 32956 21302 10220 20095 39557 40128 54000 80004 92350 333 10248 20100 30/// 50391 56005 59012 70000;
0167763930999992010011803004+25733-100300FM-12+051599999V0202501N001012200019N0120001N1+01721+01001101371ADDGF102991001001999999001041IA1019MA1999999095691MD1310121-0121REMSYN094AAXX  18031 76393 32962 22501 10172 20100 39569 40137 53012 80004 90255 333 30/// 56005 59012;
0219763930999992010011806004+25733-100300FM-12+051599999V0203301N001012200019N0100001N1+01441+00901101401ADDGF102991001001999999001041GJ104929IA1019KA1240M+02481KA2240N+01001MA1999999095711MD1410001+9999REMSYN112AAXX  18061 76393 32960 23301 10144 20090 39571 40140 54002 80004 90555 333 10248 20100 30/// 55082 56005 59021;
0199763930999992010011809004+25733-100300FM-12+051599999V0202701N001012200019N0030001N1+01301+01061101471ADDAY141031AY201031GA1001+999999999GF100991001001999999001001IA1019MA1999999095741MD1710031-0161MW1051REMSYN088AAXX  18091 76393 31930 02701 10130 20106 39574 40147 57003 70540 90850 333 30/// 59016;
0273763930999992010011812004+25733-100300FM-12+051599999V0203101N001012200019N0030001N1+01181+00931101461ADDAA124000091AY141061AY201061GA1001+999999999GF100991001001999999001001IA1019KA1240M+02481KA2120N+01161MA1999999095671MD1310071-0201MW1051REMSYN106AAXX  18121 76393 31930 03101 10118 20093 39567 40146 53007 70540 91150 333 10248 20116 30092 59020 70000;EQDQ01  00002PRCP24
0199763930999992010011815004+25733-100300FM-12+051599999V0203101N001012200019N0040001N1+01561+00851101621ADDAY141031AY201031GA1001+999999999GF100991001001999999001001IA1019MA1999999095801MD1210131-0221MW1041REMSYN088AAXX  18151 76393 31940 03101 10156 20085 39580 40162 52013 70440 91450 333 30/// 59022;
0233763930999992010011818004+25733-100300FM-12+051599999V0202201N001012200019N0040001N1+02301+00821101551ADDAY141061AY201061GF102991001001999999001011IA1019KA1120M+02501KA2240N+01141MA1999999095761MD1410001-0201MW1041REMSYN112AAXX  18181 76393 32940 22201 10230 20082 39576 40155 54004 70440 80001 91750 333 10250 20114 30/// 56007 59020;
0199763930999992010011821004+25733-100300FM-12+051599999V0201401N002012200019N0030001N1+02801+00961101171ADDAY101031AY201031GA1001+999999999GF100991001001999999001001IA1019MA1999999095461MD1710301-0111MW1051REMSYN088AAXX  18211 76393 31930 01402 10280 20096 39546 40117 57030 70500 92040 333 30/// 59011;
0263763930999992010011900004+25733-100300FM-12+051599999V0201001N001012200019N0080001N1+02481+01121101101ADDAY101061AY201061GA1001+999999999GF100991001001999999001001GJ102469IA1019KA1120M+02921KA2180N+01141MA1999999095461MD1410001-0111MW1051REMSYN118AAXX  19001 76393 31958 01001 10248 20112 39546 40110 54000 70500 92340 333 10292 20114 30/// 50331 55041 59011 70000;
0199763930999992010011903004+25733-100300FM-12+051599999V0203101N002012200019N0040001N1+01981+01121101151ADDAY141031AY201031GA1001+999999999GF100991001001999999001001IA1019MA1999999095541MD1410001-0151MW1051REMSYN088AAXX  19031 76393 31940 03102 10198 20112 39554 40115 54008 70540 90255 333 30/// 59015;
0251763930999992010011906004+25733-100300FM-12+051599999V0202001N001012200019N0060001N1+01721+01041101341ADDAY141061AY201061GA1001+999999999GF100991001001999999001001GJ105349IA1019KA1240M+02921KA2240N+01141MA1999999095701MD1210161-0011MW1051REMSYN106AAXX  19061 76393 31956 02001 10172 20104 39570 40134 52016 70540 90555 333 10292 20114 30/// 55089 59001;
0199763930999992010011909004+25733-100300FM-12+051599999V0202301N001012200019N0030001N1+01481+00951101301ADDAY141031AY201031GA1001+999999999GF100991001001999999001001IA1019MA1999999095641MD1710061-0101MW1051REMSYN088AAXX  19091 76393 31930 02301 10148 20095 39564 40130 57006 70540 90850 333 30/// 59010;
0273763930999992010011912004+25733-100300FM-12+051599999V0202201N001012200019N0030001N1+01401+00981101261ADDAA124000091AY141061AY201061GA1001+999999999GF100991001001999999001001IA1019KA1240M+02921KA2120N+01381MA1999999095541MD1710101-0131MW1051REMSYN106AAXX  19121 76393 31930 02201 10140 20098 39554 40126 57010 70540 91150 333 10292 20138 30112 59013 70000;EQDQ01  00002PRCP24
0199763930999992010011915004+25733-100300FM-12+051599999V0201901N001012200019N0030001N1+01781+00911101371ADDAY141031AY201031GA1001+999999999GF100991001001999999001001IA1019MA1999999095601MD1410001-0201MW1041REMSYN088AAXX  19151 76393 31930 01901 10178 20091 39560 40137 54006 70440 91450 333 30/// 59020;
0205763930999992010011918004+25733-100300FM-12+051599999V0200401N001012200019N0030001N1+02521+01131101191ADDGF102991001001999999001011IA1019KA1120M+02601KA2240N+01121MA1999999095461MD1710141-0301REMSYN106AAXX  19181 76393 32930 20401 10252 20113 39546 40119 57014 80001 91750 333 10260 20112 30/// 56007 59030;
0171763930999992010011921004+25733-100300FM-12+051599999V0200601N003012200019N0020001N1+02821+01081100681ADDGA1001+999999999GF100991001001999999001001IA1019MA1999999095031MD1710431-0431REMSYN082AAXX  19211 76393 32920 00603 10282 20108 39503 40068 57043 92040 333 30/// 59043;
0279763930999992010012000004+25733-100300FM-12+051599999V0201101N001012200019N0080001N1+02601+01351100511ADDAA124000091AY101061AY201061GA1001+999999999GF100991001001999999001001IA1019KA1120M+02961KA2180N+01381MA1999999094911MD1710121-0551MW1051REMSYN112AAXX  20001 76393 31958 01101 10260 20135 39491 40051 57012 70500 92340 333 10296 20138 30/// 50441 59055 70000;EQDQ01  00002PRCP24
0199763930999992010012003004+25733-100300FM-12+051599999V0202101N001012200019N0030001N1+02111+01301100571ADDAY141031AY241031GA1001+999999999GF100991001001999999001001IA1019MA1999999095031MD1210091-0511MW1041REMSYN088AAXX  20031 76393 31930 02101 10211 20130 39503 40057 52009 70444 90255 333 30/// 59051;
0251763930999992010012006004+25733-100300FM-12+051599999V0209999C000012200019N0030001N1+01821+01321100611ADDAY141061AY241061GA1001+999999999GF100991001001999999001001GJ105349IA1019KA1240M+02961KA2240N+01381MA1999999095041MD1210011-0661MW1041REMSYN106AAXX  20061 76393 31930 00000 10182 20132 39504 40061 52001 70444 90550 333 10296 20138 30/// 55089 59066;
0171763930999992010012009004+25733-100300FM-12+051599999V0202401N001012200019N0020001N1+01661+01231100531ADDGA1001+999999999GF100991001001999999001001IA1019MA1999999094921MD1610121-0721REMSYN082AAXX  20091 76393 32920 02401 10166 20123 39492 40053 56012 90850 333 30/// 59072;
0245763930999992010012012004+25733-100300FM-12+051599999V0201901N001012200019N0020001N1+01601+00901100461ADDAA124000091GA1001+999999999GF100991001001999999001001IA1019KA1240M+02961KA2120N+01541MA1999999094811MD1710111-0731REMSYN100AAXX  20121 76393 32920 01901 10160 20090 39481 40046 57011 91150 333 10296 20154 30130 59073 70000;EQDQ01  00002PRCP24
0167763930999992010012015004+25733-100300FM-12+051599999V0202201N001012200019N0040001N1+02001+00811100601ADDGF104991001001999999001011IA1019MA1999999094911MD1210101-0691REMSYN094AAXX  20151 76393 32940 42201 10200 20081 39491 40060 52010 80001 91450 333 30/// 56007 59069;
0215763930999992010012018004+25733-100300FM-12+051599999V0201801N001012200019N0050001N1+03021+00921100441ADDGA1001+999999999GF100991001001999999001001IA1019KA1120M+03141KA2240N+01541MA1999999094801MD1710111-0661REMSYN100AAXX  20181 76393 32950 01801 10302 20092 39480 40044 57011 91750 333 10314 20154 30/// 54106 59066;
0189763930999992010012021004+25733-100300FM-12+051599999V0201101N003012200019N0040001N1+03281+00651099901ADDGA1011+060001001GF101991001001999999001011IA1019MA1999999094351MD1710451-0681REMSYN100AAXX  20211 76393 32940 11103 10328 20065 39435 49990 57045 80001 92040 333 30/// 56001 59068 81070;
0234763930999992010012100004+25733-100300FM-12+051599999V0201901N002012200019N0100001N1+03001+00641099831ADDAA124000091GF104991001001999999001011IA1019KA1120M+03401KA2180N+01501MA1999999094371MD1210021-0541REMSYN124AAXX  21001 76393 32960 41902 10300 20064 39437 49983 52002 80001 92340 333 10340 20150 30/// 50541 56001 59054 70000 84070;
0167763930999992010012103004+25733-100300FM-12+051599999V0202201N001012200019N0120001N1+02361+00621099901ADDGF101991001001999999001041IA1019MA1999999094461MD1410001-0571REMSYN094AAXX  21031 76393 32962 12201 10236 20062 39446 49990 54009 80004 90255 333 30/// 56005 59057;
0219763930999992010012106004+25733-100300FM-12+051599999V0202201N001012200019N0120001N1+01881+00601100091ADDGF101991001001999999001041GJ105349IA1019KA1240M+03401KA2240N+01501MA1999999094611MD1310151+9999REMSYN112AAXX  21061 76393 32962 12201 10188 20060 39461 40009 53015 80004 90555 333 10340 20150 30/// 55089 56005 59043;
0199763930999992010012109004+25733-100300FM-12+051599999V0202301N001012200019N0030001N1+01661+00611100291ADDAY141031AY241031GA1001+999999999GF100991001001999999001001IA1019MA1999999094731MD1210121-0191MW1041REMSYN088AAXX  21091 76393 31930 02301 10166 20061 39473 40029 52012 70444 90850 333 30/// 59019;
0273763930999992010012112004+25733-100300FM-12+051599999V0203101N001012200019N0030001N1+01631+00471100501ADDAA124000091AY141061AY241061GA1001+999999999GF100991001001999999001001IA1019KA1240M+03401KA2120N+01401MA1999999094851MD1210121+0041MW1041REMSYN106AAXX  21121 76393 31930 03101 10163 20047 39485 40050 52012 70444 92050 333 10340 20140 30130 58004 70000;EQDQ01  00002PRCP24
0199763930999992010012115004+25733-100300FM-12+051599999V0200701N001012200019N0040001N1+02001+00981100811ADDAY141031AY201031GA1001+999999999GF100991001001999999001001IA1019MA1999999095121MD1710271+0211MW1041REMSYN088AAXX  21151 76393 32940 00701 10200 20098 39512 40081 57027 70440 91450 333 30/// 58021;
0209763930999992010012118004+25733-100300FM-12+051599999V0200601N001012200019N0040001N1+02561+01381100901ADDGA1001+999999999GF100991001001999999001001IA1019KA1120M+02641KA2240N+01401MA1999999095221MD1410001+0421REMSYN094AAXX  21181 76393 32940 00601 10256 20138 39522 40090 54010 91750 333 10264 20140 30/// 58042;
0171763930999992010012121004+25733-100300FM-12+051599999V0201101N002012200019N0030001N1+02761+01331100451ADDGA1001+999999999GF100991001001999999001001IA1019MA1999999094851MD1210371+0501REMSYN082AAXX  21211 76393 32930 01102 10276 20133 39485 40045 52037 92040 333 30/// 58050;
0251763930999992010012200004+25733-100300FM-12+051599999V0200701N002012200019N0030001N1+02541+01311100461ADDAA124000091GA1001+999999999GF100991001001999999001001IA1019KA1120M+02881KA2180N+01401MA1999999094901MD1210051+0531REMSYN106AAXX  22001 76393 32930 00702 10254 20131 39490 40046 52005 92340 333 10288 20140 30/// 50411 58053 70000;EQDQ01  00002PRCP24
0199763930999992010012203004+25733-100300FM-12+051599999V0203201N001012200019N0060001N1+02201+01351100651ADDAY141031AY201031GA1001+999999999GF100991001001999999001001IA1019MA1999999095101MD1210201+0641MW1051REMSYN088AAXX  22031 76393 31956 03201 10220 20135 39510 40065 52020 70540 90255 333 30/// 58064;
0251763930999992010012206004+25733-100300FM-12+051599999V0202101N001012200019N0060001N1+01901+01321100711ADDAY141061AY201061GA1001+999999999GF100991001001999999001001GJ104929IA1019KA1240M+02881KA2240N+01401MA1999999095131MD1410001+0521MW1051REMSYN106AAXX  22061 76393 31956 02101 10190 20132 39513 40071 54003 70540 90555 333 10288 20140 30/// 55082 58052;
0171763930999992010012209004+25733-100300FM-12+051599999V0201901N001012200019N0020001N1+01641+01421100781ADDGA1001+999999999GF100991001001999999001001IA1019MA1999999095161MD1010031+0431REMSYN082AAXX  22091 76393 32920 01901 10164 20142 39516 40078 50003 90850 333 30/// 58043;
0245763930999992010012212004+25733-100300FM-12+051599999V0203001N001012200019N0030001N1+01521+01181100831ADDAA124000091GA1001+999999999GF100991001001999999001001IA1019KA1240M+02881KA2120N+01501MA1999999095171MD1310011+0321REMSYN100AAXX  22121 76393 32930 03001 10152 20118 39517 40083 53001 91150 333 10288 20150 30124 58032 70000;EQDQ01  00002PRCP24
0209763930999992010012218004+25733-100300FM-12+051599999V0201201N001012200019N0040001N1+02581+01361100831ADDGA1001+999999999GF100991001001999999001001IA1019KA1120M+02701KA2240N+01441MA1999999095151MD1410001-0071REMSYN094AAXX  22181 76393 32940 01201 10258 20136 39515 40083 54008 91750 333 10270 20144 30/// 59007;
0171763930999992010012221004+25733-100300FM-12+051599999V0200901N004012200019N0030001N1+03081+01441100301ADDGA1001+999999999GF100991001001999999001001IA1019MA1999999094681MD1710471-0171REMSYN082AAXX  22211 76393 32930 00904 10308 20144 39468 40030 57047 92040 333 30/// 59017;
0279763930999992010012300004+25733-100300FM-12+051599999V0200701N004012200019N0060001N1+02861+01101100121ADDAA124000091AY101061AY201061GA1001+999999999GF100991001001999999001001IA1019KA1120M+03201KA2180N+01501MA1999999094591MD1510091-0311MW1041REMSYN112AAXX  23001 76393 31956 00704 10286 20110 39459 40012 55009 70400 92340 333 10320 20150 30/// 50451 59031 70000;EQDQ01  00002PRCP24
0171763930999992010012303004+25733-100300FM-12+051599999V0200901N001012200019N0080001N1+02361+01081100071ADDGA1001+999999999GF100991001001999999001001IA1019MA1999999094591MD1410001-0511REMSYN082AAXX  23031 76393 32958 00901 10236 20108 39459 40007 54000 90255 333 30/// 59051;
0251763930999992010012306004+25733-100300FM-12+051599999V0200201N001012200019N0020001N1+01921+01201100021ADDAY141061AY201061GA1001+999999999GF100991001001999999001001GJ105409IA1019KA1240M+03201KA2240N+01501MA1999999094521MD1410001-0611MW1051REMSYN106AAXX  23061 76393 31920 00201 10192 20120 39452 40002 54007 70540 90555 333 10320 20150 30/// 55090 59061;
0171763930999992010012309004+25733-100300FM-12+051599999V0202101N001012200019N0030001N1+01681+01111099911ADDGA1001+999999999GF100991001001999999001001IA1019MA1999999094351MD1710171-0811REMSYN082AAXX  23091 76393 31930 02101 10168 20111 39435 49991 57017 90850 333 30/// 59081;
0245763930999992010012312004+25733-100300FM-12+051599999V0203501N001012200019N0020001N1+01561+00931099861ADDAA124000091GA1001+999999999GF100991001001999999001001IA1019KA1240M+03201KA2120N+01521MA1999999094251MD1010101-0941REMSYN100AAXX  23121 76393 32920 03501 10156 20093 39425 49986 50010 91150 333 10320 20152 30146 59094 70000;EQDQ01  00002PRCP24
0217763930999992010012315004+25733-100300FM-12+051599999V0201801N001012200019N0030001N1+02271+00401100021ADDAY141031AY241031GA1041+018001031GF106991041001017501031011IA1019MA1999999094381MD1210131-0851MW1051REMSYN106AAXX  23151 76393 31730 61801 10227 20040 39438 40002 52013 70544 84031 91450 333 30/// 56077 59085 84356;
0268763930999992010012318004+25733-100300FM-12+051599999V0201401N003012200019N0030001N1+03301+00121099881ADDAY141061AY241061GF103991001001999999001061IA1019KA1120M+99999KA2240N+99999MA1999999094291MD1710091-0861MW1051REMSYN112AAXX  23181 76393 31930 31403 10330 20012 39429 49988 57009 70544 80006 91755 333 10152 20338 30/// 56007 59086;EQDQ01 +01523ATMM  Q02 +03383ATMM  
0236763930999992010012321004+25733-100300FM-12+051599999V0201101N006010600019N0030001N1+02901+01322099581ADDAY101031AY201031GA1051+060001001GF105991001001999999001011IA1019MA1999999094061MD1710231-0621MW1041REMSYN106AAXX  23211 76393 31930 51106 10290 20132 39406 49958 57023 70400 85001 92040 333 30/// 56007 59062 85070;EQDQ01+000052SCOTLC
0281763930999992010012400004+25733-100300FM-12+051599999V0200701N002019999999N0060001N1+02481+01141099801ADDAA124000091AY111061AY211061GF105991001001999999001011IA1019KA1120M+03441KA2180N+01521MA1999999094321MD1210261-0271MW1041REMSYN130AAXX  24001 76393 31956 50702 10248 20114 39432 49980 52026 70411 85001 92340 333 10344 20152 30/// 50651 56007 59027 70000 85070;EQDQ01+000052SCOTLC
0195763930999992010012403004+25733-100300FM-12+051599999V0200501N002012200019N0060001N1+02021+00931100201ADDAY141031AY201031GF102991001001999999001041IA1019MA1999999094701MD1210381+0111MW1051REMSYN100AAXX  24031 76393 31956 20502 10202 20093 39470 40020 52038 70540 80004 90255 333 30/// 56005 58011;
0247763930999992010012406004+25733-100300FM-12+051599999V0203501N001012200019N0080001N1+01601+00731100571ADDAY141061AY201061GF102991001001999999001041GJ105169IA1019KA1240M+03441KA2240N+01521MA1999999094991MD1210291+9999MW1051REMSYN118AAXX  24061 76393 31958 23501 10160 20073 39499 40057 52029 70540 80004 90555 333 10344 20152 30/// 55086 56005 58047;
0217763930999992010012409004+25733-100300FM-12+051599999V0202601N001010087019N0030001N1+01541+00831100791ADDAY141031AY201031GA1051+008701061GF105991051041008001001001IA1019MA1999999095131MD1110141+0781MW1051REMSYN106AAXX  24091 76393 31530 52601 10154 20083 39513 40079 51014 70540 85400 90850 333 30/// 56399 58078 85629;
0245763930999992010012412004+25733-100300FM-12+051599999V0201701N001012200019N0030001N1+01461+00851100861ADDAA124000091GA1001+999999999GF100991001001999999001001IA1019KA1240M+03441KA2120N+01321MA1999999095151MD1210021+0901REMSYN100AAXX  24121 76393 32930 01701 10146 20085 39515 40086 52002 91150 333 10344 20132 30124 58090 70000;EQDQ01  00002PRCP24
0189763930999992010012415004+25733-100300FM-12+051599999V0202201N001012200019N0040001N1+01681+00831101111ADDGA1021+010501061GF102991021041012501001001IA1019MA1999999095361MD1210211+0981REMSYN100AAXX  24151 76393 32640 22201 10168 20083 39536 40111 52021 82400 91450 333 30/// 56300 58098 82635;
0227763930999992010012418004+25733-100300FM-12+051599999V0200701N001012200019N0040001N1+02041+00861101161ADDGA1021+014401061GF102991021041012501001001IA1019KA1120M+02161KA2240N+01321MA1999999095421MD1410001+1131REMSYN112AAXX  24181 76393 32640 20701 10204 20086 39542 40116 54009 82400 91750 333 10216 20132 30/// 56300 58113 82648;
0217763930999992010012421004+25733-100300FM-12+051599999V0200901N002012200019N0060001N1+02441+00491100801ADDAY141031AY241031GA1011+018001081GF101991011011017501001001IA1019MA1999999095121MD1710301+1061MW1041REMSYN106AAXX  24211 76393 31756 10902 10244 20049 39512 40080 57030 70444 81100 92050 333 30/// 56700 58106 81856;
0279763930999992010012500004+25733-100300FM-12+051599999V0201201N001012200019N0050001N1+02301+00611100831ADDAA124000091AY141061AY241061GA1001+999999999GF100991001001999999001001IA1019KA1120M+02561KA2180N+01321MA1999999095211MD1210091+0891MW1051REMSYN112AAXX  25001 76393 31950 01201 10230 20061 39521 40083 52009 70544 92350 333 10256 20132 30/// 50601 58089 70000;EQDQ01  00002PRCP24
0199763930999992010012503004+25733-100300FM-12+051599999V0200901N001012200019N0090001N1+01821+01071101171ADDAY141031AY201031GA1001+999999999GF100991001001999999001001IA1019MA1999999095531MD1210321+0831MW1051REMSYN088AAXX  25031 76393 31959 00901 10182 20107 39553 40117 52032 70540 90255 333 30/// 58083;
0251763930999992010012506004+25733-100300FM-12+051599999V0203201N001012200019N0060001N1+01581-00132101391ADDAY141061AY201061GA1001+999999999GF100991001001999999001001GJ105469IA1019KA1240M+02561KA2240N+01321MA1999999095721MD1310191+0731MW1051REMSYN106AAXX  25061 76393 31956 03201 10158 21013 39572 40139 53019 70540 90555 333 10256 20132 30/// 55091 58073;
0171763930999992010012509004+25733-100300FM-12+051599999V0202201N001012200019N0030001N1+01321+00321101511ADDGA1001+999999999GF100991001001999999001001IA1019MA1999999095791MD1010071+0661REMSYN082AAXX  25091 76393 31930 02201 10132 20032 39579 40151 50007 90850 333 30/// 58066;
0245763930999992010012512004+25733-100300FM-12+051599999V0203501N001012200019N0030001N1+01141+00101101591ADDAA124000091GA1001+999999999GF100991001001999999001001IA1019KA1240M+02561KA2120N+00821MA1999999095801MD1210011+0651REMSYN100AAXX  25121 76393 31930 03501 10114 20010 39580 40159 52001 91150 333 10256 20082 30078 58065 70000;EQDQ01  00002PRCP24
0199763930999992010012515004+25733-100300FM-12+051599999V0209999C000012200019N0040001N1+01321+00101101831ADDAY101031AY201031GA1001+999999999GF100991001001999999001001IA1019MA1999999095991MD1210191+0631MW1041REMSYN088AAXX  25151 76393 31940 00000 10132 20010 39599 40183 52019 70400 91440 333 30/// 58063;
0237763930999992010012518004+25733-100300FM-12+051599999V0200901N003012200019N0030001N1+02021+00181101771ADDAY101061AY201061GA1001+999999999GF100991001001999999001001IA1019KA1120M+02101KA2240N+00821MA1999999095931MD1710061+0511MW1041REMSYN100AAXX  25181 76393 31930 00903 10202 20018 39593 40177 57006 70400 91740 333 10210 20082 30/// 58051;
0171763930999992010012521004+25733-100300FM-12+051599999V0200901N002012200019N0060001N1+02321+00661101341ADDGA1001+999999999GF100991001001999999001001IA1019MA1999999095571MD1710361+0471REMSYN082AAXX  25211 76393 32956 00902 10232 20066 39557 40134 57036 92050 333 30/// 58047;
0251763930999992010012600004+25733-100300FM-12+051599999V0201201N002012200019N0060001N1+02161+00761101321ADDAA124000091GA1001+999999999GF100991001001999999001001IA1019KA1120M+02441KA2180N+00821MA1999999095611MD1410001+0401REMSYN106AAXX  26001 76393 32956 01202 10216 20076 39561 40132 54004 92350 333 10244 20082 30/// 50241 58040 70000;EQDQ01  00002PRCP24
0199763930999992010012603004+25733-100300FM-12+051599999V0201701N001012200019N0030001N1+01861+00851101351ADDAY141031AY201031GA1001+999999999GF100991001001999999001001IA1019MA1999999095681MD1410001+0151MW1051REMSYN088AAXX  26031 76393 31930 01701 10186 20085 39568 40135 54007 70540 90255 333 30/// 58015;
0251763930999992010012606004+25733-100300FM-12+051599999V0200501N002012200019N0040001N1+01421+00451101531ADDAY141061AY201061GA1001+999999999GF100991001001999999001001GJ105529IA1019KA1240M+02441KA2240N+00821MA1999999095831MD1210151+0111MW1051REMSYN106AAXX  26061 76393 31940 00502 10142 20045 39583 40153 52015 70540 90555 333 10244 20082 30/// 55092 58011;
0199763930999992010012609004+25733-100300FM-12+051599999V0200301N001012200019N0020001N1+01241+00641101671ADDAY141031AY201031GA1001+999999999GF100991001001999999001001IA1019MA1999999095921MD1110091+0131MW1051REMSYN088AAXX  26091 76393 31920 00301 10124 20064 39592 40167 51009 70540 90850 333 30/// 58013;
0267763930999992010012612004+25733-100300FM-12+051599999V0202801N001012200019N0030001N1+01081+00751101781ADDAA124000091AY141061AY201061GA1001+999999999GF100991001001999999001001KA1240M+02441KA2120N+00921MA1999999095961MD1210041+0161MW1051REMSYN106AAXX  26121 76393 31930 02801 10108 20075 39596 40178 52004 70540 91150 333 10244 20092 3//// 58016 70000;EQDQ01  00002PRCP24
0217763930999992010012615004+25733-100300FM-12+051599999V0201701N001010300019N0030001N1+01501+00651102021ADDAY111031AY211031GA1061+030001061GF106991061001999999071001IA1019MA1999999096171MD1210211+0181MW1041REMSYN106AAXX  26151 76393 31930 61701 10150 20065 39617 40202 52021 70411 86070 91440 333 30/// 56030 58018 86660;
0274763930999992010012618004+25733-100300FM-12+051599999V0200501N003012200019N0020001N1+01781+01031102031ADDAY111061AY211061GA1041+009301081GF104991041011008001001001IA1019KA1120M+01961KA2240N+00921MA1999999096181MD1610011+0251MW1051REMSYN118AAXX  26181 76393 31520 40503 10178 20103 39618 40203 56000 70511 84100 91740 333 10196 20092 30/// 56300 58025 84831;EQDQ01+000002APC3  
0217763930999992010012621004+25733-100300FM-12+051599999V0200901N003010081019N0030001N1+01861+01201101681ADDAY111031AY211031GA1071+008101061GF107991071051008001001001IA1019MA1999999095881MD1710301+0311MW1051REMSYN106AAXX  26211 76393 31530 70903 10186 20120 39588 40168 57030 70511 87500 92050 333 30/// 56300 58031 87627;
0234763930999992010012700004+25733-100300FM-12+051599999V0200901N002010075019N0030001N1+01901+01211101611ADDAA124000091GF108991081051008001001001IA1019KA1120M+02161KA2180N+00921MA1999999095851MD1410001+0241REMSYN124AAXX  27001 76393 32530 80902 10190 20121 39585 40161 54003 88500 92350 333 10216 20092 30/// 50331 56300 58024 70000 88628;
0217763930999992010012703004+25733-100300FM-12+051599999V0201001N005010054019N0030001N1+01811+01271101611ADDAY141031AY241031GA1081+005401061GF108991081051004501999999IA1019MA1999999095881MD1210031+0201MW1051REMSYN106AAXX  27031 76393 31430 81005 10181 20127 39588 40161 52003 70544 885// 90250 333 30/// 563// 58020 88618;
0287763930999992010012706004+25733-100300FM-12+051599999V0201101N004010012019N0020001N1+01581+01421101621ADDAA103000591AA206000591AY151061AY241061GF107991071051001501999999GJ102949IA1099KA1240M+02161KA2240N+00921MA1999999095881MD1410001+0051MW1501REMSYN136AAXX  27061 76393 01220 71104 10158 20142 39588 40162 54000 69951 75054 875// 90550 333 10216 20092 31/// 55049 563// 58005 69957 87605;
0240763930999992010012709004+25733-100300FM-12+051599999V0200301N00101001201CN0020001N1+01481+01351101551ADDAA103000021AY141031AY221031GA1021+001501071GF108991081021001501999999IA1099MA1999999095801MD1710081-0121MW1051REMSYN118AAXX  27091 76393 21220 80301 10148 20135 39580 40155 57008 70542 882// 90850 333 31/// 563// 59012 69907 82705 86608;
0172763930999992010012712004+25733-100300FM-12+051599999V0200701N001019999999N0020001N1+01541+01381101541ADDAA106000021AY141061AY221061GF107991999999001501999999MA1999999095771MD1510031+9999MW1051REMSYN072AAXX  27121 76393 11220 70701 10154 20138 39577 40154 55003 69901 70542;
0239763930999992010012718004+25733-100300FM-12+051599999V0200101N001010033019N0020001N1+01681+01421101771ADDGA1081+003301061GF108991081051002501999999IA1019KA1120M+01721KA2240N+01461MA1999999095981MD1010031-0201MW1041REMSYN118AAXX  27181 76393 31320 80101 10168 20142 39598 40177 50003 704// 885// 91740 333 10172 20146 30/// 563// 59020 88611;
0272763930999992010012812004+25733-100300FM-12+051599999V0201001N002010015019N0030001N1+01571+01411101251ADDAA124000091AY141061AY241061GA1081+001501061GF108991081051001501999999IA1019KA1240M+02141KA2120N+01571MA1999999095531MD1710081-0241MW1051REMSYN124AAXX  28121 76393 31230 81002 10157 20141 39553 40125 57008 70544 885// 91150 333 10214 20157 30157 564// 59024 70000 88605;
0217763930999992010012815004+25733-100300FM-12+051599999V0200901N001010024019N0010001N1+01621+01431101361ADDAY121031AY221031GA1081+002401071GF108991081061002501999999IA1019MA1999999095621MD1310091-0331MW1051REMSYN106AAXX  28151 76393 31310 80901 10162 20143 39562 40136 53009 70522 886// 91440 333 30/// 563// 59033 88708;
0255763930999992010012818004+25733-100300FM-12+051599999V0203201N001010039019N0010001N1+01781+01461101341ADDAY121061AY221061GA1081+003901071GF108991081061004501999999IA1019KA1120M+01861KA2240N+01571MA1999999095581MD1110041-0401MW1051REMSYN118AAXX  28181 76393 31410 83201 10178 20146 39558 40134 51004 70522 886// 91740 333 10186 20157 30/// 563// 59040 88713;
0189763930999992010012821004+25733-100300FM-12+051599999V0200701N001010093019N0020001N1+02261+01491100911ADDGA1051+009301061GF105991051051008001001001IA1019MA1999999095201MD1710381-0521REMSYN100AAXX  28211 76393 32520 50701 10226 20149 39520 40091 57038 85500 92050 333 30/// 56300 59052 85631;
0236763930999992010012900004+25733-100300FM-12+051599999V0201801N001012200019N0040001N1+02221+01381100751ADDGF103991999001999999021001IA1019KA1120M+02481KA2180N+01571MA1999999095091MD1710111-0591REMSYN118AAXX  29001 76393 32940 31801 10222 20138 39509 40075 57011 82020 92355 333 10248 20157 30/// 50131 56050 59059 70000;EQDQ01+000022SCOTLC
0195763930999992010012903004+25733-100300FM-12+051599999V0203201N003012200019N0030001N1+02041+01481100691ADDAY141031AY201031GF102991001001999999001041IA1019MA1999999095051MD1410001-0631MW1051REMSYN100AAXX  29031 76393 31930 23203 10204 20148 39505 40069 54004 70540 80004 90255 333 30/// 56005 59063;
0247763930999992010012906004+25733-100300FM-12+051599999V0201401N001012200019N0020001N1+01821+01511100671ADDAY141061AY201061GF102991001001999999001041GJ101869IA1019KA1240M+02481KA2240N+01571MA1999999095041MD1410001+9999MW1051REMSYN118AAXX  29061 76393 31920 21401 10182 20151 39504 40067 54001 70540 80004 90555 333 10248 20157 30/// 55031 56005 59055;
0199763930999992010012909004+25733-100300FM-12+051599999V0203201N001012200019N0020001N1+01561+01461100801ADDAY141031AY201031GA1001+999999999GF100991001001999999001001IA1019MA1999999095141MD1210101-0471MW1051REMSYN088AAXX  29091 76393 31920 03201 10156 20146 39514 40080 52010 70540 90850 333 30/// 59047;
0272763930999992010012912004+25733-100300FM-12+051599999V0200501N002010051019N0020001N1+01401+00981101201ADDAA124000091AY141061AY221061GA1081+005101061GF108991081051004501999999IA1019KA1240M+02481KA2120N+01381MA1999999095481MD1210341-0051MW1051REMSYN124AAXX  29121 76393 31420 80502 10140 20098 39548 40120 52034 70542 885// 91150 333 10248 20138 30134 563// 59005 70000 88617;
0239763930999992010012918004+25733-100300FM-12+051599999V0203501N001010096019N0030001N1+01461+00691101761ADDGA1081+009601061GF108991081051999999999999IA1019KA1120M+01761KA2240N+01321MA1999999095941MD1010051+0361MW1041REMSYN118AAXX  29181 76393 31930 83501 10146 20069 39594 40176 50005 704// 885// 91740 333 10176 20132 30/// 563// 58036 88632;
0189763930999992010012921004+25733-100300FM-12+051599999V0203601N002010114019N0040001N1+01681+00751101441ADDGA1071+011401061GF107991071051012501999999IA1019MA1999999095651MD1710291+0451REMSYN100AAXX  29211 76393 32640 73602 10168 20075 39565 40144 57029 875// 92045 333 30/// 563// 58045 87638;
0234763930999992010013000004+25733-100300FM-12+051599999V0200401N001010120019N0040001N1+01581+00621101491ADDAA124000091GF108991081051012501999999IA1019KA1120M+01741KA2180N+01321MA1999999095691MD1410001+0601REMSYN124AAXX  30001 76393 32640 80401 10158 20062 39569 40149 54004 885// 92350 333 10174 20132 30/// 50221 563// 58060 70000 88639;
0217763930999992010013003004+25733-100300FM-12+051599999V0203601N003010120019N0030001N1+01321+00221101661ADDAY141031AY221031GA1081+012001061GF108991081051012501999999IA1019MA1999999095861MD1310171+0811MW1051REMSYN106AAXX  30031 76393 31630 83603 10132 20022 39586 40166 53017 70542 885// 90255 333 30/// 56399 58081 88640;
0272763930999992010013006004+25733-100300FM-12+051599999V0203501N002010075019N0060001N1+01021+00071101851ADDAY141061AY221061GF108991081051008001999999GJ100009IA1019KA1240M+01741KA2240N+99999MA1999999096021MD1210161+0981MW1051REMSYN124AAXX  30061 76393 31556 83502 10102 20007 39602 40185 52016 70542 885// 90555 333 10174 20120 30/// 55000 56399 58098 88632;EQDQ01 +01202ATMN  
0217763930999992010013009004+25733-100300FM-12+051599999V0200201N002010099019N0030001N1+01001+00201102021ADDAY141031AY221031GA1081+009901061GF108991081051008001999999IA1019MA1999999096161MD1510141+1021MW1051REMSYN106AAXX  30091 76393 31530 80202 10100 20020 39616 40202 55014 70542 885// 90850 333 30/// 563// 58102 88633;
0272763930999992010013012004+25733-100300FM-12+051599999V0200501N001010087019N0030001N1+00881-00171102081ADDAA124000091AY141061AY221061GA1071+008701061GF108991071051008001999999IA1019KA1240M+01741KA2120N+00881MA1999999096181MD1210021+0701MW1051REMSYN124AAXX  30121 76393 31530 80501 10088 21017 39618 40208 52002 70542 875// 91150 333 10174 20088 30082 563// 58070 70000 87629;
0195763930999992010013015004+25733-100300FM-12+051599999V0200201N001019999999N0040001N1+00921+00201102311ADDGA1041+030001031GF108991041001999999071011IA1019MA1999999096361MD1210181+0471REMSYN106AAXX  30151 76393 32940 80201 10092 20020 39636 40231 52018 84071 91440 333 30/// 56075 58047 84360 84070;
0246763930999992010013018004+25733-100300FM-12+051599999V0203601N001010600019N0040001N1+01301+00021102231ADDGA1071+060001001GF107991001001999999001021IA1019KA1120M+01401KA2240N+00821MA1999999096291MD1710071+0491REMSYN112AAXX  30181 76393 32940 73601 10130 20002 39629 40223 57007 87002 91740 333 10140 20082 30/// 56005 58049 87070;EQDQ01+000072SCOTLC
0217763930999992010013021004+25733-100300FM-12+051599999V0201101N002010600019N0030001N1+01621+00271101931ADDAY141031AY241031GA1061+060001021GF106991001001999999001081IA1019MA1999999096031MD1710261+0381MW1041REMSYN106AAXX  30211 76393 31930 61102 10162 20027 39603 40193 57026 70444 80008 92050 333 30/// 56005 58038 86270;
0245763930999992010013100004+25733-100300FM-12+051599999V0201401N004012200019N0030001N1+01541+00321101881ADDAY141061AY241061GF104991001001999999001061IA1019KA1120M+01801KA2180N+00801MA1999999096031MD1410001+0341MW1041REMSYN124AAXX  31001 76393 31930 41404 10154 20032 39603 40188 54000 70444 80006 92350 333 10180 20080 30/// 50671 56005 58034 70000;
0195763930999992010013103004+25733-100300FM-12+051599999V0201301N002012200019N0040001N1+01121+00151101931ADDAY141031AY201031GF103991001001999999001041IA1019MA1999999096101MD1410001+0241MW1051REMSYN100AAXX  31031 76393 31940 31302 10112 20015 39610 40193 54007 70540 80004 90255 333 30/// 56005 58024;
0250763930999992010013106004+25733-100300FM-12+051599999V0201801N002012200019N0030001N1+01001+00241102051ADDAY141061AY201061GF103991001001999999001041GJ104029IA1019KA1240M+01801KA2240N+00821MA1999999096201MD1310101+9999MW1051REMSYN121AAXX  31061 76393 31930 31802 10100 20024 39620 40205 53010 70540 80004 90555 333 10180 20082 30/// 55067 56005 58018/3D;
0240763930999992010013109004+25733-100300FM-12+051599999V0201201N003012200019N0030001N1+00721+00431999999ADDAY141031AY201031GA1001+999999999GF100991001001999999001001IA1019MA1999999096201MD1410001+0041MW1051REMSYN094AAXX  31091 76393 31930 01203 10072 20043 39620 40290 56000 70540 90850 333 30/// 56999 58004;EQDQ01+102903APOSLPQ02+000062APCTEN
0272763930999992010013112004+25733-100300FM-12+051599999V0200901N003010054019N0030001N1+00641+00211102121ADDAA124000091AY141061AY221061GA1071+005401061GF107991071051004501999999IA1019KA1240M+01801KA2120N+00621MA1999999096181MD1310021+0001MW1051REMSYN124AAXX  31121 76393 31430 70903 10064 20021 39618 40212 53002 70542 875// 91150 333 10180 20062 30058 563// 58000 70000 87618;
0217763930999992010013115004+25733-100300FM-12+051599999V0201201N003010066019N0030001N1+00701+00021102321ADDAY141031AY241031GA1081+006601061GF108991081051008001999999IA1019MA1999999096341MD1210161-0021MW1051REMSYN106AAXX  31151 76393 31530 81203 10070 20002 39634 40232 52016 70544 885// 91450 333 30/// 564// 59002 88622;
0255763930999992010013118004+25733-100300FM-12+051599999V0201301N002010075019N0030001N1+00981+00221102301ADDAY141061AY241061GA1081+007501061GF108991081051008001999999IA1019KA1120M+01061KA2240N+00621MA1999999096311MD1710031+0021MW1041REMSYN118AAXX  31181 76393 31530 81302 10098 20022 39631 40230 57003 70444 885// 91750 333 10106 20062 30/// 564// 58002 88625;
0189763930999992010013121004+25733-100300FM-12+051599999V0201401N005010126019N0030001N1+01261+00241101881ADDGA1061+012601061GF106991061051012501001001IA1019MA1999999095941MD1710371-0091REMSYN100AAXX  31211 76393 32630 61405 10126 20024 39594 40188 57037 86500 92050 333 30/// 56300 59009 86642;
0279763930999992010020100004+25733-100300FM-12+051599999V0201401N002010021019N0030001N1+00941+00711101901ADDAA103000391AA224000391AY151061AY221061GF108991081051002501001001IA1099KA1120M+01381KA2180N+00621MA1999999095981MD1410001-0051MW1501REMSYN136AAXX  01001 76393 21330 81402 10094 20071 39598 40190 54004 75052 88500 95350 333 10138 20062 31/// 50141 563// 59005 69937 70003 88709;
0253763930999992010020106004+25733-100300FM-12+051599999V0201401N001012200019N0060001N1+00881+00601101031ADDAY141061AY201061GF102991021051002501001001GJ101389IA1099KA1240M+01381KA2240N+00621MA1999999095541MD1410001-0261MW1051REMSYN124AAXX  01061 76393 31356 21401 10088 20060 39554 40103 54003 70540 82500 90555 333 10138 20062 31/// 55023 56300 59026 82609;
0253763930999992010020109004+25733-100300FM-12+051599999V0201601N002012200019N0030001N1+00801+00341101701ADDAA103000091AY141031AY201031GA1011+005701061GF101991011051004501001001IA1099MA1999999095791MD1710151-0411MW1051REMSYN112AAXX  01091 76393 21430 11602 10080 20034 39579 40170 57015 70540 81500 90850 333 31/// 56399 59041 69907 81619;EQDQ01  00002PRCP03
0172763930999992010020112004+25733-100300FM-12+051599999V0200601N001012200019N0030001N1+00701+00581101731ADDAA106000591AY141061AY211061GF104991999999001501999999MA1999999095801MD1510011+9999MW1051REMSYN072AAXX  01121 76393 11230 40601 10070 20058 39580 40173 55001 69941 70541;
0217763930999992010020115004+25733-100300FM-12+051599999V0209999C000010024019N0030001N1+00801+00601101941ADDAY141031AY221031GA1081+002401061GF108991081051002501999999IA1019MA1999999095991MD1210191-0351MW1051REMSYN106AAXX  01151 76393 31330 80000 10080 20060 39599 40194 52019 70542 885// 91450 333 30/// 567// 59035 88608;
0227763930999992010020118004+25733-100300FM-12+051599999V0203201N001010066019N0020001N1+01181+00651101861ADDGA1051+006601061GF105991051051008001001001IA1019KA1120M+01341KA2240N+00681MA1999999095921MD1410001-0391REMSYN112AAXX  01181 76393 32520 53201 10118 20065 39592 40186 54007 85500 91750 333 10134 20068 30/// 56700 59039 85622;
0217763930999992010020121004+25733-100300FM-12+051599999V0200501N002012200019N0020001N1+01681+00831101481ADDAY101031AY201031GA1011+010501081GF101991011021012501001001IA1019MA1999999095601MD1710321-0341MW1051REMSYN106AAXX  01211 76393 31620 10502 10168 20083 39560 40148 57032 70500 81200 92040 333 30/// 56500 59034 81835;
0262763930999992010020200004+25733-100300FM-12+051599999V0200901N002012200019N0030001N1+01621+00881101371ADDAA124999929AY101061AY201061GF103991001001999999001011IA1019KA1120M+01881KA2180N+00681MA1999999095541MD1510061-0441MW1051REMSYN130AAXX  02001 76393 31930 30902 10162 20088 39554 40137 55006 70500 80001 92340 333 10188 20068 30/// 50011 56001 59044 79999 83070;
0195763930999992010020203004+25733-100300FM-12+051599999V0201101N001012200019N0020001N1+01281+00811101391ADDAY141031AY201031GF103991001001999999001041IA1019MA1999999095591MD1410001-0381MW1051REMSYN100AAXX  02031 76393 31920 31101 10128 20081 39559 40139 54005 70540 80004 90255 333 30/// 56005 59038;
0247763930999992010020206004+25733-100300FM-12+051599999V0200701N001012200019N0020001N1+01041+00821101511ADDAY141061AY201061GF103991001001999999001041GJ103669IA1019KA1240M+01881KA2240N+00681MA1999999095711MD1310121+9999MW1051REMSYN118AAXX  02061 76393 31920 30701 10104 20082 39571 40151 53012 70540 80004 90555 333 10188 20068 30/// 55061 56005 59023;
0199763930999992010020209004+25733-100300FM-12+051599999V0200601N001012200019N0020001N1+01001+00811101511ADDAY141031AY201031GA1001+999999999GF100991001001999999001001IA1019MA1999999095681MD1710031-0111MW1051REMSYN088AAXX  02091 76393 31920 00601 10100 20081 39568 40151 57003 70540 90850 333 30/// 59011;
0272763930999992010020212004+25733-100300FM-12+051599999V0209999C000010021019N0020001N1+01101+00921101681ADDAA124000091AY141061AY221061GA1081+002101061GF108991081041002501999999IA1019KA1240M+01881KA2120N+00921MA1999999095811MD1210131+0011MW1051REMSYN124AAXX  02121 76393 31320 80000 10110 20092 39581 40168 52013 70542 884// 91150 333 10188 20092 30074 563// 58001 70000 88607;
0217763930999992010020215004+25733-100300FM-12+051599999V0200401N001010024019N0020001N1+01101+00921101821ADDAY141031AY221031GA1081+002401071GF108991081061002501999999IA1019MA1999999095931MD1210121-0061MW1051REMSYN106AAXX  02151 76393 31320 80401 10110 20092 39593 40182 52012 70542 886// 91450 333 30/// 563// 59006 88708;
0291763930999992010020218004+25733-100300FM-12+051599999V0200601N001010015019N0010001N1+01121+01011101881ADDAA103000091AY141061AY221061GA1081+001501071GF108991081061001501999999IA1099KA1120M+01341KA2240N+00921MA1999999095991MD1410001+0071MW1051REMSYN124AAXX  02181 76393 21210 80601 10112 20101 39599 40188 54006 70542 886// 91750 333 10134 20092 31/// 563// 58007 69907 88705;EQDQ01  00002PRCP03
0253763930999992010020221004+25733-100300FM-12+051599999V0200701N001010021019N0010001N1+01261+01091101741ADDAA103000091AY121031AY221031GA1081+002101071GF108991081071002501999999IA1019MA1999999095861MD1510131+0261MW1051REMSYN112AAXX  02211 76393 21310 80701 10126 20109 39586 40174 55013 70522 887// 92040 333 30/// 563// 58026 69907 88707;EQDQ01  00002PRCP03
0172763930999992010020300004+25733-100300FM-12+051599999V0201201N001019999999N0006001N1+01301+01131101711ADDAA106000391AY151061AY251061GF108991999999002501999999MA1999999095841MD1110021+9999MW1501REMSYN072AAXX  03001 76393 01306 81201 10130 20113 39584 40171 51002 69931 75055;
0234763930999992010020303004+25733-100300FM-12+051599999V0209999C000010006019N0020001N1+01181+01111101741ADDAA103002091AY151031AY251031GA1081+000601061GF108991081071000751999999IA1119MA1999999095881MD1210041+0291MW1501REMSYN112AAXX  03031 76393 21120 80000 10118 20111 39588 40174 52004 75055 887// 90258 333 32/// 563// 58029 60027 88602;
0172763930999992010020306004+25733-100300FM-12+051599999V0201101N002019999999N0020001N1+01111+01061101571ADDAA106004191AY151061AY251061GF108991999999000751999999MA1999999095721MD1710161+9999MW1501REMSYN072AAXX  03061 76393 01120 81102 10111 20106 39572 40157 57016 60041 75055;
0234763930999992010020315004+25733-100300FM-12+051599999V0200601N001010009019N0010001N1+01121+01051100981ADDAA103000591AY141031AY221031GA1081+000901071GF108991081061000751999999IA1099MA1999999095151MD1710191-0781MW1051REMSYN112AAXX  03151 76393 21110 80601 10112 20105 39515 40098 57019 70542 886// 91450 333 31/// 563// 59078 69957 88703;
0156763930999992010020318004+25733-100300FM-12+051599999V0203601N001019999999N0008001N1+01201+01091999999ADDGF108991999999001501999999REMSYN118AAXX  03181 76393 31208 83601 10120 20109 10109 39526 52011 70542 886// 91750 333 10124 20100 31/// 563// 59073 88705;
0253763930999992010020321004+25733-100300FM-12+051599999V0202201N001010030019N0010001N1+01461+01231100921ADDAA103000091AY121031AY221031GA1081+003001071GF108991081071002501999999IA1019MA1999999095111MD1710151-0751MW1051REMSYN112AAXX  03211 76393 21310 82201 10146 20123 39511 40092 57015 70522 887// 92040 333 30/// 563// 59075 69907 88710;EQDQ01  00002PRCP03
0172763930999992010020400004+25733-100300FM-12+051599999V0200601N001019999999N0020001N1+01461+01261100721ADDAA106000021AY121061AY221061GF108991999999002501999999MA1999999094941MD1710171+9999MW1501REMSYN072AAXX  04001 76393 01320 80601 10146 20126 39494 40072 57017 69901 75022;
0217763930999992010020403004+25733-100300FM-12+051599999V0201201N001010012019N0020001N1+01381+01241100931ADDAY141031AY241031GA1061+001201061GF108991061051001501021999IA1099MA1999999095151MD1210211-0731MW1051REMSYN106AAXX  04031 76393 31220 81201 10138 20124 39515 40093 52021 70544 8652/ 90250 333 31/// 5675/ 59073 86604;
0275763930999992010020406004+25733-100300FM-12+051599999V0201201N001010360019N0010001N1+01341+01271100721ADDAY141061AY241061GA1041+000601071GF108991041071000751021999GJ100009IA1099KA1240M+01721KA2240N+01001MA1999999094961MD1710191-0761MW1051REMSYN130AAXX  04061 76393 31110 81201 10134 20127 39496 40072 57019 70544 8472/ 90555 333 10172 20100 31/// 55000 5675/ 59076 84702 84456;
0217763930999992010020409004+25733-100300FM-12+051599999V0201401N001010009019N0010001N1+01281+01181101121ADDAY141031AY221031GA1081+000901061GF108991081051000751999999IA1019MA1999999095331MD1110371+9999MW1051REMSYN106AAXX  04091 76393 31110 81401 10128 20118 39533 40112 51037 70542 885// 90855 333 30/// 56399 59/// 88603;
0272763930999992010020412004+25733-100300FM-12+051599999V0201301N001010015019N0010001N1+01241+01101100731ADDAA124002091AY141061AY221061GA1081+001501061GF108991081051001501999999IA1019KA1240M+01721KA2120N+01201MA1999999094951MD1710381-0391MW1051REMSYN124AAXX  04121 76393 31210 81301 10124 20110 39495 40073 57038 70542 885// 91155 333 10172 20120 30114 56399 59039 70020 88605;
0217763930999992010020415004+25733-100300FM-12+051599999V0209999C000010012019N0010001N1+01261+01161100901ADDAY141031AY221031GA1081+001201071GF108991081061001501999999IA1019MA1999999095111MD1410001-0041MW1051REMSYN106AAXX  04151 76393 31210 80000 10126 20116 39511 40090 54004 70542 886// 91450 333 30/// 563// 59004 88704;
0255763930999992010020418004+25733-100300FM-12+051599999V0200601N001010048019N0010001N1+01561+01161100991ADDAY141061AY221061GA1071+004801061GF107991071051004501999999IA1019KA1120M+01641KA2240N+01201MA1999999095191MD1410001-0071MW1051REMSYN118AAXX  04181 76393 31410 70601 10156 20116 39519 40099 54008 70542 875// 91750 333 10164 20120 30/// 565// 59007 87616;
0217763930999992010020421004+25733-100300FM-12+051599999V0200601N001010102019N0010001N1+01921+01091100661ADDAY121031AY221031GA1071+010201061GF107991071041012501999999IA1019MA1999999094921MD1710271-0191MW1051REMSYN106AAXX  04211 76393 31610 70601 10192 20109 39492 40066 57027 70522 874// 92040 333 30/// 563// 59019 87634;
0298763930999992010020500004+25733-100300FM-12+051599999V0200901N003010042019N0020001N1+01661+01271100801ADDAA103999999AA224999929AY121061AY221061GF108991081041004501999999IA1019KA1120M+02081KA2180N+01201MA1999999095081MD1210161+0141MW1051REMSYN136AAXX  05001 76393 21420 80903 10166 20127 39508 40080 52016 70522 884// 92340 333 10208 20120 30/// 50011 563// 58014 69907 79999 88616;EQDQ01  99992PRCP03
0217763930999992010020503004+25733-100300FM-12+051599999V0200901N001010042019N0030001N1+01561+01231101111ADDAY141031AY221031GA1071+004201061GF107991071041004501999999IA1019MA1999999095371MD1210291+0221MW1051REMSYN106AAXX  05031 76393 31430 70901 10156 20123 39537 40111 52029 70542 874// 90250 333 30/// 565// 58022 87614;
0251763930999992010020506004+25733-100300FM-12+051599999V0202001N002012200019N0030001N1+01421+01251101181ADDAY141061AY201061GA1001+999999999GF100991001001999999001001GJ101389IA1019KA1240M+02081KA2240N+01201MA1999999095441MD1210071+0491MW1051REMSYN106AAXX  05061 76393 31930 02002 10142 20125 39544 40118 52007 70540 90550 333 10208 20120 30/// 55023 58049;
0199763930999992010020509004+25733-100300FM-12+051599999V0209999C000012200019N0020001N1+01181+01071101161ADDAY141031AY201031GA1001+999999999GF100991001001999999001001IA1019MA1999999095391MD1410001+0461MW1051REMSYN088AAXX  05091 76393 31920 00000 10118 20107 39539 40116 54005 70540 90855 333 30/// 58046;
0273763930999992010020512004+25733-100300FM-12+051599999V0201601N001012200019N0020001N1+01121+00971101341ADDAA124000091AY141061AY221061GA1001+999999999GF100991001001999999001001IA1019KA1240M+02081KA2120N+01101MA1999999095531MD1310141+0581MW1051REMSYN106AAXX  05121 76393 31920 01601 10112 20097 39553 40134 53014 70542 91155 333 10208 20110 30096 58058 79999;EQDQ01  00002PRCP24
0199763930999992010020515004+25733-100300FM-12+051599999V0201701N001012200019N0020001N1+01501+00981101671ADDAY101031AY201031GA1001+999999999GF100991001001999999001001IA1019MA1999999095821MD1210291+0711MW1041REMSYN088AAXX  05151 76393 31920 01701 10150 20098 39582 40167 52029 70400 91450 333 30/// 58071;
0191763930999992010020518004+25733-100300FM-12+051599999V0201401N001012200019N0020001N1+02341+00701101641ADDGA1001+999999999GF100991001001999999001001KA1240N+01101MA1999999095831MD1410001+9999REMSYN095AAXX  05181 76393 32920 01401 10234 20070 39583 40164 54001 91750 333 102 42 20110 30/// 58064;
0199763930999992010020521004+25733-100300FM-12+051599999V0203201N005012200019N0040001N1+02681-00051101211ADDAY101031AY201031GA1001+999999999GF100991001001999999001001IA1019MA1999999095491MD1710341+0571MW1041REMSYN088AAXX  05211 76393 31940 03205 10268 21005 39549 40121 57034 70400 92040 333 30/// 58057;
0279763930999992010020600004+25733-100300FM-12+051599999V0201401N001012200019N0030001N1+02521+00571101141ADDAA124000091AY101061AY201061GA1001+999999999GF100991001001999999001001IA1019KA1120M+02751KA2180N+01101MA1999999095491MD1410001+0411MW1041REMSYN112AAXX  06001 76393 31930 01401 10252 20057 39549 40114 54000 70400 92340 333 10275 20110 30/// 50041 58041 70000;EQDQ01  00002PRCP24
0199763930999992010020603004+25733-100300FM-12+051599999V0200501N002012200019N0030001N1+02061+00891101281ADDAY141031AY201031GA1001+999999999GF100991001001999999001001IA1019MA1999999095651MD1210161+0281MW1051REMSYN088AAXX  06031 76393 31930 00502 10206 20089 39565 40128 52016 70540 90250 333 30/// 58028;
0251763930999992010020606004+25733-100300FM-12+051599999V0201201N001012200019N0020001N1+01721+00841101461ADDAY141061AY201061GA1001+999999999GF100991001001999999001001GJ105709IA1019KA1240M+02751KA2240N+01101MA1999999095821MD1210131+0381MW1051REMSYN106AAXX  06061 76393 31920 01201 10172 20084 39582 40146 52013 70540 90550 333 10275 20110 30/// 55095 58038;
0199763930999992010020609004+25733-100300FM-12+051599999V0202201N001012200019N0020001N1+01341+00831101421ADDAY141031AY201031GA1001+999999999GF100991001001999999001001IA1019MA1999999095721MD1610101+0331MW1051REMSYN088AAXX  06091 76393 31920 02201 10134 20083 39572 40142 56010 70540 90855 333 30/// 58033;
0273763930999992010020612004+25733-100300FM-12+051599999V0202201N001012200019N0020001N1+01261+00741101421ADDAA124000091AY141061AY201061GA1001+999999999GF100991001001999999001001IA1019KA1240M+02751KA2120N+01061MA1999999095661MD1410001+0131MW1051REMSYN106AAXX  06121 76393 31920 02201 10126 20074 39566 40142 54006 70540 91155 333 10275 20106 30094 58013 70000;EQDQ01  00002PRCP24
0199763930999992010020615004+25733-100300FM-12+051599999V0209999C000012200019N0020001N1+01721+00711101721ADDAY141031AY241031GA1001+999999999GF100991001001999999001001IA1019MA1999999095911MD1210251+0091MW1041REMSYN088AAXX  06151 76393 31920 00000 10172 20071 39591 40172 52025 70444 91456 333 30/// 58009;
0237763930999992010020618004+25733-100300FM-12+051599999V0201201N002012200019N0020001N1+02401+00921101661ADDAY141061AY241061GA1001+999999999GF100991001001999999001001IA1019KA1120M+02471KA2240N+01061MA1999999095881MD1710031+0051MW1041REMSYN100AAXX  06181 76393 31920 01202 10240 20092 39588 40166 57003 70444 91750 333 10247 20106 30/// 58005;
0217763930999992010020621004+25733-100300FM-12+051599999V0201201N003012200019N0030001N1+02541+00851101301ADDAY101031AY201031GA1021+060001001GF102991001001999999001011IA1019MA1999999095591MD1710291+0101MW1041REMSYN106AAXX  06211 76393 31930 21203 10254 20085 39559 40130 57029 70400 80001 92040 333 30/// 56006 58010 82070;
0281763930999992010020700004+25733-100300FM-12+051599999V0201201N003019999999N0060001N1+02401+01011101201ADDAA124000091AY111061AY211061GF105991001001999999001021IA1019KA1120M+02661KA2180N+01061MA1999999095561MD1110031+0071MW1041REMSYN130AAXX  07001 76393 31956 51203 10240 20101 39556 40120 51003 70411 85002 92340 333 10266 20106 30/// 50061 56006 58007 70000 85070;EQDQ01+000052SCOTLC
0217763930999992010020703004+25733-100300FM-12+051599999V0200701N002012200019N0020001N1+02041+01041101321ADDAY141031AY201031GA1031+012301061GF103991031051012501001001IA1019MA1999999095701MD1210141+0011MW1051REMSYN106AAXX  07031 76393 31620 30702 10204 20104 39570 40132 52014 70540 83500 90250 333 30/// 56399 58001 83641;
0253763930999992010020706004+25733-100300FM-12+051599999V0201101N003012200019N0020001N1+01721+01151101321ADDAY141061AY201061GF102991021041008001001001GJ105589IA1019KA1240M+02661KA2240N+01261MA1999999095681MD1210021-0141MW1051REMSYN124AAXX  07061 76393 31520 21103 10172 20115 39568 40132 52002 70540 82400 90550 333 10266 20126 30/// 55093 56399 59014 82623;
0217763930999992010020709004+25733-100300FM-12+051599999V0200501N001012200019N0020001N1+01381+01181101161ADDAY141031AY201031GA1021+002101061GF102991021051001501001001IA1019MA1999999095471MD1710211-0251MW1051REMSYN106AAXX  07091 76393 31220 20501 10138 20118 39547 40116 57021 70540 82500 90855 333 30/// 56300 59025 82607;
0272763930999992010020712004+25733-100300FM-12+051599999V0200201N001010018019N0010001N1+01341+01171101131ADDAA124000091AY141061AY201061GA1081+001801061GF108991081051001501999999IA1019KA1240M+02661KA2120N+01341MA1999999095391MD1410001-0271MW1051REMSYN124AAXX  07121 76393 31210 80201 10134 20117 39539 40113 54008 70540 885// 91155 333 10266 20134 30122 56399 59027 70000 88606;
0217763930999992010020715004+25733-100300FM-12+051599999V0200501N001010039019N0020001N1+01381+01071101321ADDAY141031AY211031GA1051+003901061GF105991051051004501001001IA1019MA1999999095541MD1210151-0371MW1041REMSYN106AAXX  07151 76393 31420 50501 10138 20107 39554 40132 52015 70441 85500 91450 333 30/// 56500 59037 85613;
0220763930999992010020721004+25733-100300FM-12+051599999V0201101N002010075019N0030001N1+01961+01211100891ADDAY141031AY241031GA1071+007501061GF107991071051008001999999IA1019MA1999999095141MD1710341-0451MW1041REMSYN109AAXX  07211 76393 31530 71102 10196 20121 39514 40089 57034 70444 875// 92055 333 30/// 567// 59045 87625/3D;
0265763930999992010020800004+25733-100300FM-12+051599999V0201201N002012200019N0030001N1+01931+01301100701ADDAA124000091AY141061AY241061GF105991031011008001001011IA1019KA1120M+02161KA2180N+01301MA1999999094981MD1710161-0581MW1041REMSYN133AAXX  08001 76393 31530 51202 10193 20130 39498 40070 57016 70444 83101 92350 333 10216 20130 30/// 50291 56405 59058 70000 83821/3D;
0253763930999992010020806004+25733-100300FM-12+051599999V0200601N002010042019N0020001N1+01741+01491100661ADDAY141061AY211061GF105991051041004501001001GJ102769IA1019KA1240M+02161KA2240N+01301MA1999999094991MD1710081-0691MW1051REMSYN124AAXX  08061 76393 31420 50602 10174 20149 39499 40066 57008 70541 85400 90550 333 10216 20130 30/// 55046 56399 59069 85610;
0217763930999992010020809004+25733-100300FM-12+051599999V0201101N001010024019N0020001N1+01581+01351100521ADDAY141031AY211031GA1071+002401061GF107991071051002501999999IA1019MA1999999094841MD1610151-0631MW1051REMSYN106AAXX  08091 76393 31320 71101 10158 20135 39484 40052 56015 70541 875// 90855 333 30/// 56399 59063 87608;
0272763930999992010020812004+25733-100300FM-12+051599999V0209999C000010024019N0020001N1+01521+01291100441ADDAA124000091AY141061AY221061GA1081+002401061GF108991081051002501999999IA1019KA1240M+02161KA2120N+01481MA1999999094751MD1410001-0641MW1051REMSYN124AAXX  08121 76393 31320 80000 10152 20129 39475 40044 54009 70542 885// 91155 333 10216 20148 30134 56399 59064 70000 88608;
0171763930999992010020821004+25733-100300FM-12+051599999V0201401N001012200019N0030001N1+02841+01021100351ADDGA1001+999999999GF100991001001999999001001IA1019MA1999999094711MD1710241-0431REMSYN082AAXX  08211 76393 32930 01401 10284 20102 39471 40035 57024 92050 333 30/// 59043;
0234763930999992010020900004+25733-100300FM-12+051599999V0201301N002012200019N0040001N1+02541+01311100401ADDAA124000091GF102991021051017501001001IA1019KA1120M+02941KA2180N+01441MA1999999094821MD1210111-0161REMSYN124AAXX  09001 76393 32740 21302 10254 20131 39482 40040 52011 82500 92350 333 10294 20144 30/// 50381 56600 59016 70000 82615;
0217763930999992010020903004+25733-100300FM-12+051599999V0200201N003010126019N0030001N1+02101+01071100861ADDAY141031AY211031GA1061+012601061GF106991061051012501999999IA1019MA1999999095281MD1210361+0211MW1051REMSYN106AAXX  09031 76393 31630 60203 10210 20107 39528 40086 52036 70541 865// 90250 333 30/// 56399 58021 86642;
0253763930999992010020906004+25733-100300FM-12+051599999V0200701N004010120019N0030001N1+01901+00981101211ADDAY141061AY221061GF108991081041012501999999GJ105589IA1019KA1240M+02941KA2240N+01441MA1999999095601MD1210321+0611MW1051REMSYN124AAXX  09061 76393 31630 80704 10190 20098 39560 40121 52032 70542 884// 90550 333 10294 20144 30/// 55093 563// 58061 88638;
0217763930999992010020909004+25733-100300FM-12+051599999V0203601N004010090019N0030001N1+01501+00601101411ADDAY141031AY221031GA1081+009001061GF108991081051008001999999IA1019MA1999999095731MD1310131+0891MW1051REMSYN106AAXX  09091 76393 31530 83604 10150 20060 39573 40141 53013 70542 885// 90855 333 30/// 56399 58089 88630;
0272763930999992010020912004+25733-100300FM-12+051599999V0200501N003010057019N0030001N1+01141+00561101731ADDAA124000091AY141061AY221061GA1081+005701061GF108991081051004501999999IA1019KA1240M+02941KA2120N+01101MA1999999095971MD1210241+1221MW1051REMSYN124AAXX  09121 76393 31430 80503 10114 20056 39597 40173 52024 70542 885// 91155 333 10294 20110 30108 56399 58122 70000 88619;
0217763930999992010020915004+25733-100300FM-12+051599999V0203601N003010075019N0050001N1+01001+00391102251ADDAY121031AY221031GA1081+007501061GF108991081051008001999999IA1019MA1999999096401MD1210431+1501MW1041REMSYN106AAXX  09151 76393 31550 83603 10100 20039 39640 40225 52043 70422 885// 91440 333 30/// 563// 58150 88625;
0255763930999992010020918004+25733-100300FM-12+051599999V0203601N002010081019N0040001N1+01101+00441102501ADDAY121061AY221061GA1081+008101061GF108991081051008001999999IA1019KA1120M+01121KA2240N+01021MA1999999096591MD1210191+1641MW1041REMSYN118AAXX  09181 76393 31540 83602 10110 20044 39659 40250 52019 70422 885// 91740 333 10112 20102 30/// 563// 58164 88627;
0189763930999992010020921004+25733-100300FM-12+051599999V0203601N001010129019N0040001N1+01421+00361102261ADDGA1061+012901061GF106991061051012501001001IA1019MA1999999096361MD1710231+1651REMSYN100AAXX  09211 76393 32640 63601 10142 20036 39636 40226 57023 86500 92050 333 30/// 563// 58165 86643;
0217763930999992010021009004+25733-100300FM-12+051599999V0200901N003010066019N0080001N1+00801+00151102231ADDAY141031AY221031GA1081+006601061GF108991081051008001999999IA1019MA1999999096321MD1610161+0591MW1051REMSYN106AAXX  10091 76393 31558 80903 10080 20015 39632 40223 56016 70542 885// 90855 333 30/// 56399 58059 88622;
0272763930999992010021012004+25733-100300FM-12+051599999V0201101N002010042019N0080001N1+00721+00301102201ADDAA124000091AY141061AY221061GA1081+004201061GF108991081051004501999999IA1019KA1240M+01641KA2120N+00701MA1999999096261MD1410001+0291MW1051REMSYN124AAXX  10121 76393 31458 81102 10072 20030 39626 40220 54006 70542 885// 91155 333 10164 20070 30068 56399 58029 70000 88614;
0217763930999992010021015004+25733-100300FM-12+051599999V0200901N001010066019N0020001N1+00741+00221102441ADDAY121031AY221031GA1081+006601061GF108991081051008001999999IA1019MA1999999096461MD1210201+0061MW1041REMSYN106AAXX  10151 76393 31520 80901 10074 20022 39646 40244 52020 70422 885// 91440 333 30/// 563// 58006 88622;
0217763930999992010021021004+25733-100300FM-12+051599999V0201301N001010054019N0020001N1+00861+00411102171ADDAY141031AY221031GA1081+005401061GF108991081051004501999999IA1019MA1999999096191MD1710341-0171MW1051REMSYN106AAXX  10211 76393 31420 81301 10086 20041 39619 40217 57034 70542 885// 92050 333 30/// 563// 59017 88618;
0234763930999992010021100004+25733-100300FM-12+051599999V0201301N002010075019N0020001N1+00881+00391102031ADDAA124000091GF108991081051008001999999IA1019KA1120M+00981KA2180N+00701MA1999999096071MD1710121-0241REMSYN124AAXX  11001 76393 32520 81302 10088 20039 39607 40203 57012 885// 92350 333 10098 20070 30/// 50221 563// 59024 70000 88620;
0217763930999992010021103004+25733-100300FM-12+051599999V0201201N001010045019N0030001N1+00841+00481102111ADDAY141031AY221031GA1081+004501061GF108991081051004501999999IA1019MA1999999096151MD1210081-0331MW1051REMSYN106AAXX  11031 76393 31430 81201 10084 20048 39615 40211 52008 70542 885// 90250 333 30/// 563// 59033 88615;
0253763930999992010021106004+25733-100300FM-12+051599999V0200901N001010021019N0020001N1+00741+00541101861ADDAY141061AY221061GF108991081051002501999999GJ100009IA1019KA1240M+00981KA2240N+00701MA1999999095911MD1710241-0571MW1051REMSYN124AAXX  11061 76393 31320 80901 10074 20054 39591 40186 57024 70542 885// 90550 333 10098 20070 30/// 55000 563// 59057 88605;
0217763930999992010021109004+25733-100300FM-12+051599999V0209999C000010015019N0020001N1+00761+00601101621ADDAY141031AY241031GA1081+001501061GF108991081051001501999999IA1019MA1999999095681MD1710231-0641MW1051REMSYN106AAXX  11091 76393 31220 80000 10076 20060 39568 40162 57023 70544 885// 90850 333 30/// 563// 59064 88605;
0240763930999992010021121004+25733-100300FM-12+051599999V0200501N001010900019N0020001N1+01701+00811100681ADDAA103000991AY121031AY221031GA1011+003301081GF105991011021012501011011IA1019MA1999999094871MD1710421-1321MW1041REMSYN118AAXX  11211 76393 21620 50501 10170 20081 39487 40068 57042 70422 81211 92050 333 30/// 56555 59132 69997 81811 83411;
0273763930999992010021206004+25733-100300FM-12+051599999V0201301N002012200019N0020001N1+01301+00581101491ADDAA106000091AY141061AY201061GA1001+999999999GF100991001001999999001001IA1019KA1240M+01801KA2240N+00701MA1999999095691MD1210161-0221MW1051REMSYN106AAXX  12061 76393 11920 01302 10130 20058 39569 40149 52016 69911 70540 90550 333 10180 20070 30/// 59022;EQDQ01  00002PRCP06
0199763930999992010021209004+25733-100300FM-12+051599999V0201901N001012200019N0030001N1+00921+00301101491ADDAY141031AY201031GA1001+999999999GF100991001001999999001001IA1019MA1999999095671MD1410001-0071MW1051REMSYN088AAXX  12091 76393 31930 01901 10092 20030 39567 40149 54002 70540 90855 333 30/// 59007;
0273763930999992010021212004+25733-100300FM-12+051599999V0203601N001012200019N0020001N1+00921-00011101601ADDAA124000091AY141061AY201061GA1001+999999999GF100991001001999999001001IA1019KA1240M+01881KA2120N+00861MA1999999095731MD1410001+0371MW1051REMSYN106AAXX  12121 76393 31920 03601 10092 21001 39573 40160 54006 70540 91155 333 10188 20086 30052 58037 70000;EQDQ01  00002PRCP24
0199763930999992010021215004+25733-100300FM-12+051599999V0209999C000012200019N0060001N1+01361+00371101921ADDAY101031AY201031GA1001+999999999GF100991001001999999001001IA1019MA1999999096031MD1210301+0671MW1041REMSYN088AAXX  12151 76393 31956 00000 10136 20037 39603 40192 52030 70400 91440 333 30/// 58067;
0237763930999992010021218004+25733-100300FM-12+051599999V0200901N003012200019N0030001N1+01721+00421101961ADDAY101061AY201061GA1001+999999999GF100991001001999999001001IA1019KA1120M+01841KA2240N+00701MA1999999096071MD1010041+0781MW1041REMSYN100AAXX  12181 76393 31930 00903 10172 20042 39607 40196 50004 70400 91740 333 10184 20070 30/// 58078;
0199763930999992010021221004+25733-100300FM-12+051599999V0201401N002012200019N0040001N1+02021+00701101561ADDAY101031AY201031GA1001+999999999GF100991001001999999001001IA1019MA1999999095751MD1710321+0881MW1041REMSYN088AAXX  12211 76393 31940 01402 10202 20070 39575 40156 57032 70400 92050 333 30/// 58088;
0251763930999992010021300004+25733-100300FM-12+051599999V0201301N005012200019N0040001N1+01561+01101101651ADDAA124000091GA1001+999999999GF100991001001999999001001IA1019KA1120M+02181KA2180N+00861MA1999999095871MD1210121+0621REMSYN106AAXX  13001 76393 32940 01305 10156 20110 39587 40165 52012 92350 333 10218 20086 30/// 50231 58062 70001;EQDQ01  00002PRCP24
0199763930999992010021303004+25733-100300FM-12+051599999V0203201N001012200019N0030001N1+01221+00661101871ADDAY141031AY201031GA1001+999999999GF100991001001999999001001IA1019MA1999999096091MD1210221+0561MW1051REMSYN088AAXX  13031 76393 31930 03201 10122 20066 39609 40187 52022 70540 90250 333 30/// 58056;
0251763930999992010021306004+25733-100300FM-12+051599999V0202501N001012200019N0020001N1+01101+00761101891ADDAY141061AY201061GA1001+999999999GF100991001001999999001001GJ105769IA1019KA1240M+02181KA2240N+00861MA1999999096081MD1710011+0391MW1051REMSYN106AAXX  13061 76393 31920 02501 10110 20076 39608 40189 57001 70540 90550 333 10218 20086 30/// 55096 58039;
0199763930999992010021309004+25733-100300FM-12+051599999V0200901N001012200019N0040001N1+00861+00541101811ADDAY141031AY201031GA1001+999999999GF100991001001999999001001IA1019MA1999999095961MD1610121+0291MW1051REMSYN088AAXX  13091 76393 31940 00901 10086 20054 39596 40181 56012 70540 90855 333 30/// 58029;
0273763930999992010021312004+25733-100300FM-12+051599999V0200901N001012200019N0020001N1+00701+00541101841ADDAA124000091AY141061AY201061GA1001+999999999GF100991001001999999001001IA1019KA1240M+02181KA2120N+00681MA1999999095941MD1410001+0211MW1051REMSYN106AAXX  13121 76393 31920 00901 10070 20054 39594 40184 54002 70540 91155 333 10218 20068 30054 58021 70000;EQDQ01  00002PRCP24
0223763930999992010021321004+25733-100300FM-12+051599999V0201201N00201036001CN0020001N1+01441+00791101731ADDAY141031AY241031GA1021+006601081GF107991021011008001031999IA1019MA1999999095801MD1710291+0051MW1041REMSYN112AAXX  13211 76393 31520 71202 10144 20079 39580 40173 57029 70444 8213/ 92050 333 30/// 5635/ 58005 82822 85356;
0262763930999992010021400004+25733-100300FM-12+051599999V0201201N001010042019N0030001N1+01371+00811101621ADDAA124000091AY141061AY241061GF108991081051004501999999IA1019KA1120M+01501KA2180N+00521MA1999999095731MD1710071-0141MW1041REMSYN130AAXX  14001 76393 31430 81201 10137 20081 39573 40162 57007 70444 885// 92350 333 10150 20052 30/// 50371 566// 59014 70000 88618;
0217763930999992010021403004+25733-100300FM-12+051599999V0201201N001010045019N0030001N1+01221+00861101611ADDAY141031AY221031GA1081+004501061GF108991081051004501999999IA1019MA1999999095761MD1510021-0331MW1051REMSYN106AAXX  14031 76393 31430 81201 10122 20086 39576 40161 55002 70542 885// 90250 333 30/// 565// 59033 88615;
0253763930999992010021406004+25733-100300FM-12+051599999V0201001N001012200019N0020001N1+01161+00911101571ADDAY141061AY201061GF102991021041004501001001GJ101449IA1019KA1240M+01511KA2240N+00521MA1999999095741MD1210021-0341MW1051REMSYN124AAXX  14061 76393 31420 21001 10116 20091 39574 40157 52002 70540 82400 90550 333 10151 20052 30/// 55024 56399 59034 82610;
0217763930999992010021409004+25733-100300FM-12+051599999V0209999C000012200019N0020001N1+01001+00811101431ADDAY141031AY201031GA1031+001801061GF103991031051001501001001IA1019MA1999999095581MD1610161-0381MW1051REMSYN106AAXX  14091 76393 31220 30000 10100 20081 39558 40143 56016 70540 83500 90855 333 30/// 56300 59038 83606;
0273763930999992010021412004+25733-100300FM-12+051599999V0202301N001012200019N0020001N1+00921+00771101411ADDAA124000091AY141061AY201061GA1001+999999999GF100991001001999999001001IA1019KA1240M+01511KA2120N+00701MA1999999095541MD1410001-0401MW1051REMSYN106AAXX  14121 76393 31920 02301 10092 20077 39554 40141 54004 70540 91155 333 10151 20070 30068 59040 70000;EQDQ01  00002PRCP24
0195763930999992010021415004+25733-100300FM-12+051599999V0202001N001012200019N0010001N1+01201+00821101611ADDAY141031AY241031GF103991021001022501031011IA1019MA1999999095721MD1210181-0411MW1051REMSYN100AAXX  14151 76393 31810 32001 10120 20082 39572 40161 52018 70544 82031 91450 333 30/// 56055 59041;
0233763930999992010021418004+25733-100300FM-12+051599999V0201501N002012200019N0010001N1+01971+00931101481ADDAY141061AY241061GF101991001001999999001011IA1019KA1120M+02081KA2240N+00701MA1999999095631MD1710091-0461MW1051REMSYN112AAXX  14181 76393 31910 11502 10197 20093 39563 40148 57009 70544 80001 91750 333 10208 20070 30/// 56005 59046;
0199763930999992010021421004+25733-100300FM-12+051599999V0201201N002012200019N0020001N1+02461+00681101081ADDAY101031AY201031GA1001+999999999GF100991001001999999001001IA1019MA1999999095321MD1710311-0481MW1041REMSYN088AAXX  14211 76393 31920 01202 10246 20068 39532 40108 57031 70400 92050 333 30/// 59048;
0279763930999992010021500004+25733-100300FM-12+051599999V0201201N002012200019N0020001N1+02421+00351101051ADDAA124000091AY101061AY201061GA1001+999999999GF100991001001999999001001IA1019KA1120M+02601KA2180N+00701MA1999999095361MD1410001-0381MW1041REMSYN112AAXX  15001 76393 31920 01202 10242 20035 39536 40105 54004 70400 92350 333 10260 20070 30/// 50151 59038 70000;EQDQ01  00002PRCP24
0253763930999992010021506004+25733-100300FM-12+051599999V0200201N004010120019N0020001N1+01861+00851101681ADDAY141061AY221061GF108991081041012501999999GJ105649IA1019KA1240M+02601KA2240N+00701MA1999999096011MD1210371+0271MW1051REMSYN124AAXX  15061 76393 31620 80204 10186 20085 39601 40168 52037 70542 884// 90550 333 10260 20070 30/// 55094 563// 58027 88642;
0253763930999992010021509004+25733-100300FM-12+051599999V0200501N003010039019N0020001N1+00701+00321102171ADDAA103000091AY141031AY221031GA1081+003901061GF108991081051004501999999IA1019MA1999999096411MD1210401+0831MW1051REMSYN112AAXX  15091 76393 21420 80503 10070 20032 39641 40217 52040 70542 885// 90855 333 30/// 56399 58083 69907 88613;EQDQ01  00002PRCP03
0217763930999992010021515004+25733-100300FM-12+051599999V0200501N001010072019N0030001N1+00681-00101102861ADDAY141031AY221031GA1081+007201061GF108991081051008001999999IA1019MA1999999096911MD1210331+1191MW1051REMSYN106AAXX  15151 76393 31530 80501 10068 21010 39691 40286 52033 70542 885// 91450 333 30/// 563// 58119 88624;
0144763930999992010021521004+25733-100300FM-12+051599999V0209999C000019999999N0030001N1+01261-00101999999ADDGF107991999999012501999999REMSYN106AAXX  15211 76393 31630 70000 10126 21010 2040 39654 40251 57038 70422 875/ 9 333 30/// 563// 59122 87648;
0262763930999992010021600004+25733-100300FM-12+051599999V0201201N001012200019N0040001N1+01261-00101102351ADDAA124000091AY101061AY201061GF102991021051012501001001IA1019KA1120M+01421KA2180N+00681MA1999999096411MD1710131+1151MW1041REMSYN130AAXX  16001 76393 31640 21201 10126 21010 39641 40235 57013 70400 82500 92340 333 10142 20068 30/// 50061 56300 58115 70000 82648;
0236763930999992010021721004+25733-100300FM-12+051599999V0201201N003010600019N0050001N1+01701+00181102221ADDAY121031AY221031GA1081+060001021GF108991001001999999001071IA1019MA1999999096321MD1710341+0021MW1041REMSYN106AAXX  17211 76393 31950 81203 10170 20018 39632 40222 57034 70422 88007 92040 333 30/// 56007 58002 88270;EQDQ01+000082SCOTLC
0234763930999992010021903004+25733-100300FM-12+051599999V0201001N003010024019N0020001N1+01121+01051101801ADDAA103001091AY121031AY221031GA1081+002401071GF108991081061000751999999IA1119MA1999999095901MD1510021-0441MW1511REMSYN112AAXX  19031 76393 21120 81003 10112 20105 39590 40180 55002 75122 886// 90250 333 32/// 563// 59044 60017 88708;
0255763930999992010021918004+25733-100300FM-12+051599999V0200701N001012200019N0020001N1+01661+01121101781ADDAY141061AY201061GA1031+006601061GF103991031051008001001001IA1019KA1120M+01761KA2240N+01001MA1999999095901MD1410001-0291MW1051REMSYN118AAXX  19181 76393 31520 30701 10166 20112 39590 40178 54002 70540 83500 91750 333 10176 20100 30/// 56300 59029 83622;
0217763930999992010021921004+25733-100300FM-12+051599999V0200601N004012200019N0020001N1+01981+01161101501ADDAY111031AY211031GA1041+010201081GF104991041021012501001001IA1019MA1999999096181MD1710281+0261MW1051REMSYN106AAXX  19211 76393 31620 40604 10198 20116 39618 40150 57028 70511 84200 92040 333 30/// 56300 58026 84834;
0262763930999992010022000004+25733-100300FM-12+051599999V0201101N003010075019N0020001N1+01621+01121101491ADDAA124002491AY121061AY221061GF107991071021008001999999IA1019KA1120M+02121KA2180N+01001MA1999999095701MD1010021-0221MW1051REMSYN130AAXX  20001 76393 31520 71103 10162 20112 39570 40149 50002 70522 872// 92340 333 10212 20100 30/// 50031 563// 59022 70024 87820;
0217763930999992010022003004+25733-100300FM-12+051599999V0201501N001010036019N0020001N1+01541+01241101611ADDAY141031AY221031GA1081+003601061GF108991081051004501999999IA1019MA1999999095851MD1210151-0051MW1051REMSYN106AAXX  20031 76393 31420 81501 10154 20124 39585 40161 52015 70542 885// 90240 333 30/// 563// 59005 88612;
0253763930999992010022006004+25733-100300FM-12+051599999V0200601N001012200019N0020001N1+01401+01161101671ADDAY141061AY201061GF103991031041002501001001GJ101509IA1019KA1240M+02121KA2240N+01001MA1999999095901MD1710051-0081MW1051REMSYN124AAXX  20061 76393 31320 30601 10140 20116 39590 40167 57005 70540 83400 90550 333 10212 20100 30/// 55025 563// 59008 88610;
0217763930999992010022009004+25733-100300FM-12+051599999V0200501N001012200019N0010001N1+01201+01171101461ADDAY141031AY201031GA1031+000301061GF103991031051000251001001IA1019MA1999999095671MD1710231-0111MW1051REMSYN106AAXX  20091 76393 31010 30501 10120 20117 39567 40146 57023 70540 83500 90855 333 30/// 56300 59011 83601;
0272763930999992010022012004+25733-100300FM-12+051599999V0203301N001010006019N0010001N1+01201+01131101401ADDAA124000091AY141061AY221061GA1081+000601061GF108991081051000751999999IA1019KA1240M+02121KA2120N+01101MA1999999095591MD1410001-0081MW1051REMSYN124AAXX  20121 76393 31110 83301 10120 20113 39559 40140 54008 70542 885// 91155 333 10212 20110 30104 56399 59008 70000 88602;
0274763930999992010022018004+25733-100300FM-12+051599999V0201201N002012200019N0008001N1+01881+01151101461ADDAY141061AY241061GA1011+007201081GF101991011999008001001001IA1019KA1120M+01991KA2240N+01101MA1999999095641MD1710091-0261MW1051REMSYN118AAXX  20181 76393 31508 11202 10188 20115 39564 40146 57009 70544 81000 91750 333 10199 20110 30/// 56800 59026 81824;EQDQ01+000002SCOLCG
0199763930999992010022021004+25733-100300FM-12+051599999V0201001N003012200019N0020001N1+02181+01281101081ADDAY101031AY201031GA1001+999999999GF100991001001999999001001IA1019MA1999999095331MD1710311-0251MW1051REMSYN088AAXX  20211 76393 31920 01003 10218 20128 39533 40108 57031 70500 92040 333 30/// 59025;
0199763930999992010022115004+25733-100300FM-12+051599999V0200601N001012200019N0030001N1+01741+01211101021ADDAY101031AY201031GA1001+999999999GF100991001001999999001001IA1019MA1999999095271MD1710291-0461MW1041REMSYN088AAXX  21151 76393 31930 00601 10174 20121 39527 40102 57029 70400 91450 333 30/// 59046;
0205763930999992010022118004+25733-100300FM-12+051599999V0201401N001012200019N0030001N1+02621+01141101011ADDGF103991001001999999001061IA1019KA1120M+02701KA2240N+01401MA1999999095301MD1410001-0341REMSYN106AAXX  21181 76393 32930 31401 10262 20114 39530 40101 54003 80006 91750 333 10270 20140 30/// 56005 59034;
0217763930999992010022121004+25733-100300FM-12+051599999V0201001N002010600019N0050001N1+02891+00841100601ADDAY141031AY241031GA1061+060001001GF106991001001999999001061IA1019MA1999999094971MD1710331-0361MW1051REMSYN106AAXX  21211 76393 31950 61002 10289 20084 39497 40060 57033 70544 80006 92050 333 30/// 56005 59036 86070;
0245763930999992010022200004+25733-100300FM-12+051599999V0201401N004012200019N0050001N1+02501+00971100571ADDAY141061AY241061GF103991001001999999001061IA1019KA1120M+02991KA2180N+01401MA1999999095001MD1210031-0291MW1041REMSYN124AAXX  22001 76393 31950 31404 10250 20097 39500 40057 52003 70444 80006 92350 333 10299 20140 30/// 50591 56005 59029 70000;
0199763930999992010022203004+25733-100300FM-12+051599999V0201301N004012200019N0020001N1+02121+01131100771ADDAY141031AY201031GA1001+999999999GF100991001001999999001001IA1019MA1999999095211MD1210211+0181MW1051REMSYN088AAXX  22031 76393 31920 01304 10212 20113 39521 40077 52021 70540 90250 333 30/// 58018;
0195763930999992010022221004+25733-100300FM-12+051599999V0201401N002012200019N0030001N1+02781+00981100581ADDAY141031AY201031GF102991001001999999001061IA1019MA1999999094941MD1710351-0031MW1041REMSYN100AAXX  22211 76393 31930 21402 10278 20098 39494 40058 57035 70440 80006 92050 333 30/// 56005 59003;
0245763930999992010022300004+25733-100300FM-12+051599999V0201401N005012200019N0040001N1+02561+00841100351ADDAY141061AY201061GF102991001001999999001011IA1019KA1120M+02861KA2180N+01301MA1999999094781MD1710161-0221MW1041REMSYN124AAXX  23001 76393 31940 21405 10256 20084 39478 40035 57016 70440 80001 92350 333 10286 20130 30/// 50441 56005 59022 70000;
0191763930999992010022312004+25733-100300FM-12+051599999V0201201N002019999999N0010001N1+01481+01351100631ADDAA106000091AY141061AY221061GF108991999999001501999999MA1999999094931MD1410001+9999MW1051REMSYN072AAXX  23121 76393 01210 81202 10148 20135 39493 40063 54003 69901 70542;EQDQ01  00002PRCP06
0172763930999992010022318004+25733-100300FM-12+051599999V0203501N002019999999N0010001N1+00981+00791101471ADDAA106001091AY151061AY251061GF108991999999001501999999MA1999999095661MD1210351+9999MW1501REMSYN072AAXX  23181 76393 01210 83502 10098 20079 39566 40147 52035 69991 75055;
0172763930999992010022400004+25733-100300FM-12+051599999V0203601N002019999999N0010001N1+00661+00331101911ADDAA106000391AY151061AY251061GF108991999999004501999999MA1999999096001MD1210251+9999MW1051REMSYN072AAXX  24001 76393 01410 83602 10066 20033 39600 40191 52025 69931 70555;
0217763930999992010022403004+25733-100300FM-12+051599999V0203601N005010048019N0010001N1+00581+00181102321ADDAY141031AY221031GA1081+004801061GF108991081051004501999999IA1019MA1999999096341MD1210341+1301MW1051REMSYN106AAXX  24031 76393 31410 83605 10058 20018 39634 40232 52034 70542 885// 90250 333 30/// 561// 58130 88616;
0284763930999992010022412004+25733-100300FM-12+051599999V0200601N001012200019N0030001N1+00501-00111102611ADDAA124001091AY141061AY201061GA1021+003901061GF102991021051004501001001IA1019IA2999+00209KA1240M+01641KA2120N+00401MA1999999096571MD1410001+1641MW1051REMSYN124AAXX  24121 76393 31430 20601 10050 21011 39657 40261 54002 70540 82500 91155 333 10164 20040 30020 56300 58164 70010 82613;
0198763930999992010022421004+25733-100300FM-12+051599999V0200701N001012200019N0040001N1+01741-00711102591ADDAY101031AY201031GA1001+999999999GF100991001001999999001001IA1019MA1999999096451MD1710301+9999MW1041REMSYN087AAXX  24211 76393 31940 00701 10174 21071 39645 40259 57030 70400 92050 333 30/// 5870;
0251763930999992010022500004+25733-100300FM-12+051599999V0201401N001012200019N0060001N1+01861-00161102161ADDAA124000091GA1001+999999999GF100991001001999999001001IA1019KA1120M+02101KA2180N+00401MA1999999096311MD1710141+0311REMSYN106AAXX  25001 76393 32956 01401 10186 21016 39631 40216 57014 92350 333 10210 20040 30/// 50141 58031 70000;EQDQ01  00002PRCP24
0285763930999992010022512004+25733-100300FM-12+051599999V0209999C000012200019N0030001N1+00671+00061101821ADDAA124000091AY141061AY241061GA1001+999999999GF100991001001999999001001IA1019IA2999+00409KA1240M+02101KA2120N+00501MA1999999095961MD1999999-0611MW1051REMSYN106AAXX  25121 76393 31930 00000 10067 20006 39596 40182 5//// 70544 91150 333 10210 20050 30040 59061 70000;EQDQ01  00002PRCP24
0199763930999992010022515004+25733-100300FM-12+051599999V0203401N001012200019N0020001N1+00971-00191101891ADDAY141031AY241031GA1001+999999999GF100991001001999999001001IA1019MA1999999095961MD1410001-0861MW1051REMSYN088AAXX  25151 76393 31920 03401 10097 21019 39596 40189 54000 70544 91450 333 30/// 59086;
0237763930999992010022518004+25733-100300FM-12+051599999V0201401N001012200019N0030001N1+01741+00031101671ADDAY141061AY241061GA1001+999999999GF100991001001999999001001IA1019KA1120M+01861KA2240N+00501MA1999999095821MD1710141-0931MW1041REMSYN100AAXX  25181 76393 31930 01401 10174 20003 39582 40167 57014 70444 91750 333 10186 20050 30/// 59093;
0199763930999992010022521004+25733-100300FM-12+051599999V0201401N001012200019N0030001N1+02321+00511101141ADDAY101031AY201031GA1001+999999999GF100991001001999999001001IA1019MA1999999095391MD1710431-1061MW1041REMSYN088AAXX  25211 76393 31930 01401 10232 20051 39539 40114 57043 70400 92050 333 30/// 59106;
0251763930999992010022600004+25733-100300FM-12+051599999V0201401N001012200019N0040001N1+02201+00371100731ADDAA124000091GA1001+999999999GF100991001001999999001001IA1019KA1120M+02441KA2180N+00501MA1999999095051MD1710341-1261REMSYN106AAXX  26001 76393 32940 01401 10220 20037 39505 40073 57034 92350 333 10244 20050 30/// 50461 59126 70000;EQDQ01  00002PRCP24
0199763930999992010022603004+25733-100300FM-12+051599999V0202301N001012200019N0030001N1+01801+00951100721ADDAY141031AY201031GA1001+999999999GF100991001001999999001001IA1019MA1999999095071MD1010021-1331MW1051REMSYN088AAXX  26031 76393 31930 02301 10180 20095 39507 40072 50002 70540 90250 333 30/// 59133;
0251763930999992010022606004+25733-100300FM-12+051599999V0203301N001012200019N0030001N1+01401+00701100781ADDAY141061AY201061GA1001+999999999GF100991001001999999001001GJ101929IA1019KA1240M+02441KA2240N+00501MA1999999095121MD1210051-1251MW1051REMSYN106AAXX  26061 76393 31930 03301 10140 20070 39512 40078 52005 70540 90550 333 10244 20050 30/// 55032 59125;
0199763930999992010022609004+25733-100300FM-12+051599999V0203501N001012200019N0020001N1+01161+00541100961ADDAY141031AY201031GA1001+999999999GF100991001001999999001001IA1019MA1999999095251MD1310131+9999MW1051REMSYN088AAXX  26091 76393 31920 03501 10116 20054 39525 40096 53013 70540 90855 333 30/// 59///;
0273763930999992010022612004+25733-100300FM-12+051599999V0201301N001012200019N0020001N1+01301+00441101171ADDAA124000091AY141061AY201061GA1001+999999999GF100991001001999999001001IA1019KA1240M+02441KA2120N+01101MA1999999095401MD1310151-0561MW1051REMSYN106AAXX  26121 76393 31920 01301 10130 20044 39540 40117 53015 70540 91155 333 10244 20110 30078 59056 70000;EQDQ01  00002PRCP24
0199763930999992010022615004+25733-100300FM-12+051599999V0202701N002012200019N0030001N1+01781+00461101531ADDAY141031AY241031GA1001+999999999GF100991001001999999001001IA1019MA1999999095711MD1210311-0251MW1041REMSYN088AAXX  26151 76393 31930 02702 10178 20046 39571 40153 52031 70444 91450 333 30/// 59025;
0237763930999992010022618004+25733-100300FM-12+051599999V0200201N003012200019N0040001N1+02371+00041101571ADDAY141061AY241061GA1001+999999999GF100991001001999999001001IA1019KA1120M+02451KA2240N+01101MA1999999095781MD1210071-0041MW1041REMSYN100AAXX  26181 76393 31940 00203 10237 20004 39578 40157 52007 70444 91750 333 10245 20110 30/// 59004;
0199763930999992010022621004+25733-100300FM-12+051599999V0200301N002012200019N0040001N1+02341+00141101381ADDAY141031AY241031GA1001+999999999GF100991001001999999001001IA1019MA1999999095661MD1410001+0361MW1041REMSYN088AAXX  26211 76393 31940 00302 10234 20014 39566 40138 54012 70444 92050 333 30/// 58036;
0251763930999992010022700004+25733-100300FM-12+051599999V0200301N002012200019N0060001N1+02161-00131101421ADDAA124000091GA1001+999999999GF100991001001999999001001IA1019KA1120M+02501KA2180N+01101MA1999999095741MD1410001+0691REMSYN106AAXX  27001 76393 32956 00302 10216 21013 39574 40142 54008 92350 333 10250 20110 30/// 50591 58069 70000;EQDQ01  00002PRCP24
0199763930999992010022703004+25733-100300FM-12+051599999V0200901N001012200019N0030001N1+01801+00051101891ADDAY141031AY201031GA1001+999999999GF100991001001999999001001IA1019MA1999999096211MD1210471+1141MW1051REMSYN088AAXX  27031 76393 31930 00901 10180 20005 39621 40189 52047 70540 90250 333 30/// 58114;
0251763930999992010022706004+25733-100300FM-12+051599999V0200901N001012200019N0030001N1+01521+00241102181ADDAY141061AY201061GA1001+999999999GF100991001001999999001001GJ102829IA1019KA1240M+02531KA2240N+01101MA1999999096451MD1210241+1331MW1051REMSYN106AAXX  27061 76393 31930 00901 10152 20024 39645 40218 52024 70540 90550 333 10253 20110 30/// 55047 58133;
0237763930999992010022718004+25733-100300FM-12+051599999V0200401N002012200019N0030001N1+01821+00011102401ADDAY101061AY201061GA1001+999999999GF100991001001999999001001IA1019KA1120M+02021KA2240N+00981MA1999999096531MD1710081+0751MW1051REMSYN100AAXX  27181 76393 31930 00402 10182 20001 39653 40240 57008 70500 91750 333 10202 20098 30/// 58075;
0199763930999992010022721004+25733-100300FM-12+051599999V0201401N003012200019N0040001N1+02111+00241101851ADDAY141031AY241031GA1001+999999999GF100991001001999999001001IA1019MA1999999096051MD1710481+0391MW1041REMSYN088AAXX  27211 76393 31940 01403 10211 20024 39605 40185 57048 70444 92050 333 30/// 58039;
0279763930999992010022800004+25733-100300FM-12+051599999V0201501N004012200019N0040001N1+01981+00231101701ADDAA124000091AY141061AY241061GA1001+999999999GF100991001001999999001001IA1019KA1120M+02271KA2180N+00981MA1999999095961MD1710091+0221MW1041REMSYN112AAXX  28001 76393 31940 01504 10198 20023 39596 40170 57009 70444 92350 333 10227 20098 30/// 50731 58022 70000;EQDQ01  00002PRCP24
0199763930999992010022809004+25733-100300FM-12+051599999V0200901N002012200019N0060001N1+01001+00571101331ADDAY141031AY201031GA1001+999999999GF100991001001999999001001IA1019MA1999999095581MD1710321-0811MW1051REMSYN088AAXX  28091 76393 31956 00902 10100 20057 39558 40133 57032 70540 90855 333 30/// 59081;
0269763930999992010022812004+25733-100300FM-12+051599999V0200701N001012200019N0080001N1+00801+00391101331ADDAA124000091AY141061AY201061GF102991001001999999001041IA1019KA1240M+02271KA2120N+00741MA1999999095521MD1410001-0861MW1051REMSYN118AAXX  28121 76393 31958 20701 10080 20039 39552 40133 54006 70540 80004 91155 333 10227 20074 30062 56005 59086 70000;EQDQ01  00002PRCP24
0179763930999992010022815004+25733-100300FM-12+051599999V0200901N001019999999N0040001N1+01001+00531101421ADDGF108991999999999999999999MA1999999095561MD1210041-1051REMSYN112AAXX  28151 76393 32940 80901 10100 20053 39556 40142 52004 52004 70542 8803/ 91455 333 30/// 56099 59105 88366;
0217763930999992010022821004+25733-100300FM-12+051599999V0201401N004010390019N0040001N1+02101+00821100721ADDAY121031AY221031GA1081+039001041GF108991081001999999011999IA1019MA1999999094931MD1710481-1121MW1051REMSYN106AAXX  28211 76393 31940 81404 10210 20082 39493 40072 57048 70522 8801/ 92050 333 30/// 56059 59112 88463;
0217763930999992010030100004+25733-100300FM-12+051599999V0200501N001012200019N0040001N1+02181+00741100131ADDGF104991001001999999001011IA1019KA1120M+02341KA2180N+00741MA1999999094441MD1710491-1521REMSYN118AAXX  01001 76393 32940 40501 10218 20074 39444 40013 57049 80001 92350 333 10234 20074 30/// 50311 56005 59152 70000;
0217763930999992010030103004+25733-100300FM-12+051599999V0202101N001010180019N0030001N1+01941+00861100091ADDAY141031AY211031GA1051+018001041GF105991051001012501011001IA1019MA1999999094451MD1210011-1511MW1051REMSYN106AAXX  01031 76393 31630 52101 10194 20086 39445 40009 52001 70541 85010 90250 333 30/// 56050 59151 85456;
0251763930999992010030106004+25733-100300FM-12+051599999V0203301N002012200019N0030001N1+01741+00861100571ADDAY141061AY201061GA1001+999999999GF100991001001999999001001GJ102169IA1019KA1240M+02341KA2240N+00741MA1999999094931MD1210481-0971MW1051REMSYN106AAXX  01061 76393 31930 03302 10174 20086 39493 40057 52048 70540 90550 333 10234 20074 30/// 55036 59097;
0199763930999992010030109004+25733-100300FM-12+051599999V0202901N001012200019N0080001N1+01821+00521100621ADDAY141031AY201031GA1001+999999999GF100991001001999999001001IA1019MA1999999094971MD1410001-0611MW1051REMSYN088AAXX  01091 76393 31958 02901 10182 20052 39497 40062 54004 70540 90855 333 30/// 59061;
0285763930999992010030112004+25733-100300FM-12+051599999V0201001N001012200019N0080001N1+01521+00631100751ADDAA124000091AY141061AY201061GF102991999001022501031001IA1019KA1240M+02341KA2120N+01481MA1999999095061MD1410001-0461MW1051REMSYN118AAXX  01121 76393 31858 21001 10152 20063 39506 40075 54009 70540 80030 91155 333 10234 20148 30126 56050 59046 70000;EQDQ01+000002SCOTLCQ02  00002PRCP24
0217763930999992010030115004+25733-100300FM-12+051599999V0201401N001012200019N0040001N1+01681+00751101091ADDAY101031AY201031GA1031+011401061GF103991031041012501001001IA1019MA1999999095371MD1210311-0191MW1041REMSYN106AAXX  01151 76393 31640 31401 10168 20075 39537 40109 52031 70400 83400 91450 333 30/// 56700 59019 83638;
0227763930999992010030118004+25733-100300FM-12+051599999V0200701N001012200019N0040001N1+02481+00711100991ADDGA1031+021001081GF103991031011022501001001IA1019KA1120M+02521KA2240N+01481MA1999999095281MD1710091-0131REMSYN112AAXX  01181 76393 32840 30701 10248 20071 39528 40099 57009 83100 91750 333 10252 20148 30/// 56700 59013 83857;
0217763930999992010030121004+25733-100300FM-12+051599999V0203101N006012200019N0030001N1+02801-00221100711ADDAY101031AY201031GA1011+024001081GF101991011021022501001001IA1019MA1999999095011MD1610211-0141MW1041REMSYN106AAXX  01211 76393 31830 13106 10280 21022 39501 40071 56021 70400 81200 92040 333 30/// 56500 59014 81858;
0243763930999992010030200004+25733-100300FM-12+051599999V0203101N003012200019N0030001N1+02621-00501100751ADDAY101061AY201061GA1001+999999999GF100991001001999999001001IA1019KA1120M+02921KA2180N+01481MA1999999095151MD1210081+0711MW1041REMSYN106AAXX  02001 76393 31930 03103 10262 21050 39515 40075 52008 70400 92340 333 10292 20148 30/// 50061 58071;
0199763930999992010030215004+25733-100300FM-12+051599999V0203401N002012200019N0030001N1+01021+00061102571ADDAY141031AY201031GA1001+999999999GF100991001001999999001001IA1019MA1999999096621MD1210221+1251MW1051REMSYN088AAXX  02151 76393 31930 03402 10102 20006 39662 40257 52022 70540 91450 333 30/// 58125;
0237763930999992010030218004+25733-100300FM-12+051599999V0200601N001012200019N0030001N1+01561+00861102501ADDAY101061AY201061GA1001+999999999GF100991001001999999001001IA1019KA1120M+01641KA2240N+00681MA1999999096561MD1410001+1281MW1041REMSYN100AAXX  02181 76393 31930 00601 10156 20086 39656 40250 54006 70400 91750 333 10164 20068 30/// 58128;
0195763930999992010030221004+25733-100300FM-12+051599999V0200601N002012200019N0030001N1+01941-00021102051ADDAY101031AY201031GF102991001001999999001011IA1019MA1999999096181MD1710381+1111MW1041REMSYN100AAXX  02211 76393 31930 20602 10194 21002 39618 40205 57038 70400 80001 92040 333 30/// 56002 58111;
0262763930999992010030300004+25733-100300FM-12+051599999V0201301N002019999999N0030001N1+01941+00101101841ADDAA124000091AY121061AY221061GF106991001001999999001011IA1019KA1120M+02121KA2180N+00681MA1999999096041MD1710141+0891MW1041REMSYN130AAXX  03001 76393 31930 61302 10194 20010 39604 40184 57014 70422 80001 92340 333 10212 20068 30/// 50061 56003 58089 70000 86070;
0195763930999992010030303004+25733-100300FM-12+051599999V0201401N005012200019N0030001N1+01521+00041101991ADDAY141031AY241031GF102991001001999999001011IA1019MA1999999096211MD1210171+0341MW1041REMSYN100AAXX  03031 76393 31930 21405 10152 20004 39621 40199 52017 70444 80001 90250 333 30/// 56005 58034;
0247763930999992010030306004+25733-100300FM-12+051599999V0201201N001012200019N0030001N1+01311+00151101931ADDAY141061AY241061GF102991001001999999001011GJ105889IA1019KA1240M+02121KA2240N+00681MA1999999096151MD1710061+9999MW1041REMSYN118AAXX  03061 76393 31930 21201 10131 20015 39615 40193 57006 70444 80001 90555 333 10212 20068 30/// 55098 56005 59013;
0199763930999992010030309004+25733-100300FM-12+051599999V0202401N001012200019N0080001N1+01081+00151101881ADDAY141031AY201031GA1001+999999999GF100991001001999999001001IA1019MA1999999096071MD1410001-0261MW1051REMSYN088AAXX  03091 76393 31958 02401 10108 20015 39607 40188 54008 70540 90855 333 30/// 59026;
0273763930999992010030312004+25733-100300FM-12+051599999V0209999C000012200019N0080001N1+00921+00201101871ADDAA124000091AY141061AY201061GA1001+999999999GF100991001001999999001001IA1019KA1240M+02121KA2120N+00881MA1999999096021MD1410001-0381MW1051REMSYN106AAXX  03121 76393 31958 00000 10092 20020 39602 40187 54005 70540 91155 333 10212 20088 30056 59038 70000;EQDQ01  00002PRCP24
0217763930999992010030321004+25733-100300FM-12+051599999V0200901N006010600019N0030001N1+02181+00501101591ADDAY121031AY221031GA1071+060001001GF107991001001999999001011IA1019MA1999999095791MD1710341+0391MW1041REMSYN106AAXX  03211 76393 31930 70906 10218 20050 39579 40159 57034 70422 80001 92040 333 30/// 56003 58039 87070;
0262763930999992010030400004+25733-100300FM-12+051599999V0201401N003019999999N0030001N1+02141+00741101451ADDAA124000091AY121061AY221061GF106991001001999999001021IA1019KA1120M+02361KA2180N+00881MA1999999095721MD1010071-0321MW1041REMSYN130AAXX  04001 76393 31930 61403 10214 20074 39572 40145 50007 70422 80002 92340 333 10236 20088 30/// 50051 56003 59032 70000 86070;
0199763930999992010030403004+25733-100300FM-12+051599999V0201001N001012200019N0030001N1+01921+00841101501ADDAY141031AY201031GA1001+999999999GF100991001001999999001001IA1019MA1999999095811MD1210091-0401MW1051REMSYN088AAXX  04031 76393 31930 01001 10192 20084 39581 40150 52009 70540 90250 333 30/// 59040;
0253763930999992010030406004+25733-100300FM-12+051599999V0200601N002012200019N0030001N1+01401+00831101661ADDAY141061AY201061GF103991001001999999001051GJ106069IA1019KA1240M+02361KA2240N+00861MA1999999095951MD1210141-0201MW1051REMSYN124AAXX  04061 76393 31930 30602 10140 20083 39595 40166 52014 70540 80005 90550 333 10236 20086 30/// 55101 56005 59020 83258;
0217763930999992010030409004+25733-100300FM-12+051599999V0200901N001012200019N0030001N1+01101+00791101691ADDAY141031AY241031GA1041+003001061GF106991041051004501001011IA1019MA1999999095931MD1710021-0141MW1041REMSYN106AAXX  04091 76393 31430 60901 10110 20079 39593 40169 57002 70444 84501 90850 333 30/// 56505 59014 84610;
0272763930999992010030412004+25733-100300FM-12+051599999V0209999C000010021019N0030001N1+01061+00841101801ADDAA124000091AY141061AY241061GA1051+002101061GF106991051051002501001011IA1019KA1240M+02361KA2120N+01001MA1999999095981MD1210051-0041MW1041REMSYN124AAXX  04121 76393 31330 60000 10106 20084 39598 40180 52005 70444 85501 91150 333 10236 20100 30079 56505 59004 70000 85607;
0217763930999992010030415004+25733-100300FM-12+051599999V0200501N001010300019N0030001N1+01141+00851101901ADDAY141031AY221031GA1081+030001041GF108991081001999999021999IA1019MA1999999096101MD1210121-0091MW1051REMSYN106AAXX  04151 76393 31930 80501 10114 20085 39610 40190 52012 70542 8802/ 91450 333 30/// 5608/ 59009 88460;
0233763930999992010030418004+25733-100300FM-12+051599999V0200601N001012200019N0030001N1+01721+00921101891ADDAY101061AY201061GF104991041001999999011011IA1019KA1120M+01801KA2240N+01001MA1999999096021MD1410001-0111MW1041REMSYN112AAXX  04181 76393 31930 40601 10172 20092 39602 40189 54008 70400 84011 91750 333 10180 20100 30/// 56077 59011;
0217763930999992010030421004+25733-100300FM-12+051599999V0200601N006010144019N0030001N1+02221+01061101551ADDAY121031AY221031GA1071+014401061GF107991071041012501999999IA1019MA1999999095751MD1710271-0041MW1051REMSYN106AAXX  04211 76393 31630 70606 10222 20106 39575 40155 57027 70522 874// 92040 333 30/// 565// 59004 87648;
0262763930999992010030500004+25733-100300FM-12+051599999V0201101N002010120019N0030001N1+02081+00961101461ADDAA124000091AY121061AY221061GF108991081041012501999999IA1019KA1120M+02361KA2180N+01001MA1999999095721MD1510031+0001MW1051REMSYN130AAXX  05001 76393 31630 81102 10208 20096 39572 40146 55003 70522 884// 92340 333 10236 20100 30/// 50071 565// 58000 70000 88648;
0217763930999992010030503004+25733-100300FM-12+051599999V0201101N005010084019N0030001N1+01801+01131101521ADDAY121031AY221031GA1081+008401061GF108991081041008001999999IA1019MA1999999095811MD1210091+0001MW1051REMSYN106AAXX  05031 76393 31530 81105 10180 20113 39581 40152 52009 70522 884// 90250 333 30/// 563// 58000 88628;
0253763930999992010030506004+25733-100300FM-12+051599999V0201101N004010042019N0030001N1+01561+01161101531ADDAY141061AY221061GF106991061051004501999999GJ104209IA1019KA1240M+02361KA2240N+01001MA1999999095831MD1010021-0121MW1051REMSYN124AAXX  05061 76393 31430 61104 10156 20116 39583 40153 50002 70542 865// 90550 333 10236 20100 30/// 55070 563// 59012 86617;
0217763930999992010030509004+25733-100300FM-12+051599999V0201101N005010030019N0060001N1+01481+01181101371ADDAY141031AY211031GA1071+003001061GF107991071051002501999999IA1019MA1999999095651MD1710181-0281MW1051REMSYN106AAXX  05091 76393 31356 71105 10148 20118 39565 40137 57018 70541 875// 90855 333 30/// 56399 59028 87610;
0272763930999992010030512004+25733-100300FM-12+051599999V0201001N002010012019N0020001N1+01421+01291101351ADDAA124000091AY141061AY221061GA1081+001201061GF108991081051001501999999IA1019KA1240M+02361KA2120N+01381MA1999999095591MD1410001-0391MW1051REMSYN124AAXX  05121 76393 31220 81002 10142 20129 39559 40135 54006 70542 885// 91155 333 10236 20138 30136 56399 59039 70000 88604;
0234763930999992010030515004+25733-100300FM-12+051599999V0201201N002010033019N0010001N1+01481+01211101641ADDAA103000021AY151031AY221031GA1081+003301061GF108991081061004501999999IA1099MA1999999095851MD1210261-0251MW1501REMSYN112AAXX  05151 76393 21410 81202 10148 20121 39585 40164 52026 75052 886// 91450 333 31/// 563// 59025 69907 88611;
0255763930999992010030518004+25733-100300FM-12+051599999V0201401N002010042019N0010001N1+01701+01371101691ADDAY141061AY221061GA1081+004201061GF108991081061004501999999IA1019KA1120M+01741KA2240N+01381MA1999999095891MD1410001-0131MW1051REMSYN118AAXX  05181 76393 31410 81402 10170 20137 39589 40169 54004 70542 886// 91750 333 10174 20138 30/// 563// 59013 88614;
0217763930999992010030521004+25733-100300FM-12+051599999V0200901N001010069019N0030001N1+01861+01311101541ADDAY121031AY221031GA1081+006901061GF108991081041008001999999IA1019MA1999999095761MD1710131+0011MW1051REMSYN106AAXX  05211 76393 31530 80901 10186 20131 39576 40154 57013 70522 884// 92040 333 30/// 563// 58001 88623;
0284763930999992010030600004+25733-100300FM-12+051599999V0203201N001010360019N0030001N1+01881+01261101541ADDAA124999929AY121061AY221061GA1031+007801061GF108991031041012501021999IA1019KA1120M+02041KA2180N+01381MA1999999095791MD1510031+0071MW1051REMSYN136AAXX  06001 76393 31630 83201 10188 20126 39579 40154 55003 70522 8342/ 92340 333 10204 20138 30/// 50021 5637/ 58007 79999 83626 85460;
0217763930999992010030603004+25733-100300FM-12+051599999V0200601N002010015019N0030001N1+01661+01531101671ADDAY141031AY221031GA1081+001501061GF108991081051001501999999IA1019MA1999999095921MD1210131+0111MW1051REMSYN106AAXX  06031 76393 31230 80602 10166 20153 39592 40167 52013 70542 885// 90250 333 30/// 563// 58011 88605;
0270763930999992010030606004+25733-100300FM-12+051599999V0200901N002010012019N0010001N1+01581+01481101721ADDAA103000591AY151061AY211061GF108991081061001501999999GJ100129IA1099KA1240M+02041KA2240N+01381MA1999999095971MD1010051+0141MW1051REMSYN130AAXX  06061 76393 21210 80902 10158 20148 39597 40172 50005 70551 886// 90550 333 10204 20138 31/// 55002 563// 58014 69957 88704;
0234763930999992010030609004+25733-100300FM-12+051599999V0201201N002010006019N0010001N1+01581+01521101561ADDAA103001091AY151031AY221031GA1081+000601071GF108991081061000751999999IA1119MA1999999095811MD1710161+0161MW1501REMSYN112AAXX  06091 76393 21110 81202 10158 20152 39581 40156 57016 75052 886// 90855 333 32/// 56399 58016 60017 88702;
0172763930999992010030612004+25733-100300FM-12+051599999V0200901N002019999999N0010001N1+01541+01511101641ADDAA106027991AY151061AY221061GF108991999999000251999999MA1999999095861MD1410001+9999MW1501REMSYN072AAXX  06121 76393 01010 80902 10154 20151 39586 40164 54005 60281 75052;
0218763930999992010030615004+25733-100300FM-12+051599999V0201301N002010006019N0010001N1+01631+01581101921ADDAA103000391AY151031AY251031GF108991081071000751999999IA1099MA1999999096121MD1210261+0271MW1501REMSYN112AAXX  06151 76393 21110 81302 10163 20158 39612 40192 52026 75055 887// 91455 333 31/// 563// 58027 69937 58071;
0172763930999992010030618004+25733-100300FM-12+051599999V0201401N003019999999N0010001N1+01701+01591101961ADDAA106000591AY151061AY251061GF108991999999001501999999MA1999999096171MD1210051+9999MW1501REMSYN072AAXX  06181 76393 01210 81403 10170 20159 39617 40196 52005 69941 75055;
0234763930999992010030621004+25733-100300FM-12+051599999V0200501N001010024019N0020001N1+01761+01581101681ADDAA103000021AY141031AY241031GA1081+002401061GF108991081041002501999999IA1099MA1999999095911MD1710261+0151MW1501REMSYN112AAXX  06211 76393 21320 80501 10176 20158 39591 40168 57026 75044 884// 92040 333 31/// 567// 58015 69907 88608;
0172763930999992010030700004+25733-100300FM-12+051599999V0200801N002019999999N0039001N1+01741+01651101701ADDAA106000021AY141061AY241061GF108991999999001501999999MA1999999095941MD1310031+9999MW1501REMSYN072AAXX  07001 76393 01239 80802 10174 20165 39594 40170 53003 69911 75044;
0234763930999992010030703004+25733-100300FM-12+051599999V0200601N002010006019N0005001N1+01741+01681101901ADDAA103002091AY151031AY251031GA1081+000601071GF108991081061000751999999IA1099MA1999999096131MD1210191+0211MW1501REMSYN112AAXX  07031 76393 21105 80602 10174 20168 39613 40190 52019 75055 886// 90250 333 31/// 563// 58021 60027 88702;
0172763930999992010030706004+25733-100300FM-12+051599999V0201501N001019999999N0005001N1+01701+01691101971ADDAA106007991AY151061AY211061GF108991999999000751999999MA1999999096201MD1010071+9999MW1051REMSYN072AAXX  07061 76393 01105 81501 10170 20169 39620 40197 50007 60081 70551;
0234763930999992010030709004+25733-100300FM-12+051599999V0201401N001010006019N0010001N1+01681+01621101741ADDAA103001091AY151031AY221031GA1081+000601071GF108991081061000751999999IA1119MA1999999095981MD1710221+0171MW1501REMSYN112AAXX  07091 76393 21110 81401 10168 20162 39598 40174 57022 75052 886// 90855 333 32/// 56399 58017 60017 88702;
0172763930999992010030712004+25733-100300FM-12+051599999V0200901N001019999999N0010001N1+01621+01561101591ADDAA106001091AY151061AY221061GF108991999999000751999999MA1999999095831MD1610151+9999MW1501REMSYN072AAXX  07121 76393 01110 80901 10162 20156 39583 40159 56015 60011 75052;
0217763930999992010030715004+25733-100300FM-12+051599999V0209999C000010009019N0010001N1+01701+01641101661ADDAY141031AY221031GA1081+000901071GF108991081061000751999999IA1099MA1999999095901MD1410001-0221MW1051REMSYN106AAXX  07151 76393 31110 80000 10170 20164 39590 40166 54007 70542 886// 91450 333 31/// 563// 59022 88703;
0280763930999992010030718004+25733-100300FM-12+051599999V0201401N00201004201CN0010001N1+02021+01721101561ADDAY141061AY221061GA1041+003601061GF108991999051004501031999IA1099KA1120M+02121KA2240N+01581MA1999999095811MD1410001-0361MW1051REMSYN124AAXX  07181 76393 31410 81402 10202 20172 39581 40156 54009 70542 8853/ 91750 333 10212 20158 31/// 5677/ 59036 84612 84356;EQDQ01+000082SCOTLC
0223763930999992010030721004+25733-100300FM-12+051599999V0201301N00201036001CN0020001N1+02181+01651101171ADDAY141031AY241031GA1041+005701061GF108991041051004501031999IA1099MA1999999095471MD1710341-0441MW1051REMSYN112AAXX  07211 76393 31420 81302 10218 20165 39547 40117 57034 70544 8453/ 92050 333 31/// 5677/ 59044 84619 84356;
0262763930999992010030800004+25733-100300FM-12+051599999V0200501N001010042019N0030001N1+02121+01761101151ADDAA124000891AY141061AY241061GF108991081051004501999999IA1099KA1120M+02311KA2180N+01521MA1999999095481MD1210011-0461MW1051REMSYN130AAXX  08001 76393 31430 80501 10212 20176 39548 40115 52001 70544 885// 92350 333 10231 20152 31/// 50331 567// 59046 70008 88612;
0236763930999992010030803004+25733-100300FM-12+051599999V0201101N001012200019N0030001N1+02121+01791101181ADDAY141031AY221031GA1081+003901061GF199999081041004501001001IA1019MA1999999095531MD1210051-0601MW1051REMSYN106AAXX  08031 76393 31430 41101 10212 20179 39553 40118 52005 70542 88400 90245 333 30/// 56799 59060 88613;EQDQ01+000042SCOTCV
0253763930999992010030806004+25733-100300FM-12+051599999V0201101N002010012019N0030001N1+01841+01721101161ADDAY141061AY211061GF105991051051001501001001GJ100669IA1019KA1240M+02311KA2240N+01581MA1999999095511MD1710011-0691MW1051REMSYN124AAXX  08061 76393 31230 51102 10184 20172 39551 40116 57001 70541 85500 90545 333 10231 20158 30/// 55011 56799 59069 85605;
0217763930999992010030809004+25733-100300FM-12+051599999V0200901N002010015019N0010001N1+01781+01631100971ADDAY141031AY221031GA1081+001501061GF108991081051001501999999IA1019MA1999999095311MD1710201-0671MW1051REMSYN106AAXX  08091 76393 31210 80902 10178 20163 39531 40097 57020 70542 885// 90855 333 30/// 56399 59067 88605;
0272763930999992010030812004+25733-100300FM-12+051599999V0200901N001010012019N0010001N1+01741+01611100901ADDAA124000091AY141061AY221061GA1081+001201061GF108991081051001501999999IA1019KA1240M+02311KA2120N+01621MA1999999095221MD1410001-0611MW1051REMSYN124AAXX  08121 76393 31210 80901 10174 20161 39522 40090 54009 70542 885// 91155 333 10231 20162 30158 56399 59061 70000 88604;
0223763930999992010030815004+25733-100300FM-12+051599999V0203201N001010360019N0008001N1+01921+01711101041ADDAY141031AY241031GA1031+008101071GF107991031061002501011999IA1019MA1999999095341MD1010121-0561MW1051REMSYN112AAXX  08151 76393 31308 73201 10192 20171 39534 40104 50012 70544 8361/ 91450 333 30/// 5633/ 59056 83727 94460;
0261763930999992010030818004+25733-100300FM-12+051599999V0201101N00101036001CN0008001N1+02381+01821100921ADDAY141061AY241061GA1031+008101071GF108991031061008001051999IA1019KA1120M+02501KA2240N+01621MA1999999095241MD1710101-0571MW1051REMSYN124AAXX  08181 76393 31508 81101 10238 20182 39524 40092 57010 70544 8365/ 91740 333 10250 20162 30/// 5633/ 59057 83727 85360;
0217763930999992010030821004+25733-100300FM-12+051599999V0201201N003010093019N0010001N1+02641+01891100561ADDAY141031AY221031GA1071+009301061GF107991071051008001999999IA1019MA1999999094941MD1710301-0531MW1051REMSYN106AAXX  08211 76393 31510 71203 10264 20189 39494 40056 57030 70542 875// 92050 333 30/// 566// 59053 87631;
0172763930999992010030900004+25733-100300FM-12+051599999V0201201N002019999999N0030001N1+02501+01831100451ADDAA106001091AY141061AY221061GF105991999999008001999999MA1999999094881MD1410001+9999MW1051REMSYN072AAXX  09001 76393 01530 51202 10250 20183 39488 40045 54006 69991 70542;
0234763930999992010030903004+25733-100300FM-12+051599999V0201101N002012200019N0020001N1+02161+01901100551ADDAA103000991AY141031AY201031GA1031+003601061GF103991031051004501001001IA1099MA1999999094991MD1210111-0541MW1051REMSYN112AAXX  09031 76393 21420 31102 10216 20190 39499 40055 52011 70540 83500 90250 333 31/// 56599 59054 69997 83612;
0254763930999992010030912004+25733-100300FM-12+051599999V0201301N001012200019N0010001N1+01581+01391100561ADDAA124001091AY141061AY201061GA1001+999999999GF100991001001999999001001IA1019KA1240M+02681KA2120N+01481MA1999999094901MD1410001-0321MW1051REMSYN106AAXX  09121 76393 31910 01301 10158 20139 39490 40056 54001 70540 91155 333 10268 20148 30130 59032 70009;
0274763930999992010030918004+25733-100300FM-12+051599999V0201101N003012200019N0020001N1+02521+01681100921ADDAY141061AY241061GA1011+018001081GF101991999021999999999999IA1019KA1120M+02661KA2240N+01481MA1999999095231MD1710031-0011MW1051REMSYN118AAXX  09181 76393 31920 11103 10252 20168 39523 40092 57003 70544 882// 91740 333 10266 20148 30/// 56400 59001 81856;EQDQ01+000082SCOTLC
0195763930999992010030921004+25733-100300FM-12+051599999V0200901N002012200019N0030001N1+02781+01431100491ADDAY141031AY241031GF102991001001999999001011IA1019MA1999999094861MD1710371-0081MW1051REMSYN100AAXX  09211 76393 31930 20902 10278 20143 39486 40049 57037 70544 80001 92050 333 30/// 56006 59008;
0217763930999992010031000004+25733-100300FM-12+051599999V0201401N003012200019N0030001N1+02601+01471100311ADDGF101991001001999999001011IA1019KA1120M+02921KA2180N+01481MA1999999094761MD1410001-0121REMSYN118AAXX  10001 76393 32930 11403 10260 20147 39476 40031 54010 80001 92350 333 10292 20148 30/// 50321 56006 59012 70009;
0217763930999992010031003004+25733-100300FM-12+051599999V0201301N003012200019N0030001N1+02351+01591100441ADDAY141031AY241031GA1021+007501081GF103991021011008001001011IA1019MA1999999094901MD1210141-0091MW1051REMSYN106AAXX  10031 76393 31530 31303 10235 20159 39490 40044 52014 70544 82101 90250 333 30/// 56305 59009 82825;
0251763930999992010031006004+25733-100300FM-12+051599999V0202301N002012200019N0030001N1+02071+01581100361ADDAY141061AY241061GA1001+999999999GF100991001001999999001001GJ105949IA1019KA1240M+02921KA2240N+01481MA1999999094821MD1710081-0191MW1051REMSYN106AAXX  10061 76393 31930 02302 10207 20158 39482 40036 57008 70544 90550 333 10292 20148 30/// 55099 59019;
0199763930999992010031009004+25733-100300FM-12+051599999V0202401N001012200019N0020001N1+01901+01531100151ADDAY141031AY201031GA1001+999999999GF100991001001999999001001IA1019MA1999999094591MD1710231-0321MW1051REMSYN088AAXX  10091 76393 31920 02401 10190 20153 39459 40015 57023 70540 90855 333 30/// 59032;
0273763930999992010031012004+25733-100300FM-12+051599999V0202501N001012200019N0020001N1+01721+01301100171ADDAA124000091AY141061AY201061GA1001+999999999GF100991001001999999001001IA1019KA1240M+02921KA2120N+01681MA1999999094561MD1410001-0341MW1051REMSYN106AAXX  10121 76393 31920 02501 10172 20130 39456 40017 54003 70540 91155 333 10292 20168 30136 59034 70000;EQDQ01  00002PRCP24
0195763930999992010031015004+25733-100300FM-12+051599999V0202701N001012200019N0060001N1+02361+00721100441ADDAY101031AY201031GF101991001001999999001011IA1019MA1999999094801MD1210241-0461MW1051REMSYN100AAXX  10151 76393 31956 12701 10236 20072 39480 40044 52024 70500 80001 91440 333 30/// 56007 59046;
0252763930999992010031018004+25733-100300FM-12+051599999V0203301N003012200019N0040001N1+03061-00081100191ADDAY101061AY201061GF101991999001999999031001IA1019KA1120M+03161KA2240N+01681MA1999999094601MD1710201-0631MW1051REMSYN112AAXX  10181 76393 31940 13303 10306 21008 39460 40019 57020 70500 80030 91750 333 10316 20168 30/// 56070 59063;EQDQ01+000002SCOTLC
0223763930999992010031021004+25733-100300FM-12+051599999V0202701N005019999999N0030001N1+03121-00021099831ADDAY141031AY221031GA1011+024001061GF107991071051999999021011IA1019MA1999999094311MD1710291-0551MW1051REMSYN112AAXX  10211 76393 31930 72705 10312 21002 39431 49983 57029 70542 87521 92050 333 30/// 56666 59055 81658 85470;
0234763930999992010031100004+25733-100300FM-12+051599999V0202301N001019999999N0040001N1+03061+00341099751ADDAA124000091GF106991061001999999021999IA1019KA1120M+03281KA2180N+01681MA1999999094301MD1410001-0521REMSYN124AAXX  11001 76393 32940 62301 10306 20034 39430 49975 54001 8602/ 92350 333 10328 20168 30/// 50731 5606/ 59052 70000 86470;
0199763930999992010031103004+25733-100300FM-12+051599999V0201901N002012200019N0030001N1+02521+00721099921ADDAY141031AY201031GA1001+999999999GF100991001001999999001001IA1019MA1999999094491MD1210191+0411MW1051REMSYN088AAXX  11031 76393 31930 01902 10252 20072 39449 49992 52019 70540 90250 333 30/// 58041;
0251763930999992010031106004+25733-100300FM-12+051599999V0202101N001012200019N0030001N1+02481+01321099991ADDAY141061AY211061GA1001+999999999GF100991001001999999001001GJ104929IA1019KA1240M+03281KA2240N+01681MA1999999094531MD1710041-0291MW1051REMSYN106AAXX  11061 76393 31930 02101 10248 20132 39453 49999 57004 70541 90545 333 10328 20168 30/// 55082 59029;
0236763930999992010031109004+25733-100300FM-12+051599999V0202501N001012200019N0030001N1+01901+00611100041ADDAY141031AY241031GA1041+018001041GF104991041001022501011001IA1019MA1999999095432MD1410001-0061MW1051REMSYN106AAXX  11091 76393 31830 42501 10190 20061 39543 40004 54000 70544 84010 90850 333 30/// 56060 59006 84456;EQDQ01+095433APOSP 
0217763930999992010031200004+25733-100300FM-12+051599999V0201401N002012200019N0060001N1+02681+00961099931ADDGF103991001001999999001081IA1019KA1120M+02981KA2180N+01741MA1999999094431MD1410001+0131REMSYN118AAXX  12001 76393 32956 31402 10268 20096 39443 49993 54007 80008 92350 333 10298 20174 30/// 50831 56006 58013 70000;
0218763930999992010031203004+25733-100300FM-12+051599999V0200201N001012200019N0030001N1+02261+00991100511ADDAY141031AY201031GA1001+999999999GF100991001001999999001001IA1019MA1999999094981MD1210552+0491MW1051REMSYN088AAXX  12031 76393 31930 00201 10226 20099 39498 40051 52055 70540 90245 333 30/// 58049;EQDQ01+000552APC3  
0272763930999992010031206004+25733-100300FM-12+051599999V0201201N001010210019N0030001N1+01901+00091101112ADDAY141061AY211061GF105991051001022501041001GJ105289IA1019KA1240M+02981KA2240N+01741MA1999999095521MD1210541+0991MW1051REMSYN124AAXX  12061 76393 31830 51201 10190 20009 39552 40111 52054 70541 85040 90550 333 10298 20174 30/// 55088 56059 58099 85358;EQDQ01+101113APOSLP
0237763930999992010031218004+25733-100300FM-12+051599999V0201301N002012200019N0030001N1+02361-00151101611ADDAY101061AY201061GA1001+999999999GF100991001001999999001001IA1019KA1120M+02481KA2240N+01301MA1999999095861MD1710111+1141MW1051REMSYN100AAXX  12181 76393 31930 01302 10236 21015 39586 40161 57011 70500 91740 333 10248 20130 30/// 58114;
0199763930999992010031221004+25733-100300FM-12+051599999V0203201N002012200019N0060001N1+02751-00941101171ADDAY101031AY201031GA1001+999999999GF100991001001999999001001IA1019MA1999999095481MD1710381+0981MW1041REMSYN088AAXX  12211 76393 31956 03202 10275 21094 39548 40117 57038 70400 92050 333 30/// 58098;
0279763930999992010031300004+25733-100300FM-12+051599999V0203101N001012200019N0060001N1+02621-00581101011ADDAA124000091AY101061AY201061GA1001+999999999GF100991001001999999001001IA1019KA1120M+02821KA2180N+01301MA1999999095391MD1410001+0961MW1041REMSYN112AAXX  13001 76393 31956 03101 10262 21058 39539 40101 54009 70400 92350 333 10282 20130 30/// 50741 58096 70000;EQDQ01  00002PRCP24
0251763930999992010031306004+25733-100300FM-12+051599999V0209999C000012200019N0030001N1+01741+00511101331ADDAY141061AY201061GA1001+999999999GF100991001001999999001001GJ106549IA1019KA1240M+02821KA2240N+01301MA1999999095711MD1210131+0191MW1051REMSYN106AAXX  13061 76393 31930 00000 10174 20051 39571 40133 52013 70540 90550 333 10282 20130 30/// 55109 58019;
0199763930999992010031315004+25733-100300FM-12+051599999V0203001N001012200019N0050001N1+01981-00141101481ADDAY101031AY201031GA1001+999999999GF100991001001999999001001IA1019MA1999999095721MD1210211+0251MW1041REMSYN088AAXX  13151 76393 31950 03001 10198 21014 39572 40148 52021 70400 91440 333 30/// 58025;
0237763930999992010031318004+25733-100300FM-12+051599999V0200501N002012200019N0030001N1+02561-00161101391ADDAY101061AY201061GA1001+999999999GF100991001001999999001001IA1019KA1120M+02741KA2240N+01301MA1999999095651MD1710051-0011MW1041REMSYN100AAXX  13181 76393 31930 00502 10256 21016 39565 40139 57005 70400 91740 333 10274 20130 30/// 59001;
0199763930999992010031403004+25733-100300FM-12+051599999V0209999C000012200019N0030001N1+02181+00501100751ADDAY141031AY201031GA1001+999999999GF100991001001999999001001IA1019MA1999999095201MD1210091-0381MW1011REMSYN088AAXX  14031 76393 31930 00000 10218 20050 39520 40075 52009 70140 90250 333 30/// 59038;
0273763930999992010031412004+25733-100300FM-12+051599999V0203101N001012200019N0030001N1+01481+00531100671ADDAA124000091AY141061AY201061GA1001+999999999GF100991001001999999001001IA1019KA1240M+02941KA2120N+01281MA1999999095001MD1410001-0511MW1051REMSYN106AAXX  14121 76393 31930 03101 10148 20053 39500 40067 54002 70540 91155 333 10294 20128 30118 59051 70000;EQDQ01  00002PRCP24
0217763930999992010031415004+25733-100300FM-12+051599999V0202801N002010180019N0030001N1+01881+00481100931ADDAY141031AY241031GA1071+018001041GF107991071001022501011999IA1019MA1999999095211MD1210211-0511MW1041REMSYN106AAXX  14151 76393 31830 72802 10188 20048 39521 40093 52021 70444 8701/ 91450 333 30/// 5606/ 59051 87456;
0255763930999992010031418004+25733-100300FM-12+051599999V0200901N002010180019N0030001N1+02561+00281101001ADDAY141061AY241061GA1061+018001041GF107991061001022501011011IA1019KA1120M+02641KA2240N+01281MA1999999095291MD1210081-0361MW1041REMSYN118AAXX  14181 76393 31830 70902 10256 20028 39529 40100 52008 70444 86011 91750 333 10264 20128 30/// 56066 59036 86456;
0217763930999992010031421004+25733-100300FM-12+051599999V0201401N005010300019N0030001N1+02581+00861100751ADDAY141031AY241031GA1081+030001041GF108991081001999999011999IA1019MA1999999095101MD1210191-0161MW1041REMSYN106AAXX  14211 76393 31930 81405 10258 20086 39510 40075 52019 70444 8801/ 92050 333 30/// 5606/ 59016 88460;
0234763930999992010031500004+25733-100300FM-12+051599999V0201401N001019999999N0030001N1+02381+00801100761ADDAA124000091GF108991081001999999011999IA1019KA1120M+02721KA2180N+01281MA1999999095161MD1410001+0051REMSYN124AAXX  15001 76393 32930 81401 10238 20080 39516 40076 54006 8801/ 92350 333 10272 20128 30/// 50381 5606/ 58005 70000 88460;
0235763930999992010031503004+25733-100300FM-12+051599999V0203401N00101036001CN0030001N1+02221+01081100911ADDAY141031AY251031GA1081+999999041GF108991081001012501021999IA1019MA1999999095331MD1011172+0131MW1051REMSYN105AAXX  15031 76393 31630 83401 10222 20108 39533 40091 50117 70545 8802/ 90250 333 30/// 5606/ 58013 8844;EQDQ01+001172APC3  
0253763930999992010031506004+25733-100300FM-12+051599999V0201401N001012200019N0030001N1+01881+01261100961ADDAY141061AY211061GF104991041001008001021999GJ103369IA1019KA1240M+02721KA2240N+01281MA1999999095361MD1110031+0231MW1051REMSYN124AAXX  15061 76393 31530 41401 10188 20126 39536 40096 51003 70541 8402/ 90550 333 10272 20128 30/// 55056 5606/ 58023 84456;
0199763930999992010031509004+25733-100300FM-12+051599999V0209999C000012200019N0020001N1+01601+01271100901ADDAY141031AY201031GA1001+999999999GF100991001001999999001001IA1019MA1999999095251MD1610111+0231MW1051REMSYN088AAXX  15091 76393 31920 00000 10160 20127 39525 40090 56011 70540 90855 333 30/// 58023;
0272763930999992010031512004+25733-100300FM-12+051599999V0209999C000010027019N0020001N1+01501+01231100981ADDAA124000091AY141061AY221061GA1071+002701061GF107991071051002501999999IA1019KA1240M+02721KA2120N+01361MA1999999095291MD1410001+0291MW1051REMSYN124AAXX  15121 76393 31320 70000 10150 20123 39529 40098 54004 70542 875// 91155 333 10272 20136 30118 56399 58029 70000 87609;
0223763930999992010031515004+25733-100300FM-12+051599999V0203101N00101004201CN0020001N1+01721+01301101171ADDAY141031AY241031GA1031+005101061GF107991071051004501021999IA1019MA1999999095441MD1210151+0231MW1041REMSYN112AAXX  15151 76393 31420 73101 10172 20130 39544 40117 52015 70444 8752/ 91450 333 30/// 5666/ 58023 83617 84456;
0292763930999992010031606004+25733-100300FM-12+051599999V0203101N002010012019N0020001N1+01381+01281101861ADDAA103008091AY161061AY221061GA1041+001201021GF108991081061001501999999GJ104029IA1119KA1240M+02681KA2240N+01361MA1999999096191MD1210251+0831MW1051REMSYN136AAXX  16061 76393 21220 83102 10138 20128 39619 40186 52025 70562 886// 90550 333 10268 20136 32/// 55067 563// 58083 60087 84204 84607;
0234763930999992010031609004+25733-100300FM-12+051599999V0200101N003010006019N0010001N1+01141+01071102051ADDAA103004091AY161031AY221031GA1081+000601071GF108991081061000751999999IA1119MA1999999096311MD1310131+1061MW1601REMSYN112AAXX  16091 76393 21110 80103 10114 20107 39631 40205 53013 76062 886// 90855 333 32/// 56399 58106 60047 88702;
0172763930999992010031612004+25733-100300FM-12+051599999V0203401N004019999999N0010001N1+01101+00951102281ADDAA106005191AY151061AY221061GF108991999999001501999999MA1999999096461MD1210151+9999MW1501REMSYN072AAXX  16121 76393 01210 83404 10110 20095 39646 40228 52015 60051 75052;
0217763930999992010031621004+25733-100300FM-12+051599999V0203601N002010150019N0040001N1+01921+00661102251ADDAY121031AY221031GA1061+015001081GF106991061021017501999999IA1019MA1999999096401MD1710321+0931MW1051REMSYN106AAXX  16211 76393 31740 63602 10192 20066 39640 40225 57032 70522 862// 92040 333 30/// 563// 58093 86850;
0262763930999992010031700004+25733-100300FM-12+051599999V0201001N002019999999N0030001N1+01981+00871102221ADDAA124012291AY121061AY221061GF106991061021999999999999IA1019KA1120M+02161KA2180N+01081MA1999999096411MD1310011+0821MW1051REMSYN130AAXX  17001 76393 31930 61002 10198 20087 39641 40222 53001 70522 862// 92340 333 10216 20108 30/// 50051 563// 58082 70122 86846;
0217763930999992010031703004+25733-100300FM-12+051599999V0203101N003010138019N0030001N1+01691+00301102571ADDAY141031AY241031GA1071+013801061GF107991071051012501999999IA1099MA1999999096781MD1210371+0841MW1051REMSYN106AAXX  17031 76393 31630 73103 10169 20030 39678 40257 52037 70544 875// 90250 333 31/// 567// 58084 87646;
0253763930999992010031706004+25733-100300FM-12+051599999V0200901N001012200019N0030001N1+01381+00441102731ADDAY141061AY241061GF103991031051008001001001GJ102949IA1099KA1240M+02161KA2240N+01081MA1999999096931MD1210151+0741MW1051REMSYN124AAXX  17061 76393 31530 30901 10138 20044 39693 40273 52015 70544 83500 90550 333 10216 20108 31/// 55049 56700 58074 83631;
0217763930999992010031709004+25733-100300FM-12+051599999V0209999C000012200019N0040001N1+01201+00551102541ADDAY141031AY201031GA1031+006601061GF103991031051008001001001IA1019MA1999999096721MD1710211+0411MW1051REMSYN106AAXX  17091 76393 31540 30000 10120 20055 39672 40254 57021 70540 83500 90855 333 30/// 56300 58041 83622;
0199763930999992010031715004+25733-100300FM-12+051599999V0202301N001012200019N0040001N1+01601+00641102641ADDAY101031AY201031GA1001+999999999GF100991001001999999001001IA1019MA1999999096751MD1410001-0011MW1041REMSYN088AAXX  17151 76393 31940 02301 10160 20064 39675 40264 54002 70400 91450 333 30/// 59001;
0209763930999992010031718004+25733-100300FM-12+051599999V0203101N001012200019N0030001N1+02081+00651102491ADDGA1001+999999999GF100991001001999999001001IA1019KA1120M+02161KA2240N+01001MA1999999096631MD1710121-0091REMSYN094AAXX  17181 76393 32930 03101 10208 20065 39663 40249 57012 91750 333 10216 20100 30/// 59009;
0199763930999992010031815004+25733-100300FM-12+051599999V0202401N001012200019N0030001N1+01851+00601102041ADDAY141031AY241031GA1001+999999999GF100991001001999999001001IA1019MA1999999096221MD1210091-0531MW1041REMSYN088AAXX  18151 76393 31930 02401 10185 20060 39622 40204 52009 70444 91450 333 30/// 59053;
0237763930999992010031818004+25733-100300FM-12+051599999V0201201N003012200019N0030001N1+02521+00521101821ADDAY141061AY241061GA1001+999999999GF100991001001999999001001IA1019KA1120M+02611KA2240N+01241MA1999999096051MD1710171-0581MW1051REMSYN100AAXX  18181 76393 31930 01203 10252 20052 39605 40182 57017 70544 91750 333 10261 20124 30/// 59058;
0171763930999992010031821004+25733-100300FM-12+051599999V0201201N003012200019N0050001N1+02701+00611101441ADDGA1001+999999999GF100991001001999999001001IA1019MA1999999095641MD1710411-0541REMSYN082AAXX  18211 76393 32950 01203 10270 20061 39564 40144 57041 92050 333 30/// 59054;
0251763930999992010031900004+25733-100300FM-12+051599999V0201401N003012200019N0050001N1+02561+00481101121ADDAA124000091GA1001+999999999GF100991001001999999001001IA1019KA1120M+02841KA2180N+01241MA1999999095511MD1610131-1561REMSYN106AAXX  19001 76393 32950 01403 10256 20048 39551 40112 56013 92350 333 10284 20124 30/// 50810 59156 70000;EQDQ01  00002PRCP24
0199763930999992010031903004+25733-100300FM-12+051599999V0201101N003012200019N0020001N1+02301+00371101071ADDAY141031AY241031GA1001+999999999GF100991001001999999001001IA1019MA1999999095501MD1510011-0681MW1051REMSYN088AAXX  19031 76393 31920 01103 10230 20037 39550 40107 55001 70544 90250 333 30/// 59068;
0245763930999992010031912004+25733-100300FM-12+051599999V0200901N001012200019N0020001N1+01321+00851101051ADDAA124000091GA1001+999999999GF100991001001999999001001IA1019KA1240M+02841KA2120N+01321MA1999999095341MD1410001-0791REMSYN100AAXX  19121 76393 32920 00901 10132 20085 39534 40105 54004 91150 333 10284 20132 30090 59079 70000;EQDQ01  00002PRCP24
0237763930999992010031918004+25733-100300FM-12+051599999V0201201N002012200019N0030001N1+02161+01161101011ADDAY141061AY241061GA1001+999999999GF100991001001999999001001IA1019KA1120M+02281KA2240N+01241MA1999999095261MD1710131-0791MW1041REMSYN100AAXX  19181 76393 31930 01202 10216 20116 39526 40101 57013 70444 91750 333 10228 20124 30/// 59079;
0171763930999992010031921004+25733-100300FM-12+051599999V0200901N004012200019N0050001N1+02621+01141100631ADDGA1001+999999999GF100991001001999999001001IA1019MA1999999094961MD1210301-0681REMSYN082AAXX  19211 76393 32950 00904 10262 20114 39496 40063 52030 92050 333 30/// 59068;
0251763930999992010032000004+25733-100300FM-12+051599999V0200801N002012200019N0050001N1+02641+01291100451ADDAA124000091GA1001+999999999GF100991001001999999001001IA1019KA1120M+02771KA2180N+01241MA1999999094841MD1610121-0671REMSYN106AAXX  20001 76393 32950 00802 10264 20129 39484 40045 56012 92350 333 10277 20124 30/// 50611 59067 70000;EQDQ01  00002PRCP24
0199763930999992010032003004+25733-100300FM-12+051599999V0201401N002012200019N0020001N1+02381+01231100571ADDAY141031AY241031GA1001+999999999GF100991001001999999001001IA1019MA1999999095011MD1210171-0491MW1051REMSYN088AAXX  20031 76393 31920 01402 10238 20123 39501 40057 52017 70544 90240 333 30/// 59049;
0251763930999992010032006004+25733-100300FM-12+051599999V0200901N003012200019N0015001N1+01841+01561100611ADDAY141061AY241061GA1001+999999999GF100991001001999999001001GJ106609IA1019KA1240M+02771KA2240N+01241MA1999999095051MD1110041-0371MW1051REMSYN106AAXX  20061 76393 31915 00903 10184 20156 39505 40061 51004 70544 90540 333 10277 20124 30/// 55110 59037;
0217763930999992010032009004+25733-100300FM-12+051599999V0200601N001010024019N0020001N1+01721+01531100681ADDAY141031AY221031GA1081+002401071GF108991081061002501999999IA1019MA1999999095071MD1410001-0311MW1051REMSYN106AAXX  20091 76393 31320 80601 10172 20153 39507 40068 54002 70542 886// 90850 333 30/// 563// 59031 88708;
0238763930999992010032012004+25733-100300FM-12+051599999V0200401N001012200019N0020001N1+01681+01491100781ADDAA124000091GA1001+999999999GF100991001001999999001001IA1019IA2999+00509KA1240M+02771MA1999999095121MD1410001-5121REMSYN094AAXX  20121 76393 32920 00401 10168 20149 39512 40078 54005 91150 333 10277 30050 59512 70000;EQDQ01  00002PRCP24
0207763930999992010032015004+25733-100300FM-12+051599999V0203301N002012200019N0030001N1+02341+00701101121ADDAY141031AY241031GF101991011011017501001001IA1019MA1999999095421MD1210301-0031MW1051REMSYN112AAXX  20151 76393 31730 13302 10234 20070 39542 40112 52030 70544 81100 91450 333 30/// 54115 56700 59003 81850;
0255763930999992010032018004+25733-100300FM-12+051599999V0200301N004012200019N0030001N1+02091+00711101431ADDAY141061AY241061GA1011+012901081GF101991011011012501001001IA1019KA1120M+02451KA2240N+01201MA1999999095721MD1210301+0461MW1051REMSYN118AAXX  20181 76393 31630 10304 10209 20071 39572 40143 52030 70544 81100 91750 333 10245 20120 30/// 56700 58046 81843;
0208763930999992010032021004+25733-100300FM-12+051599999V0200501N006012200019N0020001N1+02041+00441101311ADDAY141031AY201031GF101991999001022501031001IA1019MA1999999095621MD1610101+0661MW1051REMSYN094AAXX  20211 76393 31820 10506 10204 20044 39562 40131 56010 70540 80030 92055 333 30/// 58066;EQDQ01+000002SCOTLC
0252763930999992010032103004+25733-100300FM-12+051599999V0203601N006010300019N0030001N1+01241-00181102291ADDAY111031AY211031GA1051+030001031GF105991999001999999051001IA1019MA1999999096531MD1210572+1521MW1051REMSYN106AAXX  21031 76393 31930 53606 10124 21018 39653 40229 52057 70511 80050 90240 333 30/// 56050 58152 85360;EQDQ01+000002SCOTLCQ02+000572APC3  
0272763930999992010032106004+25733-100300FM-12+051599999V0200701N001019999999N0030001N1+01041-00181102651ADDAY121061AY221061GF108991001001999999051999GJ106369IA1019KA1240M+02441KA2240N+99999MA1999999096811MD1210281+1761MW1051REMSYN124AAXX  21061 76393 31930 80701 10104 21018 39681 40265 52028 70522 8005/ 90550 333 10244 20160 30/// 55106 5605/ 58176 88360;EQDQ01 +01602ATMN  
0199763930999992010032115004+25733-100300FM-12+051599999V0202101N001012200019N0080001N1+01281-00131102591ADDAY141031AY201031GA1001+999999999GF100991001001999999001001IA1019MA1999999096631MD1410001+1211MW1051REMSYN088AAXX  21151 76393 31958 02101 10128 21013 39663 40259 54004 70540 91455 333 30/// 58121;
0237763930999992010032118004+25733-100300FM-12+051599999V0203401N005012200019N0030001N1+02001-00311102381ADDAY141061AY201061GA1001+999999999GF100991001001999999001001IA1019KA1120M+02141KA2240N+00701MA1999999096461MD1710171+0741MW1051REMSYN100AAXX  21181 76393 31930 03405 10200 21031 39646 40238 57017 70540 91755 333 10214 20070 30/// 58074;
0206763930999992010032121004+25733-100300FM-12+051599999V0203401N001012200019N0050001N1+02341+99999101861ADDGA1001+999999999GF100991001001999999001001IA1019MA1999999096051MD1710411+0431REMSYN082AAXX  21211 76393 32950 03401 10234 20159 39605 40186 57041 92050 333 30/// 58043;EQDQ01+001593ATOD  Q02 +01593ATOD  
0251763930999992010032200004+25733-100300FM-12+051599999V0201301N002012200019N0060001N1+02381-00401101691ADDAA124000091GA1001+999999999GF100991001001999999001001IA1019KA1120M+02521KA2180N+00701MA1999999095971MD1210081+0011REMSYN106AAXX  22001 76393 32956 01302 10238 21040 39597 40169 52008 92350 333 10252 20070 30/// 5//// 58001 70000;EQDQ01  00002PRCP24
0199763930999992010032203004+25733-100300FM-12+051599999V0201401N002012200019N0015001N1+01861-00441101891ADDAY141031AY241031GA1001+999999999GF100991001001999999001001IA1019MA1999999096201MD1210231-0331MW1051REMSYN088AAXX  22031 76393 31915 01402 10186 21044 39620 40189 52023 70544 90250 333 30/// 59033;
0251763930999992010032206004+25733-100300FM-12+051599999V0202301N001012200019N0015001N1+01481-00371102031ADDAY141061AY241061GA1001+999999999GF100991001001999999001001GJ106609IA1019KA1240M+02521KA2240N+00701MA1999999096321MD1010121-0491MW1041REMSYN106AAXX  22061 76393 31915 02301 10148 21037 39632 40203 50012 70444 90540 333 10252 20070 30/// 55110 59049;
0199763930999992010032209004+25733-100300FM-12+051599999V0209999C000012200019N0020001N1+01201+00101102001ADDAY141031AY201031GA1001+999999999GF100991001001999999001001IA1019MA1999999096241MD1410001-0501MW1051REMSYN088AAXX  22091 76393 31920 00000 10120 20010 39624 40200 54008 70540 90850 333 30/// 59050;
0245763930999992010032212004+25733-100300FM-12+051599999V0202301N001012200019N0020001N1+01101+00011102081ADDAA124000091GA1001+999999999GF100991001001999999001001IA1019KA1240M+02521KA2120N+01021MA1999999096251MD1410001-0341REMSYN100AAXX  22121 76393 32920 02301 10110 20001 39625 40208 54001 91150 333 10252 20102 30080 59034 70000;EQDQ01  00002PRCP24
0171763930999992010032215004+25733-100300FM-12+051599999V0202201N001012200019N0050001N1+01721+00031102141ADDGA1001+999999999GF100991001001999999001001IA1019MA1999999096291MD1810041+0341REMSYN082AAXX  22151 76393 32950 02201 10172 20003 39629 40214 58004 91450 333 30/// 58034;
0209763930999992010032218004+25733-100300FM-12+051599999V0200801N002012200019N0080001N1+02381+00151102001ADDGA1001+999999999GF100991001001999999001001IA1019KA1120M+02501KA2240N+01021MA1999999096191MD1710101-0271REMSYN094AAXX  22181 76393 32958 00802 10238 20015 39619 40200 57010 91750 333 10250 20102 30/// 59027;
0217763930999992010032221004+25733-100300FM-12+051599999V0201401N003010600019N0040001N1+02591+00131101491ADDAY141031AY241031GA1071+060001021GF107991001001999999001071IA1019MA1999999095771MD1710421-0281MW1041REMSYN106AAXX  22211 76393 31940 71403 10259 20013 39577 40149 57042 70444 80007 92050 333 30/// 56005 59028 87270;
0262763930999992010032300004+25733-100300FM-12+051599999V0201401N003019999999N0050001N1+02481+00151101241ADDAA124000091AY141061AY241061GF107991001001999999001071IA1019KA1120M+02711KA2180N+01021MA1999999095601MD1710171-0371MW1041REMSYN130AAXX  23001 76393 31950 71403 10248 20015 39560 40124 57017 70444 80007 92350 333 10271 20102 30/// 50731 56005 59037 70000 87270;
0199763930999992010032303004+25733-100300FM-12+051599999V0201001N006012200019N0020001N1+02181+00221101231ADDAY141031AY241031GA1001+999999999GF100991001001999999001001IA1019MA1999999095621MD1210021-0581MW1051REMSYN088AAXX  23031 76393 31920 01006 10218 20022 39562 40123 52002 70544 90250 333 30/// 59058;
0255763930999992010032318004+25733-100300FM-12+051599999V0201101N001010210019N0040001N1+02241+00641101171ADDAY141061AY221061GA1081+021001041GF108991081001022501011999IA1019KA1120M+02361KA2240N+01281MA1999999095441MD1710031-0751MW1051REMSYN118AAXX  23181 76393 31840 81101 10224 20064 39544 40117 57003 70542 8801/ 91750 333 10236 20128 30/// 5605/ 59075 88457;
0217763930999992010032415004+25733-100300FM-12+051599999V0202901N001010180019N0010001N1+01781+01441100971ADDAY141031AY221031GA1051+018001041GF105991051001999999011999IA1019MA1999999095251MD1210171-0221MW1051REMSYN106AAXX  24151 76393 31910 52901 10178 20144 39525 40097 52017 70542 8501/ 91450 333 30/// 5605/ 59022 85456;
0255763930999992010032418004+25733-100300FM-12+051599999V0201101N002012200019N0020001N1+02621+01561100891ADDAY141061AY201061GA1041+018001021GF104991041001012501041999IA1019KA1120M+02721KA2240N+01501MA1999999095201MD1710051-0241MW1051REMSYN118AAXX  24181 76393 31620 41102 10262 20156 39520 40089 57005 70540 8404/ 91750 333 10272 20150 30/// 56059 59024 84256;
0199763930999992010032509004+25733-100300FM-12+051599999V0209999C000012200019N0020001N1+01961+01351101041ADDAY141031AY201031GA1001+999999999GF100991001001999999001001IA1019MA1999999095451MD1410001+0381MW1051REMSYN088AAXX  25091 76393 31920 00000 10196 20135 39545 40104 54008 70540 90855 333 30/// 58038;
0272763930999992010032512004+25733-100300FM-12+051599999V0200901N001010078019N0020001N1+01821+01041101541ADDAA124000091AY141061AY221061GA1081+007801061GF108991081051008001999999IA1019KA1240M+03111KA2120N+01721MA1999999095881MD1210431+0801MW1051REMSYN124AAXX  25121 76393 31520 80901 10182 20104 39588 40154 52043 70542 885// 91155 333 10311 20172 30162 56399 58080 70000 88626;
0217763930999992010032515004+25733-100300FM-12+051599999V0200601N002010126019N0030001N1+01721+00711102021ADDAY141031AY221031GA1081+012601061GF108991081051012501999999IA1019MA1999999096291MD1210411+1041MW1051REMSYN106AAXX  25151 76393 31630 80602 10172 20071 39629 40202 52041 70542 885// 91450 333 30/// 563// 58104 88642;
0261763930999992010032518004+25733-100300FM-12+051599999V0200601N001019999999N0060001N1+02061+00361102061ADDAY141061AY211061GA1031+015001061GF105991031041999999041999IA1019KA1120M+02161KA2240N+01681MA1999999096321MD1010031+1121MW1051REMSYN124AAXX  25181 76393 31956 50601 10206 20036 39632 40206 50003 70541 8344/ 91750 333 10216 20168 30/// 5635/ 58112 83650 82356;
0199763930999992010032521004+25733-100300FM-12+051599999V0202701N001012200019N0050001N1+02501+00491101601ADDAY141031AY241031GA1001+999999999GF100991001001999999001001IA1019MA1999999095901MD1710421+0991MW1041REMSYN088AAXX  25211 76393 31950 02701 10250 20049 39590 40160 57042 70444 92050 333 30/// 58099;
0279763930999992010032600004+25733-100300FM-12+051599999V0201201N001012200019N0050001N1+02511+00531101461ADDAA124000091AY141061AY241061GA1001+999999999GF100991001001999999001001IA1019KA1120M+02671KA2180N+01681MA1999999095791MD1710111+0831MW1041REMSYN112AAXX  26001 76393 31950 01201 10251 20053 39579 40146 57011 70444 92350 333 10267 20168 30/// 50851 58083 70000;EQDQ01  00002PRCP24
0199763930999992010032603004+25733-100300FM-12+051599999V0201201N003012200019N0020001N1+02141+00591101621ADDAY141031AY241031GA1001+999999999GF100991001001999999001001IA1019MA1999999095971MD1210181+0721MW1041REMSYN088AAXX  26031 76393 31920 01203 10214 20059 39597 40162 52018 70444 90240 333 30/// 58072;
0251763930999992010032606004+25733-100300FM-12+051599999V0200501N001012200019N0020001N1+01901+00631101681ADDAY141061AY241061GA1001+999999999GF100991001001999999001001GJ104809IA1019KA1240M+02671KA2240N+01681MA1999999096021MD1010051+0651MW1041REMSYN106AAXX  26061 76393 31920 00501 10190 20063 39602 40168 50005 70444 90540 333 10267 20168 30/// 55080 58065;
0199763930999992010032609004+25733-100300FM-12+051599999V0203201N001012200019N0020001N1+01681+00611101571ADDAY101031AY201031GA1001+999999999GF100991001001999999001001IA1019MA1999999095891MD1210131+0441MW1041REMSYN088AAXX  26091 76393 31920 03201 10168 20061 39589 40157 52013 70400 90850 333 30/// 58044;
0245763930999992010032612004+25733-100300FM-12+051599999V0200501N001012200019N0020001N1+01501+00461101651ADDAA124000091GA1001+999999999GF100991001001999999001001IA1019KA1240M+02671KA2120N+01501MA1999999095921MD1410001+0041REMSYN100AAXX  26121 76393 32920 00501 10150 20046 39592 40165 54003 91150 333 10267 20150 30130 58004 70000;EQDQ01  00002PRCP24
0171763930999992010032615004+25733-100300FM-12+051599999V0200701N001012200019N0060001N1+01961+00331101761ADDGA1001+999999999GF100991001001999999001001IA1019MA1999999096011MD1110091-0281REMSYN082AAXX  26151 76393 32956 00701 10196 20033 39601 40176 51009 91450 333 30/// 59028;
0209763930999992010032618004+25733-100300FM-12+051599999V0201001N002012200019N0060001N1+02441+00601101521ADDGA1001+999999999GF100991001001999999001001IA1019KA1120M+02581KA2240N+01501MA1999999095791MD1710221-0531REMSYN094AAXX  26181 76393 32956 01002 10244 20060 39579 40152 57022 91750 333 10258 20150 30/// 59053;
0199763930999992010032621004+25733-100300FM-12+051599999V0201201N004012200019N0040001N1+02821+00751101011ADDAY141031AY241031GA1001+999999999GF100991001001999999001001IA1019MA1999999095361MD1710431-0541MW1041REMSYN088AAXX  26211 76393 31940 01204 10282 20075 39536 40101 57043 70444 92050 333 30/// 59054;
0279763930999992010032700004+25733-100300FM-12+051599999V0201201N004012200019N0040001N1+02701+00661100781ADDAA124000091AY141061AY241061GA1001+999999999GF100991001001999999001001IA1019KA1120M+02891KA2180N+01501MA1999999095601MD1710161-0191MW1041REMSYN112AAXX  27001 76393 31940 01204 10270 20066 39560 40078 57016 70444 92350 333 10289 20150 30/// 50811 59019 70000;EQDQ01  00002PRCP24
0199763930999992010032703004+25733-100300FM-12+051599999V0201001N006012200019N0020001N1+02221+01181100851ADDAY141031AY241031GA1001+999999999GF100991001001999999001001IA1019MA1999999095291MD1110091-0681MW1041REMSYN088AAXX  27031 76393 31920 01006 10222 20118 39529 40085 51009 70444 90240 333 30/// 59068;
0251763930999992010032706004+25733-100300FM-12+051599999V0200901N003012200019N0020001N1+01781+01291100971ADDAY141061AY241061GA1001+999999999GF100991001001999999001001GJ106609IA1019KA1240M+02891KA2240N+01501MA1999999095331MD1810041-0691MW1041REMSYN106AAXX  27061 76393 31920 00903 10178 20129 39533 40097 58004 70444 90550 333 10289 20150 30/// 55110 59069;
0199763930999992010032709004+25733-100300FM-12+051599999V0209999C000012200019N0020001N1+01621+01331100801ADDAY101031AY201031GA1001+999999999GF100991001001999999001001IA1019MA1999999095171MD1210161-0721MW1041REMSYN088AAXX  27091 76393 31920 00000 10162 20133 39517 40080 52016 70400 90850 333 30/// 59072;
0245763930999992010032712004+25733-100300FM-12+051599999V0202301N001012200019N0020001N1+01561+01261100801ADDAA124000091GA1001+999999999GF100991001001999999001001IA1019KA1240M+02891KA2120N+01561MA1999999095121MD1410001-0801REMSYN100AAXX  27121 76393 32920 02301 10156 20126 39512 40080 54005 91150 333 10289 20156 30140 59080 70000;EQDQ01  00002PRCP24
0199763930999992010032715004+25733-100300FM-12+051599999V0202501N001012200019N0020001N1+02141+01001101071ADDAY141031AY201031GA1001+999999999GF100991001001999999001001IA1019MA1999999095361MD1210241-0651MW1051REMSYN088AAXX  27151 76393 31920 02501 10214 20100 39536 40107 52024 70540 91455 333 30/// 59065;
0239763930999992010032718004+25733-100300FM-12+051599999V0200501N003012200019N0020001N1+03321+00091100821ADDAY141061AY201061GF103991001001999999001041IA1019KA1120M+03361KA2240N+01501MA1999999095181MD1610181+9999MW1051REMSYN118AAXX  27181 76393 31920 30503 10332 20009 39518 40082 56018 70540 80004 91755 333 10336 20150 30/// 54206 56005 59061;
0217763930999992010032721004+25733-100300FM-12+051599999V0203301N001010600019N0030001N1+03331+00411100621ADDAY141031AY241031GA1061+060001001GF106991001001999999001061IA1019MA1999999095071MD1710111-0291MW1041REMSYN106AAXX  27211 76393 31930 63301 10333 20041 39507 40062 57011 70444 80006 92050 333 30/// 56005 59029 86070;
0245763930999992010032800004+25733-100300FM-12+051599999V0201601N005012200019N0030001N1+03001+00741100601ADDAY141061AY241061GF101991001001999999001011IA1019KA1120M+03521KA2180N+01501MA1999999095121MD1210051-0081MW1041REMSYN124AAXX  28001 76393 31930 11605 10300 20074 39512 40060 52005 70444 80001 92350 333 10352 20150 30/// 50841 56005 59008 70000;
0199763930999992010032803004+25733-100300FM-12+051599999V0201301N003012200019N0020001N1+02621+00971100941ADDAY141031AY241031GA1001+999999999GF100991001001999999001001IA1019MA1999999095471MD1210351+0181MW1041REMSYN088AAXX  28031 76393 31920 01303 10262 20097 39547 40094 52035 70444 90240 333 30/// 58018;
0263763930999992010032806004+25733-100300FM-12+051599999V0200901N005012200019N0020001N1+02361+00911101141ADDAY141061AY241061GA1021+060001021GF102991001001999999001081GJ106069IA1019KA1240M+03521KA2240N+01501MA1999999095631MD1210161-0301MW1041REMSYN118AAXX  28061 76393 31920 20905 10236 20091 39563 40114 52016 70444 80008 90540 333 10352 20150 30/// 55101 59030 82270;
0217763930999992010032809004+25733-100300FM-12+051599999V0200601N001010081019N0020001N1+02121+01461101401ADDAY141031AY221031GA1081+008101061GF108991081051008001999999IA1019MA1999999095831MD1210201+0661MW1051REMSYN106AAXX  28091 76393 31520 80601 10212 20146 39583 40140 52020 70542 885// 90850 333 30/// 563// 58066 88627;
0263763930999992010032812004+25733-100300FM-12+051599999V0200401N001010300019N0020001N1+02021-00202101731ADDAA124000091GA1081+030001041GF108991081001999999021999IA1019KA1240M+03521KA2120N+02001MA1999999096131MD1210301+1011REMSYN118AAXX  28121 76393 32920 80401 10202 21020 39613 40173 52030 8802/ 91150 333 10352 20200 30196 5603/ 58101 70000 88460;EQDQ01-000203ATOD  
0189763930999992010032815004+25733-100300FM-12+051599999V0200401N003010150019N0080001N1+01801+00161102241ADDGA1081+015001061GF108991081051022501999999IA1019MA1999999096531MD1210401+1171REMSYN100AAXX  28151 76393 32858 80403 10180 20016 39653 40224 52040 885// 91450 333 30/// 563// 58117 88650;
0233763930999992010032818004+25733-100300FM-12+051599999V0200401N00201036001CN0080001N1+02101+00431102271ADDGA1021+015001061GF107991021051022501021999IA1019KA1120M+02161KA2240N+01801MA1999999096541MD1710011+1361REMSYN118AAXX  28181 76393 32858 70402 10210 20043 39654 40227 57001 8252/ 91750 333 10216 20180 30/// 5635/ 58136 82650 85457;
0189763930999992010032821004+25733-100300FM-12+051599999V0200301N003010720019N0120001N1+02321+00041101911ADDGA1061+072001001GF106991001001999999001041IA1019MA1999999096201MD1710341+1131REMSYN100AAXX  28211 76393 32962 60303 10232 20004 39620 40191 57034 80004 92055 333 30/// 56005 58113 86074;
0234763930999992010032900004+25733-100300FM-12+051599999V0200701N001019999999N0120001N1+02321+00041101761ADDAA124000091GF106991001001999999001041IA1019KA1120M+02541KA2180N+01781MA1999999096071MD1610131+0951REMSYN124AAXX  29001 76393 32962 60701 10232 20004 39607 40176 56013 80004 92355 333 10254 20178 30/// 50131 56005 58095 70000 86074;
0217763930999992010032903004+25733-100300FM-12+051599999V0209999C000010600019N0030001N1+02061+00301101961ADDAY121031AY221031GA1061+060001001GF106991001001999999001041IA1019MA1999999096271MD1210201+0641MW1041REMSYN106AAXX  29031 76393 31930 60000 10206 20030 39627 40196 52020 70422 80004 90250 333 30/// 56002 58064 86070;
0253763930999992010032906004+25733-100300FM-12+051599999V0209999C000012200019N0030001N1+01761+00431102081ADDAY111061AY211061GF104991001001999999001041GJ103009IA1019KA1240M+02541KA2240N+01761MA1999999096381MD1110111+0751MW1051REMSYN124AAXX  29061 76393 31930 40000 10176 20043 39638 40208 51011 70511 80004 90540 333 10254 20176 30/// 55050 56006 58075 84070;
0171763930999992010032909004+25733-100300FM-12+051599999V0202301N001012200019N0020001N1+01481+00531102011ADDGA1001+999999999GF100991001001999999001001IA1019MA1999999096281MD1410001+0451REMSYN082AAXX  29091 76393 32920 02301 10148 20053 39628 40201 54010 90850 333 30/// 58045;
0245763930999992010032912004+25733-100300FM-12+051599999V0202201N001012200019N0020001N1+01461+00261102051ADDAA124000091GA1001+999999999GF100991001001999999001001IA1019KA1240M+02541KA2120N+01421MA1999999096281MD1410001+0151REMSYN100AAXX  29121 76393 32920 02201 10146 20026 39628 40205 54000 91150 333 10254 20142 30112 58015 70000;EQDQ01  00002PRCP24
0195763930999992010032915004+25733-100300FM-12+051599999V0202301N001012200019N0040001N1+02011+00331102151ADDAY141031AY241031GF101991001001999999001011IA1019MA1999999096361MD1210081-0171MW1041REMSYN100AAXX  29151 76393 31940 12301 10201 20033 39636 40215 52008 70444 80001 91450 333 30/// 56005 59017;
0233763930999992010032918004+25733-100300FM-12+051599999V0201501N001012200019N0040001N1+02451-00121101961ADDAY141061AY241061GF101991001001999999001011IA1019KA1120M+02491KA2240N+01421MA1999999096201MD1710161-0341MW1041REMSYN112AAXX  29181 76393 31940 11501 10245 21012 39620 40196 57016 70444 80001 91750 333 10249 20142 30/// 56005 59034;
0171763930999992010032921004+25733-100300FM-12+051599999V0201101N005012200019N0080001N1+02701+00381101541ADDGA1001+999999999GF100991001001999999001001IA1019MA1999999095861MD1710341-0341REMSYN082AAXX  29211 76393 32958 01105 10270 20038 39586 40154 57034 92050 333 30/// 59034;
0251763930999992010033000004+25733-100300FM-12+051599999V0201201N004012200019N0080001N1+02561+00301101271ADDAA124000091GA1001+999999999GF100991001001999999001001IA1019KA1120M+02841KA2180N+01421MA1999999095651MD1710211-0421REMSYN106AAXX  30001 76393 32958 01204 10256 20030 39565 40127 57021 92350 333 10284 20142 30/// 50381 59042 70000;EQDQ01  00002PRCP24
0199763930999992010033003004+25733-100300FM-12+051599999V0201401N003012200019N0030001N1+02281+00211101331ADDAY101031AY201031GA1001+999999999GF100991001001999999001001IA1019MA1999999095741MD1210091-0531MW1041REMSYN088AAXX  30031 76393 31930 01403 10228 20021 39574 40133 52009 70400 90240 333 30/// 59053;
0251763930999992010033006004+25733-100300FM-12+051599999V0200601N001012200019N0030001N1+01701+00291101401ADDAY101061AY201061GA1001+999999999GF100991001001999999001001GJ106909IA1019KA1240M+02841KA2240N+01421MA1999999095781MD1210041-0601MW1041REMSYN106AAXX  30061 76393 31930 00601 10170 20029 39578 40140 52004 70400 90550 333 10284 20142 30/// 55115 59060;
0171763930999992010033009004+25733-100300FM-12+051599999V0200501N001012200019N0030001N1+01501+00361101451ADDGA1001+999999999GF100991001001999999001001IA1019MA1999999095781MD1410001-0501REMSYN082AAXX  30091 76393 32930 00501 10150 20036 39578 40145 54000 90850 333 30/// 59050;
0245763930999992010033012004+25733-100300FM-12+051599999V0209999C000012200019N0030001N1+01381+00441101451ADDAA124000091GA1001+999999999GF100991001001999999001001IA1019KA1240M+02841KA2120N+01321MA1999999095721MD1410001-0561REMSYN100AAXX  30121 76393 32930 00000 10138 20044 39572 40145 54006 91150 333 10284 20132 30108 59056 70000;EQDQ01  00002PRCP24
0199763930999992010033015004+25733-100300FM-12+051599999V0202901N001012200019N0030001N1+01811+00351101611ADDAY141031AY241031GA1001+999999999GF100991001001999999001001IA1019MA1999999095841MD1210121-0521MW1041REMSYN088AAXX  30151 76393 31930 02901 10181 20035 39584 40161 52012 70444 91450 333 30/// 59052;
0237763930999992010033018004+25733-100300FM-12+051599999V0201201N001012200019N0030001N1+02651+00441101501ADDAY141061AY241061GA1001+999999999GF100991001001999999001001IA1019KA1120M+02751KA2240N+01321MA1999999095751MD1710091-0451MW1041REMSYN100AAXX  30181 76393 31930 01201 10265 20044 39575 40150 57009 70444 91750 333 10275 20132 30/// 59045;
0199763930999992010033021004+25733-100300FM-12+051599999V0201201N001012200019N0040001N1+02961+00281101141ADDAY101031AY201031GA1001+999999999GF100991001001999999001001IA1019MA1999999095481MD1710271-0381MW1041REMSYN088AAXX  30211 76393 31940 01201 10296 20028 39548 40114 57027 70400 92055 333 30/// 59038;
0279763930999992010033100004+25733-100300FM-12+051599999V0201101N002012200019N0050001N1+02861+00661100941ADDAA124000091AY101061AY201061GA1001+999999999GF100991001001999999001001IA1019KA1120M+03141KA2180N+01321MA1999999095371MD1710111-0281MW1041REMSYN112AAXX  31001 76393 31950 01102 10286 20066 39537 40094 57011 70400 92355 333 10314 20132 30/// 50551 59028 70000;EQDQ01  00002PRCP24
0199763930999992010033103004+25733-100300FM-12+051599999V0209999C000012200019N0020001N1+02501+00931101021ADDAY141031AY241031GA1001+999999999GF100991001001999999001001IA1019MA1999999095451MD1210081-0291MW1051REMSYN088AAXX  31031 76393 31920 00000 10250 20093 39545 40102 52008 70544 90240 333 30/// 59029;
0251763930999992010033106004+25733-100300FM-12+051599999V0200901N001012200019N0020001N1+02001+01331101111ADDAY141061AY241061GA1001+999999999GF100991001001999999001001GJ106609IA1019KA1240M+03141KA2240N+01321MA1999999095551MD1310101-0231MW1051REMSYN106AAXX  31061 76393 31920 00901 10200 20133 39555 40111 53010 70544 90540 333 10314 20132 30/// 55110 59023;
0171763930999992010033109004+25733-100300FM-12+051599999V0203601N001012200019N0020001N1+01701+01341101061ADDGA1001+999999999GF100991001001999999001001IA1019MA1999999095461MD1410001-0321REMSYN082AAXX  31091 76393 32920 03601 10170 20134 39546 40106 54009 90850 333 30/// 59032;
0245763930999992010033112004+25733-100300FM-12+051599999V0203201N001012200019N0020001N1+01581+01321101081ADDAA124000091GA1001+999999999GF100991001001999999001001IA1019KA1240M+03141KA2120N+01501MA1999999095411MD1410001-0371REMSYN100AAXX  31121 76393 32920 03201 10158 20132 39541 40108 54005 91150 333 10314 20150 30134 59037 70000;EQDQ01  00002PRCP24
0199763930999992010033115004+25733-100300FM-12+051599999V0203001N001012200019N0020001N1+02151+01231101301ADDAY141031AY241031GA1001+999999999GF100991001001999999001001IA1019MA1999999095591MD1210181-0251MW1051REMSYN088AAXX  31151 76393 31920 03001 10215 20123 39559 40130 52018 70544 91450 333 30/// 59025;
0237763930999992010033118004+25733-100300FM-12+051599999V0200801N002012200019N0020001N1+02981+00931101191ADDAY141061AY241061GA1001+999999999GF100991001001999999001001IA1019KA1120M+03101KA2240N+01501MA1999999095511MD1710081-0241MW1051REMSYN100AAXX  31181 76393 31920 00802 10298 20093 39551 40119 57008 70544 91750 333 10310 20150 30/// 59024;
0171763930999992010033121004+25733-100300FM-12+051599999V0201201N006012200019N0020001N1+03361+01271100811ADDGA1001+999999999GF100991001001999999001001IA1019MA1999999095231MD1710281-0251REMSYN082AAXX  31211 76393 32920 01206 10336 20127 39523 40081 57028 92045 333 30/// 59025;
0199763930999992010040103004+25733-100300FM-12+051599999V0201101N006012200019N0020001N1+02481+01641100821ADDAY141031AY241031GA1001+999999999GF100991001001999999001001IA1019MA1999999095341MD1210141-0111MW1071REMSYN088AAXX  01031 76393 31920 01106 10248 20164 39534 40082 52014 70744 90240 333 30/// 59011;
0272763930999992010040112004+25733-100300FM-12+051599999V0209999C000010027019N0010001N1+01861+01641100971ADDAA124000091AY121061AY221061GA1081+002701071GF108991081061002501001001IA1019KA1240M+03431KA2120N+01721MA1999999095331MD1710021-0081MW1051REMSYN124AAXX  01121 76393 31310 80000 10186 20164 39533 40097 57002 70522 88600 91145 333 10343 20172 30160 563// 59008 70000 88709;
0217763930999992010040115004+25733-100300FM-12+051599999V0200901N001010033019N0020001N1+01951+01601101081ADDAY141031AY241031GA1081+003301061GF108991081051004501999999IA1019MA1999999095401MD1210071-0191MW1051REMSYN106AAXX  01151 76393 31420 80901 10195 20160 39540 40108 52007 70544 885// 91450 333 30/// 563// 59019 88611;
0171763930999992010040121004+25733-100300FM-12+051599999V0201101N005012200019N0010001N1+03081+01741100501ADDGA1001+999999999GF100991001001999999001001IA1019MA1999999094901MD1710471-0331REMSYN082AAXX  01211 76393 32910 01105 10308 20174 39490 40050 57047 92050 333 30/// 59033;
0284763930999992010040200004+25733-100300FM-12+051599999V0200601N002012200019N0030001N1+03021+01661100221ADDAA124000091AY141061AY201061GA1021+018001031GF104991021001017501041041IA1019KA1120M+03201KA2180N+01721MA1999999094691MD1710211-0511MW1051REMSYN136AAXX  02001 76393 31730 40602 10302 20166 39469 40022 57021 70540 82044 92350 333 10320 20172 30/// 50491 56055 59051 70000 82356 82070;
0199763930999992010040203004+25733-100300FM-12+051599999V0201001N005012200019N0020001N1+02861+01421100171ADDAY141031AY241031GA1001+999999999GF100991001001999999001001IA1019MA1999999094701MD1010011-0641MW1051REMSYN088AAXX  02031 76393 31920 01005 10286 20142 39470 40017 50001 70544 90240 333 30/// 59064;
0245763930999992010040218004+25733-100300FM-12+051599999V0201601N001010210019N0030001N1+03351+00851100581ADDAY141061AY241061GF107991071001022501021999IA1019KA1120M+03431KA2240N+01901MA1999999095001MD1210011-0371MW1041REMSYN124AAXX  02181 76393 31830 71601 10335 20085 39500 40058 52001 70444 8702/ 91750 333 10343 20190 30/// 54306 5605/ 59037 87456;
0217763930999992010040221004+25733-100300FM-12+051599999V0201301N004010180019N0050001N1+03401+01451100371ADDAY141031AY211031GA1071+018001041GF107991071001022501021999IA1019MA1999999094861MD1510141-0041MW1051REMSYN106AAXX  02211 76393 31850 71304 10340 20145 39486 40037 55014 70541 8702/ 92050 333 30/// 56959 59004 87456;
0262763930999992010040300004+25733-100300FM-12+051599999V0201301N005012200019N0030001N1+03001+01651100431ADDAA124000091AY141061AY201061GF104991041001017501011001IA1019KA1120M+03721KA2180N+01901MA1999999094971MD1210111+0281MW1051REMSYN130AAXX  03001 76393 31730 41305 10300 20165 39497 40043 52011 70540 84010 92350 333 10372 20190 30/// 50851 56059 58028 70000 84456;
0217763930999992010040315004+25733-100300FM-12+051599999V0201201N003010144019N0030001N1+02581+01401101201ADDAY121031AY221031GA1061+014401081GF106991061021012501999999IA1019MA1999999095591MD1010071+0601MW1051REMSYN106AAXX  03151 76393 31630 61203 10258 20140 39559 40120 50007 70522 862// 91450 333 30/// 563// 58060 86848;
0255763930999992010040318004+25733-100300FM-12+051599999V0201001N007012200019N0020001N1+03001+01511101141ADDAY141061AY241061GA1021+018001081GF102991021021017501001001IA1019KA1120M+03101KA2240N+02001MA1999999095541MD1010051+0541MW1051REMSYN118AAXX  03181 76393 31720 21007 10300 20151 39554 40114 50005 70544 82200 91740 333 10310 20200 30/// 563// 58054 82856;
0217763930999992010040321004+25733-100300FM-12+051599999V0200901N005012200019N0020001N1+03081+01521100841ADDAY101031AY201031GA1011+018001081GF101991011011017501001001IA1019MA1999999095301MD1710241+0441MW1041REMSYN106AAXX  03211 76393 31720 10905 10308 20152 39530 40084 57024 70400 81100 92050 333 30/// 56300 58044 81856;
0270763930999992010040412004+25733-100300FM-12+051599999V0200901N001010021019N0010001N1+02041+01861101011ADDAA124000091AY121061AY221061GF106991061061002501001001GJ105229IA1019KA1240M+03241KA2120N+01961MA1999999095401MD1710011-0121MW1051REMSYN130AAXX  04121 76393 31310 60901 10204 20186 39540 40101 57001 70522 86600 91150 333 10324 20196 30182 55087 56300 59012 70000 86708;
0255763930999992010040418004+25733-100300FM-12+051599999V0200901N001010180019N0010001N1+02621+01831101221ADDAY141061AY211061GA1051+018001041GF105991051001008001021999IA1019KA1120M+02741KA2240N+01961MA1999999095581MD1010011+0041MW1051REMSYN118AAXX  04181 76393 31510 50901 10262 20183 39558 40122 50001 70541 8502/ 91750 333 10274 20196 30/// 5605/ 58004 85456;
0171763930999992010040421004+25733-100300FM-12+051599999V0201101N004012200019N0030001N1+03201+01891100891ADDGA1001+999999999GF100991001001999999001001IA1019MA1999999095311MD1210271+0011REMSYN082AAXX  04211 76393 32930 01104 10320 20189 39531 40089 52027 92050 333 30/// 58001;
0284763930999992010040500004+25733-100300FM-12+051599999V0201201N003012200019N0030001N1+03121+02161100761ADDAA124000091AY141061AY241061GA1011+018001081GF102991011021999999011001IA1019KA1120M+03361KA2180N+01961MA1999999095241MD1010071+0001MW1051REMSYN136AAXX  05001 76393 31930 21203 10312 20216 39524 40076 50007 70544 81210 92340 333 10336 20196 30/// 50641 56550 58000 70000 81856 81360;
0199763930999992010040503004+25733-100300FM-12+051599999V0201101N005012200019N0020001N1+02881+01841100841ADDAY141031AY241031GA1001+999999999GF100991001001999999001001IA1019MA1999999095351MD1210111+0001MW1051REMSYN088AAXX  05031 76393 31920 01105 10288 20184 39535 40084 52011 70544 90240 333 30/// 58000;
0217763930999992010040521004+25733-100300FM-12+051599999V0201301N004012200019N0030001N1+03121+01841101001ADDAY141031AY241031GA1011+012001081GF102991011011012501001011IA1019MA1999999095431MD1710261+0121MW1051REMSYN106AAXX  05211 76393 31630 21304 10312 20184 39543 40100 57026 70544 81101 92050 333 30/// 56505 58012 81840;
0284763930999992010040600004+25733-100300FM-12+051599999V0201501N003010360019N0030001N1+03201+01851100791ADDAA124000091AY141061AY241061GA1021+018001061GF105991021041017501051001IA1019KA1120M+03281KA2180N+02081MA1999999095281MD1710151+0041MW1051REMSYN136AAXX  06001 76393 31730 51503 10320 20185 39528 40079 57015 70544 82450 92340 333 10328 20208 30/// 50061 56550 58004 70000 82656 83360;
0255763930999992010040618004+25733-100300FM-12+051599999V0200901N002010360019N0008001N1+02571+01861100871ADDAY141061AY241061GA1021+006901081GF107991011071008001051001KA1120M+02661KA2240N+01961MA1999999095231MD1710091-0461MW1051REMSYN124AAXX  06181 76393 31508 70902 10257 20186 39523 40087 57009 70544 81750 82108 333 10266 20196 30/// 56305 59046 82823 85270;
0199763930999992010040715004+25733-100300FM-12+051599999V0200201N001012200019N0020001N1+02421+01771100621ADDAY141031AY201031GA1001+999999999GF100991001001999999001001IA1019MA1999999095031MD1210041-0291MW1051REMSYN088AAXX  07151 76393 31920 00201 10242 20177 39503 40062 52004 70540 91450 333 30/// 59029;
0237763930999992010040718004+25733-100300FM-12+051599999V0200201N005012200019N0020001N1+03511+00632100571ADDAY141061AY241061GA1001+999999999GF100991001001999999001001IA1019KA1120M+03561KA2240N+01921MA1999999095011MD1710021-0221MW1051REMSYN100AAXX  07181 76393 31920 00205 10351 20063 39501 40057 57002 70544 91750 333 10356 20192 30/// 59022;
0223763930999992010040721004+25733-100300FM-12+051599999V0203601N003012200019N0020001N1+03221+01561100501ADDAY141031AY241031GA1011+015001081GF102991021021017501001001IA1019MA1999999094981MD1710031+0091MW1051REMSYN112AAXX  07211 76393 31720 23603 10322 20156 39498 40050 57003 70544 82200 92050 333 30/// 56500 58009 81850 81650;
0284763930999992010040800004+25733-100300FM-12+051599999V0203601N005010360019N0030001N1+02941+00891100621ADDAA124000091AY111061AY211061GA1021+999999081GF105991021021022501061001IA1019KA1120M+03561KA2180N+01921MA1999999095141MD1210161+0381MW1151REMSYN136AAXX  08001 76393 31830 53605 10294 20089 39514 40062 52016 71511 82260 92345 333 10356 20192 30/// 50821 56530 58038 70000 82851 83360;
0223763930999992010040915004+25733-100300FM-12+051599999V0200601N00301036001CN0050001N1+01641+00741101901ADDAY141031AY211031GA1031+011101061GF106991031051012501041999IA1019MA1999999096131MD1010141-0411MW1051REMSYN112AAXX  09151 76393 31650 60603 10164 20074 39613 40190 50014 70541 8354/ 91450 333 30/// 5635/ 59041 83637 83356;
0261763930999992010040918004+25733-100300FM-12+051599999V0201401N00301090001CN0020001N1+02121+01131101851ADDAY141061AY241061GA1021+009901061GF107991021051008001001071IA1019KA1120M+02261KA2240N+01481MA1999999096081MD1710051-0211MW1041REMSYN124AAXX  09181 76393 31520 71403 10212 20113 39608 40185 57005 70444 82507 91750 333 10226 20148 30/// 56505 59021 82633 85270;
0240763930999992010040921004+25733-100300FM-12+051599999V0201301N00201036001CN0030001N1+02211+01151101641ADDAA103000021AY141031AY221031GA1041+010201061GF108991041051008001021999IA1019MA1999999095901MD1710181+0001MW1501REMSYN118AAXX  09211 76393 21530 81302 10221 20115 39590 40164 57018 75042 8452/ 92050 333 30/// 5655/ 58000 69907 84634 84456;
0284763930999992010041000004+25733-100300FM-12+051599999V0203101N003010360019N0030001N1+02061+01321101441ADDAA124999929AY121061AY221061GA1011+009301081GF108991011021008001061001IA1019KA1120M+02321KA2180N+01421MA1999999095741MD1710141-0121MW1041REMSYN136AAXX  10001 76393 31530 83103 10206 20132 39574 40144 57014 70422 81260 92340 333 10232 20142 30/// 50041 5635/ 59012 79999 81831 87360;
0255763930999992010041018004+25733-100300FM-12+051599999V0201201N002012200019N0020001N1+02741+01581101651ADDAY141061AY241061GA1011+010801081GF101991011021012501001001IA1019KA1120M+02801KA2240N+01541MA1999999095941MD1710061-0141MW1041REMSYN118AAXX  10181 76393 31620 11202 10274 20158 39594 40165 57006 70444 81200 91750 333 10280 20154 30/// 56500 59014 81836;
0223763930999992010041021004+25733-100300FM-12+051599999V0201401N004012200019N0020001N1+03081+01521101321ADDAY141031AY241031GA1011+015001061GF102991021031012501001001IA1019MA1999999095721MD1710221-0181MW1041REMSYN112AAXX  10211 76393 31620 21404 10308 20152 39572 40132 57022 70444 82300 92050 333 30/// 56500 59018 81650 81950;
0303763930999992010041100004+25733-100300FM-12+051599999V0201401N005012200019N0030001N1+03021+01481101201ADDAA124999999AY121061AY221061GA1011+021001081GF102991011021999999031001IA1019KA1120M+03021KA2180N+01541MA1999999095641MD1510081-0101MW1051REMSYN136AAXX  11001 76393 31930 21405 10302 20148 39564 40120 55008 70522 81230 92340 333 10302 20154 30/// 50491 56530 59010 79999 81857 81360;EQDQ01  99992PRCP24
0253763930999992010041115004+25733-100300FM-12+051599999V0201201N001010015019N0010001N1+01981+01871101811ADDAA103000091AY151031AY211031GA1081+001501071GF108991081061001501999999IA1099MA1999999096101MD1210101+0101MW1051REMSYN112AAXX  11151 76393 21210 81201 10198 20187 39610 40181 52010 70551 886// 91450 333 31/// 563// 58010 69907 88705;EQDQ01  00002PRCP03
0255763930999992010041118004+25733-100300FM-12+051599999V0201401N002010090019N0010001N1+02501+01761101801ADDAY141061AY221061GA1071+009001061GF107991071051008001999999IA1019KA1120M+02561KA2240N+01891MA1999999096101MD1410001+0051MW1051REMSYN118AAXX  11181 76393 31510 71402 10250 20176 39610 40180 54000 70542 875// 91750 333 10256 20189 30/// 563// 58005 87630;
0281763930999992010041200004+25733-100300FM-12+051599999V0201401N003010120019N0020001N1+02561+01731101411ADDAA124999999AY121061AY221061GF108991081041012501999999IA1019KA1120M+02801KA2180N+01891MA1999999095791MD1210051+0151MW1151REMSYN130AAXX  12001 76393 31620 81403 10256 20173 39579 40141 52005 71522 884// 92340 333 10280 20189 30/// 50371 568// 58015 79999 88635;EQDQ01  99992PRCP24
0172763930999992010041218004+25733-100300FM-12+051599999V0200401N002012200019N0030001N1+02101+01611101721ADDAA106069191AY141061AY211061GF104991999999008001999999MA1999999096011MD1710101+9999MW1051REMSYN072AAXX  12181 76393 01530 40402 10210 20161 39601 40172 57010 60691 70541;
0262763930999992010041500004+25733-100300FM-12+051599999V0200901N006010075019N0030001N1+02301+01801101121ADDAA124010191AY121061AY221061GF107991071021008001999999IA1019KA1120M+02541KA2180N+01771MA1999999095481MD1710241+0111MW1051REMSYN130AAXX  15001 76393 31530 70906 10230 20180 39548 40112 57024 70522 872// 92340 333 10254 20177 30/// 50131 568// 58011 70101 87821;
0172763930999992010041618004+25733-100300FM-12+051599999V0201501N001019999999N0010001N1+02401+01881101661ADDAA106000591AY141061AY221061GF108991999999008001999999MA1999999095971MD1710021+9999MW1051REMSYN072AAXX  16181 76393 01510 81501 10240 20188 39597 40166 57002 69941 70542;
0255763930999992010041718004+25733-100300FM-12+051599999V0200901N002010063019N0020001N1+02481+01841101271ADDAY141061AY221061GA1071+006301061GF107991071061008001999999IA1099KA1120M+02541KA2240N+01801MA1999999095601MD1710161-0371MW1051REMSYN118AAXX  17181 76393 21520 70902 10248 20184 39560 40127 57016 70542 876// 91755 333 10254 20180 31/// 56399 59037 87621;
0217763930999992010041721004+25733-100300FM-12+051599999V0201101N003012200019N0020001N1+02721+01851100951ADDAY141031AY211031GA1041+008701081GF104991041021008001001001IA1019MA1999999095341MD1710261-0411MW1051REMSYN106AAXX  17211 76393 31520 41103 10272 20185 39534 40095 57026 70541 84200 92055 333 30/// 56300 59041 84829;
0284763930999992010041800004+25733-100300FM-12+051599999V0200901N003010120019N0040001N1+02601+01781100861ADDAA124006691AY121061AY221061GA1041+010501061GF107991071041012501999999IA1019KA1120M+02861KA2180N+01801MA1999999095291MD1010051-0311MW1051REMSYN136AAXX  18001 76393 31640 70903 10260 20178 39529 40086 50005 70522 874// 92340 333 10286 20180 30/// 50431 563// 59031 70066 84635 83836;
0234763930999992010041803004+25733-100300FM-12+051599999V0200501N003010039019N0020001N1+02141+01811101201ADDAA103001091AY121031AY221031GA1061+003901061GF106991061041004501999999IA1099MA1999999095611MD1210321-0141MW1051REMSYN112AAXX  18031 76393 21420 60503 10214 20181 39561 40120 52032 70522 864// 90240 333 31/// 563// 59014 60017 86613;
0244763930999992010041812004+25733-100300FM-12+051599999V0203301N001010033019N0120001N1+01741+01421101361ADDAA124007691GA1081+003301071GF108991081061004501999999IA1019KA1240M+02861KA2120N+01701MA1999999095661MD1410001+0011REMSYN118AAXX  18121 76393 32462 83301 10174 20142 39566 40136 54007 886// 91155 333 10286 20170 30152 56399 58001 70076 88711;
0189763930999992010041815004+25733-100300FM-12+051599999V0200301N002010048019N0140001N1+01721+01231101551ADDGA1081+004801071GF108991081061004501999999IA1019MA1999999095821MD1310161+0061REMSYN100AAXX  18151 76393 32464 80302 10172 20123 39582 40155 53016 886// 91455 333 30/// 56399 58006 88716;
0272763930999992010041912004+25733-100300FM-12+051599999V0209999C000010030019N0030001N1+01881+01641101521ADDAA124000091AY141061AY221061GA1071+003001061GF107991071051002501999999IA1019KA1240M+02581KA2120N+01761MA1999999095821MD1210101+0161MW1051REMSYN124AAXX  19121 76393 31330 70000 10188 20164 39582 40152 52010 70542 875// 91750 333 10258 20176 30174 563// 58016 70000 87610;
0217763930999992010042121004+25733-100300FM-12+051599999V0201101N005010102019N0040001N1+02601+01781100741ADDAY121031AY221031GA1071+010201061GF107991071051012501999999IA1019MA1999999095121MD1710281-0491MW1051REMSYN106AAXX  21211 76393 31640 71105 10260 20178 39512 40074 57028 70522 875// 92050 333 30/// 563// 59049 87634;
0205763930999992010042315004+25733-100300FM-12+051599999V0201201N002012200019N0030001N1+02641+01891100241ADDAY141031AY201031GA1001+999999999GF100991001001999999001001IA1019MA1999999094661MD1210181-0241MW1051REMSYN094AAXX  23151 76393 31930 01202 10264 20189 39466 40024 52018 70540 91450 333 30/// 56999 59024;
0261763930999992010042318004+25733-100300FM-12+051599999V0201101N00201220001CN0030001N1+03381+01421100061ADDAY141061AY241061GA1011+015001081GF106991011011017501001061IA1099KA1120M+03441KA2240N+01971MA1999999094541MD1710121-0231MW1051REMSYN124AAXX  23181 76393 31730 61102 10338 20142 39454 40006 57012 70544 81106 91750 333 10344 20197 31/// 56505 59023 81850 85070;
0217763930999992010042321004+25733-100300FM-12+051599999V0201201N003010150019N0030001N1+03181+01651099721ADDAY141031AY241031GA1071+015001061GF107991071051012501999999IA1019MA1999999094261MD1710281-0211MW1051REMSYN106AAXX  23211 76393 31630 71203 10318 20165 39426 49972 57028 70544 875// 92050 333 30/// 565// 59021 87650;
0262763930999992010042400004+25733-100300FM-12+051599999V0201201N003010120019N0030001N1+02961+01971099621ADDAA124000091AY141061AY241061GF108991081041012501999999IA1019KA1120M+03581KA2180N+01971MA1999999094211MD1510051-0111MW1051REMSYN130AAXX  24001 76393 31630 81203 10296 20197 39421 49962 55005 70544 884// 92340 333 10358 20197 30/// 50671 565// 59011 70000 88641;
0199763930999992010042403004+25733-100300FM-12+051599999V0201801N002012200019N0020001N1+02741+01941099801ADDAY141031AY241031GA1001+999999999GF100991001001999999001001IA1019MA1999999094391MD1210181-0111MW1051REMSYN088AAXX  24031 76393 31920 01802 10274 20194 39439 49980 52018 70544 90240 333 30/// 59011;
0233763930999992010042418004+25733-100300FM-12+051599999V0201201N004012200019N0040001N1+02781+01021100731ADDAY141061AY241061GF102991001001999999001021IA1019KA1120M+03141KA2240N+01921MA1999999095171MD1710101+0631MW1041REMSYN112AAXX  24181 76393 32940 21204 10278 20102 39517 40073 57010 70444 80002 91750 333 10314 20192 30/// 56005 58063;
0195763930999992010042421004+25733-100300FM-12+051599999V0201201N005012200019N0040001N1+02901+01001100551ADDAY141031AY241031GF101991001001999999001011IA1019MA1999999094991MD1710181+0731MW1051REMSYN100AAXX  24211 76393 31940 11205 10290 20100 39499 40055 57018 70544 80001 92050 333 30/// 56005 58073;
0199763930999992010042503004+25733-100300FM-12+051599999V0200501N001012200019N0030001N1+02481+01071100681ADDAY101031AY201031GA1001+999999999GF100991001001999999001001IA1019MA1999999095161MD1210181+0771MW1041REMSYN088AAXX  25031 76393 31930 00501 10248 20107 39516 40068 52018 70400 90240 333 30/// 58077;
0217763930999992010042521004+25733-100300FM-12+051599999V0201201N001012200019N0040001N1+03281+01061100831ADDAY141031AY241031GA1011+021001081GF101991011011022501001001IA1019MA1999999095261MD1710261+0271MW1041REMSYN106AAXX  25211 76393 31840 11201 10328 20106 39526 40083 57026 70444 81100 92050 333 30/// 56500 58027 81857;
0262763930999992010042700004+25733-100300FM-12+051599999V0201201N003019999999N0060001N1+03041+01051100521ADDAA124000091AY111061AY211061GF106991001001999999001011IA1019KA1120M+03221KA2180N+01801MA1999999095021MD1710041-0151MW1051REMSYN130AAXX  27001 76393 31956 61203 10304 20105 39502 40052 57004 70511 80001 92340 333 10322 20180 30/// 50781 56007 59015 70000 86070;
0195763930999992010042703004+25733-100300FM-12+051599999V0201101N006012200019N0030001N1+02681+01011100671ADDAY101031AY201031GF101991001001999999001081IA1019MA1999999095191MD1210171-0181MW1051REMSYN100AAXX  27031 76393 31930 11106 10268 20101 39519 40067 52017 70500 80008 90240 333 30/// 56005 59018;
0269763930999992010042712004+25733-100300FM-12+051599999V0203301N001012200019N0030001N1+01881+00871100841ADDAA124000091AY141061AY241061GF104991001001999999001041IA1019KA1240M+03221KA2120N+01801MA1999999095241MD1210171-0071MW1041REMSYN118AAXX  27121 76393 31930 43301 10188 20087 39524 40084 52017 70444 80004 91150 333 10322 20180 30152 56005 59007 70000;EQDQ01  00002PRCP24
0261763930999992010042718004+25733-100300FM-12+051599999V0203601N00301036001CN0040001N1+02281+01251101451ADDAY121061AY221061GA1011+012601081GF107991011011012501051999IA1019KA1120M+02381KA2240N+01801MA1999999095781MD1210091+0421MW1051REMSYN124AAXX  27181 76393 31640 73603 10228 20125 39578 40145 52009 70522 8115/ 91750 333 10238 20180 30/// 5635/ 58042 81842 86365;
0177763930999992010042921004+25733-100300FM-12+051599999V0201101N003012200019N0010001N1+03161+02011100101ADDGA1001+999999999GF100991001001999999001001IA1019MA1999999094541MD1710311-1041REMSYN088AAXX  29211 76393 32910 01103 10316 20201 39454 40010 57031 92050 333 30/// 56999 59104;
0279763930999992010043000004+25733-100300FM-12+051599999V0201201N002012200019N0030001N1+03221+01591099731ADDAA124000091AY141061AY241061GA1001+999999999GF100991001001999999001001IA1019KA1120M+03461KA2180N+01601MA1999999094261MD1210281-1101MW1051REMSYN112AAXX  30001 76393 31930 01202 10322 20159 39426 49973 52028 70544 92340 333 10346 20160 30/// 50601 59110 70000;EQDQ01  00002PRCP24
0199763930999992010043003004+25733-100300FM-12+051599999V0201901N001012200019N0020001N1+02821+02001099781ADDAY141031AY241031GA1001+999999999GF100991001001999999001001IA1019MA1999999094351MD1210091-1031MW1051REMSYN088AAXX  30031 76393 31920 01901 10282 20200 39435 49978 52009 70544 90240 333 30/// 59103;
0199763930999992010043015004+25733-100300FM-12+051599999V0201401N001012200019N0030001N1+03061+01211099791ADDAY141031AY241031GA1001+999999999GF100991001001999999001001IA1019MA1999999094261MD1110051-0741MW1051REMSYN088AAXX  30151 76393 31930 01401 10306 20121 39426 49979 51005 70544 91450 333 30/// 59074;
0215763930999992010043018004+25733-100300FM-12+051599999V0201301N002012200019N0020001N1+03541+01411099661ADDGA1001+999999999GF100991001001999999001001IA1019KA1120M+03681KA2240N+01901MA1999999094171MD1710091-0681REMSYN100AAXX  30181 76393 32920 01302 10354 20141 39417 49966 57009 91750 333 10368 20190 30/// 56999 59068;
0205763930999992010043021004+25733-100300FM-12+051599999V0201101N003012200019N0030001N1+03801+00551099381ADDAY141031AY241031GA1001+999999999GF100991001001999999001001IA1019MA1999999093981MD1710191-0561MW1051REMSYN094AAXX  30211 76393 31930 01103 10380 20055 39398 49938 57019 70544 92050 333 30/// 56999 59056;
0279763930999992010050100004+25733-100300FM-12+051599999V0201501N001012200019N0040001N1+03601+00801099181ADDAA124000091AY141061AY241061GA1001+999999999GF100991001001999999001001IA1019KA1120M+03901KA2180N+01901MA1999999093861MD1610121-0401MW1051REMSYN112AAXX  01001 76393 31940 01501 10360 20080 39386 49918 56012 70544 92340 333 10390 20190 30/// 50991 59040 70000;EQDQ01  00002PRCP24
0279763930999992010050112004+25733-100300FM-12+051599999V0203601N003012200019N0020001N1+02261+01521099621ADDAA124000091AY141061AY241061GA1001+999999999GF100991001001999999001001IA1019KA1240M+02901KA2120N+01961MA1999999094171MD1510181-0041MW1051REMSYN112AAXX  01121 76393 31920 03603 10226 20152 39417 49962 55018 70544 91150 333 10290 20196 30176 56999 59004 70000;EQDQ01  00002PRCP24
0205763930999992010050115004+25733-100300FM-12+051599999V0200901N002012200019N0080001N1+02581+01171099921ADDAY141031AY241031GA1001+999999999GF100991001001999999001001IA1019MA1999999094391MD1210221+0131MW1051REMSYN094AAXX  01151 76393 31958 00902 10258 20117 39439 49992 52022 70544 91450 333 30/// 56999 58013;
0237763930999992010050118004+25733-100300FM-12+051599999V0201101N003012200019N0050001N1+03041+00951099901ADDAY101061AY201061GA1001+999999999GF100991001001999999001001IA1019KA1120M+03181KA2240N+01961MA1999999094391MD1410001+0221MW1051REMSYN100AAXX  01181 76393 31950 01103 10304 20095 39439 49990 54000 70500 91750 333 10318 20196 30/// 58022;
0199763930999992010050121004+25733-100300FM-12+051599999V0200701N003012200019N0050001N1+03321+01501099581ADDAY101031AY201031GA1001+999999999GF100991001001999999001001IA1019MA1999999094121MD1710271+0141MW1051REMSYN088AAXX  01211 76393 31950 00703 10332 20150 39412 49958 57027 70500 92045 333 30/// 58014;
0279763930999992010050200004+25733-100300FM-12+051599999V0201301N003012200019N0050001N1+03041+01431099521ADDAA124000091AY101061AY201061GA1001+999999999GF100991001001999999001001IA1019KA1120M+03181KA2180N+01961MA1999999094111MD1410001+0251MW1051REMSYN112AAXX  02001 76393 31950 01303 10304 20143 39411 49952 54001 70500 92350 333 10318 20196 30/// 50901 58025 70000;EQDQ01  00002PRCP24
0199763930999992010050203004+25733-100300FM-12+051599999V0201301N001012200019N0020001N1+02701+01291099961ADDAY101031AY201031GA1001+999999999GF100991001001999999001001IA1019MA1999999094531MD1210421+0521MW1051REMSYN088AAXX  02031 76393 31920 01301 10270 20129 39453 49996 52042 70500 90250 333 30/// 58052;
0167763930999992010050215004+25733-100300FM-12+051599999V0200501N001012200019N0160001N1+02241+00541100931ADDGF101991011001017501041001IA1019MA1999999095311MD1210301+0921REMSYN094AAXX  02151 76393 32766 10501 10224 20054 39531 40093 52030 81040 91455 333 30/// 56050 58092;
0255763930999992010050218004+25733-100300FM-12+051599999V0201101N003012200019N0040001N1+02921+00551100901ADDAY141061AY241061GA1011+021001081GF101991011011022501001001IA1019KA1120M+03021KA2240N+01981MA1999999095301MD1710011+0911MW1041REMSYN118AAXX  02181 76393 31840 11103 10292 20055 39530 40090 57001 70444 81100 91750 333 10302 20198 30/// 56500 58091 81857;
0199763930999992010050221004+25733-100300FM-12+051599999V0201101N003012200019N0040001N1+03091+01061100581ADDAY141031AY241031GA1001+999999999GF100991001001999999001001IA1019MA1999999095031MD1710271+0911MW1041REMSYN088AAXX  02211 76393 31940 01103 10309 20106 39503 40058 57027 70444 92050 333 30/// 58091;
0279763930999992010050300004+25733-100300FM-12+051599999V0201201N002012200019N0050001N1+02901+01071100051ADDAA124000091AY141061AY241061GA1001+999999999GF100991001001999999001001IA1019KA1120M+03141KA2180N+01981MA1999999094981MD1410001+0871MW1041REMSYN112AAXX  03001 76393 31950 01202 10290 20107 39498 40005 54005 70444 92350 333 10314 20198 30/// 51081 58087 70000;EQDQ01  00002PRCP24
0199763930999992010050303004+25733-100300FM-12+051599999V0202201N001012200019N0020001N1+02581+01211100671ADDAY141031AY241031GA1001+999999999GF100991001001999999001001IA1019MA1999999095181MD1210201+0651MW1041REMSYN088AAXX  03031 76393 31920 02201 10258 20121 39518 40067 52020 70444 90250 333 30/// 58065;
0237763930999992010050318004+25733-100300FM-12+051599999V0200901N002012200019N0030001N1+02841+01071101381ADDAY141061AY241061GA1001+999999999GF100991001001999999001001IA1019KA1120M+03001KA2240N+01741MA1999999095731MD1210161+0431MW1051REMSYN100AAXX  03181 76393 31930 00902 10284 20107 39573 40138 52016 70544 91750 333 10300 20174 30/// 58043;
0279763930999992010050412004+25733-100300FM-12+051599999V0202001N002012200019N0030001N1+02081+01131101701ADDAA124000091AY141061AY241061GA1001+999999999GF100991001001999999001001IA1019KA1240M+03401KA2120N+01981MA1999999096071MD1210081+0691MW1051REMSYN112AAXX  04121 76393 31930 02002 10208 20113 39607 40170 52008 70544 91150 333 10340 20198 30170 56999 58069 70000;EQDQ01  00002PRCP24
0171763930999992010050415004+25733-100300FM-12+051599999V0201001N001012200019N0120001N1+02701+00911101781ADDGA1001+999999999GF100991001001999999001001IA1019MA1999999096131MD1110061+0561REMSYN082AAXX  04151 76393 32962 01001 10270 20091 39613 40178 51006 91450 333 30/// 58056;
0237763930999992010050418004+25733-100300FM-12+051599999V0200901N002012200019N0040001N1+03061+00661101631ADDAY141061AY241061GA1001+999999999GF100991001001999999001001IA1019KA1120M+03171KA2240N+01981MA1999999096011MD1710121+0281MW1041REMSYN100AAXX  04181 76393 31940 00902 10306 20066 39601 40163 57012 70444 91750 333 10317 20198 30/// 58028;
0199763930999992010050421004+25733-100300FM-12+051599999V0200901N003012200019N0040001N1+03271+01021101241ADDAY141031AY241031GA1001+999999999GF100991001001999999001001IA1019MA1999999095691MD1710321+0061MW1041REMSYN088AAXX  04211 76393 31940 00903 10327 20102 39569 40124 57032 70444 92050 333 30/// 58006;
0251763930999992010050500004+25733-100300FM-12+051599999V0200901N006012200019N0140001N1+03161+01051101071ADDAA124000091GA1001+999999999GF100991001001999999001001IA1019KA1120M+03341KA2180N+01981MA1999999095521MD1610171-0181REMSYN106AAXX  05001 76393 32964 00906 10316 20105 39552 40107 56017 92355 333 10334 20198 30/// 50951 59018 70000;EQDQ01  00002PRCP24
0199763930999992010050503004+25733-100300FM-12+051599999V0201101N001012200019N0020001N1+02841+01021100941ADDAY141031AY201031GA1001+999999999GF100991001001999999001001IA1019MA1999999095471MD1410001-0541MW1051REMSYN088AAXX  05031 76393 31920 01101 10284 20102 39547 40094 54005 70540 90255 333 30/// 59054;
0199763930999992010050515004+25733-100300FM-12+051599999V0202801N001012200019N0100001N1+02781+01391101171ADDAY101031AY201031GA1001+999999999GF100991001001999999001001IA1019MA1999999095541MD1010051-0591MW1051REMSYN088AAXX  05151 76393 32960 02801 10278 20139 39554 40117 50005 70500 91450 333 30/// 59059;
0237763930999992010050518004+25733-100300FM-12+051599999V0200901N001012200019N0030001N1+03281+01281101101ADDAY141061AY241061GA1001+999999999GF100991001001999999001001IA1019KA1120M+03391KA2240N+01921MA1999999095501MD1710041-0511MW1051REMSYN100AAXX  05181 76393 31930 00901 10328 20128 39550 40110 57004 70544 91750 333 10339 20192 30/// 59051;
0199763930999992010050521004+25733-100300FM-12+051599999V0201001N003012200019N0030001N1+03721+01291100811ADDAY141031AY241031GA1001+999999999GF100991001001999999001001IA1019MA1999999095301MD1710201-0391MW1051REMSYN088AAXX  05211 76393 31930 01003 10372 20129 39530 40081 57020 70544 92050 333 30/// 59039;
0279763930999992010050600004+25733-100300FM-12+051599999V0201201N004012200019N0050001N1+03501+01391100691ADDAA124000091AY141061AY241061GA1001+999999999GF100991001001999999001001IA1019KA1120M+03781KA2180N+01921MA1999999095251MD1410001-0291MW1051REMSYN112AAXX  06001 76393 31950 01204 10350 20139 39525 40069 54005 70544 92350 333 10378 20192 30/// 50911 59029 70000;EQDQ01  00002PRCP24
0199763930999992010050603004+25733-100300FM-12+051599999V0201201N002012200019N0020001N1+03121+01531100791ADDAY141031AY241031GA1001+999999999GF100991001001999999001001IA1019MA1999999095381MD1210131-0091MW1051REMSYN088AAXX  06031 76393 31920 01202 10312 20153 39538 40079 52013 70544 90250 333 30/// 59009;
0273763930999992010050612004+25733-100300FM-12+051599999V0200801N002012200019N0030001N1+02121+01671100861ADDAA124000091AY101061AY201061GA1001+999999999GF100991001001999999001001IA1019KA1240M+03781KA2120N+02001MA1999999095301MD1210091-0191MW1051REMSYN106AAXX  06121 76393 31930 00802 10212 20167 39530 40086 52009 70500 91150 333 10378 20200 30182 59019 70000;EQDQ01  00002PRCP24
0237763930999992010050618004+25733-100300FM-12+051599999V0200601N001012200019N0020001N1+03181+01631100941ADDAY141061AY241061GA1001+999999999GF100991001001999999001001IA1019KA1120M+03281KA2240N+02001MA1999999095351MD1710061-0151MW1051REMSYN100AAXX  06181 76393 31920 00601 10318 20163 39535 40094 57006 70544 91750 333 10328 20200 30/// 59015;
0199763930999992010050621004+25733-100300FM-12+051599999V0200901N005012200019N0020001N1+03501+01741100641ADDAY141031AY241031GA1001+999999999GF100991001001999999001001IA1019MA1999999095121MD1710231-0181MW1051REMSYN088AAXX  06211 76393 31920 00905 10350 20174 39512 40064 57023 70544 92050 333 30/// 59018;
0279763930999992010050700004+25733-100300FM-12+051599999V0201201N003012200019N0050001N1+03381+01881100451ADDAA124000091AY141061AY241061GA1001+999999999GF100991001001999999001001IA1019KA1120M+03621KA2180N+02001MA1999999095011MD1210111-0241MW1051REMSYN112AAXX  07001 76393 31950 01203 10338 20188 39501 40045 52011 70544 92350 333 10362 20200 30/// 51151 59024 70000;EQDQ01  00002PRCP24
0199763930999992010050703004+25733-100300FM-12+051599999V0202301N001012200019N0020001N1+03141+01671100531ADDAY141031AY241031GA1001+999999999GF100991001001999999001001IA1019MA1999999095121MD1210111-0261MW1051REMSYN088AAXX  07031 76393 31920 02301 10314 20167 39512 40053 52011 70544 90250 333 30/// 59026;
0273763930999992010050712004+25733-100300FM-12+051599999V0200301N001012200019N0030001N1+02261+01941100651ADDAA124000091AY141061AY241061GA1001+999999999GF100991001001999999001001IA1019KA1240M+03621KA2120N+02181MA1999999095121MD1210061-0181MW1051REMSYN106AAXX  07121 76393 31930 00301 10226 20194 39512 40065 52006 70544 91150 333 10362 20218 30190 59018 70000;EQDQ01  00002PRCP24
0199763930999992010050715004+25733-100300FM-12+051599999V0200401N001012200019N0020001N1+02701+01961100841ADDAY141031AY241031GA1001+999999999GF100991001001999999001001IA1019MA1999999095281MD1210071-0131MW1051REMSYN088AAXX  07151 76393 31920 00401 10270 20196 39528 40084 52007 70544 91450 333 30/// 59013;
0255763930999992010050718004+25733-100300FM-12+051599999V0200901N002012200019N0020001N1+03321+01931100851ADDAY141061AY241061GA1011+012901081GF101991011011012501001001IA1019KA1120M+03411KA2240N+02181MA1999999095291MD1210011-0061MW1051REMSYN118AAXX  07181 76393 31620 10902 10332 20193 39529 40085 52001 70544 81100 91750 333 10341 20218 30/// 56500 59006 81843;
0223763930999992010050721004+25733-100300FM-12+051599999V0200901N002012200019N0020001N1+03721+01921100701ADDAY141031AY241031GA1011+018001081GF102991021021017501001001IA1019MA1999999095201MD1710091+0081MW1051REMSYN112AAXX  07211 76393 31720 20902 10372 20192 39520 40070 57009 70544 82200 92050 333 30/// 56500 58008 81856 81656;
0279763930999992010050800004+25733-100300FM-12+051599999V0201001N002012200019N0020001N1+03601+01951100671ADDAA124000091AY141061AY241061GA1001+999999999GF100991001001999999001001IA1019KA1120M+03761KA2180N+02181MA1999999095231MD1210031+0221MW1051REMSYN112AAXX  08001 76393 31920 01002 10360 20195 39523 40067 52003 70544 92350 333 10376 20218 30/// 50531 58022 70000;EQDQ01  00002PRCP24
0199763930999992010050803004+25733-100300FM-12+051599999V0201201N001012200019N0020001N1+03261+01931100851ADDAY141031AY241031GA1001+999999999GF100991001001999999001001IA1019MA1999999095441MD1210211+0321MW1051REMSYN088AAXX  08031 76393 31920 01201 10326 20193 39544 40085 52021 70544 90250 333 30/// 58032;
0273763930999992010050812004+25733-100300FM-12+051599999V0200901N002012200019N0020001N1+02461+01971101171ADDAA124000091AY141061AY201061GA1001+999999999GF100991001001999999001001IA1019KA1240M+03761KA2120N+02401MA1999999095651MD1410001+0531MW1051REMSYN106AAXX  08121 76393 31920 00902 10246 20197 39565 40117 54008 70540 91155 333 10376 20240 30220 58053 70000;EQDQ01  00002PRCP24
0255763930999992010050818004+25733-100300FM-12+051599999V0201101N003010090019N0020001N1+02801+02071101621ADDAY121061AY221061GA1081+009001061GF108991081051008001999999IA1019KA1120M+02901KA2240N+02401MA1999999096031MD1210121+0741MW1051REMSYN118AAXX  08181 76393 31520 81103 10280 20207 39603 40162 52012 70522 885// 91750 333 10290 20240 30/// 563// 58074 88630;
0223763930999992010050821004+25733-100300FM-12+051599999V0201201N00301012001CN0020001N1+03101+02101101461ADDAY121031AY221031GA1041+012001081GF106991061031012501001001IA1019MA1999999095901MD1710131+0701MW1051REMSYN112AAXX  08211 76393 31620 61203 10310 20210 39590 40146 57013 70522 86300 92050 333 30/// 56300 58070 84840 82648;
0262763930999992010050900004+25733-100300FM-12+051599999V0201201N002010120019N0020001N1+02961+02001101281ADDAA124000091AY121061AY221061GF106991061051012501001001IA1019KA1120M+03221KA2180N+02401MA1999999095751MD1710151+0521MW1051REMSYN130AAXX  09001 76393 31620 61202 10296 20200 39575 40128 57015 70522 86500 95350 333 10322 20240 30/// 50691 56300 58052 70000 86640;
0217763930999992010050903004+25733-100300FM-12+051599999V0201201N002010123019N0020001N1+02961+01971101321ADDAY121031AY221031GA1061+012301061GF106991061051012501001001IA1019MA1999999095811MD1210061+0371MW1051REMSYN106AAXX  09031 76393 31620 61202 10296 20197 39581 40132 52006 70522 86500 90250 333 30/// 56300 58037 86641;
0172763930999992010050912004+25733-100300FM-12+051599999V0201301N003019999999N0010001N1+02201+02111101511ADDAA106005191AY151061AY221061GF108991999999000751999999MA1999999095911MD1710221+9999MW1501REMSYN072AAXX  09121 76393 01110 81303 10220 20211 39591 40151 57022 60051 75052;
0234763930999992010050915004+25733-100300FM-12+051599999V0201201N003010021019N0010001N1+02341+02141101481ADDAA103000491AY151031AY221031GA1081+002101061GF108991081061001501999999IA1099MA1999999095841MD1610071-0071MW1501REMSYN112AAXX  09151 76393 21210 81203 10234 20214 39584 40148 56007 75052 886// 91455 333 31/// 56399 59007 69947 88607;
0261763930999992010050918004+25733-100300FM-12+051599999V0201101N002012200019N0020001N1+03001+02111101411ADDAY141061AY241061GA1011+008701061GF104991041081008001001001IA1019KA1120M+03081KA2240N+02181MA1999999095801MD1710041-0231MW1041REMSYN124AAXX  09181 76393 31520 41102 10300 20211 39580 40141 57004 70444 84800 91750 333 10308 20218 30/// 56400 59023 81629 83838;
0223763930999992010050921004+25733-100300FM-12+051599999V0201201N003010120019N0030001N1+03371+02081101131ADDAY141031AY241031GA1031+012001081GF105991051021012501001001IA1019MA1999999095581MD1710221-0321MW1051REMSYN112AAXX  09211 76393 31630 51203 10337 20208 39558 40113 57022 70544 85200 92055 333 30/// 56400 59032 83840 82640;
0262763930999992010051000004+25733-100300FM-12+051599999V0201501N003019999999N0030001N1+03321+02041100941ADDAA124005691AY141061AY221061GF106991061001999999021001IA1019KA1120M+03441KA2180N+02181MA1999999095441MD1710041-0311MW1051REMSYN130AAXX  10001 76393 31930 61503 10332 20204 39544 40094 57004 70542 86020 92350 333 10344 20218 30/// 50121 56050 59031 70056 86460;
0278763930999992010051012004+25733-100300FM-12+051599999V0200901N00101036001CN0030001N1+02341+01961101071ADDAA124000291AY141061AY241061GA1021+003601061GF108991021051004501011999IA1019KA1240M+03441KA2120N+02201MA1999999095511MD1710061-0401MW1051REMSYN130AAXX  10121 76393 31430 80901 10234 20196 39551 40107 57006 70544 8251/ 91150 333 10344 20220 30206 5645/ 59040 70002 82612 86456;
0217763930999992010051015004+25733-100300FM-12+051599999V0209999C000010048019N0030001N1+02511+02011101191ADDAY141031AY241031GA1071+004801061GF107991071051004501999999IA1019MA1999999095601MD1210091-0241MW1051REMSYN106AAXX  10151 76393 31430 70000 10251 20201 39560 40119 52009 70544 875// 91450 333 30/// 567// 59024 87616;
0255763930999992010051018004+25733-100300FM-12+051599999V0201201N001012200019N0020001N1+03001+02171100981ADDAY141061AY201061GA1031+018001031GF103991031001012501041001IA1019KA1120M+03161KA2240N+02201MA1999999095491MD1710111-0311MW1051REMSYN118AAXX  10181 76393 31620 31201 10300 20217 39549 40098 57011 70540 83040 91750 333 10316 20220 30/// 56050 59031 83356;
0223763930999992010051021004+25733-100300FM-12+051599999V0201201N004012200019N0030001N1+03361+02251100761ADDAY141031AY201031GA1021+013801061GF104991041021012501001031IA1019MA1999999095241MD1710251-0341MW1051REMSYN112AAXX  10211 76393 31630 41204 10336 20225 39524 40076 57025 70540 84203 92050 333 30/// 56305 59034 82646 82070;
0269763930999992010051112004+25733-100300FM-12+051599999V0202801N001012200019N0030001N1+02191+01871100711ADDAA124000091AY141061AY241061GF101991001001999999001011IA1019KA1240M+03501KA2120N+02101MA1999999095171MD1210021-0341MW1051REMSYN118AAXX  11121 76393 31930 12801 10219 20187 39517 40071 52002 70544 80001 91150 333 10350 20210 30187 56005 59034 70000;EQDQ01  00002PRCP24
0195763930999992010051115004+25733-100300FM-12+051599999V0200901N001012200019N0020001N1+02581+01951100861ADDAY141031AY241031GF101991001001999999001011IA1019MA1999999095291MD1210121-0311MW1051REMSYN100AAXX  11151 76393 31920 10901 10258 20195 39529 40086 52012 70544 80001 91450 333 30/// 56005 59031;
0261763930999992010051118004+25733-100300FM-12+051599999V0201001N00401220001CN0020001N1+03161+02111100801ADDAY141061AY221061GA1021+012901061GF107991021041012501001041IA1019KA1120M+03301KA2240N+02101MA1999999095241MD1710051-0251MW1051REMSYN124AAXX  11181 76393 31620 71004 10316 20211 39524 40080 57005 70542 82404 91750 333 10330 20210 30/// 56305 59025 82643 85070;
0217763930999992010051121004+25733-100300FM-12+051599999V0201201N005010150019N0030001N1+03201+01981100591ADDAY141031AY221031GA1071+015001061GF107991071051999999999999IA1019MA1999999095091MD1710151-0151MW1051REMSYN106AAXX  11211 76393 31930 71205 10320 20198 39509 40059 57015 70542 875// 92045 333 30/// 563// 59015 87650;
0281763930999992010051200004+25733-100300FM-12+051599999V0200501N004019999999N0020001N1+03321+02041100301ADDAA124000091AY141061AY211061GF106991999001022501031001IA1019KA1120M+03541KA2180N+02101MA1999999094861MD1710231-0281MW1051REMSYN130AAXX  12001 76393 31820 60504 10332 20204 39486 40030 57023 70541 80030 92355 333 10354 20210 30/// 50751 56050 59028 70000 86358;EQDQ01+000002SCOTLC
0272763930999992010051212004+25733-100300FM-12+051599999V0201001N002010048019N0020001N1+02341+01861100551ADDAA124000091AY141061AY241061GA1081+004801061GF108991081051004501999999IA1019KA1240M+03541KA2120N+02201MA1999999095031MD1210021-0141MW1051REMSYN124AAXX  12121 76393 31420 81002 10234 20186 39503 40055 52002 70544 885// 91150 333 10354 20220 30215 563// 59014 70000 88616;
0217763930999992010051215004+25733-100300FM-12+051599999V0200901N002010057019N0020001N1+02481+01901100721ADDAY141031AY241031GA1071+005701061GF107991071051004501999999IA1019MA1999999095161MD1210131-0131MW1041REMSYN106AAXX  12151 76393 31420 70902 10248 20190 39516 40072 52013 70444 875// 91450 333 30/// 563// 59013 87619;
0261763930999992010051218004+25733-100300FM-12+051599999V0201001N00101036001CN0020001N1+03021+02201100661ADDAY141061AY221061GA1041+010201061GF108991041041012501011999IA1019KA1120M+03081KA2240N+02201MA1999999095111MD1710051-0131MW1051REMSYN124AAXX  12181 76393 31620 81001 10302 20220 39511 40066 57005 70542 8441/ 91750 333 10308 20220 30/// 5635/ 59013 84634 84456;
0223763930999992010051221004+25733-100300FM-12+051599999V0201201N00201036001CN0020001N1+03221+02111100441ADDAY141031AY221031GA1041+013801061GF108991041041012501011999IA1019MA1999999094941MD1710171-0151MW1051REMSYN112AAXX  12211 76393 31620 81202 10322 20211 39494 40044 57017 70542 8441/ 92050 333 30/// 5635/ 59015 84646 84456;
0262763930999992010051300004+25733-100300FM-12+051599999V0201201N002010120019N0030001N1+03061+01991100331ADDAA124000091AY141061AY221061GF108991081051012501999999IA1019KA1120M+03341KA2180N+02201MA1999999094861MD1710081+0001MW1051REMSYN130AAXX  13001 76393 31630 81202 10306 20199 39486 40033 57008 70542 885// 92350 333 10334 20220 30/// 50761 563// 58000 70000 88644;
0217763930999992010051303004+25733-100300FM-12+051599999V0201401N003010150019N0020001N1+03001+01671100461ADDAY141031AY221031GA1081+015001061GF108991081051017501999999IA1019MA1999999095011MD1210151+0031MW1051REMSYN106AAXX  13031 76393 31720 81403 10300 20167 39501 40046 52015 70542 885// 90250 333 30/// 563// 58003 88650;
0272763930999992010051312004+25733-100300FM-12+051599999V0200901N002010033019N0020001N1+02371+02031100681ADDAA124000091AY141061AY241061GA1081+003301061GF108991081051004501999999IA1019KA1240M+03341KA2120N+02301MA1999999095161MD1210201-0131MW1051REMSYN124AAXX  13121 76393 31420 80902 10237 20203 39516 40068 52020 70544 885// 91155 333 10334 20230 30224 567// 59013 70000 88611;
0201763930999992010051315004+25733-100300FM-12+051599999V0201401N020012200019N0020001N1+02491+02021100911ADDAY141031AY241031GF103991999999004501999999MA1999999095341MD1210101+0181MW1051REMSYN112AAXX  13151 76393 31420 31420 10249 20202 39534 40091 52010 70544 70902 875// 91450 333 30/// 567// 58018 87615;
0261763930999992010051318004+25733-100300FM-12+051599999V0201101N002012200019N0010001N1+02941+02141100941ADDAY141061AY221061GA1021+009901081GF104991041021008001001001IA1019KA1120M+03021KA2240N+02301MA1999999095391MD1010051+0281MW1051REMSYN124AAXX  13181 76393 31510 41102 10294 20214 39539 40094 50005 70542 84200 91750 333 10302 20230 30/// 56700 58028 82833 82634;
0223763930999992010051321004+25733-100300FM-12+051599999V0201501N00201012001CN0020001N1+03101+02041100801ADDAY141031AY221031GA1021+012901081GF105991051021012501001001IA1019MA1999999095261MD1710131+0321MW1051REMSYN112AAXX  13211 76393 31620 51502 10310 20204 39526 40080 57013 70542 85200 92050 333 30/// 56300 58032 82843 83645;
0262763930999992010051400004+25733-100300FM-12+051599999V0200901N002012200019N0020001N1+03161+02361100691ADDAA124000091AY141061AY201061GF104991041041012501001001IA1019KA1120M+03301KA2180N+02301MA1999999095181MD1710081+0321MW1051REMSYN130AAXX  14001 76393 31620 40902 10316 20236 39518 40069 57008 70540 84400 92350 333 10330 20230 30/// 50431 56300 58032 70000 84646;
0217763930999992010051403004+25733-100300FM-12+051599999V0200701N002012200019N0020001N1+02921+02051100841ADDAY141031AY201031GA1041+010801061GF104991041051012501001001IA1019MA1999999095361MD1210181+0351MW1051REMSYN106AAXX  14031 76393 31620 40702 10292 20205 39536 40084 52018 70540 84500 90250 333 30/// 56300 58035 84636;
0272763930999992010051412004+25733-100300FM-12+051599999V0202901N002012200019N0020001N1+02341+02101101041ADDAA124001191AY141061AY241061GA1011+002401061GF103991011051002501031011IA1019KA1240M+03301KA2120N+02201MA1999999095481MD1710011+0321MW1051REMSYN124AAXX  14121 76393 31320 32902 10234 20210 39548 40104 57001 70544 81531 91150 333 10330 20220 30218 56355 58032 70011 81608;
0217763930999992010051415004+25733-100300FM-12+051599999V0201201N004010060019N0020001N1+02521+01911101301ADDAY141031AY241031GA1081+006001061GF108991081051008001999999IA1099MA1999999095701MD1210221+0361MW1051REMSYN106AAXX  14151 76393 31520 81204 10252 20191 39570 40130 52022 70544 885// 91450 333 31/// 563// 58036 88620;
0261763930999992010051418004+25733-100300FM-12+051599999V0201601N00301007501CN0020001N1+02921+02141101341ADDAY141061AY221061GA1021+009601081GF107991071021008001999999IA1019KA1120M+02981KA2240N+02201MA1999999095741MD1010041+0351MW1051REMSYN124AAXX  14181 76393 31520 71603 10292 20214 39574 40134 50004 70542 872// 91750 333 10298 20220 30/// 563// 58035 82832 85634;
0223763930999992010051421004+25733-100300FM-12+051599999V0202001N00201007501CN0030001N1+02941+02071101111ADDAY141031AY221031GA1021+010801081GF107991071021008001999999IA1019MA1999999095551MD1710191+0291MW1051REMSYN112AAXX  14211 76393 31530 72002 10294 20207 39555 40111 57019 70542 872// 92050 333 30/// 563// 58029 82836 85638;
0172763930999992010051500004+25733-100300FM-12+051599999V0200701N001019999999N0030001N1+02901+02061101001ADDAA106001091AY141061AY221061GF107991999999012501999999MA1999999095471MD1710081+9999MW1051REMSYN072AAXX  15001 76393 01630 70701 10290 20206 39547 40100 57008 69991 70542;
0199763930999992010051503004+25733-100300FM-12+051599999V0201601N001012200019N0020001N1+02641+02111100911ADDAY141031AY201031GA1001+999999999GF100991001001999999001001IA1019MA1999999095411MD1710061+0051MW1051REMSYN088AAXX  15031 76393 31920 01601 10264 20211 39541 40091 57006 70540 90250 333 30/// 58005;
0291763930999992010051512004+25733-100300FM-12+051599999V0202201N001012200019N0020001N1+02241+01981101031ADDAA124000091AY141061AY211061GA1011+002701061GF103991011051002501001041IA1019KA1240M+03221KA2120N+02201MA1999999095441MD1410001-0041MW1051REMSYN124AAXX  15121 76393 31320 32201 10224 20198 39544 40103 54007 70541 81504 91155 333 10322 20220 30216 56305 59004 79999 81609;EQDQ01  00002PRCP24
0217763930999992010051515004+25733-100300FM-12+051599999V0200901N001010033019N0020001N1+02441+02101101241ADDAY141031AY221031GA1081+003301061GF108991081051004501999999IA1019MA1999999095631MD1310191-0071MW1051REMSYN106AAXX  15151 76393 31420 80901 10244 20210 39563 40124 53019 70542 885// 91455 333 30/// 56399 59007 88611;
0255763930999992010051518004+25733-100300FM-12+051599999V0200801N003012200019N0030001N1+02961+02031101361ADDAY141061AY211061GA1041+011401061GF104991041051012501001001IA1019KA1120M+03001KA2240N+02201MA1999999095761MD1210131+0061MW1051REMSYN118AAXX  15181 76393 31630 40803 10296 20203 39576 40136 52013 70541 84500 91750 333 10300 20220 30/// 56300 58006 84638;
0262763930999992010051600004+25733-100300FM-12+051599999V0201201N002012200019N0030001N1+03141+01921100921ADDAA124000091AY141061AY201061GF103991031041017501001001IA1019KA1120M+03281KA2180N+02201MA1999999095411MD1710211-0061MW1051REMSYN130AAXX  16001 76393 31730 31202 10314 20192 39541 40092 57021 70540 83400 92350 333 10328 20220 30/// 50521 56300 59006 70000 83650;
0217763930999992010051603004+25733-100300FM-12+051599999V0201801N002012200019N0020001N1+02681+01901101021ADDAY141031AY201031GA1041+002701061GF104991041051008001001001IA1019MA1999999095521MD1210111+0111MW1051REMSYN106AAXX  16031 76393 31520 41802 10268 20190 39552 40102 52011 70540 84500 90250 333 30/// 56300 58011 84609;
0272763930999992010051612004+25733-100300FM-12+051599999V0202201N001010039019N0030001N1+02151+01751101271ADDAA124000091AY141061AY241061GA1071+003901061GF108991071051004501031999IA1019KA1240M+03281KA2120N+02061MA1999999095651MD1710041+0211MW1051REMSYN124AAXX  16121 76393 31430 82201 10215 20175 39565 40127 57004 70544 8753/ 91150 333 10328 20206 30198 5635/ 58021 70000 87613;
0236763930999992010051615004+25733-100300FM-12+051599999V0200901N001012200019N0030001N1+02451+01851101351ADDAY141031AY241031GA1081+006001011GF199999011011008001001001IA1019MA1999999095711MD1210061+0081MW1051REMSYN106AAXX  16151 76393 31530 10901 10245 20185 39571 40135 52006 70544 81100 91450 333 30/// 56300 58008 88120;EQDQ01+000012SCOTCV
0217763930999992010051621004+25733-100300FM-12+051599999V0201601N001010081019N0020001N1+02761+01961101141ADDAY141031AY221031GA1081+008101061GF108991081051008001999999IA1019MA1999999095571MD1610121-0051MW1051REMSYN106AAXX  16211 76393 32520 81601 10276 20196 39557 40114 56012 70542 885// 92055 333 30/// 56399 59005 88627;
0262763930999992010051700004+25733-100300FM-12+051599999V0201701N001010120019N0020001N1+02821+01971100941ADDAA124000091AY141061AY221061GF108991081051012501999999IA1019KA1120M+03101KA2180N+02061MA1999999095411MD1710161+0001MW1051REMSYN130AAXX  17001 76393 31620 81701 10282 20197 39541 40094 57016 70542 885// 92350 333 10310 20206 30/// 50861 563// 58000 70000 88635;
0217763930999992010051703004+25733-100300FM-12+051599999V0201401N002010096019N0020001N1+02701+01921101281ADDAY141031AY221031GA1051+009601061GF105991051051008001001001IA1019MA1999999095741MD1210331+0221MW1051REMSYN106AAXX  17031 76393 31520 51402 10270 20192 39574 40128 52033 70542 85500 90250 333 30/// 56300 58022 85632;
0272763930999992010051712004+25733-100300FM-12+051599999V0202401N001012200019N0030001N1+02281+01901101401ADDAA124000091AY141061AY211061GA1041+004801061GF104991041051004501001001IA1019KA1240M+03101KA2120N+02201MA1999999095791MD1210181+0141MW1051REMSYN124AAXX  17121 76393 31430 42401 10228 20190 39579 40140 52018 70541 84500 91150 333 10310 20220 30216 56300 58014 70000 84616;
0217763930999992010051715004+25733-100300FM-12+051599999V0203501N001012200019N0030001N1+02581+01981101521ADDAY141031AY211031GA1041+007501061GF104991041051008001001001IA1019MA1999999095901MD1210111+0191MW1051REMSYN106AAXX  17151 76393 31530 43501 10258 20198 39590 40152 52011 70541 84500 91450 333 30/// 56300 58019 84625;
0255763930999992010051718004+25733-100300FM-12+051599999V0200901N002012200019N0030001N1+03091+02041101481ADDAY141061AY241061GA1041+010201081GF106991041011008001001011IA1019KA1120M+03171KA2240N+02201MA1999999095881MD1710021+0191MW1051REMSYN118AAXX  17181 76393 31530 60902 10309 20204 39588 40148 57002 70544 84101 91750 333 10317 20220 30/// 56305 58019 84834;
0217763930999992010051721004+25733-100300FM-12+051599999V0200901N004010360019N0030001N1+03281+01951101201ADDAY141031AY241031GA1021+013201081GF107991021021012501031081IA1019MA1999999095651MD1710231+0081MW1051REMSYN106AAXX  17211 76393 31630 70904 10328 20195 39565 40120 57023 70544 82238 92050 333 30/// 56355 58008 82844;
0262763930999992010051800004+25733-100300FM-12+051599999V0201201N002019999999N0030001N1+03101+01971101011ADDAA124000091AY141061AY241061GF108991081001999999011999IA1019KA1120M+03341KA2180N+02201MA1999999095511MD1710141-0101MW1051REMSYN130AAXX  18001 76393 31930 81202 10310 20197 39551 40101 57014 70544 8801/ 92350 333 10334 20220 30/// 50821 5605/ 59010 70000 88460;
0217763930999992010051803004+25733-100300FM-12+051599999V0201401N003010117019N0020001N1+02881+01941101111ADDAY141031AY241031GA1051+011701061GF105991051051012501001001IA1019MA1999999095631MD1210121-0111MW1051REMSYN106AAXX  18031 76393 31620 51403 10288 20194 39563 40111 52012 70544 85500 90250 333 30/// 56300 59011 85639;
0324763930999992010051812004+25733-100300FM-12+051599999V0203501N001010036019N0020001N1+02221+01931101561ADDAA103000091AA224000091AY141061AY221061GA1081+003601061GF108991081051004501999999IA1019KA1240M+03341KA2120N+02081MA1999999095951MD1210451+0161MW1051REMSYN130AAXX  18121 76393 21420 83501 10222 20193 39595 40156 52045 70542 885// 91150 333 10334 20208 30202 563// 58016 69907 79999 88612;EQDQ01  00002PRCP24Q02  00002PRCP03
0217763930999992010051815004+25733-100300FM-12+051599999V0203001N001012200019N0050001N1+02401+01551101541ADDAY141031AY211031GA1041+010501061GF104991041051012501001001IA1019MA1999999095891MD1710061-0011MW1051REMSYN106AAXX  18151 76393 31650 43001 10240 20155 39589 40154 57006 70541 84500 91450 333 30/// 56300 59001 84635;
0255763930999992010051818004+25733-100300FM-12+051599999V0201001N005012200019N0040001N1+02481+01711101361ADDAY141061AY241061GA1011+010801081GF103991011011012501031011IA1019KA1120M+02951KA2240N+02081MA1999999095741MD1710151-0141MW1051REMSYN118AAXX  18181 76393 31640 31005 10248 20171 39574 40136 57015 70544 81131 91750 333 10295 20208 30/// 56555 59014 81836;
0217763930999992010051821004+25733-100300FM-12+051599999V0201101N004012200019N0040001N1+03061+01721101011ADDAY141031AY241031GA1011+012901081GF104991011021012501001061IA1019MA1999999095451MD1710291-0201MW1051REMSYN106AAXX  18211 76393 31640 41104 10306 20172 39545 40101 57029 70544 81206 92050 333 30/// 56505 59020 81843;
0281763930999992010051900004+25733-100300FM-12+051599999V0200701N006019999999N0080001N1+03041+01791100721ADDAA124999999AY141061AY211061GF105991001001999999001041IA1019KA1120M+03201KA2180N+02081MA1999999095211MD1710241-0301MW1051REMSYN130AAXX  19001 76393 31958 50706 10304 20179 39521 40072 57024 70541 80004 92355 333 10320 20208 30/// 50731 56005 59030 79999 85074;EQDQ01  99992PRCP24
0272763930999992010051912004+25733-100300FM-12+051599999V0200401N001010048019N0020001N1+02261+01881100741ADDAA124000091AY141061AY221061GA1081+004801061GF108991081051004501999999IA1019KA1240M+03201KA2120N+02081MA1999999095171MD1510021-0781MW1051REMSYN124AAXX  19121 76393 31420 80401 10226 20188 39517 40074 55002 70542 885// 91150 333 10320 20208 30200 563// 59078 70000 88616;
0199763930999992010051915004+25733-100300FM-12+051599999V0200601N001012200019N0030001N1+02361+01931100851ADDAY141031AY201031GA1001+999999999GF100991001001999999001001IA1019MA1999999095241MD1710071-0651MW1051REMSYN088AAXX  19151 76393 31930 00601 10236 20193 39524 40085 57007 70540 91450 333 30/// 59065;
0255763930999992010051918004+25733-100300FM-12+051599999V0200901N002012200019N0020001N1+02941+01891100681ADDAY141061AY241061GA1011+010201081GF101991011011008001001001IA1019KA1120M+03071KA2240N+02081MA1999999095111MD1710131-0631MW1051REMSYN118AAXX  19181 76393 31520 10902 10294 20189 39511 40068 57013 70544 81100 91750 333 10307 20208 30/// 56500 59063 81834;
0217763930999992010051921004+25733-100300FM-12+051599999V0201001N004012200019N0020001N1+03501+02081100421ADDAY141031AY241031GA1011+014101081GF102991011021012501001021IA1019MA1999999094911MD1710201-0541MW1051REMSYN106AAXX  19211 76393 31620 21004 10350 20208 39491 40042 57020 70544 81202 92050 333 30/// 56505 59054 81847;
0284763930999992010052000004+25733-100300FM-12+051599999V0201301N002012200019N0030001N1+03481+01861100211ADDAA124000091AY141061AY201061GA1011+021001081GF103991031011017501001001IA1019KA1120M+03591KA2180N+02081MA1999999094771MD1710141-0441MW1051REMSYN136AAXX  20001 76393 31730 31302 10348 20186 39477 40021 57014 70540 83100 92350 333 10359 20208 30/// 50551 56500 59044 70000 81857 82657;
0199763930999992010052003004+25733-100300FM-12+051599999V0200901N003012200019N0020001N1+03101+01971100321ADDAY141031AY241031GA1001+999999999GF100991001001999999001001IA1019MA1999999094911MD1210141-0341MW1051REMSYN088AAXX  20031 76393 31920 00903 10310 20197 39491 40032 52014 70544 90250 333 30/// 59034;
0278763930999992010052012004+25733-100300FM-12+051599999V0200601N001010060019N0020001N1+02401+01911100551ADDAA124000091AY141061AY221061GA1061+006001061GF108991061051008001021999IA1019KA1240M+03591KA2120N+02281MA1999999095031MD1210161-0141MW1051REMSYN130AAXX  20121 76393 31520 80601 10240 20191 39503 40055 52016 70542 8652/ 91150 333 10359 20228 30220 5635/ 59014 70000 86620 82456;
0223763930999992010052015004+25733-100300FM-12+051599999V0200401N001010036019N0010001N1+02381+02101100721ADDAY141031AY221031GA1071+003601061GF108991071051004501021999IA1019MA1999999095151MD1710121-0091MW1051REMSYN112AAXX  20151 76393 31410 80401 10238 20210 39515 40072 57012 70542 8752/ 91450 333 30/// 5635/ 59009 87612 81456;
0255763930999992010052018004+25733-100300FM-12+051599999V0202901N002012200019N0020001N1+02901+02061100701ADDAY141061AY241061GA1021+008101081GF102991021011008001001001IA1019KA1120M+02981KA2240N+02281MA1999999095141MD1710011+0031MW1051REMSYN118AAXX  20181 76393 31520 22902 10290 20206 39514 40070 57001 70544 82100 91750 333 10298 20228 30/// 56800 58003 82827;
0246763930999992010052021004+25733-100300FM-12+051599999V0201001N001012200019N0020001N1+03351+99999100521ADDAY141031AY241031GA1011+012001081GF103991011021012501021001IA1019MA1999999094502MD1710181-0411MW1051REMSYN100AAXX  20211 76393 31620 31001 10335 39450 40052 57064 70544 81220 92050 333 30/// 56550 59041 81840;EQDQ01+094503APOSP Q02+000642APC3  
0217763930999992010052103004+25733-100300FM-12+051599999V0202301N001012200019N0020001N1+02941+02191100611ADDAY141031AY241031GA1041+009301061GF104991041051008001001001IA1019MA1999999095151MD1210221+0241MW1051REMSYN106AAXX  21031 76393 31520 42301 10294 20219 39515 40061 52022 70544 84500 90250 333 30/// 56500 58024 84631;
0191763930999992010052112004+25733-100300FM-12+051599999V0201001N001019999999N0010001N1+02381+02231100911ADDAA106000091AY141061AY221061GF108991999999001501999999MA1999999095371MD1210091+9999MW1051REMSYN072AAXX  21121 76393 01210 81001 10238 20223 39537 40091 52009 69901 70542;EQDQ01  00002PRCP06
0253763930999992010052115004+25733-100300FM-12+051599999V0201301N003010027019N0010001N1+02491+02211101101ADDAA103000091AY141031AY241031GA1081+002701061GF108991081051002501999999IA1019MA1999999095521MD1210151+0371MW1051REMSYN112AAXX  21151 76393 21310 81303 10249 20221 39552 40110 52015 70544 885// 91450 333 30/// 563// 58037 69907 88609;EQDQ01  00002PRCP03
0191763930999992010052118004+25733-100300FM-12+051599999V0201001N003019999999N0030001N1+02841+02211101141ADDAA106000091AY141061AY221061GF108991999999008001999999MA1999999095491MD1710031+9999MW1051REMSYN072AAXX  21181 76393 01530 81003 10284 20221 39549 40114 57003 69901 70542;EQDQ01  00002PRCP06
0223763930999992010052121004+25733-100300FM-12+051599999V0201401N00201012001CN0050001N1+03061+02181100891ADDAY141031AY211031GA1021+010801081GF105991051021012501001001IA1019MA1999999095351MD1710141+0351MW1051REMSYN112AAXX  21211 76393 31650 51402 10306 20218 39535 40089 57014 70541 85200 92050 333 30/// 563// 58035 82836 83639;
0281763930999992010052200004+25733-100300FM-12+051599999V0201201N002010120019N0040001N1+03001+02111100771ADDAA124999999AY141061AY241061GF107991071051012501001001IA1019KA1120M+03181KA2180N+02361MA1999999095271MD1710081+0341MW1051REMSYN130AAXX  22001 76393 31640 71202 10300 20211 39527 40077 57008 70544 87500 92350 333 10318 20236 30/// 50571 56300 58034 79999 87637;EQDQ01  99992PRCP24
0217763930999992010052203004+25733-100300FM-12+051599999V0201201N003010105019N0020001N1+02921+02081100681ADDAY141031AY241031GA1081+010501061GF108991081051012501999999IA1019MA1999999095201MD1710071+0051MW1051REMSYN106AAXX  22031 76393 31620 81203 10292 20208 39520 40068 57007 70544 885// 90250 333 30/// 563// 58005 88635;
0253763930999992010052215004+25733-100300FM-12+051599999V0201101N003010045019N0020001N1+02541+02181101051ADDAA103000091AY141031AY221031GA1071+004501061GF107991071051004501999999IA1019MA1999999095471MD1210101-0051MW1051REMSYN112AAXX  22151 76393 21420 71103 10254 20218 39547 40105 52010 70542 875// 91450 333 30/// 563// 59005 69907 87615;EQDQ01  00002PRCP03
0255763930999992010052218004+25733-100300FM-12+051599999V0201401N002010084019N0020001N1+03001+02171100811ADDAY141061AY211061GA1071+008401061GF107991071051008001999999IA1019KA1120M+03121KA2240N+02361MA1999999095261MD1710211-0231MW1051REMSYN118AAXX  22181 76393 31520 71402 10300 20217 39526 40081 57021 70541 875// 91755 333 10312 20236 30/// 56399 59023 87628;
0214763930999992010052221004+25733-100300FM-12+051599999V0201301N004012200019N0030001N1+03301+02141100561ADDAY141031AY211031GF103991999001022501041001IA1019MA1999999095051MD1710211-0301MW1051REMSYN100AAXX  22211 76393 31830 31304 10330 20214 39505 40056 57021 70541 80040 92055 333 30/// 56050 59030;EQDQ01+000002SCOTLC
0281763930999992010052300004+25733-100300FM-12+051599999V0201201N003010120019N0030001N1+03301+02141100461ADDAA124999999AY141061AY221061GF106991061051012501041001IA1019KA1120M+03421KA2180N+02361MA1999999095001MD1710051-0271MW1051REMSYN130AAXX  23001 76393 31630 61203 10330 20214 39500 40046 57005 70542 86540 92350 333 10342 20236 30/// 50731 56350 59027 79999 84614;EQDQ01  99992PRCP24
0217763930999992010052303004+25733-100300FM-12+051599999V0201401N003012200019N0020001N1+03061+01921100481ADDAY141031AY201031GA1031+014101061GF103991031051012501001001IA1019MA1999999095051MD1210051-0151MW1051REMSYN106AAXX  23031 76393 31620 31403 10306 20192 39505 40048 52005 70540 83500 90250 333 30/// 56300 59015 83647;
0291763930999992010052312004+25733-100300FM-12+051599999V0201401N004010030019N0020001N1+02421+02111100551ADDAA124000091AY141061AY221061GA1081+003001061GF108991081061004501999999IA1019KA1240M+03421KA2120N+02341MA1999999095041MD1410001-0331MW1051REMSYN124AAXX  23121 76393 31420 81404 10242 20211 39504 40055 54003 70542 886// 91155 333 10342 20234 30230 56399 59033 79999 88610;EQDQ01  00002PRCP24
0217763930999992010052315004+25733-100300FM-12+051599999V0201101N005010036019N0020001N1+02461+02091100761ADDAY141031AY221031GA1081+003601061GF108991081061004501999999IA1019MA1999999095191MD1510151-0281MW1051REMSYN106AAXX  23151 76393 31420 81105 10246 20209 39519 40076 55015 70542 886// 91455 333 30/// 56399 59028 88612;
0255763930999992010052318004+25733-100300FM-12+051599999V0201201N002010069019N0030001N1+02851+02161100831ADDAY141061AY241061GA1071+006901061GF107991071051008001999999IA1019KA1120M+02901KA2240N+02341MA1999999095271MD1210081+0011MW1041REMSYN118AAXX  23181 76393 31530 71202 10285 20216 39527 40083 52008 70444 875// 91750 333 10290 20234 30/// 563// 58001 87623;
0237763930999992010052321004+25733-100300FM-12+051599999V0200401N005012200019N0120001N1+03221+01461999999ADDAY141031AY241031GA1041+009001061GF104991041041008001001001IA1019MD1710141-0071MW1051REMSYN106AAXX  23211 76393 31562 40405 10322 20146 38187 49989 57014 70544 84400 92030 333 30/// 56500 59007 84630;EQDQ01+081873APOSP Q02+099893APOSLP
0262763930999992010052400004+25733-100300FM-12+051599999V0201301N004010150019N0030001N1+03161+01941100521ADDAA124000091AY141061AY241061GF108991081051017501999999IA1019KA1120M+03341KA2180N+02341MA1999999095021MD1710041+0021MW1051REMSYN130AAXX  24001 76393 31730 81304 10316 20194 39502 40052 57004 70544 885// 92350 333 10334 20234 30/// 50351 563// 58002 70000 88650;
0234763930999992010052403004+25733-100300FM-12+051599999V0201001N005012200019N0020001N1+02821+02241100491ADDAA103000891AY141031AY241031GA1031+007201061GF103991031051008001001001IA1019MA1999999095031MD1210011-0021MW1051REMSYN112AAXX  24031 76393 21520 31005 10282 20224 39503 40049 52001 70544 83500 90250 333 30/// 56300 59002 69987 83624;
0172763930999992010052412004+25733-100300FM-12+051599999V0201101N003019999999N0030001N1+02371+02161100631ADDAA106001091AY151061AY241061GF108991999999002501999999MA1999999095091MD1210031+9999MW1051REMSYN072AAXX  24121 76393 01330 81103 10237 20216 39509 40063 52003 69991 70554;
0217763930999992010052415004+25733-100300FM-12+051599999V0201201N003010039019N0030001N1+02561+02151100801ADDAY141031AY241031GA1081+003901061GF108991081051004501999999IA1099MA1999999095231MD1210141+0041MW1051REMSYN106AAXX  24151 76393 31430 81203 10256 20215 39523 40080 52014 70544 885// 91450 333 31/// 564// 58004 88613;
0255763930999992010052418004+25733-100300FM-12+051599999V0200501N003010078019N0030001N1+02801+02161100801ADDAY141061AY221061GA1071+007801061GF107991071041008001999999IA1019KA1120M+02961KA2240N+02301MA1999999095231MD1410001-0041MW1051REMSYN118AAXX  24181 76393 31530 70503 10280 20216 39523 40080 54000 70542 874// 91750 333 10296 20230 30/// 563// 59004 87626;
0217763930999992010052421004+25733-100300FM-12+051599999V0201101N004010111019N0050001N1+03121+02211100601ADDAY141031AY211031GA1061+011101061GF106991061041012501999999IA1019MA1999999095081MD1710151+0021MW1051REMSYN106AAXX  24211 76393 31650 61104 10312 20221 39508 40060 57015 70541 864// 92050 333 30/// 563// 58002 86637;
0262763930999992010052500004+25733-100300FM-12+051599999V0200901N002010120019N0030001N1+03061+02241100411ADDAA124001791AY141061AY241061GF106991061051012501001001IA1019KA1120M+03281KA2180N+02301MA1999999094931MD1710151-0091MW1051REMSYN130AAXX  25001 76393 31630 60902 10306 20224 39493 40041 57015 70544 86500 92350 333 10328 20230 30/// 50501 56300 59009 70017 86634;
0234763930999992010052503004+25733-100300FM-12+051599999V0200901N003010045019N0020001N1+02681+02321100551ADDAA103000991AY141031AY241031GA1071+004501061GF107991071051004501999999IA1019MA1999999095071MD1210141+0041MW1051REMSYN112AAXX  25031 76393 21420 70903 10268 20232 39507 40055 52014 70544 875// 90250 333 30/// 563// 58004 69997 87615;
0172763930999992010052512004+25733-100300FM-12+051599999V0201001N002019999999N0008001N1+02281+02221100691ADDAA106002091AY151061AY251061GF108991999999000751999999MA1999999095131MD1210091+9999MW1501REMSYN072AAXX  25121 76393 01108 81002 10228 20222 39513 40069 52009 60021 75055;
0234763930999992010052515004+25733-100300FM-12+051599999V0200901N003010009019N0005001N1+02341+02271100931ADDAA103000991AY151031AY251031GA1081+000901071GF108991081071000751999999IA1119MA1999999095371MD1210241+0141MW1501REMSYN112AAXX  25151 76393 21105 80903 10234 20227 39537 40093 52024 75055 887// 91455 333 32/// 563// 58014 69997 88703;
0172763930999992010052518004+25733-100300FM-12+051599999V0200701N002019999999N0010001N1+02581+02361101001ADDAA106003091AY151061AY211061GF107991999999002501999999MA1999999095391MD1010021+9999MW1051REMSYN072AAXX  25181 76393 01310 70702 10258 20236 39539 40100 50002 60031 70551;
0223763930999992010052521004+25733-100300FM-12+051599999V0201601N002010078019N0020001N1+02921+02291100871ADDAY141031AY221031GA1051+007801061GF107991051051008001021999IA1019MA1999999095301MD1810091+0221MW1051REMSYN112AAXX  25211 76393 31520 71602 10292 20229 39530 40087 58009 70542 8552/ 92050 333 30/// 5635/ 58022 85626 82456;
0262763930999992010052600004+25733-100300FM-12+051599999V0201301N003012200019N0040001N1+02941+02201100701ADDAA124006991AY141061AY211061GF103991021031008001001041IA1019KA1120M+03121KA2180N+02241MA1999999095181MD1610121+0251MW1051REMSYN130AAXX  26001 76393 31540 31303 10294 20220 39518 40070 56012 70541 82304 92355 333 10312 20224 30/// 50831 56305 58025 70069 82625;
0172763930999992010052612004+25733-100300FM-12+051599999V0201001N003019999999N0004001N1+02211+02151101061ADDAA106004191AY151061AY251061GF108991999999000751999999MA1999999095461MD1210071+9999MW1501REMSYN072AAXX  26121 76393 01104 81003 10221 20215 39546 40106 52007 60041 75055;
0234763930999992010052615004+25733-100300FM-12+051599999V0200901N004010009019N0004001N1+02301+02211101261ADDAA103003091AY151031AY251031GA1081+000901071GF108991081071000751999999IA1119MA1999999095631MD1210171+0261MW1501REMSYN112AAXX  26151 76393 21104 80904 10230 20221 39563 40126 52017 75055 887// 91455 333 32/// 563// 58026 60037 88703;
0172763930999992010052618004+25733-100300FM-12+051599999V0201801N001019999999N0030001N1+02521+02211101311ADDAA106003091AY141061AY221061GF108991999999004501999999MA1999999095611MD1010021+9999MW1051REMSYN072AAXX  26181 76393 31430 81801 10252 20221 39561 40131 50002 60031 70542;
0217763930999992010052621004+25733-100300FM-12+051599999V0202001N002012200019N0050001N1+02981+02231101091ADDAY141031AY201031GA1031+009301061GF103991031051008001001001IA1019MA1999999095511MD1710101+0211MW1051REMSYN106AAXX  26211 76393 31550 32002 10298 20223 39551 40109 57010 70540 83500 92050 333 30/// 56300 58021 83631;
0172763930999992010052700004+25733-100300FM-12+051599999V0201101N004019999999N0030001N1+02441+02131101071ADDAA106001091AY141061AY241061GF108991999999004501999999MA1999999095511MD1410001+9999MW1051REMSYN072AAXX  27001 76393 01430 81104 10244 20213 39551 40107 54000 69991 70544;
0234763930999992010052703004+25733-100300FM-12+051599999V0200701N002010084019N0020001N1+02441+01761101161ADDAA103000991AY141031AY241031GA1051+008401061GF105991051051008001001001IA1019MA1999999095601MD1210091+0251MW1051REMSYN112AAXX  27031 76393 21520 50702 10244 20176 39560 40116 52009 70544 85500 90250 333 30/// 56300 58025 69997 85628;
0191763930999992010052712004+25733-100300FM-12+051599999V0202101N001019999999N0030001N1+02241+01951101351ADDAA106000091AY141061AY241061GF106991999999002501999999MA1999999095721MD1210051+9999MW1051REMSYN072AAXX  27121 76393 11330 62101 10224 20195 39572 40135 52005 69911 70544;EQDQ01  00002PRCP06
0223763930999992010052715004+25733-100300FM-12+051599999V0200901N002010090019N0030001N1+02571+01981101431ADDAY141031AY241031GA1021+005701081GF106991061081004501001001IA1099MA1999999095831MD1210111+0201MW1051REMSYN112AAXX  27151 76393 31430 60902 10257 20198 39583 40143 52011 70544 86800 91450 333 31/// 56300 58020 82819 84630;
0261763930999992010052718004+25733-100300FM-12+051599999V0201201N00501012001CN0050001N1+02881+02001101401ADDAY141061AY211061GA1021+010801081GF106991061021012501001001IA1019KA1120M+02991KA2240N+02161MA1999999095781MD1010051+0171MW1051REMSYN124AAXX  27181 76393 31650 61205 10288 20200 39578 40140 50005 70541 86200 91750 333 10299 20216 30/// 56300 58017 82836 84638;
0217763930999992010052721004+25733-100300FM-12+051599999V0201101N003010099019N0050001N1+02881+02071101221ADDAY141031AY221031GA1071+009901061GF107991071051012501999999IA1019MA1999999095651MD1710131+0141MW1051REMSYN106AAXX  27211 76393 31650 71103 10288 20207 39565 40122 57013 70542 875// 92050 333 30/// 563// 58014 87633;
0284763930999992010052800004+25733-100300FM-12+051599999V0201401N002010120019N0040001N1+03141+02021101051ADDAA124000291AY141061AY221061GA1031+018001061GF105991051051012501001001IA1019KA1120M+03161KA2180N+02161MA1999999095531MD1710121+0021MW1051REMSYN136AAXX  28001 76393 31640 51402 10314 20202 39553 40105 57012 70542 85500 92350 333 10316 20216 30/// 50341 56300 58002 70002 83656 82856;
0217763930999992010052803004+25733-100300FM-12+051599999V0201201N002010084019N0020001N1+02681+01991101181ADDAY141031AY221031GA1051+008401061GF105991051051008001001001IA1019MA1999999095661MD1210131+0061MW1051REMSYN106AAXX  28031 76393 31520 51202 10268 20199 39566 40118 52013 70542 85500 90250 333 30/// 56300 58006 85628;
0272763930999992010052812004+25733-100300FM-12+051599999V0200901N001010021019N0020001N1+02231+02001101251ADDAA124000091AY141061AY241061GA1061+002101061GF107991061051002501011999IA1019KA1240M+03161KA2120N+02201MA1999999095651MD1210041-0071MW1051REMSYN124AAXX  28121 76393 31320 70901 10223 20200 39565 40125 52004 70544 8651/ 91150 333 10316 20220 30221 5685/ 59007 70000 86607;
0223763930999992010052815004+25733-100300FM-12+051599999V0200901N001012200019N0020001N1+02541+01981101391ADDAY141031AY241031GA1021+005401081GF104991041081004501001001IA1099MA1999999095771MD1210121-0061MW1051REMSYN112AAXX  28151 76393 31420 40901 10254 20198 39577 40139 52012 70544 84800 91450 333 31/// 56300 59006 82818 82630;
0261763930999992010052818004+25733-100300FM-12+051599999V0201001N003012200019N0050001N1+03061+02081101271ADDAY141061AY211061GA1021+007801081GF104991021021008001041001IA1019KA1120M+03101KA2240N+02201MA1999999095681MD1710091-0101MW1051REMSYN124AAXX  28181 76393 31550 41003 10306 20208 39568 40127 57009 70541 82240 91750 333 10310 20220 30/// 56350 59010 82826 82356;
0223763930999992010052821004+25733-100300FM-12+051599999V0201301N00201012001CN0050001N1+03041+02031101031ADDAY141031AY211031GA1021+012301081GF105991051021012501001001IA1019MA1999999095491MD1710191-0161MW1051REMSYN112AAXX  28211 76393 31650 51302 10304 20203 39549 40103 57019 70541 85200 92050 333 30/// 56300 59016 82841 83643;
0262763930999992010052900004+25733-100300FM-12+051599999V0201801N002012200019N0040001N1+03081+01941100831ADDAA124000091AY141061AY201061GF103991031051012501001001IA1019KA1120M+03261KA2180N+02201MA1999999095331MD1710161-0201MW1051REMSYN130AAXX  29001 76393 31640 31802 10308 20194 39533 40083 57016 70540 83500 92350 333 10326 20220 30/// 50731 56300 59020 70000 83647;
0217763930999992010052903004+25733-100300FM-12+051599999V0201701N001012200019N0020001N1+02781+01981100841ADDAY141031AY201031GA1011+009901061GF101991011051008001001001IA1019MA1999999095361MD1210031-0301MW1051REMSYN106AAXX  29031 76393 31520 11701 10278 20198 39536 40084 52003 70540 81500 90250 333 30/// 56300 59030 81633;
0269763930999992010052912004+25733-100300FM-12+051599999V0200101N001012200019N0020001N1+02221+01931100811ADDAA124000091AY141061AY211061GF101991001001999999001041IA1019KA1240M+03261KA2120N+02181MA1999999095261MD1410001-0391MW1051REMSYN118AAXX  29121 76393 31920 10101 10222 20193 39526 40081 54005 70541 80004 91155 333 10326 20218 30212 56005 59039 70000;EQDQ01  00002PRCP24
0217763930999992010052915004+25733-100300FM-12+051599999V0203201N001012200019N0020001N1+02661+01971100891ADDAY141031AY211031GA1011+006901061GF103991011041008001031001IA1019MA1999999095321MD1410001-0451MW1051REMSYN106AAXX  29151 76393 31520 33201 10266 20197 39532 40089 54006 70541 81430 91455 333 30/// 56350 59045 81623;
0261763930999992010052918004+25733-100300FM-12+051599999V0201001N003012200019N0030001N1+03181+01971100861ADDAY141061AY211061GA1021+015001081GF104991041021012501041001IA1019KA1120M+03321KA2240N+02181MA1999999095301MD1510021-0381MW1051REMSYN124AAXX  29181 76393 31630 41003 10318 20197 39530 40086 55002 70541 84240 91750 333 10332 20218 30/// 56300 59038 82850 82650;
0223763930999992010052921004+25733-100300FM-12+051599999V0201501N004012200019N0050001N1+03361+02101100601ADDAY141031AY211031GA1011+015001081GF104991041021017501001001IA1019MA1999999095101MD1710201-0391MW1051REMSYN112AAXX  29211 76393 31750 41504 10336 20210 39510 40060 57020 70541 84200 92050 333 30/// 56300 59039 81850 83650;
0262763930999992010053000004+25733-100300FM-12+051599999V0201401N003012200019N0030001N1+03181+01931100391ADDAA124000091AY141061AY201061GF102991021041017501001001IA1019KA1120M+03461KA2180N+02181MA1999999094951MD1710151-0381MW1051REMSYN130AAXX  30001 76393 31730 21403 10318 20193 39495 40039 57015 70540 82400 92350 333 10346 20218 30/// 50641 56300 59038 70000 82650;
0217763930999992010053003004+25733-100300FM-12+051599999V0201201N005010105019N0020001N1+02901+02061100451ADDAY141031AY241031GA1081+010501061GF108991081051012501999999IA1019MA1999999095011MD1210061-0351MW1051REMSYN106AAXX  30031 76393 31620 81205 10290 20206 39501 40045 52006 70544 885// 90250 333 30/// 563// 59035 88635;
0172763930999992010053012004+25733-100300FM-12+051599999V0209999C000019999999N0030001N1+02161+02041100671ADDAA106002091AY151061AY241061GF107991999999001501999999MA1999999095101MD1710061+9999MW1051REMSYN072AAXX  30121 76393 01230 70000 10216 20204 39510 40067 57006 60021 70554;
0223763930999992010053015004+25733-100300FM-12+051599999V0200401N00201009001CN0020001N1+02501+02051100881ADDAY141031AY241031GA1011+015001081GF105991051081004501001001IA1099MA1999999095271MD1210171-0051MW1051REMSYN112AAXX  30151 76393 31420 50402 10250 20205 39527 40088 52017 70544 85800 91450 333 31/// 56800 59005 81850 84625;
0255763930999992010053018004+25733-100300FM-12+051599999V0202501N001012200019N0020001N1+03041+02091100771ADDAY141061AY201061GA1011+009601081GF101991011041008001001001IA1019KA1120M+03121KA2240N+02121MA1999999095191MD1410001-0111MW1051REMSYN118AAXX  30181 76393 31520 12501 10304 20209 39519 40077 54008 70540 81400 91755 333 10312 20212 30/// 56300 59011 81832;
0234763930999992010053021004+25733-100300FM-12+051599999V0201501N001010075019N0030001N1+02901+02151100441ADDAA103000021AY151031AY221031GA1071+007501061GF107991071051008001999999IA1099MA1999999095111MD1410001+0011MW1501REMSYN112AAXX  30211 76393 21530 71501 10290 20215 39511 40044 54008 75052 875// 92055 333 31/// 56399 58001 69907 87625;
0172763930999992010053100004+25733-100300FM-12+051599999V0202901N002019999999N0030001N1+02281+01961100901ADDAA106001091AY141061AY221061GF108991999999004501999999MA1999999095361MD1210251+9999MW1051REMSYN072AAXX  31001 76393 01430 82902 10228 20196 39536 40090 52025 69991 70542;
0234763930999992010053103004+25733-100300FM-12+051599999V0201401N001010069019N0020001N1+02421+01861100991ADDAA103000991AY141031AY241031GA1051+006901061GF105991051051008001001001IA1019MA1999999095441MD1210081+0431MW1051REMSYN112AAXX  31031 76393 21520 51401 10242 20186 39544 40099 52008 70544 85500 90250 333 30/// 56300 58043 69997 85623;
0254763930999992010053112004+25733-100300FM-12+051599999V0200901N001012200019N0020001N1+02101+01871101161ADDAA124000021AY141061AY241061GA1001+999999999GF100991001001999999001001IA1019KA1240M+03281KA2120N+02021MA1999999095521MD1210051+0421MW1051REMSYN106AAXX  31121 76393 31920 00901 10210 20187 39552 40116 52005 70544 91150 333 10328 20202 30192 58042 79999;
0199763930999992010053115004+25733-100300FM-12+051599999V0203501N001012200019N0030001N1+02461+01881101331ADDAY141031AY241031GA1001+999999999GF100991001001999999001001IA1019MA1999999095671MD1210151+0401MW1051REMSYN088AAXX  31151 76393 31930 03501 10246 20188 39567 40133 52015 70544 91450 333 30/// 58040;
0255763930999992010053118004+25733-100300FM-12+051599999V0201201N001012200019N0030001N1+03031+02001101301ADDAY141061AY241061GA1021+010201081GF102991021011008001001001IA1099KA1120M+03121KA2240N+02021MA1999999095681MD1210011+0491MW1051REMSYN118AAXX  31181 76393 31530 21201 10303 20200 39568 40130 52001 70544 82100 91750 333 10312 20202 31/// 56300 58049 82834;
0217763930999992010053121004+25733-100300FM-12+051599999V0201001N004012200019N0030001N1+03251+01981101121ADDAY141031AY241031GA1021+012001081GF103991021021012501001011IA1019MA1999999095561MD1710121+0451MW1051REMSYN106AAXX  31211 76393 31630 31004 10325 20198 39556 40112 57012 70544 82201 92050 333 30/// 56305 58045 82840;
0161763930999992010060100004+25733-100300FM-12+051599999V0201601N003010150019N0040001N1+03121+01911101021ADDAY141061AY241061GF106991061081012501041001MA1999999095511MD1710051+9999MW1051REMSYN072AAXX  01001 76393 31640 61603 10312 20191 39551 40102 57005 70544 86840;
0217763930999992010060103004+25733-100300FM-12+051599999V0201101N004012200019N0020001N1+02721+02161101121ADDAY141031AY201031GA1031+006901061GF103991031051008001001001IA1019MA1999999095641MD1210131+0201MW1051REMSYN106AAXX  01031 76393 31520 31104 10272 20216 39564 40112 52013 70540 83500 90250 333 0/300 30/// 58020 83623;
0161763930999992010060112004+25733-100300FM-12+051599999V0200401N001010021019N0020001N1+02381+02161101231ADDAY141061AY221061GF108991081061002501999999MA1999999095661MD1210061+9999MW1051REMSYN072AAXX  01121 76393 31320 80401 10238 20216 39566 40123 52006 70542 886//;
0223763930999992010060115004+25733-100300FM-12+051599999V0201201N00101036001CN0030001N1+02521+02161101341ADDAY141031AY221031GA1041+004501061GF107991041041004501021999IA1019MA1999999095731MD1510071+0061MW1051REMSYN112AAXX  01151 76393 31430 71201 10252 20216 39573 40134 55007 70542 8442/ 91450 333 0/35/ 30/// 58006 84615 83456;
0161763930999992010060118004+25733-100300FM-12+051599999V0201001N001012200019N0030001N1+02961+02061101201ADDAY141061AY241061GF102991011011008001031001MA1999999095621MD1710111+9999MW1051REMSYN072AAXX  01181 76393 31530 21001 10296 20206 39562 40120 57011 70544 81130;
0217763930999992010060121004+25733-100300FM-12+051599999V0201101N003012200019N0030001N1+03401+02151100811ADDAY141031AY241031GA1011+012001081GF102991011021012501001011IA1019MA1999999095311MD1710311-0251MW1051REMSYN106AAXX  01211 76393 31630 21103 10340 20215 39531 40081 57031 70544 81201 92050 333 03505 30/// 59025 81840;
0161763930999992010060200004+25733-100300FM-12+051599999V0201101N005012200019N0030001N1+03281+02181100751ADDAY141061AY211061GF104991021011012501001081MA1999999095281MD1710031+9999MW1051REMSYN072AAXX  02001 76393 31630 41105 10328 20218 39528 40075 57003 70541 82108;
0161763930999992010060212004+25733-100300FM-12+051599999V0200401N001010021019N0010001N1+02361+02161100721ADDAY141061AY221061GF108991081061002501999999MA1999999095191MD1210031+9999MW1051REMSYN072AAXX  02121 76393 31310 80401 10236 20216 39519 40072 52003 70542 886//;
0217763930999992010060215004+25733-100300FM-12+051599999V0203101N003012200019N0010001N1+02701+02171100841ADDAY111031AY211031GA1041+006601071GF104991041061008001001001IA1019MA1999999095281MD1210091-0451MW1051REMSYN106AAXX  02151 76393 31510 43103 10270 20217 39528 40084 52009 70511 84600 91455 333 0/300 30/// 59045 84722;
0161763930999992010060218004+25733-100300FM-12+051599999V0200901N002012200019N0030001N1+03261+02101100681ADDAY141061AY241061GF102991021041012501001001MA1999999095141MD1710141+9999MW1051REMSYN072AAXX  02181 76393 31630 20902 10326 20210 39514 40068 57014 70544 82400;
0281763930999992010060221004+25733-100300FM-12+051599999V0201201N00201007501CN0030001N1+03071+02301100451ADDAA103000291AY141031AY221031GA1011+007501091GA2011+007501081GF106991061031008001001001IA1019MA1999999094961MD1710231-0351MW1501REMSYN124AAXX  02211 76393 21530 61202 10307 20230 39496 40045 57086 75042 86300 92050 333 06500 30/// 59035 69927 81925 81825 84634;EQDQ01+000862APC3  
0336763930999992010060300004+25733-100300FM-12+051599999V0201801N003010240019N0040001N1+03201+01202100291ADDAA103000291AA224000291AY141061AY241061GA1071+024001061GF107991071051022501001001IA1019KA1120M+03581KA2180N+02301MA1999999094831MD1710131-0451MW1051REMSYN142AAXX  03001 76393 01840 71803 10320 20120 39483 40029 57013 69921 70544 87500 92350 333 0/500 10358 20230 30/// 50421 59045 69927 70002 87658;EQDQ01+001203ATOD  Q02  00002PRCP06
0217763930999992010060303004+25733-100300FM-12+051599999V0201101N001012200019N0020001N1+02821+01481100571ADDAY141031AY201031GA1021+015001061GF102991021051017501001001IA1019MA1999999095121MD1210291-0051MW1051REMSYN106AAXX  03031 76393 31720 21101 10282 20148 39512 40057 52029 70540 82500 90250 333 0/500 30/// 59005 82650;
0254763930999992010060312004+25733-100300FM-12+051599999V0202401N001012200019N0050001N1+02321+01631100591ADDAA124000021AY141061AY241061GA1001+999999999GF100991001001999999001001IA1019KA1240M+03581KA2120N+02301MA1999999095051MD1510001-0141MW1051REMSYN106AAXX  03121 76393 31950 02401 10232 20163 39505 40059 55000 70544 91150 333 10358 20230 30198 59014 79999;
0199763930999992010060315004+25733-100300FM-12+051599999V0202901N001012200019N0080001N1+02761+01901100641ADDAY141031AY241031GA1001+999999999GF100991001001999999001001IA1019MA1999999095081MD1710031-0201MW1051REMSYN088AAXX  03151 76393 31958 02901 10276 20190 39508 40064 57003 70544 91450 333 30/// 59020;
0161763930999992010060318004+25733-100300FM-12+051599999V0200901N001012200019N0030001N1+03231+01721100491ADDAY141061AY241061GF102991021031012501001001MA1999999094961MD1710121+9999MW1051REMSYN072AAXX  03181 76393 31630 20901 10323 20172 39496 40049 57012 70544 82300;
0217763930999992010060321004+25733-100300FM-12+051599999V0201201N003012200019N0030001N1+03861+01751100231ADDAY141031AY241031GA1011+021001081GF104991011021022501001061IA1019MA1999999094781MD1710181-0181MW1051REMSYN106AAXX  03211 76393 31830 41203 10386 20175 39478 40023 57018 70544 81206 92050 333 03305 30/// 59018 81857;
0321763930999992010060400004+25733-100300FM-12+051599999V0201701N003010120019N0030001N1+02542+01641100351ADDAA103015091AA206015092AA324014792AY161061AY221061GF108991081051012501001001IA1119KA1120M+03881KA2180N+02301MA1999999094911MD1210131+0081MW1611REMSYN148AAXX  04001 76393 01630 81703 10254 20164 39491 40035 52013 60151 76162 88500 92350 333 0/500 10388 20230 32/// 51031 54114 58008 60157 70147 88637;EQDQ01+002543ATOT  
0161763930999992010060412004+25733-100300FM-12+051599999V0209999C000010075019N0030001N1+02261+01691100991ADDAY141061AY221061GF107991051051008001021999MA1999999095211MD1710071+9999MW1051REMSYN072AAXX  04121 76393 31530 70000 10226 20169 39521 40099 57007 70542 8552/;
0245763930999992010060415004+25733-100300FM-12+051599999V0202801N00101036001CN0050001N1+02841+01831100891ADDAY141031AY211031GA1011+012301061GA2031+018001031GF107991011041012501041081IA1019MA1999999095311MD1010101+0231MW1051REMSYN118AAXX  04151 76393 31650 72801 10284 20183 39531 40089 50010 70541 81448 91450 333 0/357 30/// 58023 81641 83356 83270;
0161763930999992010060418004+25733-100300FM-12+051599999V0201201N002012200019N0030001N1+03251+01951100861ADDAY141061AY241061GF103991011021012501001091MA1999999095311MD1410001+9999MW1051REMSYN072AAXX  04181 76393 31630 31202 10325 20195 39531 40086 54000 70544 81209;
0223763930999992010060421004+25733-100300FM-12+051599999V0201201N003010900019N0030001N1+03421+01961100601ADDAY141031AY241031GA1011+015001081GF106991011021012501031061IA1019MA1999999095111MD1710201+0331MW1051REMSYN112AAXX  04211 76393 31630 61203 10342 20196 39511 40060 57020 70544 81236 92050 333 02555 30/// 58033 81850 83356;
0161763930999992010060500004+25733-100300FM-12+051599999V0201401N003010360019N0040001N1+03361+02021100491ADDAY111061AY211061GF106991021011012501021081MA1999999095061MD1210151+9999MW1051REMSYN072AAXX  05001 76393 31640 61403 10336 20202 39506 40049 52015 70511 82128;
0199763930999992010060503004+25733-100300FM-12+051599999V0201401N004012200019N0020001N1+02961+02031100591ADDAY111031AY211031GA1001+999999999GF100991001001999999001001IA1019MA1999999095171MD1210111-0021MW1051REMSYN088AAXX  05031 76393 31920 01404 10296 20203 39517 40059 52011 70511 90250 333 30/// 59002;
0217763930999992010060515004+25733-100300FM-12+051599999V0200801N001012200019N0010001N1+02761+02301100801ADDAY141031AY201031GA1021+018001041GF102991021001999999021001IA1019MA1999999095261MD1110101-0051MW1051REMSYN106AAXX  05151 76393 31910 20801 10276 20230 39526 40080 51010 70540 82020 91450 333 0/050 30/// 59005 82456;
0180763930999992010060518004+25733-100300FM-12+051599999V0203501N002012200019N0020001N1+03441+01981100671ADDAY141061AY201061GF101991999001022501041001MA1999999095161MD1610101+9999MW1051REMSYN072AAXX  05181 76393 31820 13502 10344 20198 39516 40067 56010 70540 80040;EQDQ01+000002SCOTLC
0214763930999992010060521004+25733-100300FM-12+051599999V0200601N004012200019N0030001N1+03881+02031100441ADDAY141031AY201031GF101991999001022501041001IA1019MA1999999095001MD1710161-0111MW1051REMSYN100AAXX  05211 76393 31830 10604 10388 20203 39500 40044 57016 70540 80040 92055 333 0/050 30/// 59011;EQDQ01+000002SCOTLC
0161763930999992010060600004+25733-100300FM-12+051599999V0201401N003012200019N0030001N1+03621+02041100361ADDAY141061AY201061GF102991001001999999001081MA1999999094981MD1710021+9999MW1051REMSYN072AAXX  06001 76393 31930 21403 10362 20204 39498 40036 57002 70540 80008;
0199763930999992010060603004+25733-100300FM-12+051599999V0201401N003012200019N0020001N1+03361+02211100491ADDAY141031AY201031GA1001+999999999GF100991001001999999001001IA1019MA1999999095131MD1210151-0041MW1051REMSYN088AAXX  06031 76393 31920 01403 10336 20221 39513 40049 52015 70540 90250 333 30/// 59004;
0161763930999992010060612004+25733-100300FM-12+051599999V0202601N001010021019N0020001N1+02681+02441100571ADDAY141061AY221061GF108991081051002501999999MA1999999095091MD1410001+9999MW1051REMSYN072AAXX  06121 76393 31320 82601 10268 20244 39509 40057 54004 70542 885//;
0217763930999992010060615004+25733-100300FM-12+051599999V0203201N001010042019N0020001N1+02861+02431100721ADDAY141031AY211031GA1051+004201061GF105991051051004501001001IA1019MA1999999095211MD1610121-0051MW1051REMSYN106AAXX  06151 76393 31420 53201 10286 20243 39521 40072 56012 70541 85500 91455 333 0/300 30/// 59005 85614;
0161763930999992010060618004+25733-100300FM-12+051599999V0201201N001019999999N0030001N1+03511+02091100821ADDAY141061AY241061GF106991001001999999001081MA1999999095321MD1210111+9999MW1051REMSYN072AAXX  06181 76393 31930 61201 10351 20209 39532 40082 52011 70544 80008;
0217763930999992010060621004+25733-100300FM-12+051599999V0201201N004012200019N0030001N1+03761+02181100651ADDAY141031AY241031GA1011+015001091GF104991011031012501011011IA1019MA1999999095201MD1710121+0201MW1051REMSYN106AAXX  06211 76393 31630 41204 10376 20218 39520 40065 57012 70544 81311 92050 333 06255 30/// 58020 81950;
0161763930999992010060700004+25733-100300FM-12+051599999V0201401N003012200019N0040001N1+03721+02131100551ADDAY141061AY241061GF103991001001999999001081MA1999999095161MD1710041+9999MW1051REMSYN072AAXX  07001 76393 31940 31403 10372 20213 39516 40055 57004 70544 80008;
0161763930999992010060712004+25733-100300FM-12+051599999V0201001N001010021019N0030001N1+02601+02351101091ADDAY141061AY241061GF108991081051002501999999MA1999999095571MD1210141+9999MW1051REMSYN072AAXX  07121 76393 31330 81001 10260 20235 39557 40109 52014 70544 885//;
0259763930999992010060715004+25733-100300FM-12+051599999V0201101N002010030019N0020001N1+02681+02381101301ADDAA103000091AY141031AY241031GA1071+003001061GF108991081081002501999999IA1019MA1999999095751MD1210101+0541MW1051REMSYN118AAXX  07151 76393 21320 81102 10268 20238 39575 40130 52010 70544 888// 91450 333 013// 30/// 58054 69907 87610 81825;EQDQ01  00002PRCP03
0161763930999992010060718004+25733-100300FM-12+051599999V0201101N004012200019N0030001N1+03141+02331101201ADDAY141061AY201061GF102991021031008001001001MA1999999095661MD1710091+9999MW1051REMSYN072AAXX  07181 76393 31530 21104 10314 20233 39566 40120 57009 70540 82300;
0223763930999992010060721004+25733-100300FM-12+051599999V0201001N00201036001CN0050001N1+03141+02201101011ADDAY141031AY221031GA1041+011701061GF107991041031012501051999IA1019MA1999999095501MD1710161+0301MW1051REMSYN112AAXX  07211 76393 31650 71002 10314 20220 39550 40101 57016 70542 8435/ 92050 333 0/35/ 30/// 58030 84639 83456;
0331763930999992010060800004+25733-100300FM-12+051599999V0201801N002010360019N0040001N1+03081+02141100741ADDAA103000991AA206001092AA324000092AY141061AY221061GA1021+011701081GF105991021021012501011001IA1019KA1120M+03501KA2180N+02501MA1999999095261MD1710241+0101MW1051REMSYN142AAXX  08001 76393 01640 51802 10308 20214 39526 40074 57024 69991 70542 82210 92350 333 0/350 10350 20250 30/// 50631 58010 69997 79999 82839;EQDQ01  00002PRCP24
0253763930999992010060803004+25733-100300FM-12+051599999V0201401N001010063019N0020001N1+02441+01921101281ADDAA103000991AY141031AY241031GA1081+006301061GF108991081051008001999999IA1019MA1999999095781MD1210522+0321MW1051REMSYN112AAXX  08031 76393 21520 81401 10244 20192 39578 40128 52052 70544 885// 90250 333 0/3// 30/// 58032 69997 88621;EQDQ01+000522APC3  
0357763930999992010060812004+25733-100300FM-12+051599999V0201001N001010036019N0030001N1+02301+01941101171ADDAA103999999AA206000091AA324000091AY141061AY241061GA1081+003601061GF108991081051004501999999IA1019KA1240M+03501KA2120N+02221MA1999999095571MD1210111+0001MW1051REMSYN136AAXX  08121 76393 01430 81001 10230 20194 39557 40117 52011 69901 70544 885// 91150 333 0/5// 10350 20222 30220 58000 69907 79999 88612;EQDQ01  00002PRCP06Q02  00002PRCP24Q03  99992PRCP03
0195763930999992010060815004+25733-100300FM-12+051599999V0202701N001012200019N0030001N1+02561+01931101241ADDAY141031AY241031GF102991021001022501031001IA1019MA1999999095631MD1210061-0121MW1051REMSYN100AAXX  08151 76393 31830 22701 10256 20193 39563 40124 52006 70544 82030 91450 333 0/050 30/// 59012;
0161763930999992010060818004+25733-100300FM-12+051599999V0200601N002012200019N0020001N1+03021+01941101111ADDAY141061AY211061GF104991041021012501001001MA1999999095531MD1710101+9999MW1051REMSYN072AAXX  08181 76393 31620 40602 10302 20194 39553 40111 57010 70541 84200;
0217763930999992010060821004+25733-100300FM-12+051599999V0200801N003012200019N0050001N1+03341+02141100831ADDAY141031AY201031GA1021+014701081GF102991011021012501001001IA1019MA1999999095311MD1710221-0191MW1051REMSYN106AAXX  08211 76393 31650 20803 10334 20214 39531 40083 57022 70540 81200 92050 333 01300 30/// 59019 82849;
0269763930999992010060900004+25733-100300FM-12+051599999V0201601N003012200019N0120001N1+03341+02061100661ADDAA124000091GA1011+012901081GF102991011041012501001041IA1019KA1120M+03541KA2180N+02221MA1999999095201MD1610111-0061REMSYN124AAXX  09001 76393 32662 21603 10334 20206 39520 40066 56011 81404 92355 333 0/305 10354 20222 30/// 50781 59006 79999 81843;EQDQ01  00002PRCP24
0161763930999992010060912004+25733-100300FM-12+051599999V0209999C000010021019N0020001N1+02551+02291100931ADDAY141061AY241061GF108991081051002501999999MA1999999095411MD1710011+9999MW1051REMSYN072AAXX  09121 76393 31320 80000 10255 20229 39541 40093 57001 70544 885//;
0217763930999992010060915004+25733-100300FM-12+051599999V0202901N001012200019N0020001N1+02861+02261101041ADDAY141031AY241031GA1031+006001061GF104991031051008001031001IA1019MA1999999095501MD1210091-0131MW1051REMSYN106AAXX  09151 76393 31520 42901 10286 20226 39550 40104 52009 70544 83530 91450 333 0/850 30/// 59013 83620;
0161763930999992010060918004+25733-100300FM-12+051599999V0200701N002012200019N0030001N1+03281+02401100991ADDAY141061AY201061GF103991031001999999041001MA1999999095471MD1010031+9999MW1051REMSYN072AAXX  09181 76393 31930 30702 10328 20240 39547 40099 50003 70540 83040;
0223763930999992010060921004+25733-100300FM-12+051599999V0201601N00201036001CN0030001N1+03401+02141100761ADDAY141031AY211031GA1041+015001061GF105991041051017501041999IA1019MA1999999095291MD1710181-0021MW1051REMSYN112AAXX  09211 76393 31730 51602 10340 20214 39529 40076 57018 70541 8454/ 92050 333 0/35/ 30/// 59002 84650 81356;
0161763930999992010061000004+25733-100300FM-12+051599999V0201201N002019999999N0020001N1+03321+02381100631ADDAY141061AY221061GF108991081001999999021999MA1999999095251MD1710041+9999MW1051REMSYN072AAXX  10001 76393 31920 81202 10332 20238 39525 40063 57004 70542 8802/;
0211763930999992010061003004+25733-100300FM-12+051599999V0201401N001012200019N0020001N1+03201+02251100701ADDAY141031AY201031GA1031+011701061GF103991031051012501001001IA1019MA1999999095291MD1210041-0101MW1051REMSYN100AAXX  10031 76393 31620 31401 10320 20225 39529 40070 52004 70540 83500 90250 333 30/// 59010 83639;
0161763930999992010061012004+25733-100300FM-12+051599999V0201101N002012200019N0020001N1+02591+02391100871ADDAY141061AY241061GF103991011051002501031011MA1999999095371MD1410001+9999MW1051REMSYN072AAXX  10121 76393 31320 31102 10259 20239 39537 40087 54000 70544 81531;
0217763930999992010061015004+25733-100300FM-12+051599999V0200901N001012200019N0020001N1+02901+02391100891ADDAY141031AY241031GA1041+005101061GF104991041051004501001001IA1019MA1999999095371MD1410001-0131MW1051REMSYN106AAXX  10151 76393 31420 40901 10290 20239 39537 40089 54000 70544 84500 91450 333 0/300 30/// 59013 84617;
0161763930999992010061018004+25733-100300FM-12+051599999V0200501N003012200019N0030001N1+03401+02321100791ADDAY141061AY201061GF102991021041012501001001MA1999999095291MD1710081+9999MW1051REMSYN072AAXX  10181 76393 31630 20503 10340 20232 39529 40079 57008 70540 82400;
0245763930999992010061021004+25733-100300FM-12+051599999V0201101N00401036001CN0030001N1+03661+02191100561ADDAY141031AY211031GA1011+015001081GA2021+015001061GF105991041021017501041999IA1019MA1999999095111MD1710181-0181MW1051REMSYN118AAXX  10211 76393 31730 51104 10366 20219 39511 40056 57018 70541 8424/ 92050 333 01350 30/// 59018 81850 82650 81356;
0320763930999992010061100004+25733-100300FM-12+051599999V0201601N005010069019N0030001N1+03121+02571100471ADDAA103000191AA224000191AY121061AY221061GA1081+006901061GF108991081051008001999999IA1099KA1120M+03781KA2180N+02501MA1999999095061MD1710051-0191MW1511REMSYN142AAXX  11001 76393 01530 81605 10312 20257 39506 40047 57005 69911 75122 885// 92350 333 0/3// 10378 20250 31/// 50991 59019 69917 70001 88623;EQDQ01  00002PRCP06
0234763930999992010061103004+25733-100300FM-12+051599999V0201801N003010093019N0020001N1+02661+01911100501ADDAA103000991AY141031AY221031GA1081+009301061GF108991081051008001999999IA1019MA1999999095081MD1710021-0211MW1051REMSYN112AAXX  11031 76393 21520 81803 10266 20191 39508 40050 57002 70542 885// 90250 333 0/3// 30/// 59021 69997 88631;
0161763930999992010061112004+25733-100300FM-12+051599999V0201401N001010360019N0030001N1+02611+02261100811ADDAY141061AY241061GF107991031051004501031999MA1999999095271MD1710031+9999MW1051REMSYN072AAXX  11121 76393 31430 71401 10261 20226 39527 40081 57003 70544 8353/;
0223763930999992010061115004+25733-100300FM-12+051599999V0201201N00101012001CN0030001N1+02861+02261100891ADDAY141031AY241031GA1011+006001081GF107991061081008001001011IA1019MA1999999095351MD1210081-0021MW1051REMSYN112AAXX  11151 76393 31530 71201 10286 20226 39535 40089 52008 70544 86801 91450 333 00405 30/// 59002 81820 85634;
0161763930999992010061118004+25733-100300FM-12+051599999V0201101N003010360019N0020001N1+03221+02301100811ADDAY141061AY211061GF105991031021012501041001MA1999999095291MD1710061+9999MW1051REMSYN072AAXX  11181 76393 31620 51103 10322 20230 39529 40081 57006 70541 83240;
0161763930999992010061200004+25733-100300FM-12+051599999V0201301N002010120019N0020001N1+03421+02251100551ADDAY141061AY221061GF108991081051012501999999MA1999999095111MD1710071+9999MW1051REMSYN072AAXX  12001 76393 31620 81302 10342 20225 39511 40055 57007 70542 885//;
0217763930999992010061203004+25733-100300FM-12+051599999V0202301N001010141019N0020001N1+03181+02031100581ADDAY141031AY221031GA1081+014101061GF108991081051012501999999IA1019MA1999999095171MD1210061+0091MW1051REMSYN106AAXX  12031 76393 31620 82301 10318 20203 39517 40058 52006 70542 885// 90250 333 0/3// 30/// 58009 88647;
0161763930999992010061212004+25733-100300FM-12+051599999V0201201N003010042019N0020001N1+02561+02201100821ADDAY141061AY221061GF108991081051004501999999MA1999999095421MD1310151+9999MW1051REMSYN072AAXX  12121 76393 31420 81203 10256 20220 39542 40082 53015 70542 885//;
0217763930999992010061215004+25733-100300FM-12+051599999V0200901N005010054019N0020001N1+02721+02191101091ADDAY141031AY221031GA1071+005401061GF107991071051004501999999IA1019MA1999999095551MD1310131+0201MW1051REMSYN106AAXX  12151 76393 31420 70905 10272 20219 39555 40109 53013 70542 875// 91455 333 0/399 30/// 58020 87618;
0161763930999992010061218004+25733-100300FM-12+051599999V0200701N003010075019N0030001N1+03101+02291101071ADDAY141061AY211061GF106991061041008001001001MA1999999095541MD1010011+9999MW1051REMSYN072AAXX  12181 76393 31530 60703 10310 20229 39554 40107 50001 70541 86400;
0217763930999992010061221004+25733-100300FM-12+051599999V0201301N004012200019N0030001N1+03501+02281100811ADDAY141031AY201031GA1021+015001061GF102991021041017501001001IA1019MA1999999095391MD1710151+0211MW1051REMSYN106AAXX  12211 76393 31730 21304 10350 20228 39539 40081 57015 70540 82400 92050 333 0/300 30/// 58021 82650;
0161763930999992010061300004+25733-100300FM-12+051599999V0201401N002012200019N0050001N1+03421+02091100631ADDAY141061AY201061GF103991031051017501001001MA1999999095261MD1710021+9999MW1051REMSYN072AAXX  13001 76393 31750 31402 10342 20209 39526 40063 57002 70540 83500;
0217763930999992010061303004+25733-100300FM-12+051599999V0201301N003012200019N0020001N1+03161+02261100841ADDAY141031AY201031GA1031+011101061GF103991031041012501001001IA1019MA1999999095421MD1210161+0251MW1051REMSYN106AAXX  13031 76393 31620 31303 10316 20226 39542 40084 52016 70540 83400 90250 333 0/300 30/// 58025 83637;
0161763930999992010061312004+25733-100300FM-12+051599999V0201201N002010042019N0030001N1+02531+02151101111ADDAY141061AY241061GF107991071051004501999999MA1999999095551MD1210101+9999MW1051REMSYN072AAXX  13121 76393 31430 71202 10253 20215 39555 40111 52010 70544 875//;
0217763930999992010061315004+25733-100300FM-12+051599999V0201101N002010060019N0030001N1+02801+02191101281ADDAY141031AY241031GA1071+006001061GF107991071051008001999999IA1019MA1999999095681MD1210131+0131MW1051REMSYN106AAXX  13151 76393 31530 71102 10280 20219 39568 40128 52013 70544 875// 91450 333 0/8// 30/// 58013 87620;
0161763930999992010061318004+25733-100300FM-12+051599999V0201301N001010120019N0020001N1+03241+02231101201ADDAY141061AY211061GF107991071051012501999999MA1999999095661MD1410001+9999MW1051REMSYN072AAXX  13181 76393 31620 71301 10324 20223 39566 40120 54002 70541 875//;
0189763930999992010061321004+25733-100300FM-12+051599999V0201301N006012200019N0100001N1+03561+02201100911ADDGA1031+013501061GF103991031051012501001001IA1019MA1999999095431MD1710231+0041REMSYN100AAXX  13211 76393 32660 31306 10356 20220 39543 40091 57023 83500 92055 333 0/300 30/// 58004 83645;
0161763930999992010061400004+25733-100300FM-12+051599999V0201401N005012200019N0060001N1+03541+01941100621ADDAY141061AY201061GF102991021021017501001001MA1999999095191MD1710241+9999MW1051REMSYN072AAXX  14001 76393 31756 21405 10354 20194 39519 40062 57024 70540 82200;
0199763930999992010061403004+25733-100300FM-12+051599999V0201401N004012200019N0020001N1+03261+01791100801ADDAY141031AY201031GA1001+999999999GF100991001001999999001001IA1019MA1999999095391MD1210201-0031MW1051REMSYN088AAXX  14031 76393 31920 01404 10326 20179 39539 40080 52020 70540 90250 333 30/// 59003;
0161763930999992010061412004+25733-100300FM-12+051599999V0201001N002010900019N0050001N1+02521+02071101041ADDAY141061AY221061GF106991031041004501001051MA1999999095501MD1210021+9999MW1051REMSYN072AAXX  14121 76393 31450 61002 10252 20207 39550 40104 52002 70542 83405;
0223763930999992010061415004+25733-100300FM-12+051599999V0200301N00101220001CN0030001N1+02721+02041101091ADDAY141031AY211031GA1021+008401061GF105991021041008001001041IA1019MA1999999095551MD1110051-0131MW1051REMSYN112AAXX  14151 76393 31530 50301 10272 20204 39555 40109 51005 70541 82404 91450 333 0/307 30/// 59013 82628 83070;
0161763930999992010061418004+25733-100300FM-12+051599999V0200901N002012200019N0030001N1+03361+02111100991ADDAY141061AY241061GF102991011021012501001011MA1999999095461MD1710081+9999MW1051REMSYN072AAXX  14181 76393 31630 20902 10336 20211 39546 40099 57008 70544 81201;
0223763930999992010061421004+25733-100300FM-12+051599999V0201201N005012200019N0030001N1+03581+02091100731ADDAY141031AY241031GA1011+013801081GF103991021031012501001011IA1019MA1999999095251MD1710211-0181MW1051REMSYN112AAXX  14211 76393 31630 31205 10358 20209 39525 40073 57021 70544 82301 92050 333 06505 30/// 59018 81846 81950;
0161763930999992010061500004+25733-100300FM-12+051599999V0201401N005012200019N0040001N1+03581+01881100531ADDAY141061AY241061GF102991021001999999081001MA1999999095111MD1710141+9999MW1051REMSYN072AAXX  15001 76393 31940 21405 10358 20188 39511 40053 57014 70544 82080;
0189763930999992010061521004+25733-100300FM-12+051599999V0200901N008012200019N0120001N1+03461+01941100991ADDGA1041+015001081GF104991041041012501001001IA1019MA1999999095471MD1410001+0221REMSYN100AAXX  15211 76393 32662 40908 10346 20194 39547 40099 54003 84400 92055 333 01300 30/// 58022 84850;
0250763930999992010061600004+25733-100300FM-12+051599999V0201401N007012200019N0130001N1+03481+01721100821ADDAA124000091GA1031+018001081GF103991031041017501001001IA1019KA1120M+03741KA2180N+02301MA1999999095351MD1310121+0241REMSYN124AAXX  16001 76393 32763 31407 10348 20172 39535 40082 53012 83400 92355 333 00300 10374 20230 30/// 50101 58024 70000 83856;
0189763930999992010061603004+25733-100300FM-12+051599999V0201201N008012200019N0100001N1+03021+01841100961ADDGA1021+011701061GF102991021041012501001001IA1019MA1999999095501MD1310151+0351REMSYN100AAXX  16031 76393 32660 21208 10302 20184 39550 40096 53015 82400 90255 333 0/300 30/// 58035 82639;
0161763930999992010061612004+25733-100300FM-12+051599999V0200701N002010360019N0030001N1+02441+02011101271ADDAY141061AY211061GF106991031041004501021001MA1999999095721MD1210071+9999MW1051REMSYN072AAXX  16121 76393 31430 60702 10244 20201 39572 40127 52007 70541 83420;
0161763930999992010061618004+25733-100300FM-12+051599999V0201301N005010120019N0040001N1+03021+01971101451ADDAY141061AY211061GF105991051041012501001001MA1999999095861MD1410001+9999MW1051REMSYN072AAXX  16181 76393 31640 51305 10302 20197 39586 40145 54005 70541 85400;
0189763930999992010061621004+25733-100300FM-12+051599999V0201301N008010141019N0120001N1+03361+01921101201ADDGA1051+014101081GF105991051021012501001001IA1019MA1999999095661MD1710201+0191REMSYN100AAXX  16211 76393 32662 51308 10336 20192 39566 40120 57020 85200 92055 333 02300 30/// 58019 85847;
0161763930999992010061700004+25733-100300FM-12+051599999V0201401N004012200019N0060001N1+03421+01961100961ADDAY141061AY201061GF104991041051017501001001MA1999999095501MD1710161+9999MW1051REMSYN072AAXX  17001 76393 31756 41404 10342 20196 39550 40096 57016 70540 84500;
0147763930999992010061712004+25733-100300FM-12+051599999V0201301N002010021019N0020001N1+02281+02051101301ADDAY141061AY221061GF108991081061002501999999MA1999999095731MW1051REMSYN072AAXX  17121 76393 31320 81302 10228 20205 39573 40130 5//// 70542 886//;
0217763930999992010061715004+25733-100300FM-12+051599999V0201201N002012200019N0040001N1+02641+02051101421ADDAY141031AY201031GA1031+006001061GF103991031041004501001001IA1019MA1999999095821MD1410001-0091MW1051REMSYN106AAXX  17151 76393 31440 31202 10264 20205 39582 40142 54009 70540 83400 91455 333 0/300 30/// 59009 83620;
0217763930999992010061721004+25733-100300FM-12+051599999V0201401N005012200019N0060001N1+03501+02091101061ADDAY141031AY201031GA1041+018001061GF104991041051017501001001IA1019MA1999999095541MD1710201-0121MW1051REMSYN106AAXX  17211 76393 31756 41405 10350 20209 39554 40106 57020 70540 84500 92050 333 0/300 30/// 59012 84656;
0161763930999992010061800004+25733-100300FM-12+051599999V0201301N004012200019N0050001N1+03421+02131100851ADDAY141061AY211061GF103991031051017501001001MA1999999095391MD1610151+9999MW1051REMSYN072AAXX  18001 76393 31750 31304 10342 20213 39539 40085 56015 70541 83500;
0147763930999992010061818004+25733-100300FM-12+051599999V0201301N003012200019N0060001N1+03381+01941101291ADDAY141061AY201061GF102991021041017501001001MA1999999095731MW1051REMSYN072AAXX  18181 76393 31756 21303 10338 20194 39573 40129 5//// 70540 82400;
0214763930999992010061821004+25733-100300FM-12+051599999V0201301N005012200019N0060001N1+03601+01841100991ADDAY141031AY201031GF101991999001999999041001IA1019MA1999999095491MD1710241-0051MW1051REMSYN100AAXX  18211 76393 31956 11305 10360 20184 39549 40099 57024 70540 80040 92050 333 0/050 30/// 59005;EQDQ01+000002SCOTLC
0161763930999992010061900004+25733-100300FM-12+051599999V0201101N004012200019N0050001N1+03581+01851100761ADDAY141061AY201061GF103991011041022501041001MA1999999095331MD1710161+9999MW1051REMSYN072AAXX  19001 76393 31850 31104 10358 20185 39533 40076 57016 70540 81440;
0279763930999992010062000004+25733-100300FM-12+051599999V0201301N004012200019N0100001N1+03581+01741100931ADDAA124000091AY141061AY201061GA1001+999999999GF100991001001999999001001IA1019KA1120M+03721KA2180N+02501MA1999999095491MD1999999+0131MW1051REMSYN112AAXX  20001 76393 31960 01304 10358 20174 39549 40093 5//// 70540 92355 333 10372 20250 30/// 50961 58013 70000;EQDQ01  00002PRCP24
0279763930999992010062100004+25733-100300FM-12+051599999V0201301N003012200019N0080001N1+03561+01861100871ADDAA124000091AY141061AY201061GA1001+999999999GF100991001001999999001001IA1019KA1120M+03691KA2180N+02401MA1999999095411MD1999999-0081MW1051REMSYN112AAXX  21001 76393 31958 01303 10356 20186 39541 40087 5//// 70540 92355 333 10369 20240 30/// 50841 59008 70000;EQDQ01  00002PRCP24
0161763930999992010062112004+25733-100300FM-12+051599999V0200601N001010042019N0030001N1+02421+02111101161ADDAY141061AY221061GF108991081061004501999999MA1999999095631MD1410001+9999MW1051REMSYN072AAXX  21121 76393 31430 80601 10242 20211 39563 40116 54001 70542 886//;
0217763930999992010062115004+25733-100300FM-12+051599999V0201201N001010048019N0030001N1+02561+02081101401ADDAY141031AY211031GA1061+004801061GF106991061041004501001001IA1019MA1999999095821MD1310191+0381MW1051REMSYN106AAXX  21151 76393 31430 61201 10256 20208 39582 40140 53019 70541 86400 91455 333 0/300 30/// 58038 86616;
0147763930999992010062200004+25733-100300FM-12+051599999V0201701N004012200019N0050001N1+03661+01771100891ADDAY141061AY201061GF102991021041022501001001MA1999999095441MW1051REMSYN072AAXX  22001 76393 31850 21704 10366 20177 39544 40089 5//// 70540 82400;
0273763930999992010062212004+25733-100300FM-12+051599999V0200301N001012200019N0030001N1+02341+01871101261ADDAA124000091AY141061AY201061GA1001+999999999GF100991001001999999001001IA1019KA1240M+03781KA2120N+02301MA1999999095721MD1410001+0091MW1051REMSYN106AAXX  22121 76393 31930 00301 10234 20187 39572 40126 54004 70540 91155 333 10378 20230 30222 58009 70000;EQDQ01  00002PRCP24
0217763930999992010062215004+25733-100300FM-12+051599999V0200901N001012200019N0030001N1+02701+02111101421ADDAY141031AY201031GA1021+006001061GF102991021011004501001001IA1019MA1999999095831MD1310111+0011MW1051REMSYN106AAXX  22151 76393 31430 20901 10270 20211 39583 40142 53011 70540 82100 91455 333 0/300 30/// 58001 82620;
0161763930999992010062300004+25733-100300FM-12+051599999V0201301N005012200019N0060001N1+03581+01811100971ADDAY101061AY201061GF103991031021022501001001MA1999999095511MD1010001+9999MW1051REMSYN072AAXX  23001 76393 31856 31305 10358 20181 39551 40097 50000 70500 83200;
0217763930999992010062303004+25733-100300FM-12+051599999V0201201N003012200019N0030001N1+03101+01901101141ADDAY101031AY201031GA1031+015001061GF103991031041012501001001IA1019MA1999999095701MD1210291+0091MW1051REMSYN106AAXX  23031 76393 31630 31203 10310 20190 39570 40114 52029 70500 83400 90240 333 0/300 30/// 58009 83650;
0147763930999992010062312004+25733-100300FM-12+051599999V0201001N001010042019N0030001N1+02381+02041101281ADDAY141061AY221061GF108991081061004501999999MA1999999095731MW1051REMSYN072AAXX  23121 76393 31430 81001 10238 20204 39573 40128 5//// 70542 886//;
0217763930999992010062315004+25733-100300FM-12+051599999V0200901N002010066019N0020001N1+02721+02071101491ADDAY141031AY211031GA1061+006601061GF106991061051008001001001IA1019MA1999999095901MD1210171+0071MW1051REMSYN106AAXX  23151 76393 31520 60902 10272 20207 39590 40149 52017 70541 86500 91455 333 0/300 30/// 58007 86622;
0161763930999992010062318004+25733-100300FM-12+051599999V0200701N002012200019N0030001N1+03101+02031101491ADDAY141061AY201061GF103991031041012501001001MA1999999095911MD1210011+9999MW1051REMSYN072AAXX  23181 76393 31630 30702 10310 20203 39591 40149 52001 70540 83400;
0217763930999992010062321004+25733-100300FM-12+051599999V0200901N002012200019N0030001N1+03541+01981101211ADDAY141031AY201031GA1021+018001061GF102991021041017501001001IA1019MA1999999095701MD1710211+9999MW1051REMSYN106AAXX  23211 76393 31730 20902 10354 20198 39570 40121 57021 70540 82400 92050 333 0/300 30/// 58/// 82656;
0161763930999992010062400004+25733-100300FM-12+051599999V0201301N004012200019N0080001N1+03581+01961101051ADDAY141061AY211061GF103991031021017501001001MA1999999095591MD1710081+9999MW1051REMSYN072AAXX  24001 76393 31758 31304 10358 20196 39559 40105 57008 70541 83200;
0147763930999992010062412004+25733-100300FM-12+051599999V0200901N003010042019N0020001N1+02421+02111101391ADDAY141061AY221061GF108991081061004501999999MA1999999095851MW1051REMSYN072AAXX  24121 76393 31420 80903 10242 20211 39585 40139 5//// 70542 886//;
0161763930999992010062418004+25733-100300FM-12+051599999V0200701N002012200019N0040001N1+03201+02151101511ADDAY141061AY201061GF104991041041012501001001MA1999999095941MD1210341+9999MW1051REMSYN072AAXX  24181 76393 31640 40702 10320 20215 39594 40151 52034 70540 84400;
0217763930999992010062421004+25733-100300FM-12+051599999V0201301N002012200019N0030001N1+03541+01941101261ADDAY141031AY201031GA1031+018001081GF103991031021017501001001IA1019MA1999999095751MD1710191+0051MW1051REMSYN106AAXX  24211 76393 31730 31302 10354 20194 39575 40126 57019 70540 83200 92050 333 01300 30/// 58005 83856;
0161763930999992010062500004+25733-100300FM-12+051599999V0201201N002012200019N0050001N1+03601+01911101001ADDAY141061AY201061GF103991031051022501001001MA1999999095551MD1710201+9999MW1051REMSYN072AAXX  25001 76393 31850 31202 10360 20191 39555 40100 57020 70540 83500;
0217763930999992010062515004+25733-100300FM-12+051599999V0200901N001010057019N0020001N1+02701+02141101531ADDAY141031AY211031GA1051+005701061GF105991051051004501001001IA1019MA1999999095941MD1310111+0341MW1051REMSYN106AAXX  25151 76393 31420 50901 10270 20214 39594 40153 53011 70541 85500 91455 333 0/300 30/// 58034 85619;
0161763930999992010062518004+25733-100300FM-12+051599999V0201201N002012200019N0040001N1+03281+02091101391ADDAY141061AY201061GF103991031041012501001001MA1999999095821MD1710121+9999MW1051REMSYN072AAXX  25181 76393 31640 31202 10328 20209 39582 40139 57012 70540 83400;
0217763930999992010062521004+25733-100300FM-12+051599999V0201301N005012200019N0040001N1+03601+01841101061ADDAY141031AY201031GA1021+021001081GF102991021021022501001001IA1019MA1999999095561MD1210261-0191MW1051REMSYN106AAXX  25211 76393 31840 21305 10360 20184 39556 40106 52026 70540 82200 92050 333 01300 30/// 59019 82857;
0161763930999992010062600004+25733-100300FM-12+051599999V0201201N003012200019N0080001N1+03661+01661100881ADDAY141061AY201061GF104991021051022501041999MA1999999095441MD1710121+9999MW1051REMSYN072AAXX  26001 76393 31858 41203 10366 20166 39544 40088 57012 70540 8254/;
0161763930999992010062612004+25733-100300FM-12+051599999V0200901N002010042019N0030001N1+02481+02141101141ADDAY141061AY221061GF108991081051004501999999MA1999999095611MD1410001+9999MW1051REMSYN072AAXX  26121 76393 31430 80902 10248 20214 39561 40114 54001 70542 885//;
0217763930999992010062615004+25733-100300FM-12+051599999V0200901N002010141019N0030001N1+02681+02181101181ADDAY141031AY221031GA1081+014101061GF108991081051004501999999IA1019MA1999999095621MD1410001-0321MW1051REMSYN106AAXX  26151 76393 31430 80902 10268 20218 39562 40118 54001 70542 885// 91455 333 0/399 30/// 59032 88647;
0147763930999992010062700004+25733-100300FM-12+051599999V0201601N005010900019N0080001N1+03641+01711100591ADDAY141061AY211061GF105991031041022501001051MA1999999095161MW1051REMSYN072AAXX  27001 76393 31858 51605 10364 20171 39516 40059 5//// 70541 83405;
0147763930999992010062718004+25733-100300FM-12+051599999V0200701N001012200019N0040001N1+03221+02141100831ADDAY141061AY201061GF102991021021012501001001MA1999999095291MW1051REMSYN072AAXX  27181 76393 31640 20701 10322 20214 39529 40083 5//// 70540 82200;
0217763930999992010062721004+25733-100300FM-12+051599999V0201401N005012200019N0060001N1+03641+02031100491ADDAY141031AY201031GA1031+018001061GF103991031051017501001001IA1019MA1999999095021MD1710271+9999MW1051REMSYN106AAXX  27211 76393 31756 31405 10364 20203 39502 40049 57027 70540 83500 92050 333 0/300 30/// 58/// 83656;
0180763930999992010062800004+25733-100300FM-12+051599999V0201401N002019999999N0080001N1+03621+01721100301ADDAY141061AY211061GF105991999001022501041001MA1999999094901MD1710121+9999MW1051REMSYN072AAXX  28001 76393 31858 51402 10362 20172 39490 40030 57012 70541 83040;EQDQ01+000032SCOTLC
0217763930999992010062815004+25733-100300FM-12+051599999V0200901N002012200019N0030001N1+02981+02211100771ADDAY141031AY201031GA1011+007801061GF101991011041008001001001IA1019MA1999999095251MD1410001+9999MW1051REMSYN106AAXX  28151 76393 31530 10902 10298 20221 39525 40077 54002 70540 81400 91455 333 0/300 30/// 58/// 81626;
0161763930999992010062818004+25733-100300FM-12+051599999V0200701N002012200019N0030001N1+03381+02211100751ADDAY141061AY201061GF103991031021012501001001MA1999999095241MD1710011+9999MW1051REMSYN072AAXX  28181 76393 31630 30702 10338 20221 39524 40075 57001 70540 83200;
0217763930999992010062821004+25733-100300FM-12+051599999V0201401N003010210019N0030001N1+03701+02111100511ADDAY141031AY201031GA1061+021001061GF106991061051017501001001IA1019MA1999999095061MD1710181+0041MW1051REMSYN106AAXX  28211 76393 31730 61403 10370 20211 39506 40051 57018 70540 86500 92050 333 0/300 30/// 58004 86657;
0161763930999992010062900004+25733-100300FM-12+051599999V0201501N002010075019N0030001N1+03021+02251100591ADDAY161061AY221061GF108991081031008001999999MA1999999095161MD1210101+9999MW1051REMSYN072AAXX  29001 76393 21530 81502 10302 20225 39516 40059 52010 70562 883//;
0306763930999992010062912004+25733-100300FM-12+051599999V0200401N001010018019N0020001N1+02281+02111100941ADDAA103003091AA206008991AA324017091AY151061AY221061GA1081+001801071GF108991081071001501999999IA1019KA1240M+03761KA2120N+02201MA1999999095361MD1410001+0131MW1501REMSYN136AAXX  29121 76393 01220 80401 10228 20211 39536 40094 54004 60091 75052 887// 91155 333 0/399 10376 20220 30216 58013 60037 70170 88706;
0236763930999992010062915004+25733-100300FM-12+051599999V0202501N001010600019N0020001N1+02681+02181101091ADDAY141031AY211031GA1061+060001011GF106991061051004501001999IA1019MA1999999095501MD1310141+0251MW1051REMSYN106AAXX  29151 76393 31420 62501 10268 20218 39550 40109 53014 70541 86500 91455 333 0/300 30/// 58025 86170;EQDQ01+000002SCOHCG
0161763930999992010062918004+25733-100300FM-12+051599999V0200501N002010120019N0060001N1+03141+02081101051ADDAY141061AY221061GF106991061051012501001001MA1999999095481MD1710021+9999MW1051REMSYN072AAXX  29181 76393 31656 60502 10314 20208 39548 40105 57002 70542 86500;
0217763930999992010062921004+25733-100300FM-12+051599999V0200501N003010135019N0060001N1+03161+02071100851ADDAY141031AY221031GA1071+013501061GF107991071051012501001001IA1019MA1999999095341MD1210141+0281MW1051REMSYN106AAXX  29211 76393 31656 70503 10316 20207 39534 40085 52014 70542 87500 92050 333 0/300 30/// 58028 87645;
0161763930999992010063000004+25733-100300FM-12+051599999V0201301N001010120019N0050001N1+03101+02131100691ADDAY121061AY221061GF107991071031012501999999MA1999999095221MD1710121+9999MW1051REMSYN072AAXX  30001 76393 31650 71301 10310 20213 39522 40069 57012 70522 873//;
0234763930999992010063003004+25733-100300FM-12+051599999V0202301N001010036019N0030001N1+02501+02201100891ADDAA103004091AY141031AY221031GA1081+003601061GF108991081041004501999999IA1119MA1999999095421MD1210201+0091MW1801REMSYN112AAXX  30031 76393 21430 82301 10250 20220 39542 40089 52020 78042 884// 90240 333 0/3// 32/// 58009 60047 88612;
0306763930999992010063012004+25733-100300FM-12+051599999V0202701N002010018019N0020001N1+02401+02231100851ADDAA103001091AA206002091AA324007091AY151061AY221061GA1081+001801071GF108991081061001501999999IA1019KA1240M+03381KA2120N+02341MA1999999095271MD1410001-0091MW1051REMSYN136AAXX  30121 76393 01220 82702 10240 20223 39527 40085 54003 60021 70552 886// 91155 333 0/399 10338 20234 30230 59009 60017 70070 88706;
0234763930999992010063015004+25733-100300FM-12+051599999V0202701N002010018019N0020001N1+02421+02251101001ADDAA103005091AY151031AY221031GA1081+001801071GF108991081061001501999999IA1119MA1999999095411MD1310141-0091MW1501REMSYN112AAXX  30151 76393 21220 82702 10242 20225 39541 40100 53014 75052 886// 91455 333 0/399 32/// 59009 60057 88706;
0289763930999992010063018004+25733-100300FM-12+051599999V0202801N001010033019N0020001N1+02501+02221100941ADDAA103009091AA206015091AY161061AY261061GA1081+003301061GF108991081051004501999999IA1119KA1120M+02601KA2240N+02341MA1999999095361MD1710051-0121MW1531REMSYN130AAXX  30181 76393 01420 82801 10250 20222 39536 40094 57005 60151 75366 885// 91750 333 0/3// 10260 20234 32/// 59012 60097 88611;
0234763930999992010063021004+25733-100300FM-12+051599999V0202601N001010045019N0030001N1+02541+02181100751ADDAA103014091AY151031AY251031GA1081+004501061GF108991081051004501999999IA1119MA1999999095181MD1710181-0161MW1501REMSYN112AAXX  30211 76393 21430 82601 10254 20218 39518 40075 57018 75055 885// 92050 333 0/8// 32/// 59016 60147 88615;
0279763930999992010070112004+25733-100300FM-12+051599999V0200601N004010003019N0020001N1+02221+02191100691ADDAA103065091AA206110091AY161061AY221061GF108991081061000251999999IA1129KA1240M+02601KA2120N+02201MA1999999095091MD1310101-0181MW1601REMSYN136AAXX  01121 76393 01020 80604 10222 20219 39509 40069 53010 61101 76062 886// 91155 333 0/399 10260 20220 33/// 30214 59018 60657 71858;
0234763930999992010070115004+25733-100300FM-12+051599999V0200501N005010003019N0010001N1+02241+02211100751ADDAA103035091AY161031AY221031GA1081+000301071GF108991081061000251999999IA1129MA1999999095141MD1410001-0271MW1601REMSYN112AAXX  01151 76393 21010 80505 10224 20221 39514 40075 54005 76062 886// 91455 333 0/399 33/// 59027 60357 88701;
0289763930999992010070118004+25733-100300FM-12+051599999V0200701N003010003019N0010001N1+02381+02351100781ADDAA103015091AA206058991AY161061AY261061GA1081+000301071GF108991081061000251999999IA1129KA1120M+02621KA2240N+02201MA1999999095191MD1210051-0171MW1621REMSYN130AAXX  01181 76393 01010 80703 10238 20235 39519 40078 52005 60591 76266 886// 91755 333 0/8// 10262 20220 33/// 59017 60157 88701;
0234763930999992010070121004+25733-100300FM-12+051599999V0200701N003010006019N0010001N1+02421+02371100661ADDAA103029091AY161031AY261031GA1081+000601071GF108991081061000751999999IA1129MA1999999095071MD1710121-0111MW1621REMSYN112AAXX  01211 76393 21110 80703 10242 20237 39507 40066 57012 76266 886// 92055 333 0/3// 33/// 59011 60297 88702;
0312763930999992010070200004+25733-100300FM-12+051599999V0200401N003010003019N0005001N1+02401+02371100581ADDAA103075091AA206103992AA324031892AY161061AY261061GA1081+000301061GF108991081051000251999999IA1129KA1120M+02501KA2180N+02201MA1999999095001MD1710021-0181MW1811REMSYN142AAXX  02001 76393 01005 80403 10240 20237 39500 40058 57002 61041 78166 885// 92355 333 0/3// 10250 20220 33/// 5//// 59018 60757 70318 88601;
0279763930999992010070212004+25733-100300FM-12+051599999V0200701N006010003019N0010001N1+02321+02291100841ADDAA103013091AA206052191AY161061AY221061GF108991081071000251999999IA1119KA1240M+02501KA2120N+02281MA1999999095251MD1410001+0161MW1601REMSYN136AAXX  02121 76393 01010 80706 10232 20229 39525 40084 54005 60521 76062 887// 91155 333 0/399 10250 20228 32/// 30220 58016 60137 72739;
0234763930999992010070215004+25733-100300FM-12+051599999V0200901N005010006019N0010001N1+02361+02311100971ADDAA103005091AY161031AY221031GA1081+000601071GF108991081071000251999999IA1129MA1999999095371MD1310121+0231MW1601REMSYN112AAXX  02151 76393 21010 80905 10236 20231 39537 40097 53012 76062 887// 91455 333 0/399 33/// 58023 60057 88702;
0289763930999992010070218004+25733-100300FM-12+051599999V0201101N003010015019N0010001N1+02521+02411100921ADDAA103001091AA206006191AY151061AY251061GA1081+001501071GF108991081071001501999999IA1129KA1120M+02541KA2240N+02281MA1999999095331MD1710041+0141MW1501REMSYN130AAXX  02181 76393 01210 81103 10252 20241 39533 40092 57004 60061 75055 887// 91755 333 0/3// 10254 20228 33/// 58014 60017 88705;
0217763930999992010070221004+25733-100300FM-12+051599999V0201101N001010042019N0020001N1+02721+02371100761ADDAY141031AY221031GA1081+004201061GF108991081051004501999999IA1119MA1999999095191MD1710141+0121MW1051REMSYN106AAXX  02211 76393 31420 81101 10272 20237 39519 40076 57014 70542 885// 92055 333 0/3// 32/// 58012 88614;
0312763930999992010070300004+25733-100300FM-12+051599999V0200901N002010006019N0020001N1+02541+02501100661ADDAA103019091AA206019191AA324148591AY161061AY211061GA1081+000601071GF108991081061000251999999IA1119KA1120M+02701KA2180N+02281MA1999999095101MD1710091+0101MW1051REMSYN142AAXX  03001 76393 01020 80902 10254 20250 39510 40066 57009 60191 70561 886// 92350 333 0/3// 10270 20228 32/// 5//// 58010 60197 71485 88702;
0279763930999992010070312004+25733-100300FM-12+051599999V0200701N002010006019N0010001N1+02301+02221100851ADDAA103999929AA206000591AY151061AY221061GF108991081071000751999999IA1129KA1240M+02761KA2120N+02281MA1999999095261MD1310141+0011MW1501REMSYN136AAXX  03121 76393 01110 80702 10230 20222 39526 40085 53014 69951 75052 887// 91155 333 0/399 10276 20228 33/// 30220 58001 69907 70346;
0234763930999992010070315004+25733-100300FM-12+051599999V0200901N001010012019N0010001N1+02381+02271100991ADDAA103000291AY151031AY221031GA1081+001201071GF108991081071001501999999IA1129MA1999999095391MD1310131+0021MW1501REMSYN112AAXX  03151 76393 21210 80901 10238 20227 39539 40099 53013 75052 887// 91455 333 0/399 33/// 58002 69927 88704;
0297763930999992010070318004+25733-100300FM-12+051599999V0201201N003010051019N0020001N1+02721+02311100941ADDAA103000991AY121061AY221061GA1081+005101061GF108991081051004501999999IA1099KA1120M+02821KA2240N+02281MA1999999095351MD1710041+0021MW1501REMSYN130AAXX  03181 76393 01420 81203 10272 20231 39535 40094 57004 69921 75022 885// 91750 333 0/399 10282 20228 31/// 58002 69997 88617;EQDQ01  00002PRCP06
0217763930999992010070321004+25733-100300FM-12+051599999V0200901N001010060019N0020001N1+02821+02331100801ADDAY121031AY221031GA1081+006001061GF108991081051008001999999IA1099MA1999999095241MD1710111+0051MW1051REMSYN106AAXX  03211 76393 31520 80901 10282 20233 39524 40080 57011 70522 885// 92050 333 0/399 31/// 58005 88620;
0161763930999992010070400004+25733-100300FM-12+051599999V0200901N001010042019N0030001N1+02801+02401100631ADDAY141061AY221061GF108991081051004501999999MA1999999095101MD1210141+9999MW1051REMSYN072AAXX  04001 76393 31430 80901 10280 20240 39510 40063 52014 70542 885//;
0306763930999992010070412004+25733-100300FM-12+051599999V0201101N002010009019N0005001N1+02381+02301100751ADDAA103001091AA206001091AA324010991AY151061AY251061GA1081+000901071GF108991081061000751999999IA1019KA1240M+02501KA2120N+02321MA1999999095191MD1210031-0071MW1501REMSYN136AAXX  04121 76393 01105 81102 10238 20230 39519 40075 52003 60011 75055 886// 91155 333 0/3// 10250 20232 30220 59007 60017 70109 88703;
0217763930999992010070415004+25733-100300FM-12+051599999V0201201N001010018019N0005001N1+02481+02321100851ADDAY121031AY221031GA1081+001801071GF108991081061001501999999IA1099MA1999999095281MD1210091-0111MW1051REMSYN106AAXX  04151 76393 31205 81201 10248 20232 39528 40085 52009 70522 886// 91455 333 0/3// 31/// 59011 88706;
0161763930999992010070418004+25733-100300FM-12+051599999V0201101N001010042019N0010001N1+02781+02351100911ADDAY121061AY221061GF108991081051004501999999MA1999999095341MD1210061+9999MW1051REMSYN072AAXX  04181 76393 31410 81101 10278 20235 39534 40091 52006 70522 885//;
0217763930999992010070421004+25733-100300FM-12+051599999V0201401N001010087019N0020001N1+03081+02381100741ADDAY121031AY221031GA1081+008701061GF108991081051008001999999IA1099MA1999999095201MD1710141-0041MW1051REMSYN106AAXX  04211 76393 31520 81401 10308 20238 39520 40074 57014 70522 885// 92050 333 0/3// 31/// 59004 88629;
0161763930999992010070500004+25733-100300FM-12+051599999V0201001N001010075019N0020001N1+03021+02341100591ADDAY141061AY211061GF106991061051008001999999MA1999999095091MD1710111+9999MW1051REMSYN072AAXX  05001 76393 31520 61001 10302 20234 39509 40059 57011 70541 865//;
0240763930999992010070503004+25733-100300FM-12+051599999V0201101N00201001201CN0010001N1+02601+02441100721ADDAA103001091AY151031AY221031GA1041+002101071GF108991081061001501999999IA1119MA1999999095231MD1210141+0061MW1051REMSYN118AAXX  05031 76393 21210 81102 10260 20244 39523 40072 52014 70552 886// 90255 333 0/3// 32/// 58006 60017 84707 84613;
0279763930999992010070512004+25733-100300FM-12+051599999V0201201N003010012019N0010001N1+02321+02211100711ADDAA103002092AA206001092AY151061AY221061GF108991081071001501999999IA1119KA1240M+03221KA2120N+02241MA1999999095141MD1410001-0051MW1501REMSYN136AAXX  05121 76393 01210 81203 10232 20221 39514 40071 54005 60011 75052 887// 91155 333 0/399 10322 20224 32/// 30220 59005 60027 70052;
0234763930999992010070515004+25733-100300FM-12+051599999V0201101N001010024019N0020001N1+02461+02211100851ADDAA103000021AY151031AY221031GA1081+002401071GF108991081061002501999999IA1119MA1999999095271MD1310131-0011MW1501REMSYN112AAXX  05151 76393 21320 81101 10246 20221 39527 40085 53013 75052 886// 91455 333 0/399 32/// 59001 69907 88708;
0161763930999992010070518004+25733-100300FM-12+051599999V0200701N002010075019N0020001N1+02901+02301100771ADDAY141061AY221061GF106991061051008001001001MA1999999095201MD1710071+9999MW1051REMSYN072AAXX  05181 76393 31520 60702 10290 20230 39520 40077 57007 70542 86500;
0217763930999992010070521004+25733-100300FM-12+051599999V0201901N003010054019N0020001N1+02841+02411100591ADDAY141031AY221031GA1061+005401061GF106991061051004501001001IA1019MA1999999095061MD1710141-0141MW1051REMSYN106AAXX  05211 76393 31420 61903 10284 20241 39506 40059 57014 70542 86500 92050 333 0/300 30/// 59014 86618;
0161763930999992010070600004+25733-100300FM-12+051599999V0202901N001010021019N0020001N1+02461+02271100571ADDAY151061AY221061GF108991081061002501999999MA1999999095051MD1510011+9999MW1051REMSYN072AAXX  06001 76393 21320 82901 10246 20227 39505 40057 55001 70552 886//;
0306763930999992010070612004+25733-100300FM-12+051599999V0200701N001010006019N0010001N1+02241+02181100781ADDAA103015091AA206026991AA324041791AY151061AY221061GA1081+000601071GF108991081071000751999999IA1019KA1240M+03141KA2120N+02201MA1999999095181MD1410001+0041MW1501REMSYN136AAXX  06121 76393 01110 80701 10224 20218 39518 40078 54000 60271 75052 887// 91155 333 0/399 10314 20220 30218 58004 60157 70417 88702;
0234763930999992010070615004+25733-100300FM-12+051599999V0200501N003010015019N0020001N1+02441+02301100921ADDAA103001091AY151031AY221031GA1081+001501071GF108991081071001501999999IA1129MA1999999095311MD1310131+0041MW1501REMSYN112AAXX  06151 76393 21220 80503 10244 20230 39531 40092 53013 75052 887// 91455 333 0/399 33/// 58004 60017 88705;
0161763930999992010070618004+25733-100300FM-12+051599999V0201101N003010075019N0030001N1+02601+02181100921ADDAY141061AY221061GF108991081051008001999999MA1999999095331MD1210021+9999MW1051REMSYN072AAXX  06181 76393 31530 81103 10260 20218 39533 40092 52002 70542 885//;
0217763930999992010070621004+25733-100300FM-12+051599999V0201101N003010096019N0050001N1+02961+02191100721ADDAY141031AY221031GA1051+009601061GF105991051051012501001001IA1099MA1999999095161MD1710171+0101MW1051REMSYN106AAXX  06211 76393 31650 51103 10296 20219 39516 40072 57017 70542 85500 92050 333 0/300 31/// 58010 85632;
0273763930999992010070712004+25733-100300FM-12+051599999V0200501N001010006019N0010001N1+02281+02201100941ADDAA106001091AA224030891AY141061AY221061GF108991081061000751999999KA1240M+03051KA2120N+02181MA1999999095331MD1410001+0151MW1051REMSYN136AAXX  07121 76393 11110 80501 10228 20220 39533 40094 54003 60011 70542 886// 91155 333 0/399 10305 20218 20218 30210 58015 70308 88703;
0217763930999992010070715004+25733-100300FM-12+051599999V0200501N001012200019N0020001N1+02561+02231101081ADDAY141031AY211031GA1041+003301061GF104991041051004501001001IA1099MA1999999095471MD1310141+0161MW1051REMSYN106AAXX  07151 76393 31420 40501 10256 20223 39547 40108 53014 70541 84500 91455 333 0/300 31/// 58016 84611;
0161763930999992010070718004+25733-100300FM-12+051599999V0201101N003010075019N0030001N1+02901+02151101131ADDAY141061AY221061GF105991051051008001001001MA1999999095531MD1210061+9999MW1051REMSYN072AAXX  07181 76393 31530 51103 10290 20215 39553 40113 52006 70542 85500;
0217763930999992010070721004+25733-100300FM-12+051599999V0201101N001012200019N0030001N1+03081+02081100951ADDAY141031AY201031GA1041+012301061GF104991041051012501001001IA1099MA1999999095391MD1210141+0231MW1051REMSYN106AAXX  07211 76393 31630 41101 10308 20208 39539 40095 52014 70540 84500 92050 333 0/300 31/// 58023 84641;
0161763930999992010070812004+25733-100300FM-12+051599999V0202001N001012200019N0040001N1+02401+02231101051ADDAY141061AY211061GF103991021001022501031041MA1999999095471MD1410001+9999MW1051REMSYN072AAXX  08121 76393 31840 32001 10240 20223 39547 40105 54000 70541 82034;
0217763930999992010070815004+25733-100300FM-12+051599999V0200801N002012200019N0020001N1+02721+02191101131ADDAY141031AY201031GA1021+005401061GF103991021051004501031001IA1019MA1999999095541MD1410001+0071MW1051REMSYN106AAXX  08151 76393 31420 30802 10272 20219 39554 40113 54007 70540 82530 91455 333 0/350 30/// 58007 82618;
0161763930999992010070818004+25733-100300FM-12+051599999V0200501N001010120019N0040001N1+03141+02181101021ADDAY121061AY221061GF106991061021012501001001MA1999999095471MD1710071+9999MW1051REMSYN072AAXX  08181 76393 31640 60501 10314 20218 39547 40102 57007 70522 86200;
0234763930999992010070821004+25733-100300FM-12+051599999V0200401N005010045019N0040001N1+02861+02111100881ADDAA103000991AY121031AY221031GA1081+004501061GF108991081061004501999999IA1099MA1999999095351MD1710121-0041MW1501REMSYN112AAXX  08211 76393 21440 80405 10286 20211 39535 40088 57012 75022 886// 92050 333 0/8// 31/// 59004 69997 88615;
0312763930999992010070900004+25733-100300FM-12+051599999V0202501N001010027019N0030001N1+02401+02181100921ADDAA103002091AA206002091AA324002091AY151061AY221061GA1081+002701071GF108991081061002501999999IA1099KA1120M+03201KA2180N+02321MA1999999095401MD1210051+0081MW1051REMSYN142AAXX  09001 76393 01330 82501 10240 20218 39540 40092 52005 60021 70552 886// 92355 333 0/3// 10320 20232 31/// 50481 58008 60027 70020 88709;
0263763930999992010070912004+25733-100300FM-12+051599999V0201801N001012200019N0100001N1+02321+02151101081ADDAA124004891GA1999+000151999GF104991011041001501041001IA1019KA1240M+03201KA2120N+02281MA1999999095481MD1310101+0011REMSYN118AAXX  09121 76393 32260 41801 10232 20215 39548 40108 53010 81440 91155 333 0/350 10320 20228 30218 58001 70048 80606;EQDQ01    003SCCGA1
0217763930999992010070915004+25733-100300FM-12+051599999V0201301N002010045019N0030001N1+02641+02201101251ADDAY141031AY211031GA1071+004501061GF107991071051004501999999IA1019MA1999999095641MD1310161+0101MW1051REMSYN106AAXX  09151 76393 31430 71302 10264 20220 39564 40125 53016 70541 875// 91455 333 0/399 30/// 58010 87615;
0161763930999992010070918004+25733-100300FM-12+051599999V0201101N004010075019N0040001N1+02921+02231101221ADDAY141061AY241061GF108991081051008001999999MA1999999095641MD1410001+9999MW1051REMSYN072AAXX  09181 76393 31540 81104 10292 20223 39564 40122 54000 70544 885//;
0234763930999992010070921004+25733-100300FM-12+051599999V0201101N007010102019N0050001N1+03061+02241101011ADDAA103000491AY121031AY221031GA1051+010201081GF107991051021012501031011IA1099MA1999999095461MD1710181+0111MW1051REMSYN112AAXX  09211 76393 21650 71107 10306 20224 39546 40101 57018 70522 85231 92055 333 04355 31/// 58011 69947 85834;
0301763930999992010071000004+25733-100300FM-12+051599999V0201301N00401007501CN0050001N1+03001+02201100931ADDAA106000591AA224005291AY141061AY211061GA1021+009901081GF106991061021008001999999IA1019KA1120M+03161KA2180N+02281MA1999999095421MD1510041+0021MW1051REMSYN142AAXX  10001 76393 11550 61304 10300 20220 39542 40093 55004 69941 70541 862// 92355 333 0/3// 10316 20228 30/// 50661 58002 70052 82833 84635;
0161763930999992010071012004+25733-100300FM-12+051599999V0201301N002010012019N0020001N1+02341+02171101421ADDAY141061AY221061GF108991081061001501999999MA1999999095811MD1410001+9999MW1051REMSYN072AAXX  10121 76393 31220 81302 10234 20217 39581 40142 54006 70542 886//;
0217763930999992010071015004+25733-100300FM-12+051599999V0200701N002010039019N0020001N1+02561+02171101621ADDAY141031AY211031GA1061+003901061GF106991061061004501001001IA1099MA1999999096001MD1210191+0361MW1051REMSYN106AAXX  10151 76393 31420 60702 10256 20217 39600 40162 52019 70541 86600 91455 333 0/300 31/// 58036 86613;
0161763930999992010071018004+25733-100300FM-12+051599999V0200901N006010120019N0030001N1+03021+02101101571ADDAY121061AY221061GF106991061021012501001001MA1999999095961MD1710041+9999MW1051REMSYN072AAXX  10181 76393 31630 60906 10302 20210 39596 40157 57004 70522 86200;
0217763930999992010071021004+25733-100300FM-12+051599999V0201301N007010135019N0050001N1+03181+02101101361ADDAY121031AY221031GA1071+013501081GF107991071021012501999999IA1019MA1999999095801MD1710161+0341MW1051REMSYN106AAXX  10211 76393 31650 71307 10318 20210 39580 40136 57016 70522 872// 92040 333 043// 30/// 58034 87845;
0161763930999992010071100004+25733-100300FM-12+051599999V0201201N004012200019N0050001N1+03061+02151101131ADDAY141061AY211061GF104991041051012501001001MA1999999095621MD1710181+9999MW1051REMSYN072AAXX  11001 76393 31650 41204 10306 20215 39562 40113 57018 70541 84500;
0217763930999992010071103004+25733-100300FM-12+051599999V0201101N004010072019N0030001N1+02781+02201101151ADDAY141031AY211031GA1051+007201061GF105991051051008001001001IA1019MA1999999095651MD1010031+0011MW1051REMSYN106AAXX  11031 76393 31530 51104 10278 20220 39565 40115 50003 70541 85500 90255 333 0/300 30/// 58001 85624;
0161763930999992010071112004+25733-100300FM-12+051599999V0201301N001010042019N0040001N1+02421+02171101311ADDAY111061AY211061GF105991051041004501001001MA1999999095731MD1710041+9999MW1051REMSYN072AAXX  11121 76393 31440 51301 10242 20217 39573 40131 57004 70511 85400;
0189763930999992010071115004+25733-100300FM-12+051599999V0201001N001010060019N0030001N1+02721+02221101391ADDGA1071+006001081GF107991071021008001999999IA1019MA1999999095801MD1210071-0201REMSYN100AAXX  11151 76393 32530 71001 10272 20222 39580 40139 52007 872// 91440 333 053// 30/// 59020 87820;
0161763930999992010071118004+25733-100300FM-12+051599999V0200701N002012200019N0030001N1+02961+02161101341ADDAY141061AY201061GF104991041051008001001001MA1999999095771MD1710031+9999MW1051REMSYN072AAXX  11181 76393 31530 40702 10296 20216 39577 40134 57003 70540 84500;
0217763930999992010071121004+25733-100300FM-12+051599999V0201301N006012200019N0050001N1+03161+02101101071ADDAY141031AY201031GA1041+013201061GF104991041051012501001001IA1019MA1999999095541MD1710231-0261MW1051REMSYN106AAXX  11211 76393 31650 41306 10316 20210 39554 40107 57023 70540 84500 92050 333 0/300 30/// 59026 84644;
0161763930999992010071200004+25733-100300FM-12+051599999V0201501N003012200019N0080001N1+03141+02351100811ADDAY141061AY211061GF103991031051008001001001MA1999999095331MD1710211+9999MW1051REMSYN072AAXX  12001 76393 31558 31503 10314 20235 39533 40081 57021 70541 83500;
0161763930999992010071212004+25733-100300FM-12+051599999V0201001N001010042019N0020001N1+02481+02141100931ADDAY141061AY221061GF108991081051004501999999MA1999999095391MD1410001+9999MW1051REMSYN072AAXX  12121 76393 31420 81001 10248 20214 39539 40093 54001 70542 885//;
0217763930999992010071215004+25733-100300FM-12+051599999V0200601N001012200019N0010001N1+02721+02161101021ADDAY141031AY201031GA1031+005701061GF103991031051004501001001IA1019MA1999999095451MD1410001-0351MW1051REMSYN106AAXX  12151 76393 31410 30601 10272 20216 39545 40102 54006 70540 83500 91455 333 0/300 30/// 59035 83619;
0161763930999992010071218004+25733-100300FM-12+051599999V0201101N002012200019N0020001N1+03081+02241100961ADDAY141061AY201061GF102991021051012501001001MA1999999095411MD1710041+9999MW1051REMSYN072AAXX  12181 76393 31620 21102 10308 20224 39541 40096 57004 70540 82500;
0217763930999992010071221004+25733-100300FM-12+051599999V0200901N002012200019N0030001N1+03401+02381100671ADDAY101031AY201031GA1021+012901081GF102991021011012501001001IA1019MA1999999095181MD1710231-0361MW1051REMSYN106AAXX  12211 76393 31630 20902 10340 20238 39518 40067 57023 70500 82100 92050 333 02300 30/// 59036 82843;
0161763930999992010071300004+25733-100300FM-12+051599999V0201201N004012200019N0050001N1+03381+02331100521ADDAY141061AY211061GF104991031051012501041999MA1999999095071MD1710111+9999MW1051REMSYN072AAXX  13001 76393 31650 41204 10338 20233 39507 40052 57011 70541 8354/;
0161763930999992010071312004+25733-100300FM-12+051599999V0209999C000010021019N0020001N1+02521+02241100871ADDAY141061AY221061GF108991081051002501999999MA1999999095341MD1410001+9999MW1051REMSYN072AAXX  13121 76393 31320 80000 10252 20224 39534 40087 54003 70542 885//;
0217763930999992010071315004+25733-100300FM-12+051599999V0203101N001010045019N0010001N1+02681+02241100981ADDAY141031AY211031GA1051+004501061GF105991051051004501001001IA1019MA1999999095431MD1410001-0021MW1051REMSYN106AAXX  13151 76393 31410 53101 10268 20224 39543 40098 54009 70541 85500 91455 333 0/300 30/// 59002 85615;
0161763930999992010071318004+25733-100300FM-12+051599999V0200901N003012200019N0010001N1+03061+02391100971ADDAY101061AY201061GF102991021001999999021001MA1999999095431MD1410001+9999MW1051REMSYN072AAXX  13181 76393 31910 20903 10306 20239 39543 40097 54000 70500 82020;
0217763930999992010071321004+25733-100300FM-12+051599999V0201201N003012200019N0020001N1+03421+02381100791ADDAY101031AY201031GA1031+012901081GF103991031021012501001001IA1019MA1999999095301MD1710131-0121MW1051REMSYN106AAXX  13211 76393 31620 31203 10342 20238 39530 40079 57013 70500 83200 92050 333 01300 30/// 59012 83843;
0161763930999992010071400004+25733-100300FM-12+051599999V0201401N006012200019N0040001N1+03421+02281100641ADDAY111061AY211061GF104991041021012501001001MA1999999095191MD1710111+9999MW1051REMSYN072AAXX  14001 76393 31640 41406 10342 20228 39519 40064 57011 70511 84200;
0217763930999992010071403004+25733-100300FM-12+051599999V0201201N006012200019N0020001N1+03021+02161100721ADDAY101031AY201031GA1011+010801061GF101991011051012501001001IA1019MA1999999095291MD1210101+0081MW1051REMSYN106AAXX  14031 76393 31620 11206 10302 20216 39529 40072 52010 70500 81500 90240 333 0/300 30/// 58008 81636;
0161763930999992010071412004+25733-100300FM-12+051599999V0201201N003010021019N0020001N1+02561+02311101201ADDAY141061AY221061GF108991081051002501999999MA1999999095671MD1410001+9999MW1051REMSYN072AAXX  14121 76393 31320 81203 10256 20231 39567 40120 54004 70542 885//;
0217763930999992010071415004+25733-100300FM-12+051599999V0201101N002010045019N0010001N1+02641+02281101391ADDAY121031AY221031GA1081+004501061GF108991081051004501999999IA1019MA1999999095831MD1210161+0401MW1051REMSYN106AAXX  14151 76393 31410 81102 10264 20228 39583 40139 52016 70522 885// 91440 333 0/399 30/// 58040 88615;
0161763930999992010071418004+25733-100300FM-12+051599999V0200701N003010120019N0030001N1+03101+02291101411ADDAY121061AY221061GF105991051051012501001001MA1999999095841MD1210011+9999MW1051REMSYN072AAXX  14181 76393 31630 50703 10310 20229 39584 40141 52001 70522 85500;
0217763930999992010071421004+25733-100300FM-12+051599999V0201201N005010150019N0030001N1+03401+02101101231ADDAY121031AY221031GA1051+015001061GF105991051051017501001001IA1019MA1999999095711MD1710131+0411MW1051REMSYN106AAXX  14211 76393 31730 51205 10340 20210 39571 40123 57013 70522 85500 92055 333 0/300 30/// 58041 85650;
0161763930999992010071500004+25733-100300FM-12+051599999V0201101N004012200019N0050001N1+03201+02181101141ADDAY141061AY201061GF104991041051012501001001MA1999999095661MD1610051+9999MW1051REMSYN072AAXX  15001 76393 31650 41104 10320 20218 39566 40114 56005 70540 84500;
0217763930999992010071503004+25733-100300FM-12+051599999V0201001N003012200019N0030001N1+03021+02071101151ADDAY141031AY201031GA1011+011701061GF101991011051012501001001IA1019MA1999999095681MD1110021+0391MW1051REMSYN106AAXX  15031 76393 31630 11003 10302 20207 39568 40115 51002 70540 81500 90255 333 0/300 30/// 58039 81639;
0161763930999992010071512004+25733-100300FM-12+051599999V0201201N003010021019N0020001N1+02501+02251101311ADDAY141061AY221061GF108991081051002501999999MA1999999095761MD1410001+9999MW1051REMSYN072AAXX  15121 76393 31320 81203 10250 20225 39576 40131 54001 70542 885//;
0217763930999992010071515004+25733-100300FM-12+051599999V0200901N001010033019N0020001N1+02541+02211101561ADDAY141031AY221031GA1081+003301061GF108991081051004501999999IA1019MA1999999095971MD1210211+0141MW1051REMSYN106AAXX  15151 76393 31420 80901 10254 20221 39597 40156 52021 70542 885// 91455 333 0/399 30/// 58014 88611;
0161763930999992010071518004+25733-100300FM-12+051599999V0200301N005010120019N0020001N1+03101+02221101561ADDAY121061AY221061GF105991051051012501001001MA1999999095981MD1210011+9999MW1051REMSYN072AAXX  15181 76393 31620 50305 10310 20222 39598 40156 52001 70522 85500;
0217763930999992010071521004+25733-100300FM-12+051599999V0201201N003012200019N0020001N1+03361+02181101311ADDAY101031AY201031GA1041+014401081GF104991041011012501001001IA1019MA1999999095781MD1710201+0071MW1051REMSYN106AAXX  15211 76393 31620 41203 10336 20218 39578 40131 57020 70500 84100 92045 333 00300 30/// 58007 84848;
0161763930999992010071600004+25733-100300FM-12+051599999V0201201N004010120019N0030001N1+03281+02251101171ADDAY141061AY211061GF105991051051012501001001MA1999999095681MD1710101+9999MW1051REMSYN072AAXX  16001 76393 31630 51204 10328 20225 39568 40117 57010 70541 85500;
0161763930999992010071612004+25733-100300FM-12+051599999V0200601N001010012019N0010001N1+02441+02271101401ADDAY141061AY211061GF106991061051001501001001MA1999999095841MD1410001+9999MW1051REMSYN072AAXX  16121 76393 31210 60601 10244 20227 39584 40140 54007 70541 86500;
0217763930999992010071615004+25733-100300FM-12+051599999V0200501N001010033019N0010001N1+02601+02271101581ADDAY141031AY211031GA1051+003301061GF105991051051004501001001IA1019MA1999999095991MD1310151+0021MW1051REMSYN106AAXX  16151 76393 31410 50501 10260 20227 39599 40158 53015 70541 85500 91455 333 0/300 30/// 58002 85611;
0161763930999992010071618004+25733-100300FM-12+051599999V0200701N001012200019N0020001N1+03141+02271101471ADDAY101061AY201061GF103991031051012501001001MA1999999095891MD1710101+9999MW1051REMSYN072AAXX  16181 76393 31620 30701 10314 20227 39589 40147 57010 70500 83500;
0217763930999992010071621004+25733-100300FM-12+051599999V0201101N005010135019N0020001N1+03301+02211101331ADDAY121031AY221031GA1051+013501061GF105991051051012501001001IA1019MA1999999095791MD1710101+0011MW1051REMSYN106AAXX  16211 76393 31620 51105 10330 20221 39579 40133 57010 70522 85500 92055 333 0/300 30/// 58001 85645;
0161763930999992010071700004+25733-100300FM-12+051599999V0201201N004010120019N0030001N1+03201+02181101181ADDAY141061AY211061GF105991051021012501001001MA1999999095681MD1710111+9999MW1051REMSYN072AAXX  17001 76393 31630 51204 10320 20218 39568 40118 57011 70541 85200;
0161763930999992010071712004+25733-100300FM-12+051599999V0200601N001010021019N0010001N1+02481+02231101411ADDAY141061AY221061GF108991081051002501999999MA1999999095851MD1410001+9999MW1051REMSYN072AAXX  17121 76393 31310 80601 10248 20223 39585 40141 54001 70542 885//;
0217763930999992010071715004+25733-100300FM-12+051599999V0200601N001010060019N0010001N1+02821+02211101601ADDAY141031AY211031GA1051+006001061GF105991051051008001001001IA1019MA1999999096001MD1210151+0011MW1051REMSYN106AAXX  17151 76393 31510 50601 10282 20221 39600 40160 52015 70541 85500 91455 333 0/300 30/// 58001 85620;
0161763930999992010071718004+25733-100300FM-12+051599999V0200901N002012200019N0030001N1+03221+02181101531ADDAY141061AY241061GF103991031021012501001001MA1999999095951MD1010051+9999MW1051REMSYN072AAXX  17181 76393 31630 30902 10322 20218 39595 40153 50005 70544 83200;
0217763930999992010071721004+25733-100300FM-12+051599999V0201001N006012200019N0030001N1+03361+01951101341ADDAY141031AY241031GA1041+018001081GF104991041021017501001001IA1019MA1999999095811MD1710141+0021MW1051REMSYN106AAXX  17211 76393 31730 41006 10336 20195 39581 40134 57014 70544 84200 92030 333 0/300 30/// 58002 84856;
0161763930999992010071800004+25733-100300FM-12+051599999V0201301N004012200019N0050001N1+03181+02061101191ADDAY141061AY211061GF103991031051012501001001MA1999999095701MD1710111+9999MW1051REMSYN072AAXX  18001 76393 31650 31304 10318 20206 39570 40119 57011 70541 83500;
0161763930999992010071812004+25733-100300FM-12+051599999V0209999C000012200019N0020001N1+02441+02191101371ADDAY141061AY241061GF104991041041004501001001MA1999999095811MD1310011+9999MW1051REMSYN072AAXX  18121 76393 31420 40000 10244 20219 39581 40137 53001 70544 84400;
0217763930999992010071815004+25733-100300FM-12+051599999V0200301N001010057019N0020001N1+02621+02171101541ADDAY141031AY241031GA1071+005701071GF107991071061004501999999IA1019MA1999999095951MD1210141-0051MW1051REMSYN106AAXX  18151 76393 31420 70301 10262 20217 39595 40154 52014 70544 876// 91440 333 0/399 30/// 59005 87719;
0161763930999992010071818004+25733-100300FM-12+051599999V0200601N002012200019N0020001N1+03161+02141101441ADDAY101061AY201061GF103991031011012501001001MA1999999095861MD1710091+9999MW1051REMSYN072AAXX  18181 76393 31620 30602 10316 20214 39586 40144 57009 70500 83100;
0217763930999992010071821004+25733-100300FM-12+051599999V0201301N004010180019N0030001N1+03381+02041101191ADDAY111031AY211031GA1051+018001081GF105991051011017501001001IA1019MA1999999095661MD1710201-0151MW1051REMSYN106AAXX  18211 76393 31730 51304 10338 20204 39566 40119 57020 70511 85100 92050 333 00300 30/// 59015 85856;
0161763930999992010071900004+25733-100300FM-12+051599999V0201201N003012200019N0050001N1+03221+02081101061ADDAY141061AY201061GF102991021051012501001001MA1999999095581MD1710081+9999MW1051REMSYN072AAXX  19001 76393 31650 21203 10322 20208 39558 40106 57008 70540 82500;
0217763930999992010071903004+25733-100300FM-12+051599999V0201201N003012200019N0030001N1+03001+02081101141ADDAY141031AY201031GA1031+011401061GF103991031051012501001001IA1019MA1999999095681MD1210101-0171MW1051REMSYN106AAXX  19031 76393 31630 31203 10300 20208 39568 40114 52010 70540 83500 90250 333 0/300 30/// 59017 83638;
0161763930999992010071912004+25733-100300FM-12+051599999V0200901N001010021019N0030001N1+02521+02241101241ADDAY141061AY221061GF108991081061002501999999MA1999999095691MD1410001+9999MW1051REMSYN072AAXX  19121 76393 31330 80901 10252 20224 39569 40124 54003 70542 886//;
0217763930999992010071915004+25733-100300FM-12+051599999V0200901N002010042019N0020001N1+02681+02271101391ADDAY141031AY211031GA1061+004201061GF106991061051004501001001IA1019MA1999999095811MD1310121-0141MW1051REMSYN106AAXX  19151 76393 31420 60902 10268 20227 39581 40139 53012 70541 86500 91455 333 0/300 30/// 59014 86614;
0161763930999992010071918004+25733-100300FM-12+051599999V0201201N003012200019N0030001N1+03121+02281101271ADDAY101061AY201061GF103991031051012501001001MA1999999095711MD1710101+9999MW1051REMSYN072AAXX  19181 76393 31630 31203 10312 20228 39571 40127 57010 70500 83500;
0217763930999992010071921004+25733-100300FM-12+051599999V0201201N003010138019N0040001N1+03301+02181101091ADDAY141031AY221031GA1051+013801061GF105991051051012501001001IA1019MA1999999095571MD1710141-0091MW1051REMSYN106AAXX  19211 76393 31640 51203 10330 20218 39557 40109 57014 70542 85500 92050 333 0/300 30/// 59009 85646;
0161763930999992010072000004+25733-100300FM-12+051599999V0201201N004010120019N0060001N1+03101+02161100981ADDAY141061AY211061GF105991051051012501001001MA1999999095501MD1510071+9999MW1051REMSYN072AAXX  20001 76393 31656 51204 10310 20216 39550 40098 55007 70541 85500;
0161763930999992010072012004+25733-100300FM-12+051599999V0201201N002010021019N0020001N1+02481+02201101161ADDAY141061AY221061GF108991081051002501999999MA1999999095601MD1410001+9999MW1051REMSYN072AAXX  20121 76393 31320 81202 10248 20220 39560 40116 54004 70542 885//;
0161763930999992010072018004+25733-100300FM-12+051599999V0201101N005010120019N0040001N1+03021+02191101401ADDAY141061AY221061GF105991051051012501001001MA1999999095821MD1210021+9999MW1051REMSYN072AAXX  20181 76393 31640 51105 10302 20219 39582 40140 52002 70542 85500;
0217763930999992010072021004+25733-100300FM-12+051599999V0201101N005010144019N0040001N1+03361+02181101231ADDAY141031AY221031GA1051+014401061GF105991051051012501001001IA1019MA1999999095701MD1710121+0131MW1051REMSYN106AAXX  20211 76393 31640 51105 10336 20218 39570 40123 57012 70542 85500 92050 333 0/300 30/// 58013 85648;
0161763930999992010072100004+25733-100300FM-12+051599999V0201301N003012200019N0040001N1+03181+02061101091ADDAY141061AY241061GF104991041021012501001001MA1999999095611MD1710091+9999MW1051REMSYN072AAXX  21001 76393 31640 41303 10318 20206 39561 40109 57009 70544 84200;
0217763930999992010072103004+25733-100300FM-12+051599999V0201201N003012200019N0030001N1+02841+02171101151ADDAY141031AY241031GA1031+008401061GF103991031041008001001001IA1019MA1999999095671MD1210061+0061MW1051REMSYN106AAXX  21031 76393 31530 31203 10284 20217 39567 40115 52006 70544 83400 90240 333 0/300 30/// 58006 83628;
0161763930999992010072112004+25733-100300FM-12+051599999V0201201N003010021019N0020001N1+02461+02241101391ADDAY141061AY221061GF108991081051002501999999MA1999999095811MD1410001+9999MW1051REMSYN072AAXX  21121 76393 31320 81203 10246 20224 39581 40139 54004 70542 885//;
0217763930999992010072115004+25733-100300FM-12+051599999V0200901N002010042019N0020001N1+02601+02181101561ADDAY141031AY211031GA1051+004201061GF106991051051004501001091IA1019MA1999999095961MD1210151+0161MW1051REMSYN106AAXX  21151 76393 31420 60902 10260 20218 39596 40156 52015 70541 85509 91455 333 0/305 30/// 58016 85614;
0161763930999992010072118004+25733-100300FM-12+051599999V0201101N005012200019N0040001N1+03081+02171101501ADDAY111061AY211061GF104991041021012501001001MA1999999095911MD1710051+9999MW1051REMSYN072AAXX  21181 76393 31640 41105 10308 20217 39591 40150 57005 70511 84200;
0223763930999992010072121004+25733-100300FM-12+051599999V0201201N00501015001CN0040001N1+03341+02061101271ADDAY121031AY221031GA1021+015001061GF106991061021017501001001IA1019MA1999999095741MD1710171+0041MW1051REMSYN112AAXX  21211 76393 31740 61205 10334 20206 39574 40127 57017 70522 86200 92050 333 03300 30/// 58004 82650 84856;
0336763930999992010072200004+25733-100300FM-12+051599999V0201601N00201012001CN0040001N1+03041+02091101161ADDAA106000091AA224000091AY141061AY211061GA1021+011701081GF106991061021012501001001IA1019KA1120M+03381KA2180N+02401MA1999999095661MD1510081+0051MW1051REMSYN142AAXX  22001 76393 11640 61602 10304 20209 39566 40116 55008 69901 70541 86200 92355 333 01300 10338 20240 30/// 50691 58005 79999 82839 84641;EQDQ01  00002PRCP06Q02  00002PRCP24
0253763930999992010072203004+25733-100300FM-12+051599999V0201101N002012200019N0020001N1+02741+02101101231ADDAA103000091AY141031AY201031GA1031+007801061GF103991031051008001001001IA1019MA1999999095741MD1210081+0071MW1051REMSYN112AAXX  22031 76393 21520 31102 10274 20210 39574 40123 52008 70540 83500 90250 333 0/300 30/// 58007 69907 83626;EQDQ01  00002PRCP03
0161763930999992010072212004+25733-100300FM-12+051599999V0201201N003010012019N0020001N1+02421+02231101341ADDAY141061AY221061GF108991081061001501999999MA1999999095771MD1410001+9999MW1051REMSYN072AAXX  22121 76393 31220 81203 10242 20223 39577 40134 54004 70542 886//;
0217763930999992010072215004+25733-100300FM-12+051599999V0200501N002012200019N0030001N1+02561+02171101471ADDAY141031AY211031GA1031+003901061GF104991031051004501001091IA1019MA1999999095881MD1310111-0081MW1051REMSYN106AAXX  22151 76393 31430 40502 10256 20217 39588 40147 53011 70541 83509 91455 333 0/305 30/// 59008 83613;
0161763930999992010072218004+25733-100300FM-12+051599999V0200701N004010075019N0040001N1+03041+02281101441ADDAY121061AY221061GF107991051021008001041081MA1999999095861MD1710021+9999MW1051REMSYN072AAXX  22181 76393 31540 70704 10304 20228 39586 40144 57002 70522 85248;
0217763930999992010072221004+25733-100300FM-12+051599999V0201101N005012200019N0050001N1+03281+02151101151ADDAY121031AY221031GA1031+014101081GF105991031021012501001081IA1019MA1999999095621MD1710241-0121MW1051REMSYN106AAXX  22211 76393 31650 51105 10328 20215 39562 40115 57024 70522 83208 92050 333 01305 30/// 59012 83847;
0244763930999992010072312004+25733-100300FM-12+051599999V0201501N001010030019N0100001N1+02421+02111101271ADDAA124008091GA1071+003001061GF107991071051004501999999IA1019KA1240M+03341KA2120N+02341MA1999999095681MD1410001-0091REMSYN118AAXX  23121 76393 32460 71501 10242 20211 39568 40127 54004 875// 91155 333 0/399 10334 20234 30224 59009 70080 87610;
0234763930999992010072315004+25733-100300FM-12+051599999V0200901N003010015019N0020001N1+02321+02181101531ADDAA103011091AY161031AY221031GA1081+001501071GF108991081061001501999999IA1119MA1999999095921MD1210241+0041MW1641REMSYN112AAXX  23151 76393 21220 80903 10232 20218 39592 40153 52024 76462 886// 91455 333 0/399 32/// 58004 60117 88705;
0289763930999992010072318004+25733-100300FM-12+051599999V0203601N001010018019N0020001N1+02461+02321101481ADDAA103004091AA206015091AY151061AY221061GA1081+001801071GF108991081061001501999999IA1119KA1120M+02501KA2240N+02341MA1999999095871MD1710051+0011MW1501REMSYN130AAXX  23181 76393 01220 83601 10246 20232 39587 40148 57005 60151 75052 886// 91755 333 0/3// 10250 20234 32/// 58001 60047 88706;
0234763930999992010072321004+25733-100300FM-12+051599999V0200501N001010033019N0020001N1+02601+02331101301ADDAA103000991AY151031AY221031GA1081+003301061GF108991081051004501999999IA1119MA1999999095711MD1710161+0091MW1501REMSYN112AAXX  23211 76393 21420 80501 10260 20233 39571 40130 57016 75052 885// 92050 333 0/3// 32/// 58009 69997 88611;
0318763930999992010072400004+25733-100300FM-12+051599999V0201001N00201001201CN0020001N1+02461+02301101271ADDAA103001091AA206001091AA324024291AY151061AY211061GA1041+002101071GF108991081061001501999999IA1099KA1120M+02781KA2180N+02341MA1999999095681MD1510031+0081MW1051REMSYN148AAXX  24001 76393 01220 81002 10246 20230 39568 40127 55003 60011 70551 886// 92355 333 0/399 10278 20234 31/// 51061 58008 60017 70242 84707 84610;
0161763930999992010072412004+25733-100300FM-12+051599999V0200901N002010003019N0020001N1+02301+02271101431ADDAY161061AY221061GF108991081061000251999999MA1999999095811MD1410001+9999MW1601REMSYN072AAXX  24121 76393 21020 80902 10230 20227 39581 40143 54004 76062 886//;
0234763930999992010072415004+25733-100300FM-12+051599999V0200901N002010012019N0010001N1+02401+02291101531ADDAA103006091AY151031AY221031GA1081+001201071GF108991081071001501999999IA1119MA1999999095901MD1410001-0021MW1501REMSYN112AAXX  24151 76393 21210 80902 10240 20229 39590 40153 54009 75052 887// 91455 333 0/399 32/// 59002 60067 88704;
0289763930999992010072418004+25733-100300FM-12+051599999V0200901N005010063019N0040001N1+02761+02241101571ADDAA103999929AA206003091AY121061AY221061GA1061+006301061GF106991061051008001001001IA1099KA1120M+02821KA2240N+02281MA1999999095951MD1210051+0081MW1051REMSYN130AAXX  24181 76393 01540 60905 10276 20224 39595 40157 52005 60031 70522 86500 91750 333 0/300 10282 20228 31/// 58008 69907 86621;
0206763930999992010072421004+25733-100300FM-12+051599999V0201201N006010078019N0040001N1+02901+02271101371ADDAA103002091GA1071+007801081GF107991071021008001999999IA1099MA1999999095781MD1710171+0071REMSYN106AAXX  24211 76393 22540 71206 10290 20227 39578 40137 57017 872// 92040 333 0/7// 31/// 58007 60027 87826;
0295763930999992010072500004+25733-100300FM-12+051599999V0201301N004012200019N0050001N1+02841+01891101261ADDAA106002091AA224021691AY141061AY211061GA1041+011701061GF104991041051012501001001IA1099KA1120M+02971KA2180N+02281MA1999999095701MD1710081+0021MW1051REMSYN136AAXX  25001 76393 11650 41304 10284 20189 39570 40126 57008 60021 70541 84500 92355 333 0/300 10297 20228 31/// 50541 58002 70216 84639;
0161763930999992010072512004+25733-100300FM-12+051599999V0209999C000012200019N0020001N1+02241+02101101481ADDAY101061AY201061GF104991041061001501001001MA1999999095851MD1210021+9999MW1051REMSYN072AAXX  25121 76393 31220 40000 10224 20210 39585 40148 52002 70500 84600;
0217763930999992010072515004+25733-100300FM-12+051599999V0201801N001012200019N0020001N1+02521+02101101651ADDAY101031AY201031GA1041+005101061GF104991041051004501001001IA1019MA1999999096001MD1210151+0101MW1041REMSYN106AAXX  25151 76393 31420 41801 10252 20210 39600 40165 52015 70400 84500 91450 333 0/300 30/// 58010 84617;
0161763930999992010072518004+25733-100300FM-12+051599999V0201001N005010075019N0030001N1+02861+02071101581ADDAY121061AY221061GF107991061021008001041999MA1999999095961MD1710041+9999MW1051REMSYN072AAXX  25181 76393 31530 71005 10286 20207 39596 40158 57004 70522 8624/;
0240763930999992010072521004+25733-100300FM-12+051599999V0201201N003010057019N0030001N1+02781+02321101401ADDAA103000491AY121031AY221031GA1071+005701081GF108991071021004501001011IA1099MA1999999095811MD1710151+0031MW1501REMSYN118AAXX  25211 76393 21430 81203 10278 20232 39581 40140 57015 75022 87201 92040 333 07705 31/// 58003 69947 87819 81070;
0312763930999992010072600004+25733-100300FM-12+051599999V0201201N001010033019N0030001N1+02501+02221101341ADDAA103003091AA206003091AA324003291AY151061AY211061GA1081+003301061GF108991081051004501999999IA1099KA1120M+03041KA2180N+02201MA1999999095771MD1510041+0071MW1051REMSYN142AAXX  26001 76393 01430 81201 10250 20222 39577 40134 55004 60031 70551 885// 92355 333 0/399 10304 20220 31/// 50361 58007 60037 70032 88611;
0217763930999992010072603004+25733-100300FM-12+051599999V0201301N002012200019N0020001N1+02341+02111101401ADDAY141031AY211031GA1031+002701061GF103991031051002501001001IA1099MA1999999095831MD1210061-0011MW1051REMSYN106AAXX  26031 76393 31320 31302 10234 20211 39583 40140 52006 70541 83500 90255 333 0/399 31/// 59001 83609;
0161763930999992010072612004+25733-100300FM-12+051599999V0200601N001010012019N0020001N1+02281+02111101431ADDAY141061AY221061GF107991071051001501999999MA1999999095831MD1310051+9999MW1051REMSYN072AAXX  26121 76393 31220 70601 10228 20211 39583 40143 53005 70542 875//;
0217763930999992010072615004+25733-100300FM-12+051599999V0202901N001010033019N0010001N1+02441+02101101491ADDAY141031AY211031GA1071+003301061GF107991071051004501999999IA1019MA1999999095851MD1410001-0151MW1051REMSYN106AAXX  26151 76393 31410 72901 10244 20210 39585 40149 54002 70541 875// 91450 333 0/399 30/// 59015 87611;
0161763930999992010072618004+25733-100300FM-12+051599999V0201201N003010075019N0020001N1+02761+02121101481ADDAY141061AY221061GF108991081051008001999999MA1999999095871MD1210021+9999MW1051REMSYN072AAXX  26181 76393 31520 81203 10276 20212 39587 40148 52002 70542 885//;
0234763930999992010072621004+25733-100300FM-12+051599999V0201201N005010090019N0030001N1+02861+02131101261ADDAA103000991AY141031AY221031GA1081+009001061GF108991081051008001999999IA1019MA1999999095681MD1710191-0131MW1051REMSYN112AAXX  26211 76393 21530 81205 10286 20213 39568 40126 57019 70542 885// 92050 333 0/3// 30/// 59013 69997 88630;
0312763930999992010072700004+25733-100300FM-12+051599999V0201701N001010024019N0020001N1+02501+02311101111ADDAA103006091AA206006191AA324009291AY151061AY211061GA1081+002401061GF108991081051002501999999IA1099KA1120M+02941KA2180N+02201MA1999999095561MD1710121-0211MW1051REMSYN142AAXX  27001 76393 01320 81701 10250 20231 39556 40111 57012 60061 70551 885// 92355 333 0/399 10294 20220 31/// 50601 59021 60067 70092 88608;
0308763930999992010072712004+25733-100300FM-12+051599999V0200901N001010012019N0020001N1+02261+02151101321ADDAA106000091AA224015691AY141061AY221061GA1081+001201071GF108991081061001501999999IA1019KA1240M+02941KA2120N+02221MA1999999095701MD1410001-0131MW1051REMSYN130AAXX  27121 76393 11220 80901 10226 20215 39570 40132 54003 69901 70542 886// 91155 333 0/399 10294 20222 30220 59013 70156 88704;EQDQ01  00002PRCP06
0217763930999992010072715004+25733-100300FM-12+051599999V0201301N002010036019N0020001N1+02501+02131101461ADDAY141031AY211031GA1061+003601061GF106991061051004501001001IA1019MA1999999095831MD1310131-0021MW1051REMSYN106AAXX  27151 76393 31420 61302 10250 20213 39583 40146 53013 70541 86500 91455 333 0/300 30/// 59002 86612;
0161763930999992010072718004+25733-100300FM-12+051599999V0201201N002012200019N0030001N1+02961+02161101411ADDAY111061AY211061GF104991041011008001001001MA1999999095801MD1710031+9999MW1051REMSYN072AAXX  27181 76393 31530 41202 10296 20216 39580 40141 57003 70511 84100;
0223763930999992010072721004+25733-100300FM-12+051599999V0201201N00401012001CN0040001N1+03121+02281101201ADDAY121031AY221031GA1031+010201061GF106991061021012501001001IA1019MA1999999095631MD1710171-0051MW1051REMSYN112AAXX  27211 76393 31640 61204 10312 20228 39563 40120 57017 70522 86200 92050 333 07300 30/// 59005 83634 83838;
0161763930999992010072800004+25733-100300FM-12+051599999V0201401N005010120019N0040001N1+03101+02221101071ADDAY121061AY221061GF107991071021012501999999MA1999999095541MD1610091+9999MW1051REMSYN072AAXX  28001 76393 31640 71405 10310 20222 39554 40107 56009 70522 872//;
0234763930999992010072803004+25733-100300FM-12+051599999V0201301N001010030019N0030001N1+02581+02331101211ADDAA103003091AY121031AY221031GA1071+003001061GF107991071041004501999999IA1119MA1999999095711MD1210171+0121MW1501REMSYN112AAXX  28031 76393 21430 71301 10258 20233 39571 40121 52017 75022 874// 90240 333 0/3// 32/// 58012 60037 87610;
0308763930999992010072812004+25733-100300FM-12+051599999V0200901N001010015019N0010001N1+02401+02261101381ADDAA106000091AA224003291AY141061AY221061GA1081+001501061GF108991081051001501999999IA1019KA1240M+03221KA2120N+02301MA1999999095791MD1310091+0091MW1051REMSYN130AAXX  28121 76393 11210 80901 10240 20226 39579 40138 53009 69901 70542 885// 91155 333 0/399 10322 20230 30224 58009 70032 88605;EQDQ01  00002PRCP06
0217763930999992010072815004+25733-100300FM-12+051599999V0200901N001010030019N0020001N1+02521+02211101621ADDAY141031AY221031GA1081+003001071GF108991081061004501999999IA1019MA1999999096001MD1210211+0171MW1051REMSYN106AAXX  28151 76393 31420 80901 10252 20221 39600 40162 52021 70542 886// 91455 333 0/399 30/// 58017 88710;
0161763930999992010072818004+25733-100300FM-12+051599999V0201201N004012200019N0040001N1+03001+02171101571ADDAY111061AY211061GF105991041011012501001081MA1999999095971MD1710031+9999MW1051REMSYN072AAXX  28181 76393 31640 51204 10300 20217 39597 40157 57003 70511 84108;
0240763930999992010072821004+25733-100300FM-12+051599999V0203101N001010033019N0040001N1+02601+02331101431ADDAA103006091AY121031AY221031GA1081+003301061GF108991081051004501999999IA1119MA1999999095871MD1710101+0241MW1051REMSYN118AAXX  28211 76393 21440 83101 10260 20233 39587 40143 57010 70522 885// 92050 333 0/3// 32/// 54116 58024 60067 88611;
0331763930999992010072900004+25733-100300FM-12+051599999V0201001N005010045019N0050001N1+02561+02201101421ADDAA103999999AA206006191AA324008791AY141061AY221061GA1081+004501061GF108991081051004501999999IA1099KA1120M+03161KA2180N+02301MA1999999095851MD1210021+0311MW1051REMSYN142AAXX  29001 76393 01450 81005 10256 20220 39585 40142 52002 60061 70542 885// 92355 333 0/399 10316 20230 31/// 50671 58031 69907 70087 88615;EQDQ01  99992PRCP03
0161763930999992010072912004+25733-100300FM-12+051599999V0200901N001010012019N0010001N1+02321+02151101781ADDAY141061AY221061GF108991081061001501999999MA1999999096141MD1410001+9999MW1051REMSYN072AAXX  29121 76393 31210 80901 10232 20215 39614 40178 54006 70542 886//;
0217763930999992010072915004+25733-100300FM-12+051599999V0201201N001010033019N0020001N1+02461+02121101911ADDAY141031AY221031GA1081+003301071GF108991081061004501999999IA1019MA1999999096261MD1310121+0261MW1051REMSYN106AAXX  29151 76393 31420 81201 10246 20212 39626 40191 53012 70542 886// 91455 333 0/399 30/// 58026 88711;
0161763930999992010072918004+25733-100300FM-12+051599999V0203101N001010075019N0030001N1+02741+02021101911ADDAY121061AY221061GF107991051011008001021001MA1999999096271MD1210011+9999MW1051REMSYN072AAXX  29181 76393 31530 73101 10274 20202 39627 40191 52001 70522 85120;
0223763930999992010072921004+25733-100300FM-12+051599999V0201201N006010360019N0030001N1+03101+02071101631ADDAY121031AY221031GA1021+011401061GF106991041011012501041001IA1019MA1999999096051MD1710221+0181MW1051REMSYN112AAXX  29211 76393 31630 61206 10310 20207 39605 40163 57022 70522 84140 92050 333 01350 30/// 58018 82638 82840;
0161763930999992010073000004+25733-100300FM-12+051599999V0201301N002012200019N0050001N1+02961+02031101461ADDAY141061AY211061GF104991041051012501001001MA1999999095911MD1710141+9999MW1051REMSYN072AAXX  30001 76393 31650 41302 10296 20203 39591 40146 57014 70541 84500;
0161763930999992010073012004+25733-100300FM-12+051599999V0200901N001010012019N0020001N1+02321+02121101641ADDAY141061AY221061GF108991081061001501999999MA1999999096031MD1410001+9999MW1051REMSYN072AAXX  30121 76393 31220 80901 10232 20212 39603 40164 54003 70542 886//;
0217763930999992010073015004+25733-100300FM-12+051599999V0203601N001010039019N0010001N1+02501+02101101711ADDAY141031AY221031GA1081+003901061GF108991081051004501999999IA1019MA1999999096081MD1410001-0181MW1051REMSYN106AAXX  30151 76393 31410 83601 10250 20210 39608 40171 54005 70542 885// 91455 333 0/399 30/// 59018 88613;
0161763930999992010073018004+25733-100300FM-12+051599999V0200601N001012200019N0020001N1+02961+02161101611ADDAY101061AY201061GF103991031041008001001001MA1999999096001MD1710081+9999MW1051REMSYN072AAXX  30181 76393 31520 30601 10296 20216 39600 40161 57008 70500 83400;
0217763930999992010073021004+25733-100300FM-12+051599999V0201201N005012200019N0030001N1+03241+02001101321ADDAY141031AY201031GA1031+015001061GF103991031041017501001001IA1019MA1999999095771MD1710231-0281MW1051REMSYN106AAXX  30211 76393 31730 31205 10324 20200 39577 40132 57023 70540 83400 92050 333 0/300 30/// 59028 83650;
0161763930999992010073100004+25733-100300FM-12+051599999V0201001N005012200019N0050001N1+03241+01961101121ADDAY141061AY201061GF102991021051017501001001MA1999999095611MD1710161+9999MW1051REMSYN072AAXX  31001 76393 31750 21005 10324 20196 39561 40112 57016 70540 82500;
0161763930999992010073112004+25733-100300FM-12+051599999V0200901N001010012019N0020001N1+02421+02251101301ADDAY141061AY221061GF108991081051001501999999MA1999999095731MD1410001+9999MW1051REMSYN072AAXX  31121 76393 31220 80901 10242 20225 39573 40130 54002 70542 885//;
0217763930999992010073115004+25733-100300FM-12+051599999V0200301N001010033019N0010001N1+02561+02231101351ADDAY141031AY221031GA1071+003301061GF107991071051004501999999IA1019MA1999999095761MD1410001-0321MW1051REMSYN106AAXX  31151 76393 31410 70301 10256 20223 39576 40135 54003 70542 875// 91455 333 0/399 30/// 59032 87611;
0161763930999992010073118004+25733-100300FM-12+051599999V0200901N001012200019N0010001N1+03161+02201101271ADDAY111061AY211061GF104991011011012501091011MA1999999095701MD1710061+9999MW1051REMSYN072AAXX  31181 76393 31610 40901 10316 20220 39570 40127 57006 70511 81191;
0217763930999992010073121004+25733-100300FM-12+051599999V0200901N006012200019N0010001N1+03381+02211101031ADDAY121031AY221031GA1011+014101081GF105991011011012501001011IA1019MA1999999095511MD1710191-0261MW1051REMSYN106AAXX  31211 76393 31610 50906 10338 20221 39551 40103 57019 70522 81101 92050 333 00305 30/// 59026 81847;
0161763930999992010080100004+25733-100300FM-12+051599999V0201401N006012200019N0040001N1+03301+02051100871ADDAY141061AY241061GF104991021021017501031001MA1999999095401MD1710111+9999MW1051REMSYN072AAXX  01001 76393 31740 41406 10330 20205 39540 40087 57011 70544 82230;
0199763930999992010080103004+25733-100300FM-12+051599999V0201201N003012200019N0020001N1+02961+01831100971ADDAY141031AY241031GA1001+999999999GF100991001001999999001001IA1019MA1999999095511MD1210111-0161MW1051REMSYN088AAXX  01031 76393 31920 01203 10296 20183 39551 40097 52011 70544 90240 333 30/// 59016;
0273763930999992010080112004+25733-100300FM-12+051599999V0203001N001012200019N0020001N1+02301+02101101141ADDAA124000091AY141061AY241061GA1001+999999999GF100991001001999999001001IA1019KA1240M+03481KA2120N+02261MA1999999095591MD1210081-0141MW1051REMSYN106AAXX  01121 76393 31920 03001 10230 20210 39559 40114 52008 70544 91150 333 10348 20226 30220 59014 70000;EQDQ01  00002PRCP24
0195763930999992010080115004+25733-100300FM-12+051599999V0203101N001012200019N0010001N1+02581+02191101291ADDAY141031AY201031GF103991031001999999021001IA1019MA1999999095701MD1210111-0061MW1051REMSYN100AAXX  01151 76393 31910 33101 10258 20219 39570 40129 52011 70540 83020 91450 333 0/050 30/// 59006;
0217763930999992010080121004+25733-100300FM-12+051599999V0201201N006012200019N0030001N1+03321+02101101031ADDAY141031AY241031GA1011+015001081GF101991011021017501001001IA1019MA1999999095501MD1710171-0011MW1051REMSYN106AAXX  01211 76393 31730 11206 10332 20210 39550 40103 57017 70544 81200 92040 333 0/300 30/// 59001 81850;
0279763930999992010080200004+25733-100300FM-12+051599999V0201201N004012200019N0050001N1+03281+01921100881ADDAA124000091AY141061AY201061GA1001+999999999GF100991001001999999001001IA1019KA1120M+03461KA2180N+02261MA1999999095401MD1710101+0001MW1051REMSYN112AAXX  02001 76393 31950 01204 10328 20192 39540 40088 57010 70540 92355 333 10346 20226 30/// 50861 59000 70000;EQDQ01  00002PRCP24
0199763930999992010080203004+25733-100300FM-12+051599999V0201001N002012200019N0030001N1+03021+01841100981ADDAY141031AY201031GA1001+999999999GF100991001001999999001001IA1019MA1999999095521MD1210121-0011MW1051REMSYN088AAXX  02031 76393 31930 01002 10302 20184 39552 40098 52012 70540 90255 333 30/// 59001;
0161763930999992010080212004+25733-100300FM-12+051599999V0200401N001010042019N0020001N1+02461+02181101311ADDAY141061AY221061GF108991081051004501999999MA1999999095761MD1210091+9999MW1051REMSYN072AAXX  02121 76393 31420 80401 10246 20218 39576 40131 52009 70542 885//;
0217763930999992010080215004+25733-100300FM-12+051599999V0200701N001010072019N0020001N1+02801+02221101401ADDAY141031AY221031GA1051+007201061GF105991051041008001001001IA1019MA1999999095821MD1210061+0121MW1051REMSYN106AAXX  02151 76393 31520 50701 10280 20222 39582 40140 52006 70542 85400 91455 333 0/800 30/// 58012 85624;
0161763930999992010080218004+25733-100300FM-12+051599999V0200901N004012200019N0020001N1+03241+02171101361ADDAY141061AY201061GF102991011001999999041031MA1999999095791MD1410001+9999MW1051REMSYN072AAXX  02181 76393 31920 20904 10324 20217 39579 40136 54003 70540 81043;
0217763930999992010080221004+25733-100300FM-12+051599999V0201201N007012200019N0050001N1+03381+02081101161ADDAY141031AY211031GA1021+012901081GF102991021041012501001001IA1019MA1999999095641MD1610151+0141MW1051REMSYN106AAXX  02211 76393 31650 21207 10338 20208 39564 40116 56015 70541 82400 92055 333 00300 30/// 58014 82843;
0161763930999992010080300004+25733-100300FM-12+051599999V0201301N005012200019N0060001N1+03301+02141101121ADDAY141061AY201061GF103991031051012501001001MA1999999095641MD1010001+9999MW1051REMSYN072AAXX  03001 76393 31656 31305 10330 20214 39564 40112 50000 70540 83500;
0147763930999992010080312004+25733-100300FM-12+051599999V0200101N001010042019N0010001N1+02441+02161101471ADDAY141061AY221061GF108991081051004501999999MA1999999095861MW1051REMSYN072AAXX  03121 76393 31410 80101 10244 20216 39586 40147 5//// 70542 885//;
0217763930999992010080315004+25733-100300FM-12+051599999V0203201N001010051019N0020001N1+02601+02181101621ADDAY141031AY221031GA1061+005101061GF106991061051004501001001IA1019MA1999999096011MD1210151+0191MW1051REMSYN106AAXX  03151 76393 31420 63201 10260 20218 39601 40162 52015 70542 86500 91450 333 0/300 30/// 58019 86617;
0161763930999992010080412004+25733-100300FM-12+051599999V0200801N001010042019N0020001N1+02521+02271101331ADDAY141061AY221061GF108991081051004501999999MA1999999095781MD1210011+9999MW1051REMSYN072AAXX  04121 76393 31420 80801 10252 20227 39578 40133 52001 70542 885//;
0217763930999992010080415004+25733-100300FM-12+051599999V0200601N001010048019N0020001N1+02681+02301101411ADDAY141031AY221031GA1071+004801061GF107991071051004501001001IA1019MA1999999095841MD1210061-0171MW1051REMSYN106AAXX  04151 76393 31420 70601 10268 20230 39584 40141 52006 70542 87500 91450 333 0/300 30/// 59017 87616;
0161763930999992010080512004+25733-100300FM-12+051599999V0200701N001010042019N0020001N1+02501+02191101171ADDAY141061AY221061GF107991071051004501001001MA1999999095621MD1210031+9999MW1051REMSYN072AAXX  05121 76393 31420 70701 10250 20219 39562 40117 52003 70542 87500;
0217763930999992010080515004+25733-100300FM-12+051599999V0200601N001010054019N0020001N1+02621+02171101291ADDAY141031AY221031GA1071+005401061GF107991071051004501001001IA1019MA1999999095721MD1210101-0121MW1051REMSYN106AAXX  05151 76393 31420 70601 10262 20217 39572 40129 52010 70542 87500 91450 333 0/300 30/// 59012 87618;
0161763930999992010080518004+25733-100300FM-12+051599999V0200901N001012200019N0020001N1+02981+02181101271ADDAY111061AY211061GF104991041011008001001001MA1999999095701MD1710021+9999MW1051REMSYN072AAXX  05181 76393 31520 40901 10298 20218 39570 40127 57002 70511 84100;
0217763930999992010080521004+25733-100300FM-12+051599999V0201201N004010132019N0030001N1+03361+02121101041ADDAY121031AY221031GA1051+013201081GF105991051011012501001001IA1019MA1999999095521MD1710181+9999MW1051REMSYN106AAXX  05211 76393 31630 51204 10336 20212 39552 40104 57018 70522 85100 92055 333 00300 30/// 58/// 85844;
0161763930999992010080612004+25733-100300FM-12+051599999V0200901N001010042019N0020001N1+02461+02121101101ADDAY141061AY221061GF108991081051004501999999MA1999999095561MD1210041+9999MW1051REMSYN072AAXX  06121 76393 31420 80901 10246 20212 39556 40110 52004 70542 885//;
0217763930999992010080615004+25733-100300FM-12+051599999V0203201N001010063019N0020001N1+02641+02141101251ADDAY121031AY221031GA1061+006301061GF106991061041008001001001IA1019MA1999999095681MD1210121-0041MW1051REMSYN106AAXX  06151 76393 31520 63201 10264 20214 39568 40125 52012 70522 86400 91450 333 0/700 30/// 59004 86621;
0161763930999992010080618004+25733-100300FM-12+051599999V0201101N003012200019N0020001N1+03141+02141101221ADDAY111061AY211061GF103991011011012501001081MA1999999095661MD1710021+9999MW1051REMSYN072AAXX  06181 76393 31620 31103 10314 20214 39566 40122 57002 70511 81108;
0217763930999992010080621004+25733-100300FM-12+051599999V0201101N005012200019N0040001N1+03381+02041101011ADDAY101031AY201031GA1021+015001081GF102991021011017501001001IA1019MA1999999095491MD1710171-0031MW1051REMSYN106AAXX  06211 76393 31740 21105 10338 20204 39549 40101 57017 70500 82100 92050 333 00300 30/// 59003 82850;
0161763930999992010080712004+25733-100300FM-12+051599999V0201201N001010042019N0020001N1+02521+02241100991ADDAY121061AY221061GF108991081051004501999999MA1999999095461MD1710041+9999MW1051REMSYN072AAXX  07121 76393 31420 81201 10252 20224 39546 40099 57004 70522 885//;
0217763930999992010080715004+25733-100300FM-12+051599999V0200501N001012200019N0020001N1+02641+02281101091ADDAY121031AY221031GA1041+004501061GF104991041051004501001001IA1019MA1999999095531MD1210071-0151MW1051REMSYN106AAXX  07151 76393 31420 40501 10264 20228 39553 40109 52007 70522 84500 91450 333 0/300 30/// 59015 84615;
0161763930999992010080718004+25733-100300FM-12+051599999V0201201N002010075019N0020001N1+03301+02791101091ADDAY141061AY241061GF105991051021008001001001MA1999999095541MD1010011+9999MW1051REMSYN072AAXX  07181 76393 31520 51202 10330 20279 39554 40109 50001 70544 85200;
0217763930999992010080721004+25733-100300FM-12+051599999V0201101N003010138019N0020001N1+03341+02221100871ADDAY141031AY241031GA1061+013801081GF106991061021012501001001IA1019MA1999999095361MD1710181-0131MW1051REMSYN106AAXX  07211 76393 31620 61103 10334 20222 39536 40087 57018 70544 86200 92040 333 0/300 30/// 59013 86846;
0161763930999992010080800004+25733-100300FM-12+051599999V0201401N003012200019N0040001N1+03361+02151100721ADDAY141061AY241061GF104991021011012501001021MA1999999095271MD1710091+9999MW1041REMSYN072AAXX  08001 76393 31640 41403 10336 20215 39527 40072 57009 70444 82102;
0217763930999992010080803004+25733-100300FM-12+051599999V0209999C000012200019N0020001N1+03031+02031100801ADDAY141031AY241031GA1011+009901081GF101991011011008001001001IA1019MA1999999095361MD1210091+9999MW1041REMSYN106AAXX  08031 76393 31520 10000 10303 20203 39536 40080 52009 70444 81100 90250 333 00300 30/// 58/// 81833;
0161763930999992010080812004+25733-100300FM-12+051599999V0200901N001010042019N0015001N1+02561+02291100941ADDAY141061AY231061GF108991081061004501999999MA1999999095421MD1510031+9999MW1051REMSYN072AAXX  08121 76393 31415 80901 10256 20229 39542 40094 55003 70543 886//;
0217763930999992010080815004+25733-100300FM-12+051599999V0201201N001010051019N0020001N1+02721+02311101081ADDAY141031AY231031GA1081+005101061GF108991081051004501999999IA1019MA1999999095531MD1210111+0001MW1051REMSYN106AAXX  08151 76393 31420 81201 10272 20231 39553 40108 52011 70543 885// 91440 333 0/3// 30/// 58000 88617;
0180763930999992010080818004+25733-100300FM-12+051599999V0201301N002012200019N0010001N1+03001+02291101121ADDAY141061AY201061GF103991999011008001001001MA1999999095571MD1410001+9999MW1051REMSYN072AAXX  08181 76393 31510 31302 10300 20229 39557 40112 54004 70540 82100;EQDQ01+000022SCOTLC
0217763930999992010080821004+25733-100300FM-12+051599999V0200901N002010072019N0010001N1+03021+02321100941ADDAY141031AY221031GA1071+007201061GF107991071041008001999999IA1019MA1999999095421MD1710151+0061MW1051REMSYN106AAXX  08211 76393 31510 70902 10302 20232 39542 40094 57015 70542 874// 92055 333 0/399 30/// 58006 87624;
0161763930999992010080900004+25733-100300FM-12+051599999V0202301N001010360019N0020001N1+03121+02231100771ADDAY141061AY241061GF107991021051008001021999MA1999999095291MD1710131+9999MW1051REMSYN072AAXX  09001 76393 31520 72301 10312 20223 39529 40077 57013 70544 8252/;
0161763930999992010080912004+25733-100300FM-12+051599999V0201001N002010021019N0010001N1+02521+02301101031ADDAY141061AY231061GF108991081061002501999999MA1999999095501MD1210041+9999MW1051REMSYN072AAXX  09121 76393 31310 81002 10252 20230 39550 40103 52004 70543 886//;
0217763930999992010080915004+25733-100300FM-12+051599999V0200901N002010039019N0010001N1+02621+02291101221ADDAY141031AY241031GA1081+003901061GF108991081051004501999999IA1019MA1999999095651MD1210151+0121MW1051REMSYN106AAXX  09151 76393 31410 80902 10262 20229 39565 40122 52015 70544 885// 91450 333 0/3// 30/// 58012 88613;
0161763930999992010080918004+25733-100300FM-12+051599999V0200901N001010075019N0020001N1+03041+02221101221ADDAY141061AY211061GF105991051041008001001001MA1999999095661MD1410001+9999MW1051REMSYN072AAXX  09181 76393 31520 50901 10304 20222 39566 40122 54001 70541 85400;
0217763930999992010080921004+25733-100300FM-12+051599999V0200901N004010102019N0020001N1+03301+02271100971ADDAY141031AY211031GA1051+010201061GF105991051041012501001001IA1019MA1999999095451MD1710211+0031MW1051REMSYN106AAXX  09211 76393 31620 50904 10330 20227 39545 40097 57021 70541 85400 92055 333 0/300 30/// 58003 85634;
0161763930999992010081000004+25733-100300FM-12+051599999V0201401N004012200019N0030001N1+03331+02101100831ADDAY141061AY241061GF106991021041012501001061MA1999999095361MD1710091+9999MW1051REMSYN072AAXX  10001 76393 31630 61404 10333 20210 39536 40083 57009 70544 82406;
0161763930999992010081012004+25733-100300FM-12+051599999V0200401N001010021019N0020001N1+02421+02201101041ADDAY121061AY221061GF108991081061002501999999MA1999999095501MD1710011+9999MW1051REMSYN072AAXX  10121 76393 31320 80401 10242 20220 39550 40104 57001 70522 886//;
0217763930999992010081015004+25733-100300FM-12+051599999V0203401N002010270019N0020001N1+02621+02231101241ADDAY121031AY221031GA1061+027001041GF106991061001999999021001IA1019MA1999999095661MD1210161+0011MW1051REMSYN106AAXX  10151 76393 31920 63402 10262 20223 39566 40124 52016 70522 86020 91455 333 0/070 30/// 58001 86459;
0161763930999992010081018004+25733-100300FM-12+051599999V0200901N001010075019N0020001N1+02901+02211101251ADDAY141061AY221061GF108991081041008001999999MA1999999095681MD1410001+9999MW1051REMSYN072AAXX  10181 76393 31520 80901 10290 20221 39568 40125 54002 70542 884//;
0217763930999992010081021004+25733-100300FM-12+051599999V0201201N005010102019N0020001N1+03241+02231101101ADDAY141031AY221031GA1071+010201061GF107991071041012501999999IA1019MA1999999095561MD1610121+0111MW1051REMSYN106AAXX  10211 76393 31620 71205 10324 20223 39556 40110 56012 70542 874// 92055 333 0/399 30/// 58011 87634;
0161763930999992010081100004+25733-100300FM-12+051599999V0201101N003012200019N0040001N1+03161+02171100911ADDAY111061AY211061GF104991031021012501051001MA1999999095431MD1710131+9999MW1051REMSYN072AAXX  11001 76393 31640 41103 10316 20217 39543 40091 57013 70511 83250;
0161763930999992010081112004+25733-100300FM-12+051599999V0200501N001010021019N0020001N1+02481+02261101091ADDAY121061AY221061GF108991081061002501999999MA1999999095541MD1210051+9999MW1051REMSYN072AAXX  11121 76393 31320 80501 10248 20226 39554 40109 52005 70522 886//;
0199763930999992010081115004+25733-100300FM-12+051599999V0202701N001012200019N0010001N1+02801+02251101181ADDAY101031AY201031GA1001+999999999GF100991001001999999001001IA1019MA1999999095611MD1710071-0051MW1051REMSYN088AAXX  11151 76393 31910 02701 10280 20225 39561 40118 57007 70500 91445 333 30/// 59005;
0217763930999992010081121004+25733-100300FM-12+051599999V0200901N005012200019N0020001N1+03421+02191100941ADDAY141031AY201031GA1021+012301081GF102991021041012501001001IA1019MA1999999095451MD1710171-0111MW1051REMSYN106AAXX  11211 76393 31620 20905 10342 20219 39545 40094 57017 70540 82400 92055 333 00300 30/// 59011 82841;
0161763930999992010081200004+25733-100300FM-12+051599999V0201401N002012200019N0040001N1+03421+02091100761ADDAY141061AY241061GF104991021031012501001021MA1999999095321MD1710131+9999MW1041REMSYN072AAXX  12001 76393 31640 41402 10342 20209 39532 40076 57013 70444 82302;
0161763930999992010081212004+25733-100300FM-12+051599999V0203101N001010042019N0020001N1+02521+02241100971ADDAY121061AY221061GF108991081051004501999999MA1999999095451MD1210071+9999MW1051REMSYN072AAXX  12121 76393 31420 83101 10252 20224 39545 40097 52007 70522 885//;
0217763930999992010081215004+25733-100300FM-12+051599999V0200601N001012200019N0020001N1+02801+02251101061ADDAY101031AY201031GA1041+030001031GF104991041001999999041001IA1019MA1999999095511MD1210061-0101MW1051REMSYN106AAXX  12151 76393 31920 40601 10280 20225 39551 40106 52006 70500 84040 91450 333 0/030 30/// 59010 84360;
0161763930999992010081218004+25733-100300FM-12+051599999V0200901N002012200019N0020001N1+03321+02321100911ADDAY141061AY201061GF104991021041008001041001MA1999999095491MD1410001+9999MW1051REMSYN072AAXX  12181 76393 31520 40902 10332 20232 39549 40091 54002 70540 82440;
0217763930999992010081221004+25733-100300FM-12+051599999V0201401N004010120019N0030001N1+03281+02091100801ADDAY141031AY211031GA1061+012001061GF106991061021012501001001IA1019MA1999999095321MD1610191-0131MW1051REMSYN106AAXX  12211 76393 31630 61404 10328 20209 39532 40080 56019 70541 86200 92055 333 0/300 30/// 59013 86640;
0161763930999992010081300004+25733-100300FM-12+051599999V0201801N003010900019N0040001N1+03061+02081100671ADDAY141061AY221061GF107991031031008001001061MA1999999095211MD1710111+9999MW1151REMSYN072AAXX  13001 76393 31540 71803 10306 20208 39521 40067 57011 71542 83306;
0161763930999992010081312004+25733-100300FM-12+051599999V0209999C000010042019N0020001N1+02541+02241100831ADDAY141061AY221061GF108991081051004501999999MA1999999095301MD1210051+9999MW1051REMSYN072AAXX  13121 76393 31420 80000 10254 20224 39530 40083 52005 70542 885//;
0217763930999992010081315004+25733-100300FM-12+051599999V0200501N001010051019N0020001N1+02721+02311100931ADDAY141031AY221031GA1061+005101061GF106991061051004501001001IA1019MA1999999095371MD1210071-0141MW1051REMSYN106AAXX  13151 76393 31420 60501 10272 20231 39537 40093 52007 70542 86500 91450 333 0/700 30/// 59014 86617;
0161763930999992010081318004+25733-100300FM-12+051599999V0200701N001012200019N0010001N1+03181+02251100901ADDAY141061AY201061GF103991031041008001001001MA1999999095361MD1410001+9999MW1051REMSYN072AAXX  13181 76393 31510 30701 10318 20225 39536 40090 54001 70540 83400;
0217763930999992010081321004+25733-100300FM-12+051599999V0201301N002012200019N0020001N1+03461+02211100661ADDAY141031AY201031GA1031+012601061GF103991031041012501001001IA1019MA1999999095181MD1610181-0141MW1051REMSYN106AAXX  13211 76393 31620 31302 10346 20221 39518 40066 56018 70540 83400 92055 333 0/300 30/// 59014 83642;
0161763930999992010081400004+25733-100300FM-12+051599999V0201201N004010900019N0030001N1+03261+02061100521ADDAY141061AY241061GF105991041041012501001051MA1999999095081MD1710101+9999MW1041REMSYN072AAXX  14001 76393 31630 51204 10326 20206 39508 40052 57010 70444 84405;
0161763930999992010081412004+25733-100300FM-12+051599999V0201401N004010042019N0020001N1+02501+02161100821ADDAY121061AY221061GF106991061051004501001001MA1999999095311MD1210041+9999MW1051REMSYN072AAXX  14121 76393 31420 61404 10250 20216 39531 40082 52004 70522 86500;
0217763930999992010081415004+25733-100300FM-12+051599999V0200901N002010048019N0020001N1+02661+02271101001ADDAY121031AY221031GA1081+004801061GF108991081051004501999999IA1019MA1999999095451MD1210141+0081MW1051REMSYN106AAXX  14151 76393 31420 80902 10266 20227 39545 40100 52014 70522 885// 91450 333 0/3// 30/// 58008 88616;
0161763930999992010081418004+25733-100300FM-12+051599999V0201501N001010120019N0020001N1+03161+02201101041ADDAY141061AY221061GF106991061021012501999999MA1999999095501MD1010051+9999MW1051REMSYN072AAXX  14181 76393 31620 61501 10316 20220 39550 40104 50005 70542 862//;
0217763930999992010081421004+25733-100300FM-12+051599999V0201301N005010150019N0030001N1+03521+02311100821ADDAY141031AY241031GA1061+015001081GF106991061021012501999999IA1019MA1999999095321MD1710181+0141MW1051REMSYN106AAXX  14211 76393 31630 61305 10352 20231 39532 40082 57018 70544 862// 92040 333 0/3// 30/// 58014 86850;
0369763930999992010081500004+25733-100300FM-12+051599999V0201201N004012200019N0020001N1+03331+02261100711ADDAA103999999AA206000091AA324000091AY151061AY241061GA1041+000151021GF104991041021012501001001IA1019KA1120M+03591KA2180N+02481MA1999999095261MD1710061+0181MW1051REMSYN148AAXX  15001 76393 01620 41204 10333 20226 39526 40071 57006 69901 70554 84200 92350 333 01300 10359 20248 30/// 50911 58018 69907 79999 82834 82634;EQDQ01  00002PRCP06Q02  00002PRCP24Q03  99992PRCP03
0161763930999992010081512004+25733-100300FM-12+051599999V0200901N002010042019N0020001N1+02581+02331101191ADDAY141061AY221061GF107991071041004501999999MA1999999095661MD1210091+9999MW1051REMSYN072AAXX  15121 76393 31420 70902 10258 20233 39566 40119 52009 70542 874//;
0217763930999992010081515004+25733-100300FM-12+051599999V0201001N002010045019N0020001N1+02721+02341101331ADDAY141031AY231031GA1081+004501071GF108991081061004501999999IA1019MA1999999095771MD1210111+0321MW1051REMSYN106AAXX  15151 76393 31420 81002 10272 20234 39577 40133 52011 70543 886// 91440 333 0/3// 30/// 58032 88715;
0161763930999992010081518004+25733-100300FM-12+051599999V0200501N002010075019N0010001N1+03101+02291101321ADDAY141061AY221061GF107991071041008001999999MA1999999095771MD1410001+9999MW1051REMSYN072AAXX  15181 76393 31510 70502 10310 20229 39577 40132 54000 70542 874//;
0217763930999992010081521004+25733-100300FM-12+051599999V0201301N005012200019N0020001N1+03441+02181101081ADDAY141031AY201031GA1021+012601081GF102991021041012501001001IA1019MA1999999095581MD1710191+0261MW1051REMSYN106AAXX  15211 76393 31620 21305 10344 20218 39558 40108 57019 70540 82400 92055 333 00300 30/// 58026 82842;
0161763930999992010081600004+25733-100300FM-12+051599999V0201401N004012200019N0040001N1+03461+02141100901ADDAY141061AY241061GF102991021021012501001001MA1999999095441MD1710141+9999MW1041REMSYN072AAXX  16001 76393 31640 21404 10346 20214 39544 40090 57014 70444 82200;
0217763930999992010081603004+25733-100300FM-12+051599999V0201701N002012200019N0020001N1+03071+02081101011ADDAY141031AY241031GA1011+009901081GF101991011011008001001001IA1019MA1999999095571MD1210131+0131MW1051REMSYN106AAXX  16031 76393 31520 11702 10307 20208 39557 40101 52013 70544 81100 90250 333 00300 30/// 58013 81833;
0161763930999992010081612004+25733-100300FM-12+051599999V0201101N002010042019N0020001N1+02581+02331101171ADDAY121061AY221061GF108991081051004501999999MA1999999095641MD1710051+9999MW1051REMSYN072AAXX  16121 76393 31420 81102 10258 20233 39564 40117 57005 70522 885//;
0217763930999992010081615004+25733-100300FM-12+051599999V0200901N001010048019N0020001N1+02681+02301101411ADDAY141031AY221031GA1051+004801061GF105991051051004501001001IA1019MA1999999095851MD1210211+0081MW1051REMSYN106AAXX  16151 76393 31420 50901 10268 20230 39585 40141 52021 70542 85500 91450 333 0/100 30/// 58008 85616;
0161763930999992010081618004+25733-100300FM-12+051599999V0200701N003012200019N0010001N1+03221+02211101311ADDAY141061AY201061GF102991011001012501041041MA1999999095761MD1410001+9999MW1051REMSYN072AAXX  16181 76393 31610 20703 10322 20221 39576 40131 54009 70540 81044;
0217763930999992010081621004+25733-100300FM-12+051599999V0201101N006012200019N0030001N1+03541+02141101101ADDAY141031AY201031GA1011+014101061GF103991011041012501001041IA1019MA1999999095591MD1610171+0011MW1051REMSYN106AAXX  16211 76393 31630 31106 10354 20214 39559 40110 56017 70540 81404 92055 333 0/305 30/// 58001 81647;
0161763930999992010081700004+25733-100300FM-12+051599999V0201201N002012200019N0030001N1+03481+01981100931ADDAY141061AY241061GF103991021021012501001051MA1999999095481MD1710111+9999MW1041REMSYN072AAXX  17001 76393 31630 31202 10348 20198 39548 40093 57011 70444 82205;
0217763930999992010081703004+25733-100300FM-12+051599999V0201401N001012200019N0030001N1+03181+01881101011ADDAY141031AY241031GA1011+012901081GF101991011011012501001001IA1019MA1999999095581MD1210101+0011MW1041REMSYN106AAXX  17031 76393 31630 11401 10318 20188 39558 40101 52010 70444 81100 90250 333 00300 30/// 58001 81843;
0251763930999992010081706004+25733-100300FM-12+051599999V0200901N001012200019N0020001N1+02861+02141101091ADDAY141061AY201061GA1001+999999999GF100991001001999999001001GJ105949IA1019KA1240M+03651KA2240N+02481MA1999999095651MD1210071-0061MW1051REMSYN106AAXX  17061 76393 31920 00901 10286 20214 39565 40109 52007 70540 90550 333 10365 20248 30/// 55099 59006;
0199763930999992010081709004+25733-100300FM-12+051599999V0200301N001012200019N0020001N1+02561+02261101101ADDAY141031AY201031GA1001+999999999GF100991001001999999001001IA1019MA1999999095621MD1710031-0071MW1051REMSYN088AAXX  17091 76393 31920 00301 10256 20226 39562 40110 57003 70540 90850 333 30/// 59007;
0161763930999992010081712004+25733-100300FM-12+051599999V0200601N001012200019N0020001N1+02581+02311101111ADDAY101061AY201061GF102991021051004501001001MA1999999095591MD1710031+9999MW1051REMSYN072AAXX  17121 76393 31420 20601 10258 20231 39559 40111 57003 70500 82500;
0217763930999992010081715004+25733-100300FM-12+051599999V0200501N001012200019N0020001N1+02941+02401101231ADDAY101031AY201031GA1021+006601081GF102991021011008001001001IA1019MA1999999095691MD1210101-0161MW1051REMSYN106AAXX  17151 76393 31520 20501 10294 20240 39569 40123 52010 70500 82100 91450 333 0/300 30/// 59016 82822;
0161763930999992010081718004+25733-100300FM-12+051599999V0200901N001012200019N0020001N1+03341+02221101181ADDAY141061AY201061GF102991021041012501001001MA1999999095661MD1410001+9999MW1051REMSYN072AAXX  17181 76393 31620 20901 10334 20222 39566 40118 54003 70540 82400;
0217763930999992010081721004+25733-100300FM-12+051599999V0201201N006012200019N0020001N1+03541+02111100921ADDAY141031AY201031GA1021+014401081GF102991021041012501001001IA1019MA1999999095441MD1710221-0151MW1051REMSYN106AAXX  17211 76393 31620 21206 10354 20211 39544 40092 57022 70540 82400 92055 333 00300 30/// 59015 82848;
0161763930999992010081800004+25733-100300FM-12+051599999V0201401N003010360019N0040001N1+03401+02031100771ADDAY141061AY221061GF107991041021017501011001MA1999999095361MD1610081+9999MW1051REMSYN072AAXX  18001 76393 31740 71403 10340 20203 39536 40077 56008 70542 84210;
0217763930999992010081803004+25733-100300FM-12+051599999V0201101N003010600019N0020001N1+03041+02221100931ADDAY141031AY241031GA1081+060001001GF108991001001999999001041IA1019MA1999999095521MD1210161-0061MW1051REMSYN106AAXX  18031 76393 31920 81103 10304 20222 39552 40093 52016 70544 80004 90240 333 0//// 30/// 59006 88070;
0251763930999992010081806004+25733-100300FM-12+051599999V0201101N004012200019N0020001N1+02841+02301101091ADDAY141061AY201061GA1001+999999999GF100991001001999999001001GJ106129IA1019KA1240M+03701KA2240N+02501MA1999999095651MD1010131+0001MW1051REMSYN106AAXX  18061 76393 31920 01104 10284 20230 39565 40109 50013 70540 90555 333 10370 20250 30/// 55102 58000;
0252763930999992010081809004+25733-100300FM-12+051599999V0201001N004012200019N0020001N1+02601+02241101071ADDAY141031AY201031GA1011+004501061GF101991011051004501001001IA1019MA1999999095591MD1710021-0031MW1051REMSYN106AAXX  18091 76393 31420 11004 10260 20224 39559 40107 50606 70540 81500 90855 333 0/300 30/// 59003 81615;EQDQ01+000007APCTENQ02+006067APC3  
0161763930999992010081812004+25733-100300FM-12+051599999V0200601N001010042019N0020001N1+02561+02291101131ADDAY141061AY221061GF106991061051004501001001MA1999999095611MD1010021+9999MW1051REMSYN072AAXX  18121 76393 31420 60601 10256 20229 39561 40113 50002 70542 86500;
0217763930999992010081815004+25733-100300FM-12+051599999V0200901N002010057019N0020001N1+02781+02321101301ADDAY141031AY231031GA1081+005701061GF108991081051004501999999IA1019MA1999999095751MD1210141+0061MW1051REMSYN106AAXX  18151 76393 31420 80902 10278 20232 39575 40130 52014 70543 885// 91440 333 0/3// 30/// 58006 88619;
0161763930999992010081818004+25733-100300FM-12+051599999V0200501N002012200019N0020001N1+03181+02281101291ADDAY141061AY211061GF104991011041008001001091MA1999999095741MD1410001+9999MW1051REMSYN072AAXX  18181 76393 31520 40502 10318 20228 39574 40129 54001 70541 81409;
0217763930999992010081821004+25733-100300FM-12+051599999V0200901N003012200019N0030001N1+03401+02171101081ADDAY141031AY201031GA1021+012301081GF102991021031012501001001IA1019MA1999999095571MD1610171+0131MW1051REMSYN106AAXX  18211 76393 31630 20903 10340 20217 39557 40108 56017 70540 82300 92055 333 00300 30/// 58013 82841;
0161763930999992010081900004+25733-100300FM-12+051599999V0201401N004010900019N0050001N1+03531+02001100881ADDAY141061AY241061GF107991021011012501001061MA1999999095421MD1710151+9999MW1041REMSYN072AAXX  19001 76393 31650 71404 10353 20200 39542 40088 57015 70444 82106;
0217763930999992010081903004+25733-100300FM-12+051599999V0201201N002012200019N0020001N1+03121+02071101011ADDAY141031AY241031GA1011+010201081GF103991011011008001001011IA1019MA1999999095561MD1210141+0041MW1041REMSYN106AAXX  19031 76393 31520 31202 10312 20207 39556 40101 52014 70444 81101 90250 333 00305 30/// 58004 81834;
0161763930999992010081906004+25733-100300FM-12+051599999V0201501N001012200019N0025001N1+02821+02211101091ADDAY141061AY221061GF103991001001999999001081MA1999999095631MD1310071+9999MW1051REMSYN072AAXX  19061 76393 31925 31501 10282 20221 39563 40109 53007 70542 80008;
0217763930999992010081909004+25733-100300FM-12+051599999V0200401N001012200019N0020001N1+02541+02291100971ADDAY141031AY221031GA1031+003001061GF103991031021004501001001IA1019MA1999999095491MD1710141-0101MW1051REMSYN106AAXX  19091 76393 31420 30401 10254 20229 39549 40097 57014 70542 83200 90840 333 0/300 30/// 59010 83610;
0161763930999992010081912004+25733-100300FM-12+051599999V0200601N001010042019N0020001N1+02561+02261100991ADDAY141061AY221061GF108991081051004501999999MA1999999095471MD1710021+9999MW1051REMSYN072AAXX  19121 76393 31420 80601 10256 20226 39547 40099 57002 70542 885//;
0217763930999992010081915004+25733-100300FM-12+051599999V0201101N001010054019N0020001N1+02701+02261101201ADDAY141031AY221031GA1081+005401061GF108991081051004501999999IA1019MA1999999095641MD1210171-0111MW1051REMSYN106AAXX  19151 76393 31420 81101 10270 20226 39564 40120 52017 70542 885// 91450 333 0/3// 30/// 59011 88618;
0161763930999992010081918004+25733-100300FM-12+051599999V0201301N004012200019N0020001N1+03141+02181101231ADDAY141061AY211061GF103991031041008001001001MA1999999095681MD1410001+9999MW1051REMSYN072AAXX  19181 76393 31520 31304 10314 20218 39568 40123 54004 70541 83400;
0217763930999992010081921004+25733-100300FM-12+051599999V0201201N006012200019N0030001N1+03381+02141100891ADDAY141031AY211031GA1041+012301081GF104991041041012501001001IA1019MA1999999095391MD1710291-0181MW1051REMSYN106AAXX  19211 76393 31630 41206 10338 20214 39539 40089 57029 70541 84400 92055 333 00300 30/// 59018 84841;
0161763930999992010082000004+25733-100300FM-12+051599999V0201201N004012200019N0040001N1+03451+02031100711ADDAY141061AY201061GF103991021031012501001011MA1999999095261MD1710131+9999MW1071REMSYN072AAXX  20001 76393 31640 31204 10345 20203 39526 40071 57013 70740 82301;
0217763930999992010082003004+25733-100300FM-12+051599999V0201201N002012200019N0020001N1+03081+02061100741ADDAY141031AY241031GA1011+010201081GF101991011011008001001001IA1019MA1999999095311MD1210051-0251MW1051REMSYN106AAXX  20031 76393 31520 11202 10308 20206 39531 40074 52005 70544 81100 90250 333 00300 30/// 59025 81834;
0161763930999992010082006004+25733-100300FM-12+051599999V0201201N003012200019N0020001N1+02781+02141100821ADDAY141061AY201061GF101991011051008001001001MA1999999095381MD1210071+9999MW1051REMSYN072AAXX  20061 76393 31520 11203 10278 20214 39538 40082 52007 70540 81500;
0199763930999992010082009004+25733-100300FM-12+051599999V0200901N003012200019N0020001N1+02541+02121100761ADDAY141031AY201031GA1001+999999999GF100991001001999999001001IA1019MA1999999095291MD1110091-0201MW1051REMSYN088AAXX  20091 76393 31920 00903 10254 20212 39529 40076 51009 70540 90850 333 30/// 59020;
0161763930999992010082012004+25733-100300FM-12+051599999V0201101N001010042019N0020001N1+02561+02231100841ADDAY141061AY221061GF108991081051004501999999MA1999999095321MD1210031+9999MW1051REMSYN072AAXX  20121 76393 31420 81101 10256 20223 39532 40084 52003 70542 885//;
0217763930999992010082015004+25733-100300FM-12+051599999V0201001N002010048019N0020001N1+02601+02211101041ADDAY141031AY221031GA1081+004801061GF108991081051004501999999IA1019MA1999999095491MD1210171-0151MW1051REMSYN106AAXX  20151 76393 31420 81002 10260 20221 39549 40104 52017 70542 885// 91450 333 0/3// 30/// 59015 88616;
0161763930999992010082018004+25733-100300FM-12+051599999V0200501N001012200019N0010001N1+03041+02251101041ADDAY141061AY211061GF104991041041008001001001MA1999999095491MD1410001+9999MW1051REMSYN072AAXX  20181 76393 31510 40501 10304 20225 39549 40104 54000 70541 84400;
0211763930999992010082021004+25733-100300FM-12+051599999V0200901N003012200019N0030001N1+03521+99999100741ADDAY141031AY201031GA1021+003901081GF102991021021004501001001IA1019MA1999999095241MD1710251-0151MW1051REMSYN100AAXX  20211 76393 31430 20903 10352 39524 40074 57025 70540 82200 92055 333 00300 30/// 59015 82813;
0161763930999992010082100004+25733-100300FM-12+051599999V0201401N004012200019N0040001N1+03541+01831100511ADDAY141061AY241061GF101991011011017501001001MA1999999095071MD1710171+9999MW1071REMSYN072AAXX  21001 76393 31740 11404 10354 20183 39507 40051 57017 70744 81100;
0199763930999992010082103004+25733-100300FM-12+051599999V0201101N003012200019N0020001N1+03081+01841100681ADDAY141031AY241031GA1001+999999999GF100991001001999999001001IA1019MA1999999095251MD1210181-0061MW1051REMSYN088AAXX  21031 76393 31920 01103 10308 20184 39525 40068 52018 70544 90250 333 30/// 59006;
0251763930999992010082106004+25733-100300FM-12+051599999V0200901N005012200019N0020001N1+02721+02011100861ADDAY141061AY201061GA1001+999999999GF100991001001999999001001GJ104389IA1019KA1240M+03651KA2240N+02481MA1999999095421MD1210171+0041MW1051REMSYN106AAXX  21061 76393 31920 00905 10272 20201 39542 40086 52017 70540 90550 333 10365 20248 30/// 55073 58004;
0199763930999992010082109004+25733-100300FM-12+051599999V0200901N001012200019N0020001N1+02501+02111100891ADDAY141031AY201031GA1001+999999999GF100991001001999999001001IA1019MA1999999095411MD1510011+0121MW1051REMSYN088AAXX  21091 76393 31920 00901 10250 20211 39541 40089 55001 70540 90850 333 30/// 58012;
0161763930999992010082112004+25733-100300FM-12+051599999V0201201N002012200019N0020001N1+02421+02141101031ADDAY101061AY201061GF102991021051004501001001MA1999999095511MD1210101+9999MW1051REMSYN072AAXX  21121 76393 31420 21202 10242 20214 39551 40103 52010 70500 82500;
0217763930999992010082115004+25733-100300FM-12+051599999V0201101N002012200019N0030001N1+02701+02141101251ADDAY101031AY201031GA1021+006901061GF102991021041008001001001IA1019MA1999999095691MD1210181+0201MW1051REMSYN106AAXX  21151 76393 31530 21102 10270 20214 39569 40125 52018 70500 82400 91450 333 0/300 30/// 58020 82623;
0161763930999992010082118004+25733-100300FM-12+051599999V0201201N006010150019N0040001N1+03241+02001101201ADDAY141061AY221061GF105991051021017501001001MA1999999095651MD1710041+9999MW1091REMSYN072AAXX  21181 76393 31740 51206 10324 20200 39565 40120 57004 70942 85200;
0183763930999992010082121004+25733-100300FM-12+051599999V0201201N003010180019N0060001N1+03521+02051101021ADDGA1061+018001081GF106991061021017501001001IA1019MA1999999095521MD1710131+0281REMSYN094AAXX  21211 76393 32756 61203 10352 20205 39552 40102 57013 86200 92040 333 30/// 58028 86856;
0256763930999992010082200004+25733-100300FM-12+051599999V0201401N004012200019N0120001N1+03371+01961100931ADDAA124000091GA1021+014101081GF103991031021012501001001IA1019KA1120M+03601KA2180N+02381MA1999999095481MD1710041+0411REMSYN130AAXX  22001 76393 32662 31404 10337 20196 39548 40093 57004 83200 92350 333 01300 10360 20238 30/// 51071 58041 70000 82847 81647;
0217763930999992010082203004+25733-100300FM-12+051599999V0201101N005012200019N0020001N1+02951+02191101061ADDAY141031AY241031GA1021+007501081GF102991021021008001001001IA1019MA1999999095621MD1210141+0371MW1051REMSYN106AAXX  22031 76393 31520 21105 10295 20219 39562 40106 52014 70544 82200 90250 333 01300 30/// 58037 82825;
0161763930999992010082206004+25733-100300FM-12+051599999V0201101N004012200019N0020001N1+02721+02251101261ADDAY141061AY201061GF103991031051004501001001MA1999999095791MD1210171+9999MW1051REMSYN072AAXX  22061 76393 31420 31104 10272 20225 39579 40126 52017 70540 83500;
0217763930999992010082209004+25733-100300FM-12+051599999V0201001N002012200019N0020001N1+02501+02221101221ADDAY141031AY211031GA1041+003601061GF104991041051004501001001IA1019MA1999999095721MD1710021+0311MW1051REMSYN106AAXX  22091 76393 31420 41002 10250 20222 39572 40122 57002 70541 84500 90850 333 0/300 30/// 58031 84612;
0161763930999992010082212004+25733-100300FM-12+051599999V0200401N001010021019N0020001N1+02381+02181101361ADDAY141061AY231061GF108991081061002501999999MA1999999095801MD1210081+9999MW1051REMSYN072AAXX  22121 76393 31320 80401 10238 20218 39580 40136 52008 70543 886//;
0217763930999992010082215004+25733-100300FM-12+051599999V0201201N002010060019N0020001N1+02721+02221101551ADDAY141031AY231031GA1071+006001061GF107991071051999999999999IA1019MA1999999095961MD1210161+0271MW1051REMSYN106AAXX  22151 76393 31920 71202 10272 20222 39596 40155 52016 70543 875// 91440 333 0/3// 30/// 58027 87620;
0161763930999992010082218004+25733-100300FM-12+051599999V0200901N001012200019N0030001N1+03181+02101101481ADDAY141061AY201061GF101991011041012501001001MA1999999095901MD1410001+9999MW1051REMSYN072AAXX  22181 76393 31630 10901 10318 20210 39590 40148 54006 70540 81400;
0217763930999992010082221004+25733-100300FM-12+051599999V0200901N004012200019N0030001N1+03521+01841101181ADDAY141031AY201031GA1011+015001061GF101991011041017501001001IA1019MA1999999095661MD1710241+0141MW1051REMSYN106AAXX  22211 76393 31730 10904 10352 20184 39566 40118 57024 70540 81400 92055 333 0/300 30/// 58014 81650;
0161763930999992010082300004+25733-100300FM-12+051599999V0201201N005012200019N0040001N1+03361+01851101071ADDAY141061AY241061GF102991021021012501001001MA1999999095611MD1710051+9999MW1051REMSYN072AAXX  23001 76393 31640 21205 10336 20185 39561 40107 57005 70544 82200;
0195763930999992010082303004+25733-100300FM-12+051599999V0201701N001012200019N0020001N1+03061+01871101121ADDAY141031AY241031GF101991001001999999001011IA1019MA1999999095671MD1210061+0051MW1051REMSYN100AAXX  23031 76393 31920 11701 10306 20187 39567 40112 52006 70544 80001 90250 333 0/005 30/// 58005;
0251763930999992010082306004+25733-100300FM-12+051599999V0201101N001012200019N0020001N1+02661+02041101171ADDAY141061AY201061GA1001+999999999GF100991001001999999001001GJ106369IA1019KA1240M+03601KA2240N+02241MA1999999095711MD1210041-0081MW1051REMSYN106AAXX  23061 76393 31920 01101 10266 20204 39571 40117 52004 70540 90555 333 10360 20224 30/// 55106 59008;
0217763930999992010082309004+25733-100300FM-12+051599999V0200401N002012200019N0020001N1+02441+02071101201ADDAY141031AY201031GA1021+004501061GF102991021051004501001001IA1019MA1999999095701MD1510011-0021MW1051REMSYN106AAXX  23091 76393 31420 20402 10244 20207 39570 40120 55001 70540 82500 90850 333 0/300 30/// 59002 82615;
0161763930999992010082312004+25733-100300FM-12+051599999V0209999C000012200019N0020001N1+02341+02081101201ADDAY101061AY201061GF102991021051004501001001MA1999999095651MD1710051+9999MW1051REMSYN072AAXX  23121 76393 31420 20000 10234 20208 39565 40120 57005 70500 82500;
0199763930999992010082315004+25733-100300FM-12+051599999V0203201N001012200019N0030001N1+02721+02131101291ADDAY101031AY201031GA1001+999999999GF100991001001999999001001IA1019MA1999999095711MD1210061-0251MW1041REMSYN088AAXX  23151 76393 31930 03201 10272 20213 39571 40129 52006 70400 91455 333 30/// 59025;
0161763930999992010082318004+25733-100300FM-12+051599999V0201301N002012200019N0020001N1+03301+01911101251ADDAY141061AY221061GF101991001001999999001011MA1999999095681MD1710031+9999MW1051REMSYN072AAXX  23181 76393 31920 11302 10330 20191 39568 40125 57003 70542 80001;
0195763930999992010082321004+25733-100300FM-12+051599999V0201001N006012200019N0030001N1+03621+01941100941ADDAY141031AY221031GF102991011001999999031041IA1019MA1999999095441MD1710241-0221MW1051REMSYN100AAXX  23211 76393 31930 21006 10362 20194 39544 40094 57024 70542 81034 92040 333 0/055 30/// 59022;
0161763930999992010082400004+25733-100300FM-12+051599999V0201201N002012200019N0020001N1+03661+01461100781ADDAY141061AY241061GF102991001001999999001021MA1999999095341MD1710101+9999MW1051REMSYN072AAXX  24001 76393 31920 21202 10366 20146 39534 40078 57010 70544 80002;
0195763930999992010082403004+25733-100300FM-12+051599999V0201901N001012200019N0020001N1+03121+01741100791ADDAY141031AY241031GF102991001001999999001021IA1019MA1999999095381MD1210041-0291MW1051REMSYN100AAXX  24031 76393 31920 21901 10312 20174 39538 40079 52004 70544 80002 90250 333 0/003 30/// 59029;
0251763930999992010082406004+25733-100300FM-12+051599999V0202101N001012200019N0020001N1+02921+01721100831ADDAY141061AY201061GA1001+999999999GF100991001001999999001001GJ106849IA1019KA1240M+03741KA2240N+02301MA1999999095411MD1710031-0301MW1051REMSYN106AAXX  24061 76393 31920 02101 10292 20172 39541 40083 57003 70540 90550 333 10374 20230 30/// 55114 59030;
0199763930999992010082409004+25733-100300FM-12+051599999V0202001N001012200019N0020001N1+02501+01801100831ADDAY141031AY201031GA1001+999999999GF100991001001999999001001IA1019MA1999999095381MD1710031-0321MW1051REMSYN088AAXX  24091 76393 31920 02001 10250 20180 39538 40083 57003 70540 90850 333 30/// 59032;
0273763930999992010082412004+25733-100300FM-12+051599999V0209999C000012200019N0020001N1+02441+01791100931ADDAA124000091AY101061AY201061GA1001+999999999GF100991001001999999001001IA1019KA1240M+03741KA2120N+02381MA1999999095421MD1210041-0231MW1051REMSYN106AAXX  24121 76393 31920 00000 10244 20179 39542 40093 52004 70500 91150 333 10374 20238 30226 59023 70000;EQDQ01  00002PRCP24
0195763930999992010082415004+25733-100300FM-12+051599999V0202701N001012200019N0030001N1+03001+01781101081ADDAY101031AY201031GF102991001001999999001081IA1019MA1999999095531MD1210111-0181MW1051REMSYN100AAXX  24151 76393 31930 22701 10300 20178 39553 40108 52011 70500 80008 91450 333 0/005 30/// 59018;
0161763930999992010082418004+25733-100300FM-12+051599999V0201201N001012200019N0020001N1+03601+01451100971ADDAY141061AY201061GF102991001001999999001041MA1999999095541MD1410001+9999MW1051REMSYN072AAXX  24181 76393 31920 21201 10360 20145 39554 40097 54001 70540 80004;
0195763930999992010082421004+25733-100300FM-12+051599999V0200701N001012200019N0030001N1+03801+01241100861ADDAY141031AY201031GF101991001001999999001041IA1019MA1999999095401MD1610141-0041MW1051REMSYN100AAXX  24211 76393 31930 10701 10380 20124 39540 40086 56014 70540 80004 92055 333 0/005 30/// 59004;
0161763930999992010082500004+25733-100300FM-12+051599999V0201301N003019999999N0040001N1+03701+01261100701ADDAY141061AY221061GF105991001001999999001011MA1999999095301MD1710101+9999MW1051REMSYN072AAXX  25001 76393 31940 51303 10370 20126 39530 40070 57010 70542 80001;
0217763930999992010082503004+25733-100300FM-12+051599999V0202201N001012200019N0030001N1+03241+01461100801ADDAY141031AY221031GA1031+060001001GF103991001001999999001071IA1019MA1999999095431MD1210131+0051MW1051REMSYN106AAXX  25031 76393 31930 32201 10324 20146 39543 40080 52013 70542 80007 90240 333 0/005 30/// 58005 83070;
0251763930999992010082506004+25733-100300FM-12+051599999V0201601N001012200019N0020001N1+03021+01661100991ADDAY141061AY201061GA1001+999999999GF100991001001999999001001GJ106789IA1019KA1240M+03971KA2240N+02381MA1999999095591MD1210161+0181MW1051REMSYN106AAXX  25061 76393 31920 01601 10302 20166 39559 40099 52016 70540 90555 333 10397 20238 30/// 55113 58018;
0209763930999992010082509004+25733-100300FM-12+051599999V0200501N001012200019N0020001N1+02721+01921101101ADDAZ141031GA1021+009901061GF102991021051008001001001IA1019MA1999999095641MD1210051+0261MW1051REMSYN106AAXX  25091 76393 34520 20501 10272 20192 39564 40110 52005 70540 82500 90850 333 0/300 30/// 58026 82633;
0161763930999992010082512004+25733-100300FM-12+051599999V0200401N001012200019N0020001N1+02541+01941101291ADDAY101061AY201061GF103991031041008001001001MA1999999095781MD1210141+9999MW1051REMSYN072AAXX  25121 76393 31520 30401 10254 20194 39578 40129 52014 70500 83400;
0144763930999992010082515004+25733-100300FM-12+051599999V0200401N003019999999N0030001N1+02481+02081999999ADDGF108991999999004501999999REMSYN106AAXX  25151 76393 31430 80403 10248 20208 385// 39604 40160 52022 70522 91450 333 0/1// 30/// 58051 88617;
0161763930999992010082518004+25733-100300FM-12+051599999V0200501N001010075019N0020001N1+02621+01991101671ADDAY141061AY221061GF108991081051008001999999MA1999999096071MD1410001+9999MW1051REMSYN072AAXX  25181 76393 31520 80501 10262 20199 39607 40167 54003 70542 885//;
0234763930999992010082521004+25733-100300FM-12+051599999V0202701N001010105019N0020001N1+02981+02121101491ADDAA103000021AY141031AY231031GA1081+010501061GF108991081041012501999999IA1019MA1999999095911MD1710161+0511MW1501REMSYN112AAXX  25211 76393 21620 82701 10298 20212 39591 40149 57016 75043 884// 92055 333 0/1// 30/// 58051 69907 88635;
0318763930999992010082600004+25733-100300FM-12+051599999V0202301N001010360019N0040001N1+03001+02061101321ADDAA103002091AA206002092AA324001592AY151061AY241061GA1011+009301081GF105991031031008001031001IA1099KA1120M+03051KA2180N+02481MA1999999095761MD1710151+0461MW1041REMSYN148AAXX  26001 76393 01540 52301 10300 20206 39576 40132 57015 60021 70454 83330 92350 333 06350 10305 20248 31/// 50551 58046 60027 70015 81831 82935;
0217763930999992010082603004+25733-100300FM-12+051599999V0209999C000010057019N0020001N1+02531+01941101591ADDAY141031AY241031GA1051+005701061GF107991051051004501031999IA1019MA1999999096031MD1210271+0601MW1051REMSYN106AAXX  26031 76393 31420 70000 10253 20194 39603 40159 52027 70544 8553/ 90250 333 0/35/ 30/// 58060 85619;
0161763930999992010082606004+25733-100300FM-12+051599999V0202201N001010042019N0025001N1+02541+02121101631ADDAY121061AY221061GF108991081071004501999999MA1999999096061MD1010031+9999MW1501REMSYN072AAXX  26061 76393 21425 82201 10254 20212 39606 40163 50003 75022 887//;
0217763930999992010082609004+25733-100300FM-12+051599999V0202001N002010045019N0020001N1+02441+02081101571ADDAY141031AY231031GA1081+004501061GF108991081041004501999999IA1019MA1999999095991MD1710071+0251MW1051REMSYN106AAXX  26091 76393 31420 82002 10244 20208 39599 40157 57007 70543 884// 90840 333 0/399 30/// 58025 88615;
0161763930999992010082612004+25733-100300FM-12+051599999V0209999C000010042019N0020001N1+02441+02011101591ADDAY121061AY221061GF107991071051004501001001MA1999999095991MD1410001+9999MW1051REMSYN072AAXX  26121 76393 31420 70000 10244 20201 39599 40159 54000 70522 87500;
0217763930999992010082615004+25733-100300FM-12+051599999V0203201N001010060019N0020001N1+02541+02061101721ADDAY121031AY221031GA1061+006001061GF106991061051004501001001IA1019MA1999999096111MD1210121+0071MW1051REMSYN106AAXX  26151 76393 31420 63201 10254 20206 39611 40172 52012 70522 86500 91450 333 0/300 30/// 58007 86620;
0161763930999992010082618004+25733-100300FM-12+051599999V0200501N001019999999N0020001N1+03041+02031101741ADDAY141061AY221061GF107991071999022501041999MA1999999096131MD1410001+9999MW1051REMSYN072AAXX  26181 76393 31820 70501 10304 20203 39613 40174 54002 70542 87/4/;
0234763930999992010082621004+25733-100300FM-12+051599999V0202201N001010042019N0020001N1+02781+02371101571ADDAA103004091AY161031AY221031GA1081+004201061GF108991081051004501999999IA1019MA1999999096001MD1610131+0091MW1601REMSYN112AAXX  26211 76393 21420 82201 10278 20237 39600 40157 56013 76062 885// 92055 333 0/399 30/// 58009 60047 88614;
0161763930999992010082700004+25733-100300FM-12+051599999V0209999C000010360019N0030001N1+03041+01961101381ADDAY151061AY241061GF106991021031008001031001MA1999999095831MD1710171+9999MW1041REMSYN072AAXX  27001 76393 31530 60000 10304 20196 39583 40138 57017 70454 82330;
0217763930999992010082703004+25733-100300FM-12+051599999V0200901N001010060019N0020001N1+02591+01981101481ADDAY141031AY241031GA1071+006001061GF107991071051008001999999IA1099MA1999999095941MD1210111-0091MW1041REMSYN106AAXX  27031 76393 31520 70901 10259 20198 39594 40148 52011 70444 875// 90250 333 0/3// 31/// 59009 87620;
0161763930999992010082706004+25733-100300FM-12+051599999V0202401N002010021019N0020001N1+02361+02191101551ADDAY151061AY221061GF108991081061002501999999MA1999999095991MD1710051+9999MW1051REMSYN072AAXX  27061 76393 21320 82402 10236 20219 39599 40155 57005 70552 886//;
0217763930999992010082709004+25733-100300FM-12+051599999V0209999C000010033019N0020001N1+02341+02081101431ADDAY141031AY221031GA1081+003301061GF108991081051004501999999IA1019MA1999999095851MD1610141-0141MW1051REMSYN106AAXX  27091 76393 31420 80000 10234 20208 39585 40143 56014 70542 885// 90855 333 0/399 30/// 59014 88611;
0161763930999992010082712004+25733-100300FM-12+051599999V0201801N001012200019N0020001N1+02381+02011101431ADDAY101061AY201061GF102991021051004501001001MA1999999095831MD1710021+9999MW1051REMSYN072AAXX  27121 76393 31420 21801 10238 20201 39583 40143 57002 70500 82500;
0217763930999992010082715004+25733-100300FM-12+051599999V0201801N001010063019N0020001N1+02621+02111101541ADDAY141031AY221031GA1081+006301061GF108991081051008001999999IA1019MA1999999095921MD1210091-0191MW1051REMSYN106AAXX  27151 76393 31520 81801 10262 20211 39592 40154 52009 70542 885// 91450 333 0/3// 30/// 59019 88621;
0161763930999992010082718004+25733-100300FM-12+051599999V0201201N004012200019N0020001N1+03161+01841101451ADDAY141061AY201061GF102991021041012501001001MA1999999095861MD1410001+9999MW1051REMSYN072AAXX  27181 76393 31620 21204 10316 20184 39586 40145 54006 70540 82400;
0217763930999992010082721004+25733-100300FM-12+051599999V0200901N002012200019N0020001N1+03341+01861101171ADDAY141031AY201031GA1021+014701081GF102991021041012501001001IA1019MA1999999095641MD1710221-0361MW1051REMSYN106AAXX  27211 76393 31620 20902 10334 20186 39564 40117 57022 70540 82400 92055 333 00300 30/// 59036 82849;
0161763930999992010082800004+25733-100300FM-12+051599999V0201201N004012200019N0030001N1+03151+01851100971ADDAY141061AY241061GF102991011011012501001011MA1999999095491MD1710151+9999MW1041REMSYN072AAXX  28001 76393 31630 21204 10315 20185 39549 40097 57015 70444 81101;
0195763930999992010082803004+25733-100300FM-12+051599999V0201401N001012200019N0020001N1+02941+01741100981ADDAY141031AY241031GF102991001001999999001011IA1019MA1999999095511MD1210021-0431MW1041REMSYN100AAXX  28031 76393 31920 21401 10294 20174 39551 40098 52002 70444 80001 90250 333 0/005 30/// 59043;
0251763930999992010082806004+25733-100300FM-12+051599999V0200601N001012200019N0020001N1+02681+01971101021ADDAY141061AY201061GA1001+999999999GF100991001001999999001001GJ104449IA1019KA1240M+03431KA2240N+02321MA1999999095541MD1810031-0451MW1051REMSYN106AAXX  28061 76393 31920 00601 10268 20197 39554 40102 58003 70540 90555 333 10343 20232 30/// 55074 59045;
0199763930999992010082809004+25733-100300FM-12+051599999V0200601N001012200019N0020001N1+02361+02021101011ADDAY141031AY201031GA1001+999999999GF100991001001999999001001IA1019MA1999999095491MD1710051-0361MW1051REMSYN088AAXX  28091 76393 31920 00601 10236 20202 39549 40101 57005 70540 90850 333 30/// 59036;
0273763930999992010082812004+25733-100300FM-12+051599999V0209999C000012200019N0020001N1+02361+02021101061ADDAA124000091AY101061AY201061GA1001+999999999GF100991001001999999001001IA1019KA1240M+03431KA2120N+02281MA1999999095511MD1210021-0321MW1051REMSYN106AAXX  28121 76393 31920 00000 10236 20202 39551 40106 52002 70500 91150 333 10343 20228 30214 59032 70000;EQDQ01  00002PRCP24
0199763930999992010082815004+25733-100300FM-12+051599999V0200501N001012200019N0020001N1+02621+02021101191ADDAY101031AY201031GA1001+999999999GF100991001001999999001001IA1019MA1999999095611MD1210101-0311MW1051REMSYN088AAXX  28151 76393 31920 00501 10262 20202 39561 40119 52010 70500 91450 333 30/// 59031;
0161763930999992010082818004+25733-100300FM-12+051599999V0200901N005012200019N0020001N1+03201+01921101121ADDAY101061AY201061GF103991031011017501001001MA1999999095551MD1710061+9999MW1041REMSYN072AAXX  28181 76393 31720 30905 10320 20192 39555 40112 57006 70400 83100;
0223763930999992010082821004+25733-100300FM-12+051599999V0201401N00501015001CN0030001N1+03201+01921100841ADDAY111031AY211031GA1021+015001061GF106991061041017501001001IA1019MA1999999095321MD1710231-0321MW1041REMSYN112AAXX  28211 76393 31730 61405 10320 20192 39532 40084 57023 70411 86400 92045 333 00300 30/// 59032 82650 84856;
0147763930999992010082906004+25733-100300FM-12+051599999V0201301N004012200019N0020001N1+02721+02041100831ADDAY141061AY201061GF103991031051008001001001MA1999999095361MW1051REMSYN072AAXX  29061 76393 31520 31304 10272 20204 39536 40083 5//// 70540 83500;
0217763930999992010082909004+25733-100300FM-12+051599999V0200501N002012200019N0020001N1+02461+02211100841ADDAY141031AY211031GA1041+002401061GF104991041051002501001001IA1019MA1999999095331MD1610031-0161MW1051REMSYN106AAXX  29091 76393 31320 40502 10246 20221 39533 40084 56003 70541 84500 90855 333 0/300 30/// 59016 84608;
0217763930999992010082915004+25733-100300FM-12+051599999V0200301N001010057019N0020001N1+02701+02231101031ADDAY121031AY221031GA1051+005701061GF105991051051004501001001IA1019MA1999999095471MD1210081+0141MW1041REMSYN106AAXX  29151 76393 31420 50301 10270 20223 39547 40103 52008 70422 85500 91450 333 0/300 30/// 58014 85619;
0161763930999992010082918004+25733-100300FM-12+051599999V0201201N005012200019N0020001N1+03141+02151101021ADDAY101061AY201061GF103991031011012501001001MA1999999095471MD1410001+9999MW1051REMSYN072AAXX  29181 76393 31620 31205 10314 20215 39547 40102 54000 70500 83100;
0287763930999992010083006004+25733-100300FM-12+051599999V0200801N002012200019N0020001N1+02721+02131100931ADDAA124000091AY141061AY201061GA1001+999999999GF100991001001999999001001GJ105169IA1019KA1240M+03461KA2240N+02381MA1999999095401MD1999999+0041MW1051REMSYN112AAXX  30061 76393 31920 00802 10272 20213 39540 40093 5//// 70540 90555 333 10346 20238 30238 55086 58004 70000;EQDQ01  00002PRCP24
0199763930999992010083009004+25733-100300FM-12+051599999V0201001N002012200019N0020001N1+02561+02141100981ADDAY141031AY201031GA1001+999999999GF100991001001999999001001IA1019MA1999999095441MD1210041+0111MW1051REMSYN088AAXX  30091 76393 31920 01002 10256 20214 39544 40098 52004 70540 90850 333 30/// 58011;
0161763930999992010083012004+25733-100300FM-12+051599999V0201101N002010042019N0020001N1+02661+02151101111ADDAY121061AY221061GF105991051051004501001001MA1999999095521MD1210081+9999MW1051REMSYN072AAXX  30121 76393 31420 51102 10266 20215 39552 40111 52008 70522 85500;
0217763930999992010083015004+25733-100300FM-12+051599999V0201201N002010054019N0020001N1+02601+02151101301ADDAY121031AY221031GA1061+005401061GF106991061051004501001001IA1019MA1999999095711MD1210191+0241MW1051REMSYN106AAXX  30151 76393 31420 61202 10260 20215 39571 40130 52019 70522 86500 91450 333 0/300 30/// 58024 86618;
0161763930999992010083018004+25733-100300FM-12+051599999V0201101N006012200019N0020001N1+03161+02101101291ADDAY101061AY201061GF103991031011012501001001MA1999999095731MD1210011+9999MW1041REMSYN072AAXX  30181 76393 31620 31106 10316 20210 39573 40129 52001 70400 83100;
0217763930999992010083021004+25733-100300FM-12+051599999V0201401N005010180019N0030001N1+03461+02081101041ADDAY111031AY211031GA1061+018001081GF106991061011017501001001IA1019MA1999999095521MD1710211+9999MW1041REMSYN106AAXX  30211 76393 31730 61405 10346 20208 39552 40104 57021 70411 86100 92050 333 00300 30/// 58/// 86856;
0161763930999992010083100004+25733-100300FM-12+051599999V0201101N005012200019N0030001N1+03421+01891100881ADDAY101061AY201061GF104991041011017501001001MA1999999095421MD1710101+9999MW1041REMSYN072AAXX  31001 76393 31730 41105 10342 20189 39542 40088 57010 70400 84100;
0147763930999992010083106004+25733-100300FM-12+051599999V0201101N004012200019N0020001N1+02701+02321101281ADDAY141061AY201061GF103991031051004501001001MA1999999095731MW1051REMSYN072AAXX  31061 76393 31420 31104 10270 20232 39573 40128 5//// 70540 83500;
0268763930999992010083109004+25733-100300FM-12+051599999V0201301N003012200019N0020001N1+02541+02291101221ADDAY141031AY201031GA1031+003001061GF199999999999999999001001IA1019MA1999999095661MD1710071+0221MW1051REMSYN106AAXX  31091 76393 31420 01303 10254 20229 39566 40122 57007 70540 83500 90850 333 0/300 30/// 58022 83610;EQDQ01+000002SCOTCVQ02+000002SCOTLCQ03+000002SCOLCG
0161763930999992010083112004+25733-100300FM-12+051599999V0200901N002010021019N0020001N1+02521+02301101241ADDAY141061AY221061GF106991061061002501001001MA1999999095671MD1210071+9999MW1051REMSYN072AAXX  31121 76393 31320 60902 10252 20230 39567 40124 52007 70542 86600;
0217763930999992010083115004+25733-100300FM-12+051599999V0201001N002010045019N0020001N1+02621+02261101361ADDAY141031AY221031GA1061+004501061GF106991061051004501001001IA1019MA1999999095781MD1210111+0071MW1051REMSYN106AAXX  31151 76393 31420 61002 10262 20226 39578 40136 52011 70542 86500 91450 333 0/300 30/// 58007 86615;
0161763930999992010083118004+25733-100300FM-12+051599999V0201201N006010150019N0030001N1+03381+02141101311ADDAY111061AY211061GF106991061021017501001001MA1999999095751MD1710031+9999MW1041REMSYN072AAXX  31181 76393 31730 61206 10338 20214 39575 40131 57003 70411 86200;
0217763930999992010083121004+25733-100300FM-12+051599999V0201201N006010180019N0050001N1+03541+02011101021ADDAY111031AY211031GA1051+018001081GF105991051011017501001001IA1019MA1999999095521MD1710231+0001MW1041REMSYN106AAXX  31211 76393 31750 51206 10354 20201 39552 40102 57023 70411 85100 92045 333 01300 30/// 58000 85856;
0147763930999992010090106004+25733-100300FM-12+051599999V0201001N003012200019N0020001N1+02761+02181101081ADDAY141061AY201061GF102991021051008001001001MA1999999095621MW1051REMSYN072AAXX  01061 76393 31520 21003 10276 20218 39562 40108 5//// 70540 82500;
0217763930999992010090109004+25733-100300FM-12+051599999V0200901N002012200019N0020001N1+02521+02161101021ADDAY141031AY201031GA1011+004501061GF101991011051004501001001IA1019MA1999999095541MD1710081-0121MW1051REMSYN106AAXX  01091 76393 31420 10902 10252 20216 39554 40102 57008 70540 81500 90850 333 0/300 30/// 59012 81615;
0161763930999992010090112004+25733-100300FM-12+051599999V0200601N002012200019N0020001N1+02421+02171101101ADDAY101061AY201061GF104991041051004501001001MA1999999095571MD1210031+9999MW1051REMSYN072AAXX  01121 76393 31420 40602 10242 20217 39557 40110 52003 70500 84500;
0217763930999992010090115004+25733-100300FM-12+051599999V0200901N001010048019N0020001N1+02601+02211101191ADDAY121031AY221031GA1071+004801061GF107991071051004501001001IA1019MA1999999095621MD1210051-0161MW1051REMSYN106AAXX  01151 76393 31420 70901 10260 20221 39562 40119 52005 70522 87500 91450 333 0/300 30/// 59016 87616;
0161763930999992010090118004+25733-100300FM-12+051599999V0200701N003012200019N0020001N1+03201+02181101111ADDAY101061AY201061GF102991021011012501001001MA1999999095551MD1710071+9999MW1041REMSYN072AAXX  01181 76393 31620 20703 10320 20218 39555 40111 57007 70400 82100;
0217763930999992010090121004+25733-100300FM-12+051599999V0201401N005012200019N0050001N1+03461+01811100781ADDAY111031AY211031GA1041+018001081GF104991041011017501001001IA1019MA1999999095281MD1710271-0241MW1041REMSYN106AAXX  01211 76393 31750 41405 10346 20181 39528 40078 57027 70411 84100 92045 333 00300 30/// 59024 84856;
0287763930999992010090212004+25733-100300FM-12+051599999V0200601N001012200019N0020001N1+02421+02221100941ADDAA124000091AY101061AY201061GA1001+999999999GF100991001001999999001001GJ105589IA1019KA1240M+03661KA2120N+02381MA1999999095361MD1999999-0311MW1051REMSYN112AAXX  02121 76393 31920 00601 10242 20222 39536 40094 5//// 70500 91150 333 10366 20238 30230 55093 59031 70000;EQDQ01  00002PRCP24
0217763930999992010090215004+25733-100300FM-12+051599999V0200601N001010048019N0020001N1+02661+02271101041ADDAY121031AY221031GA1061+004801061GF106991061051004501001001IA1019MA1999999095481MD1210121-0141MW1051REMSYN106AAXX  02151 76393 31420 60601 10266 20227 39548 40104 52012 70522 86500 91450 333 0/700 30/// 59014 86616;
0161763930999992010090218004+25733-100300FM-12+051599999V0201201N005012200019N0020001N1+03281+02281100991ADDAY101061AY201061GF103991031021012501001001MA1999999095471MD1710011+9999MW1021REMSYN072AAXX  02181 76393 31620 31205 10328 20228 39547 40099 57001 70200 83200;
0217763930999992010090221004+25733-100300FM-12+051599999V0201201N005012200019N0060001N1+03541+02041100771ADDAY101031AY201031GA1031+018001081GF103991031011017501001001IA1019MA1999999095301MD1710171+0021MW1021REMSYN106AAXX  02211 76393 31756 31205 10354 20204 39530 40077 57017 70200 83100 92050 333 00300 30/// 58002 83856;
0147763930999992010090306004+25733-100300FM-12+051599999V0201101N005012200019N0020001N1+02801+02251101021ADDAY141061AY201061GF102991021051008001001001MA1999999095581MW1051REMSYN072AAXX  03061 76393 31520 21105 10280 20225 39558 40102 5//// 70540 82500;
0217763930999992010090309004+25733-100300FM-12+051599999V0200901N001012200019N0020001N1+02621+02291101031ADDAY141031AY201031GA1011+003901061GF101991011051004501001001IA1019MA1999999095561MD1710021+9999MW1051REMSYN106AAXX  03091 76393 31420 10901 10262 20229 39556 40103 57002 70540 81500 90850 333 0/300 30/// 59/// 81613;
0161763930999992010090312004+25733-100300FM-12+051599999V0200601N001010042019N0020001N1+02601+02271101191ADDAY121061AY221061GF106991061051004501001001MA1999999095671MD1210111+9999MW1051REMSYN072AAXX  03121 76393 31420 60601 10260 20227 39567 40119 52011 70522 86500;
0217763930999992010090315004+25733-100300FM-12+051599999V0201101N002010048019N0030001N1+02681+02301101381ADDAY121031AY221031GA1081+004801061GF108991081051004501999999IA1019MA1999999095821MD1210151+0341MW1051REMSYN106AAXX  03151 76393 31430 81102 10268 20230 39582 40138 52015 70522 885// 91450 333 0/3// 30/// 58034 88616;
0161763930999992010090318004+25733-100300FM-12+051599999V0201101N001010120019N0020001N1+03201+02221101371ADDAY121061AY221061GF105991051021012501001001MA1999999095821MD1410001+9999MW1021REMSYN072AAXX  03181 76393 31620 51101 10320 20222 39582 40137 54000 70222 85200;
0240763930999992010090321004+25733-100300FM-12+051599999V0200101N001010027019N0010001N1+02401+02181101481ADDAA103003091AY151031AY251031GA1081+002701061GF108991081061002501999999IA1099MA1999999095911MD1210091+0611MW1501REMSYN118AAXX  03211 76393 21310 80101 10240 20218 39591 40148 52009 75055 886// 92055 333 0/899 31/// 54118 58061 60037 88609;
0147763930999992010090406004+25733-100300FM-12+051599999V0203501N001010006019N0020001N1+02301+02241101711ADDAY151061AY221061GF107991071061000751999999MA1999999096071MW1051REMSYN072AAXX  04061 76393 21120 73501 10230 20224 39607 40171 5//// 70552 876//;
0240763930999992010090409004+25733-100300FM-12+051599999V0201001N001010006019N0010001N1+02241+02181101601ADDAA103021091AY151031AY221031GA1061+000601071GF108991081061000751999999IA1119MA1999999095951MD1710121+0391MW1051REMSYN118AAXX  04091 76393 21110 81001 10224 20218 39595 40160 57012 70552 886// 90855 333 0/399 32/// 58039 60217 86702 82608;
0306763930999992010090412004+25733-100300FM-12+051599999V0200401N002010012019N0010001N1+02221+02131101601ADDAA103008091AA206027991AA324045991AY121061AY221061GA1081+001201071GF108991081061001501001001IA1019KA1240M+03441KA2120N+02181MA1999999095951MD1410001+0281MW1611REMSYN136AAXX  04121 76393 01210 80402 10222 20213 39595 40160 54000 60281 76122 88600 91155 333 0/3// 10344 20218 30210 58028 60087 70459 88704;
0234763930999992010090415004+25733-100300FM-12+051599999V0209999C000010018019N0010001N1+02301+02161101741ADDAA103002091AY121031AY221031GA1081+001801071GF108991081061001501999999IA1119MA1999999096081MD1210131+0261MW1501REMSYN112AAXX  04151 76393 21210 80000 10230 20216 39608 40174 52013 75022 886// 91455 333 0/3// 32/// 58026 60027 88706;
0289763930999992010090418004+25733-100300FM-12+051599999V0200601N001010048019N0020001N1+02601+02211101681ADDAA103002091AA206004191AY151061AY251061GA1071+004801061GF107991071061004501999999IA1099KA1120M+02701KA2240N+02181MA1999999096041MD1710041+0221MW1501REMSYN130AAXX  04181 76393 01420 70601 10260 20221 39604 40168 57004 60041 75055 876// 91750 333 0/399 10270 20218 31/// 58022 60027 87616;
0247763930999992010090421004+25733-100300FM-12+051599999V0203301N003010012019N0010001N1+02221+02131101461ADDAA103023091AY161031AY261031GA1081+001201071GF108991081071001501999999IA1119MA1999999095841MD1710201-0071REMSYN112AAXX  04211 76393 21210 83303 10222 20213 39584 40146 57020 76766 887// 92055 333 0/399 32/// 59007 60237 88704;EQDQ01+000672PRSWM1
0333763930999992010090506004+25733-100300FM-12+051599999V0202301N00101001201CN0010001N1+02261+02151101401ADDAA103003091AY151061AY221061GA1041+001501071GF107991071061001501999999GJ100069IA1099KA1240M+02741KA2240N+02181MA1999999095791MD1999999-0281MW1051REMSYN142AAXX  05061 76393 01210 72301 10226 20215 39579 40140 5//// 69901 70552 876// 90555 333 0/399 10274 20218 31/// 55001 59028 60037 84705 83608;EQDQ01  00002PRCP06Q02  00002PRCP06
0259763930999992010090509004+25733-100300FM-12+051599999V0202401N001012200019N0010001N1+02201+02111101191ADDAA103000091AY141031AY221031GA1011+001201071GF102991021061001501001001IA1099MA1999999095571MD1710221-0381MW1051REMSYN118AAXX  05091 76393 21210 22401 10220 20211 39557 40119 57022 70542 82600 90855 333 0/800 31/// 59038 69907 81704 81608;EQDQ01  00002PRCP03
0217763930999992010090521004+25733-100300FM-12+051599999V0200901N002012200019N0030001N1+03081+01741100961ADDAY141031AY211031GA1021+013501081GF102991021041012501001001IA1019MA1999999095401MD1610121-0441MW1051REMSYN106AAXX  05211 76393 31630 20902 10308 20174 39540 40096 56012 70541 82400 92055 333 00300 30/// 59044 82845;
0161763930999992010090600004+25733-100300FM-12+051599999V0201201N002012200019N0030001N1+03081+01841100731ADDAY141061AY241061GF102991021031012501001001MA1999999095231MD1710171+9999MW1041REMSYN072AAXX  06001 76393 31630 21202 10308 20184 39523 40073 57017 70444 82300;
0217763930999992010090603004+25733-100300FM-12+051599999V0201401N002012200019N0020001N1+02761+02021100911ADDAY141031AY241031GA1031+007201061GF103991031051008001001001IA1099MA1999999095421MD1210191+9999MW1041REMSYN106AAXX  06031 76393 31520 31402 10276 20202 39542 40091 52019 70444 83500 90250 333 0/300 31/// 58/// 83624;
0161763930999992010090606004+25733-100300FM-12+051599999V0200701N001010075019N0020001N1+02641+02111100931ADDAY141061AY211061GF106991061051008001001001MA1999999095441MD1710021+9999MW1051REMSYN072AAXX  06061 76393 31520 60701 10264 20211 39544 40093 57002 70541 86500;
0217763930999992010090609004+25733-100300FM-12+051599999V0201901N001012200019N0020001N1+02441+02071100791ADDAY141031AY201031GA1011+004501061GF101991011051004501001001IA1019MA1999999095281MD1710161-0291MW1051REMSYN106AAXX  06091 76393 31420 11901 10244 20207 39528 40079 57016 70540 81500 90855 333 0/300 30/// 59029 81615;
0161763930999992010090612004+25733-100300FM-12+051599999V0209999C000012200019N0020001N1+02461+02121100801ADDAY101061AY201061GF102991021051004501001001MA1999999095261MD1710021+9999MW1051REMSYN072AAXX  06121 76393 31420 20000 10246 20212 39526 40080 57002 70500 82500;
0161763930999992010090618004+25733-100300FM-12+051599999V0200501N001012200019N0020001N1+03021+02041100961ADDAY141061AY211061GF103991031041008001001001MA1999999095411MD1410001+9999MW1051REMSYN072AAXX  06181 76393 31520 30501 10302 20204 39541 40096 54001 70541 83400;
0217763930999992010090621004+25733-100300FM-12+051599999V0201201N002012200019N0030001N1+03121+01891100591ADDAY141031AY211031GA1021+012301081GF103991021041012501001041IA1019MA1999999095101MD1710311-0301MW1051REMSYN106AAXX  06211 76393 31630 31202 10312 20189 39510 40059 57031 70541 82404 92055 333 00305 30/// 59030 82841;
0161763930999992010090700004+25733-100300FM-12+051599999V0200201N002010900019N0040001N1+03081+01881100471ADDAY141061AY241061GF106991041021012501001021MA1999999095011MD1710091+9999MW1041REMSYN072AAXX  07001 76393 31640 60202 10308 20188 39501 40047 57009 70444 84202;
0234763930999992010090703004+25733-100300FM-12+051599999V0201101N002010039019N0020001N1+02661+02251100671ADDAA103000791AY141031AY241031GA1051+003901061GF105991051051004501001001IA1099MA1999999095211MD1210201-0211MW1501REMSYN112AAXX  07031 76393 21420 51102 10266 20225 39521 40067 52020 75044 85500 90255 333 0/300 31/// 59021 69977 85613;
0267763930999992010090706004+25733-100300FM-12+051599999V0200601N003010048019N0020001N1+02521+02141100811ADDAA106001091AY141061AY221061GA1071+004801061GF107991071051004501999999GJ105529IA1099KA1240M+03421MA1999999095331MD1010121-0111MW1051REMSYN124AAXX  07061 76393 11420 70603 10252 20214 39533 40081 50012 60011 70542 875// 90555 333 0/899 10342 31/// 55092 59011 87616;
0240763930999992010090709004+25733-100300FM-12+051599999V0202501N001012200019N0020001N1+02421+02331100671ADDAA103004091AY141031AY211031GA1021+000901071GF104991041061001501001001IA1099MA1999999095161MD1710171-0121MW1051REMSYN118AAXX  07091 76393 21220 42501 10242 20233 39516 40067 57017 70541 84600 90855 333 0/300 31/// 59012 60047 82703 82614;
0161763930999992010090712004+25733-100300FM-12+051599999V0200901N001010021019N0020001N1+02461+02301100791ADDAY121061AY221061GF105991051061002501001001MA1999999095241MD1210081+9999MW1051REMSYN072AAXX  07121 76393 31320 50901 10246 20230 39524 40079 52008 70522 85600;
0217763930999992010090715004+25733-100300FM-12+051599999V0201401N001012200019N0030001N1+02761+02271101011ADDAY101031AY201031GA1031+006001081GF103991031021008001001001IA1019MA1999999095441MD1210201+0041MW1051REMSYN106AAXX  07151 76393 31530 31401 10276 20227 39544 40101 52020 70500 83200 91450 333 0/300 30/// 58004 83820;
0161763930999992010090718004+25733-100300FM-12+051599999V0201101N003010120019N0030001N1+03121+02251101001ADDAY121061AY221061GF107991071051012501999999MA1999999095451MD1210011+9999MW1051REMSYN072AAXX  07181 76393 31630 71103 10312 20225 39545 40100 52001 70522 875//;
0217763930999992010090721004+25733-100300FM-12+051599999V0200901N003010087019N0080001N1+03161+02291100771ADDAY141031AY221031GA1071+008701061GF107991071051008001999999IA1019MA1999999095261MD1610191+0161MW1051REMSYN106AAXX  07211 76393 31558 70903 10316 20229 39526 40077 56019 70542 875// 92055 333 0/399 30/// 58016 87629;
0161763930999992010090800004+25733-100300FM-12+051599999V0201301N002010075019N0040001N1+03001+02261100691ADDAY141061AY241061GF107991071021008001999999MA1999999095221MD1610041+9999MW1051REMSYN072AAXX  08001 76393 21540 71302 10300 20226 39522 40069 56004 70544 872//;
0217763930999992010090803004+25733-100300FM-12+051599999V0200901N001012200019N0030001N1+02821+02301100881ADDAY141031AY241031GA1021+006301081GF104991021021008001041001IA1019MA1999999095411MD1210191+0201MW1051REMSYN106AAXX  08031 76393 31530 40901 10282 20230 39541 40088 52019 70544 82240 90230 333 0/350 30/// 58020 82821;
0161763930999992010090806004+25733-100300FM-12+051599999V0201201N002012200019N0030001N1+02741+02331100941ADDAY141061AY201061GF103991031051004501001001MA1999999095451MD1110041+9999MW1051REMSYN072AAXX  08061 76393 31430 31202 10274 20233 39545 40094 51004 70540 83500;
0223763930999992010090809004+25733-100300FM-12+051599999V0201201N00201001201CN0020001N1+02521+02381100861ADDAY141031AY221031GA1021+001801071GF108991081061001501999999IA1019MA1999999095351MD1710101+0191MW1051REMSYN112AAXX  08091 76393 31220 81202 10252 20238 39535 40086 57010 70542 886// 90855 333 0/399 30/// 58019 82706 86509;
0161763930999992010090812004+25733-100300FM-12+051599999V0201201N002010021019N0020001N1+02541+02351100911ADDAY121061AY221061GF108991081061002501999999MA1999999095371MD1210021+9999MW1051REMSYN072AAXX  08121 76393 31320 81202 10254 20235 39537 40091 52002 70522 886//;
0217763930999992010090815004+25733-100300FM-12+051599999V0201001N002010045019N0020001N1+02681+02321101041ADDAY121031AY221031GA1081+004501061GF108991081051004501999999IA1019MA1999999095491MD1210121+0051MW1051REMSYN106AAXX  08151 76393 31420 81002 10268 20232 39549 40104 52012 70522 885// 91450 333 0/3// 30/// 58005 88615;
0161763930999992010090818004+25733-100300FM-12+051599999V0200901N002010042019N0020001N1+02901+02301101071ADDAY141061AY211061GF106991061051004501001001MA1999999095521MD1410001+9999MW1051REMSYN072AAXX  08181 76393 31420 60902 10290 20230 39552 40107 54003 70541 86500;
0194763930999992010090821004+25733-100300FM-12+051599999V0200901N001010075019N0020001N1+03101+02291100821ADDAY141031AY221031GF108991081051008001999999MA1999999095301MD1710221+0041MW1051REMSYN105AAXX  08211 76393 31520 80901 10310 20229 39530 40082 57022 70542 885// 9255 333 0/399 30/// 58004 88627;
0161763930999992010090900004+25733-100300FM-12+051599999V0201201N003010075019N0030001N1+03071+02361100751ADDAY141061AY241061GF106991051031008001001011MA1999999095261MD1710041+9999MW1041REMSYN072AAXX  09001 76393 31530 61203 10307 20236 39526 40075 57004 70444 85301;
0217763930999992010090903004+25733-100300FM-12+051599999V0202001N001012200019N0020001N1+02801+02281100791ADDAY141031AY241031GA1041+004501061GF104991041051004501001001IA1019MA1999999095311MD1210051-0101MW1041REMSYN106AAXX  09031 76393 31420 42001 10280 20228 39531 40079 52005 70444 84500 90250 333 0/300 30/// 59010 84615;
0147763930999992010090912004+25733-100300FM-12+051599999V0201101N002010021019N0020001N1+02501+02311100871ADDAY121061AY221061GF108991081061002501999999MA1999999095301MW1051REMSYN072AAXX  09121 76393 31320 81102 10250 20231 39530 40087 5//// 70522 886//;
0161763930999992010090918004+25733-100300FM-12+051599999V0201301N001010042019N0020001N1+02821+02271100991ADDAY141061AY221061GF108991081051004501999999MA1999999095441MD1410001+9999MW1051REMSYN072AAXX  09181 76393 31420 81301 10282 20227 39544 40099 54001 70542 885//;
0217763930999992010090921004+25733-100300FM-12+051599999V0201201N001010087019N0020001N1+03161+02291100721ADDAY141031AY211031GA1061+008701061GF106991061051008001001001IA1019MA1999999095211MD1710231-0091MW1051REMSYN106AAXX  09211 76393 31520 61201 10316 20229 39521 40072 57023 70541 86500 92055 333 0/300 30/// 59009 86629;
0161763930999992010091000004+25733-100300FM-12+051599999V0201201N005012200019N0030001N1+03101+02211100521ADDAY141061AY241061GF102991021021008001001001MA1999999095051MD1710161+9999MW1041REMSYN072AAXX  10001 76393 31530 21205 10310 20221 39505 40052 57016 70444 82200;
0161763930999992010091006004+25733-100300FM-12+051599999V0200601N001012200019N0020001N1+02641+02401100751ADDAY141061AY201061GF102991021051002501001001MA1999999095271MD1110121+9999MW1051REMSYN072AAXX  10061 76393 31320 20601 10264 20240 39527 40075 51012 70540 82500;
0217763930999992010091009004+25733-100300FM-12+051599999V0201001N002010027019N0020001N1+02561+02351100751ADDAY141031AY221031GA1061+002701061GF106991061051002501999999IA1019MA1999999095261MD1610011+9999MW1051REMSYN106AAXX  10091 76393 31320 61002 10256 20235 39526 40075 56001 70542 865// 90855 333 0/399 30/// 58/// 86609;
0161763930999992010091012004+25733-100300FM-12+051599999V0201001N002010012019N0020001N1+02521+02381100811ADDAY141061AY221061GF108991081061001501999999MA1999999095281MD1210021+9999MW1051REMSYN072AAXX  10121 76393 31220 81002 10252 20238 39528 40081 52002 70542 886//;
0217763930999992010091015004+25733-100300FM-12+051599999V0200901N002010030019N0020001N1+02601+02351101021ADDAY141031AY221031GA1081+003001061GF108991081051004501999999IA1019MA1999999095461MD1210181+0031MW1051REMSYN106AAXX  10151 76393 31420 80902 10260 20235 39546 40102 52018 70542 885// 91450 333 0/3// 30/// 58003 88610;
0161763930999992010091018004+25733-100300FM-12+051599999V0200901N001010075019N0020001N1+03021+02351100951ADDAY141061AY211061GF106991061051008001001001MA1999999095401MD1410001+9999MW1051REMSYN072AAXX  10181 76393 31520 60901 10302 20235 39540 40095 54006 70541 86500;
0217763930999992010091021004+25733-100300FM-12+051599999V0201201N001010078019N0020001N1+03201+02421100741ADDAY141031AY221031GA1071+007801061GF107991071051008001999999IA1019MA1999999095241MD1610161+0031MW1051REMSYN106AAXX  10211 76393 31520 71201 10320 20242 39524 40074 56016 70542 875// 92055 333 0/399 30/// 58003 87626;
0161763930999992010091100004+25733-100300FM-12+051599999V0201201N003012200019N0020001N1+03181+02401100641ADDAY141061AY241061GF104991021031008001001011MA1999999095171MD1510071+9999MW1051REMSYN072AAXX  11001 76393 31520 41203 10318 20240 39517 40064 55007 70544 82301;
0217763930999992010091103004+25733-100300FM-12+051599999V0201101N001010066019N0020001N1+03021+02341100851ADDAY141031AY241031GA1071+006601061GF107991071051008001999999IA1019MA1999999095391MD1210221+0241MW1051REMSYN106AAXX  11031 76393 31520 71101 10302 20234 39539 40085 52022 70544 875// 90250 333 0/8// 30/// 58024 87622;
0161763930999992010091106004+25733-100300FM-12+051599999V0200601N002012200019N0020001N1+02801+02451100891ADDAY141061AY201061GF103991031051004501001001MA1999999095431MD1110041+9999MW1051REMSYN072AAXX  11061 76393 31420 30602 10280 20245 39543 40089 51004 70540 83500;
0217763930999992010091109004+25733-100300FM-12+051599999V0201601N001012200019N0020001N1+02601+02421100911ADDAY141031AY201031GA1021+001801061GF102991021051002501001001IA1019MA1999999095421MD1510011+0161MW1051REMSYN106AAXX  11091 76393 31320 21601 10260 20242 39542 40091 55001 70540 82500 90855 333 0/300 30/// 58016 82606;
0161763930999992010091112004+25733-100300FM-12+051599999V0200901N001010021019N0020001N1+02601+02381100951ADDAY121061AY221061GF108991081061002501999999MA1999999095431MD1210011+9999MW1051REMSYN072AAXX  11121 76393 31320 80901 10260 20238 39543 40095 52001 70522 886//;
0217763930999992010091115004+25733-100300FM-12+051599999V0200901N002010051019N0020001N1+02781+02371101191ADDAY121031AY221031GA1051+005101061GF105991051051004501001001IA1019MA1999999095641MD1210211+0181MW1051REMSYN106AAXX  11151 76393 31420 50902 10278 20237 39564 40119 52021 70522 85500 91450 333 0/300 30/// 58018 85617;
0161763930999992010091118004+25733-100300FM-12+051599999V0200901N001012200019N0020001N1+03261+02311101161ADDAY141061AY241061GF104991041021012501001001MA1999999095621MD1710021+9999MW1051REMSYN072AAXX  11181 76393 31620 40901 10326 20231 39562 40116 57002 70544 84200;
0217763930999992010091121004+25733-100300FM-12+051599999V0201301N005010132019N0020001N1+03361+02281100931ADDAY141031AY241031GA1071+013201081GF107991071021012501999999IA1019MA1999999095431MD1710191+0191MW1051REMSYN106AAXX  11211 76393 31620 71305 10336 20228 39543 40093 57019 70544 872// 92040 333 0/3// 30/// 58019 87844;
0161763930999992010091200004+25733-100300FM-12+051599999V0201201N002012200019N0020001N1+03191+02161100831ADDAY141061AY241061GF102991011021008001001011MA1999999095371MD1710061+9999MW1051REMSYN072AAXX  12001 76393 31520 21202 10319 20216 39537 40083 57006 70544 81201;
0217763930999992010091203004+25733-100300FM-12+051599999V0201501N001012200019N0020001N1+02981+02211101031ADDAY141031AY241031GA1021+007501061GF102991021051008001001001IA1019MA1999999095581MD1210211+0191MW1051REMSYN106AAXX  12031 76393 31520 21501 10298 20221 39558 40103 52021 70544 82500 90250 333 0/800 30/// 58019 82625;
0161763930999992010091206004+25733-100300FM-12+051599999V0201201N005012200019N0020001N1+02641+02311101181ADDAY141061AY201061GF102991021051004501001001MA1999999095701MD1210131+9999MW1051REMSYN072AAXX  12061 76393 31420 21205 10264 20231 39570 40118 52013 70540 82500;
0217763930999992010091209004+25733-100300FM-12+051599999V0200701N003010021019N0020001N1+02501+02341101221ADDAY141031AY211031GA1061+002101061GF106991061051002501999999IA1019MA1999999095711MD1010011+0291MW1051REMSYN106AAXX  12091 76393 31320 60703 10250 20234 39571 40122 50001 70541 865// 90855 333 0/399 30/// 58029 86607;
0161763930999992010091212004+25733-100300FM-12+051599999V0201201N001019999999N0020001N1+02541+02291101331ADDAY141061AY231061GF108991081061999999999999MA1999999095771MD1210061+9999MW1051REMSYN072AAXX  12121 76393 31920 81201 10254 20229 39577 40133 52006 70543 886//;
0217763930999992010091215004+25733-100300FM-12+051599999V0200901N002010039019N0020001N1+02581+02281101561ADDAY141031AY231031GA1081+003901061GF108991081051004501999999IA1019MA1999999095971MD1210201+0331MW1051REMSYN106AAXX  12151 76393 31420 80902 10258 20228 39597 40156 52020 70543 885// 91440 333 0/399 30/// 58033 88613;
0161763930999992010091218004+25733-100300FM-12+051599999V0201001N002012200019N0020001N1+03041+02221101551ADDAY141061AY201061GF102991021031008001001001MA1999999095971MD1210401+9999MW1051REMSYN072AAXX  12181 76393 31520 21002 10304 20222 39597 40155 52040 70540 82300;
0217763930999992010091221004+25733-100300FM-12+051599999V0201201N004012200019N0020001N1+03361+02151101271ADDAY141031AY201031GA1031+012001081GF103991031031012501001001IA1019MA1999999095741MD1710231+0311MW1051REMSYN106AAXX  12211 76393 31620 31204 10336 20215 39574 40127 57023 70540 83300 92055 333 00300 30/// 58031 83840;
0161763930999992010091300004+25733-100300FM-12+051599999V0201801N001010120019N0030001N1+03031+02211101211ADDAY141061AY241061GF106991051081008001001021MA1999999095701MD1710041+9999MW1051REMSYN072AAXX  13001 76393 31530 61801 10303 20221 39570 40121 57004 70544 85802;
0217763930999992010091303004+25733-100300FM-12+051599999V0201001N004010069019N0020001N1+02841+02141101341ADDAY141031AY241031GA1071+006901061GF107991071051008001999999IA1019MA1999999095841MD1210141+0261MW1051REMSYN106AAXX  13031 76393 31520 71004 10284 20214 39584 40134 52014 70544 875// 90250 333 0/3// 30/// 58026 87623;
0180763930999992010091306004+25733-100300FM-12+051599999V0200901N002019999999N0020001N1+02641+02221101441ADDAY141061AY211061GF105991999051004501001001MA1999999095931MD1210091+9999MW1051REMSYN072AAXX  13061 76393 31420 50902 10264 20222 39593 40144 52009 70541 86500;EQDQ01+000062SCOTLC
0217763930999992010091309004+25733-100300FM-12+051599999V0201101N002010024019N0020001N1+02481+02291101421ADDAY141031AY211031GA1051+002401061GF105991051051002501001001IA1019MA1999999095871MD1710161+0161MW1051REMSYN106AAXX  13091 76393 31320 51102 10248 20229 39587 40142 57016 70541 85500 90850 333 0/300 30/// 58016 85608;
0161763930999992010091312004+25733-100300FM-12+051599999V0200901N001010042019N0020001N1+02501+02251101441ADDAY141061AY231061GF108991081041004501999999MA1999999095871MD1410001+9999MW1051REMSYN072AAXX  13121 76393 31420 80901 10250 20225 39587 40144 54000 70543 884//;
0217763930999992010091315004+25733-100300FM-12+051599999V0201101N002010051019N0020001N1+02661+02251101581ADDAY141031AY231031GA1081+005101081GF108991081021004501999999IA1019MA1999999095991MD1210121+0021MW1051REMSYN106AAXX  13151 76393 31420 81102 10266 20225 39599 40158 52012 70543 882// 91440 333 0/3// 30/// 58002 88817;
0161763930999992010091318004+25733-100300FM-12+051599999V0200901N002012200019N0020001N1+03041+02191101531ADDAY141061AY201061GF102991021031008001001001MA1999999095951MD1410001+9999MW1051REMSYN072AAXX  13181 76393 31520 20902 10304 20219 39595 40153 54004 70540 82300;
0217763930999992010091321004+25733-100300FM-12+051599999V0201301N006012200019N0030001N1+03341+02161101251ADDAY141031AY201031GA1031+011701081GF103991031031012501001001IA1019MA1999999095721MD1710231-0021MW1051REMSYN106AAXX  13211 76393 31630 31306 10334 20216 39572 40125 57023 70540 83300 92055 333 00300 30/// 59002 83839;
0161763930999992010091400004+25733-100300FM-12+051599999V0201201N004012200019N0030001N1+03231+01981101131ADDAY141061AY241061GF103991021021012501031001MA1999999095651MD1710071+9999MW1051REMSYN072AAXX  14001 76393 31630 31204 10323 20198 39565 40113 57007 70544 82230;
0217763930999992010091403004+25733-100300FM-12+051599999V0201401N003010102019N0030001N1+02981+01931101241ADDAY141031AY241031GA1061+010201061GF106991061051008001001001IA1019MA1999999095771MD1210121-0071MW1051REMSYN106AAXX  14031 76393 31530 61403 10298 20193 39577 40124 52012 70544 86500 90250 333 0/300 30/// 59007 86634;
0161763930999992010091406004+25733-100300FM-12+051599999V0201001N004012200019N0020001N1+02681+02241101351ADDAY141061AY211061GF104991041051004501001001MA1999999095861MD1210101+9999MW1051REMSYN072AAXX  14061 76393 31420 41004 10268 20224 39586 40135 52010 70541 84500;
0217763930999992010091409004+25733-100300FM-12+051599999V0200601N002012200019N0020001N1+02481+02261101301ADDAY141031AY201031GA1021+002701061GF102991021051002501001001IA1019MA1999999095791MD1710071-0081MW1051REMSYN106AAXX  14091 76393 31320 20602 10248 20226 39579 40130 57007 70540 82500 90855 333 0/300 30/// 59008 82609;
0161763930999992010091412004+25733-100300FM-12+051599999V0200701N001010021019N0020001N1+02441+02191101341ADDAY141061AY221061GF107991071051002501999999MA1999999095791MD1410001+9999MW1051REMSYN072AAXX  14121 76393 31320 70701 10244 20219 39579 40134 54000 70542 875//;
0217763930999992010091415004+25733-100300FM-12+051599999V0200701N001012200019N0020001N1+02681+02211101531ADDAY141031AY201031GA1031+004801061GF103991031051004501001001IA1019MA1999999095941MD1310151-0051MW1051REMSYN106AAXX  14151 76393 31420 30701 10268 20221 39594 40153 53015 70540 83500 91455 333 0/300 30/// 59005 83616;
0161763930999992010091418004+25733-100300FM-12+051599999V0200901N001012200019N0020001N1+03121+02151101431ADDAY101061AY201061GF101991011011012501001001MA1999999095861MD1710081+9999MW1051REMSYN072AAXX  14181 76393 31620 10901 10312 20215 39586 40143 57008 70500 81100;
0161763930999992010091500004+25733-100300FM-12+051599999V0201401N003012200019N0040001N1+03181+02101100961ADDAY111061AY211061GF104991041021012501001001MA1999999095481MD1710121+9999MW1051REMSYN072AAXX  15001 76393 31640 41403 10318 20210 39548 40096 57012 70511 84200;
0217763930999992010091503004+25733-100300FM-12+051599999V0201401N003012200019N0025001N1+03021+01911101111ADDAY111031AY211031GA1021+013501081GF102991021021012501001001IA1019MA1999999095651MD1210171-0121MW1051REMSYN106AAXX  15031 76393 31625 21403 10302 20191 39565 40111 52017 70511 82200 90240 333 0/300 30/// 59012 82845;
0161763930999992010091506004+25733-100300FM-12+051599999V0201201N005012200019N0020001N1+02721+02161101201ADDAY141061AY201061GF102991021051008001001001MA1999999095731MD1510081+9999MW1051REMSYN072AAXX  15061 76393 31520 21205 10272 20216 39573 40120 55008 70540 82500;
0217763930999992010091509004+25733-100300FM-12+051599999V0200901N002012200019N0020001N1+02481+02261101221ADDAY141031AY201031GA1011+002701061GF101991011051002501001001IA1019MA1999999095711MD1710021-0081MW1051REMSYN106AAXX  15091 76393 31320 10902 10248 20226 39571 40122 57002 70540 81500 90855 333 0/300 30/// 59008 81609;
0161763930999992010091512004+25733-100300FM-12+051599999V0209999C000010042019N0020001N1+02521+02271101231ADDAY121061AY221061GF107991071051004501999999MA1999999095691MD1710021+9999MW1051REMSYN072AAXX  15121 76393 31420 70000 10252 20227 39569 40123 57002 70522 875//;
0217763930999992010091515004+25733-100300FM-12+051599999V0200201N001010054019N0020001N1+02721+02281101391ADDAY121031AY221031GA1071+005401071GF107991071061004501999999IA1019MA1999999095811MD1710121-0131MW1051REMSYN106AAXX  15151 76393 31420 70201 10272 20228 39581 40139 57012 70522 876// 91445 333 0/3// 30/// 59013 87718;
0161763930999992010091518004+25733-100300FM-12+051599999V0200901N002012200019N0020001N1+03201+02251101311ADDAY141061AY201061GF102991021031008001001001MA1999999095751MD1410001+9999MW1051REMSYN072AAXX  15181 76393 31520 20902 10320 20225 39575 40131 54006 70540 82300;
0217763930999992010091521004+25733-100300FM-12+051599999V0201201N004012200019N0080001N1+03281+02091100961ADDAY141031AY201031GA1021+012001081GF102991021031012501001001IA1019MA1999999095451MD1610301-0151MW1051REMSYN106AAXX  15211 76393 31658 21204 10328 20209 39545 40096 56030 70540 82300 92055 333 00300 30/// 59015 82840;
0147763930999992010091618004+25733-100300FM-12+051599999V0200401N003012200019N0020001N1+02961+02221101231ADDAY111061AY211061GF104991041011008001001001MA1999999095731MW1051REMSYN072AAXX  16181 76393 31520 40403 10296 20222 39573 40123 5//// 70511 84100;
0217763930999992010091621004+25733-100300FM-12+051599999V0201301N005012200019N0050001N1+03301+02111100941ADDAY111031AY211031GA1041+014701081GF104991041021012501001001IA1019MA1999999095481MD1710251-0031MW1051REMSYN106AAXX  16211 76393 31650 41305 10330 20211 39548 40094 57025 70511 84200 92045 333 02300 30/// 59003 84849;
0147763930999992010091706004+25733-100300FM-12+051599999V0201101N005012200019N0020001N1+02681+02121101101ADDAY141061AY211061GF104991041051008001001001MA1999999095621MW1051REMSYN072AAXX  17061 76393 31520 41105 10268 20212 39562 40110 5//// 70541 84500;
0268763930999992010091709004+25733-100300FM-12+051599999V0200601N003012200019N0020001N1+02501+02171101011ADDAY141031AY201031GA1031+004201061GF199999999999999999001001IA1019MA1999999095511MD1710111+9999MW1051REMSYN106AAXX  17091 76393 31420 00603 10250 20217 39551 40101 57011 70540 83500 90855 333 0/300 30/// 59/// 83614;EQDQ01+000002SCOTCVQ02+000002SCOTLCQ03+000002SCOLCG
0147763930999992010091718004+25733-100300FM-12+051599999V0201101N003012200019N0020001N1+03201+02221101231ADDAY101061AY201061GF104991031021012501031001MA1999999095671MW1051REMSYN072AAXX  17181 76393 31620 41103 10320 20222 39567 40123 5//// 70500 83230;
0222763930999992010091721004+25733-100300FM-12+051599999V0201201N006010120019N0020001N1+03181+02131100901ADDAY121031AY221031GA1021+010801081GF106991051041012501031001IA1019MA1999999095391MD1710281+9999MW1151REMSYN111AAXX  17211 76393 31620 61206 10318 20213 39539 40090 57028 71522 85430 92050 333 02350 30/// 5909 82836 83643;
0234763930999992010091803004+25733-100300FM-12+051599999V0202901N001010006019N0020001N1+02281+02251101241ADDAA103042091AY161031AY221031GA1081+000601071GF108991081071000251999999IA1119MA1999999095721MD1210281+9999MW1601REMSYN112AAXX  18031 76393 21020 82901 10228 20225 39572 40124 52028 76062 887// 90255 333 0/399 32/// 58/// 60427 88702;
0303763930999992010091806004+25733-100300FM-12+051599999V0201101N002010027019N0020001N1+02341+02281101291ADDAA103009091AA206050091AY141061AY221061GA1081+002701071GF108991081061000751999999GJ103129IA1019KA1240M+03461KA2240N+02241MA1999999095731MD1010011+0111MW1051REMSYN136AAXX  18061 76393 01120 81102 10234 20228 39573 40129 50001 60501 70542 886// 90555 333 0/199 10346 20224 30/// 55052 58011 60097 88709;
0247763930999992010091809004+25733-100300FM-12+051599999V0200601N002010009019N0020001N1+02281+02201101131ADDAA103000091AY151031AY211031GA1061+000901071GF106991999999000751999999IA1099MA1999999095541MD1710191-0031MW1051REMSYN106AAXX  18091 76393 21120 60602 10228 20220 39554 40113 57019 70551 90855 333 0/100 31/// 59003 69907 86703;EQDQ01  00002PRCP03
0347763930999992010091812004+25733-100300FM-12+051599999V0200401N00101036001CN0020001N1+02301+02131101171ADDAA103999999AA206000091AA324050491AY151061AY241061GA1041+001501061GF108991041051001501021999IA1019KA1240M+03461KA2120N+02281MA1999999095551MD1210011+9999MW1051REMSYN142AAXX  18121 76393 01220 80401 10230 20213 39555 40117 52001 69901 70554 8452/ 91150 333 0/85/ 10346 20228 30226 58/// 69907 70504 84605 84456;EQDQ01  00002PRCP06Q02  99992PRCP03
0217763930999992010091815004+25733-100300FM-12+051599999V0203101N002010030019N0020001N1+02401+02091101351ADDAY141031AY221031GA1081+003001061GF108991081051004501999999IA1099MA1999999095721MD1210191+9999MW1161REMSYN106AAXX  18151 76393 31420 83102 10240 20209 39572 40135 52019 71642 885// 91450 333 0/8// 31/// 58/// 88610;
0161763930999992010091818004+25733-100300FM-12+051599999V0202701N001010075019N0030001N1+02701+02171101281ADDAY121061AY221061GF108991081051008001999999MA1999999095671MD1710051+9999MW1051REMSYN072AAXX  18181 76393 31530 82701 10270 20217 39567 40128 57005 70522 885//;
0234763930999992010091821004+25733-100300FM-12+051599999V0202001N001010024019N0050001N1+02581+02391101001ADDAA103006091AY121031AY221031GA1071+002401061GF107991071051002501999999IA1119MA1999999095431MD1710241+0041MW1051REMSYN112AAXX  18211 76393 21350 72001 10258 20239 39543 40100 57024 70522 875// 92050 333 0/399 32/// 58004 60067 87608;
0161763930999992010091900004+25733-100300FM-12+051599999V0203201N002010042019N0020001N1+02561+02111100991ADDAY151061AY221061GF108991081071004501999999MA1999999095431MD1410001+9999MW1501REMSYN072AAXX  19001 76393 21420 83202 10256 20211 39543 40099 54000 75052 887//;
0234763930999992010091903004+25733-100300FM-12+051599999V0201601N001010015019N0020001N1+02401+02261101131ADDAA103000391AY151031AY221031GA1081+001501071GF108991081071001501999999IA1119MA1999999095561MD1410001-0161MW1501REMSYN112AAXX  19031 76393 21220 81601 10240 20226 39556 40113 54009 75052 887// 90255 333 0/399 32/// 59016 69937 88705;
0234763930999992010091909004+25733-100300FM-12+051599999V0200501N002010015019N0020001N1+02221+02111101141ADDAA103012091AY151031AY211031GA1081+001501071GF108991081061001501999999IA1099MA1999999095531MD1710111-0011MW1051REMSYN112AAXX  19091 76393 21220 80502 10222 20211 39553 40114 57011 70551 886// 90855 333 0/199 31/// 59001 60127 88705;
0161763930999992010091918004+25733-100300FM-12+051599999V0201301N004010042019N0020001N1+02681+02211101321ADDAY121061AY221061GF108991081051004501999999MA1999999095711MD1210031+9999MW1051REMSYN072AAXX  19181 76393 31420 81304 10268 20221 39571 40132 52003 70522 885//;
0295763930999992010092000004+25733-100300FM-12+051599999V0200901N002010024019N0010001N1+02501+02251101021ADDAA106000021AA224058591AY151061AY221061GA1081+002401071GF108991081071002501999999IA1099KA1120M+02781KA2180N+02121MA1999999095451MD1410001-0021MW1501REMSYN136AAXX  20001 76393 11310 80902 10250 20225 39545 40102 54008 69911 75052 887// 92355 333 0/399 10278 20212 31/// 50501 59002 70585 88708;
0234763930999992010092003004+25733-100300FM-12+051599999V0200901N001010012019N0010001N1+02301+02191101141ADDAA103003091AY161031AY221031GA1081+001201071GF108991081071001501999999IA1119MA1999999095561MD1310111+0001MW1601REMSYN112AAXX  20031 76393 21210 80901 10230 20219 39556 40114 53011 76062 887// 90255 333 0/399 32/// 58000 60037 88704;
0295763930999992010092006004+25733-100300FM-12+051599999V0201101N004010015019N0020001N1+02301+02191101221ADDAA103005091AA206008991AY151061AY211061GA1081+001501071GF108991081061001501999999IA1119KA1240M+02781KA2240N+02181MA1999999095631MD1510071-0011MW1051REMSYN136AAXX  20061 76393 01220 81104 10230 20219 39563 40122 55007 60091 70551 886// 90555 333 0/399 10278 20218 32/// 5//// 59001 60057 88705;
0234763930999992010092009004+25733-100300FM-12+051599999V0201401N001010018019N0020001N1+02321+02181101131ADDAA103002091AY151031AY211031GA1081+001801061GF108991081061000751999999IA1099MA1999999095521MD1710111-0011MW1051REMSYN112AAXX  20091 76393 21120 81401 10232 20218 39552 40113 57011 70551 886// 90855 333 0/399 31/// 59001 60027 88606;
0306763930999992010092012004+25733-100300FM-12+051599999V0200401N001010006019N0010001N1+02221+02151101181ADDAA103006091AA206007191AA324015791AY151061AY251061GA1081+000601071GF108991081071000751999999IA1019KA1240M+02781KA2120N+02201MA1999999095561MD1210041+9999MW1051REMSYN136AAXX  20121 76393 01110 80401 10222 20215 39556 40118 52004 60071 70555 887// 91150 333 0/3// 10278 20220 30220 58/// 60067 70157 88702;
0234763930999992010092015004+25733-100300FM-12+051599999V0201101N002010009019N0010001N1+02331+02231101261ADDAA103000591AY151031AY251031GA1081+000901071GF108991081071000751999999IA1099MA1999999095631MD1210071-0051MW1501REMSYN112AAXX  20151 76393 21110 81102 10233 20223 39563 40126 52007 75055 887// 91450 333 0/3// 31/// 59005 69957 88703;
0289763930999992010092018004+25733-100300FM-12+051599999V0200901N001010042019N0030001N1+02661+02331101171ADDAA103000491AA206001091AY121061AY221061GA1081+004201061GF108991081051004501999999IA1099KA1120M+02781KA2240N+02201MA1999999095561MD1710071-0151MW1051REMSYN130AAXX  20181 76393 01430 80901 10266 20233 39556 40117 57007 60011 70522 885// 91745 333 0/399 10278 20220 31/// 59015 69947 88614;
0234763930999992010092021004+25733-100300FM-12+051599999V0200901N001010054019N0020001N1+02701+02261100951ADDAA103000991AY151031AY251031GA1081+005401071GF108991081061004501999999IA1099MA1999999095371MD1710191+9999MW1501REMSYN112AAXX  20211 76393 21420 80901 10270 20226 39537 40095 57019 75055 886// 92045 333 0/399 31/// 58/// 69997 88718;
0234763930999992010092103004+25733-100300FM-12+051599999V0200601N001010009019N0010001N1+02241+02151101091ADDAA103017091AY161031AY221031GA1081+000901071GF108991081071000751999999IA1119MA1999999095501MD1310151-0061MW1601REMSYN112AAXX  21031 76393 21110 80601 10224 20215 39550 40109 53015 76062 887// 90255 333 0/399 32/// 59006 60177 88703;
0303763930999992010092106004+25733-100300FM-12+051599999V0200501N001010012019N0010001N1+02201+02111101111ADDAA103020091AA206037191AY161061AY221061GA1081+001201071GF108991081071001501999999GJ100129IA1119KA1240M+02781KA2240N+02201MA1999999095511MD1210011-0121MW1601REMSYN136AAXX  21061 76393 01210 80501 10220 20211 39551 40111 52001 60371 76062 887// 90555 333 0/3// 10278 20220 32/// 55002 59012 60207 88704;
0234763930999992010092109004+25733-100300FM-12+051599999V0201201N001010006019N0010001N1+02201+02141100951ADDAA103004091AY161031AY221031GA1081+000601071GF108991081071000751999999IA1119MA1999999095331MD1710221-0251MW1601REMSYN112AAXX  21091 76393 21110 81201 10220 20214 39533 40095 57022 76062 887// 90855 333 0/3// 32/// 59025 60047 88702;
0306763930999992010092112004+25733-100300FM-12+051599999V0203001N001010006019N0010001N1+02181+02121100931ADDAA103999929AA206004191AA324088991AY151061AY241061GA1081+000601071GF108991081071000751999999IA1019KA1240M+02781KA2120N+02181MA1999999095351MD1210021-0211MW1051REMSYN136AAXX  21121 76393 01110 83001 10218 20212 39535 40093 52002 60041 70554 887// 91150 333 0/3// 10278 20218 30218 59021 69907 70889 88702;
0217763930999992010092115004+25733-100300FM-12+051599999V0200501N001010012019N0020001N1+02251+02111101161ADDAY141031AY241031GA1081+001201071GF108991081051001501999999IA1099MA1999999095531MD1210181-0101MW1051REMSYN106AAXX  21151 76393 31220 80501 10225 20211 39553 40116 52018 70544 885// 91450 333 0/3// 31/// 59010 88704;
0161763930999992010092118004+25733-100300FM-12+051599999V0202101N003010042019N0010001N1+02601+02211101151ADDAY141061AY241061GF107991071051004501999999MA1999999095521MD1710011+9999MW1051REMSYN072AAXX  21181 76393 31410 72103 10260 20221 39552 40115 57001 70544 875//;
0217763930999992010092121004+25733-100300FM-12+051599999V0201201N003010054019N0020001N1+02741+02311100901ADDAY141031AY241031GA1081+005401061GF108991081051004501999999IA1019MA1999999095311MD1710211-0061MW1051REMSYN106AAXX  21211 76393 31420 81203 10274 20231 39531 40090 57021 70544 885// 92050 333 0/399 30/// 59006 88618;
0234763930999992010092203004+25733-100300FM-12+051599999V0200601N002010024019N0010001N1+02261+02061100911ADDAA103001091AY151031AY221031GA1081+002401061GF108991081051002501999999IA1099MA1999999095351MD1010121-0151MW1051REMSYN112AAXX  22031 76393 21310 80602 10226 20206 39535 40091 50012 70552 885// 90255 333 0/399 31/// 59015 60017 88608;
0161763930999992010092206004+25733-100300FM-12+051599999V0201201N003010012019N0010001N1+02181+02091101011ADDAY121061AY221061GF108991081061001501999999MA1999999095431MD1210081+9999MW1051REMSYN072AAXX  22061 76393 31210 81203 10218 20209 39543 40101 52008 70522 886//;
0217763930999992010092209004+25733-100300FM-12+051599999V0201101N002010006019N0010001N1+02141+02081100951ADDAY121031AY221031GA1081+000601071GF108991081061000751999999IA1099MA1999999095351MD1710081-0121MW1051REMSYN106AAXX  22091 76393 31110 81102 10214 20208 39535 40095 57008 70522 886// 90850 333 0/3// 31/// 59012 88702;
0161763930999992010092212004+25733-100300FM-12+051599999V0201001N001010006019N0010001N1+02201+02111100961ADDAY141061AY241061GF108991081071000751999999MA1999999095341MD1710011+9999MW1051REMSYN072AAXX  22121 76393 31110 81001 10220 20211 39534 40096 57001 70544 887//;
0234763930999992010092215004+25733-100300FM-12+051599999V0201001N002010012019N0010001N1+02261+02151101191ADDAA103000021AY151031AY241031GA1081+001201061GF108991081051001501999999IA1099MA1999999095551MD1210211+0021MW1501REMSYN112AAXX  22151 76393 21210 81002 10226 20215 39555 40119 52021 75054 885// 91450 333 0/3// 31/// 58002 69907 88604;
0289763930999992010092218004+25733-100300FM-12+051599999V0200901N003010066019N0020001N1+02721+02191101151ADDAA103999929AA206000021AY121061AY221061GA1071+006601061GF107991071051008001999999IA1019KA1120M+02781KA2240N+02141MA1999999095531MD1710021+0011MW1051REMSYN130AAXX  22181 76393 01520 70903 10272 20219 39553 40115 57002 69901 70522 875// 91750 333 0/399 10278 20214 30/// 58001 69907 87622;
0234763930999992010092221004+25733-100300FM-12+051599999V0202301N001010069019N0010001N1+02821+02271100951ADDAA103000021AY151031AY251031GA1071+006901071GF107991071061008001999999IA1099MA1999999095371MD1710161+0061MW1501REMSYN112AAXX  22211 76393 21510 72301 10282 20227 39537 40095 57016 75055 876// 92050 333 0/399 31/// 58006 69907 87723;
0158763930999992010092300004+25733-100300FM-12+051599999V0201201N005012200019N0020001N1+02781+02081100801ADDAA106000021AY141061AY211061GF102991021041008001001001MA1999999095261MW1051REMSYN072AAXX  23001 76393 11520 21205 10278 20208 39526 40080 69901 70541 82400;
0234763930999992010092303004+25733-100300FM-12+051599999V0201201N003010021019N0020001N1+02401+02181100961ADDAA103000021AY151031AY211031GA1061+002101061GF106991061051002501001001IA1099MA1999999095421MD1310161+0071MW1501REMSYN112AAXX  23031 76393 21320 61203 10240 20218 39542 40096 53016 75051 86500 90255 333 0/300 31/// 58007 69907 86607;
0286763930999992010092306004+25733-100300FM-12+051599999V0201001N003010009019N0010001N1+02281+02201101061ADDAA106000021AY141061AY221061GA1081+000901071GF108991081061000751999999GJ102409IA1099KA1240M+02921KA2240N+02141MA1999999095501MD1010081+0071MW1051REMSYN130AAXX  23061 76393 11110 81003 10228 20220 39550 40106 50008 69901 70542 886// 90555 333 0/399 10292 20214 31/// 55040 58007 88703;
0223763930999992010092309004+25733-100300FM-12+051599999V0201301N00201001201CN0010001N1+02261+02171101031ADDAY141031AY211031GA1031+001201071GF106991061061001501999999IA1019MA1999999095451MD1710051+0101MW1051REMSYN112AAXX  23091 76393 31210 61302 10226 20217 39545 40103 57005 70541 866// 90850 333 0/399 30/// 58010 83704 83609;
0341763930999992010092312004+25733-100300FM-12+051599999V0201201N001010012019N0010001N1+02281+02171101071ADDAA103999999AA206000091AA324000021AY151061AY241061GA1081+001201061GF108991081051001501999999IA1019KA1240M+02921KA2120N+02241MA1999999095461MD1210011+0121MW1051REMSYN136AAXX  23121 76393 01210 81201 10228 20217 39546 40107 52001 69901 70554 885// 91150 333 0/3// 10292 20224 30220 58012 69907 79999 88604;EQDQ01  00002PRCP06Q02  99992PRCP03
0234763930999992010092315004+25733-100300FM-12+051599999V0201201N002010012019N0008001N1+02291+02191101261ADDAA103000991AY151031AY251031GA1071+001201061GF107991071051000751999999IA1099MA1999999095631MD1210171+0081MW1051REMSYN112AAXX  23151 76393 21108 71202 10229 20219 39563 40126 52017 70555 875// 91450 333 0/3// 31/// 58008 69997 87604;
0161763930999992010092318004+25733-100300FM-12+051599999V0201401N003010075019N0020001N1+02781+02171101261ADDAY121061AY221061GF107991071051008001999999MA1999999095651MD1210021+9999MW1021REMSYN072AAXX  23181 76393 31520 71403 10278 20217 39565 40126 52002 70222 875//;
0223763930999992010092321004+25733-100300FM-12+051599999V0201201N005010120019N0020001N1+03041+02151101021ADDAY121031AY221031GA1021+010501081GF105991051041012501001001IA1019MA1999999095451MD1710201+0081MW1051REMSYN112AAXX  23211 76393 31620 51205 10304 20215 39545 40102 57020 70522 85400 92050 333 00300 30/// 58008 82835 83640;
0161763930999992010092400004+25733-100300FM-12+051599999V0201201N003012200019N0030001N1+02861+02141100901ADDAY141061AY201061GF102991021031008001001001MA1999999095371MD1410001+9999MW1051REMSYN072AAXX  24001 76393 31530 21203 10286 20214 39537 40090 54008 70540 82300;
0234763930999992010092403004+25733-100300FM-12+051599999V0201201N001010012019N0020001N1+02301+02191101201ADDAA103025091AY161031AY221031GA1081+001201071GF108991081071001501999999IA1119MA1999999095651MD1710281+0231MW1601REMSYN112AAXX  24031 76393 21220 81201 10230 20219 39565 40120 57028 76062 887// 90255 333 0/399 32/// 58023 60257 88704;
0303763930999992010092406004+25733-100300FM-12+051599999V0200701N001010006019N0010001N1+02261+02201101311ADDAA103006091AA206031091AY151061AY221061GA1081+000601071GF108991081071000751999999GJ103369IA1119KA1240M+03101KA2240N+02241MA1999999095751MD1210101+0251MW1501REMSYN136AAXX  24061 76393 01110 80701 10226 20220 39575 40131 52010 60311 75052 887// 90550 333 0/3// 10310 20224 32/// 55056 58025 60067 88702;
0217763930999992010092409004+25733-100300FM-12+051599999V0201201N003010006019N0010001N1+02281+02221101301ADDAY151031AY221031GA1081+000601071GF108991081071000751999999IA1099MA1999999095711MD1710051+0221MW1501REMSYN106AAXX  24091 76393 21110 81203 10228 20222 39571 40130 57005 75052 887// 90850 333 0/3// 31/// 58022 88702;
0295763930999992010092412004+25733-100300FM-12+051599999V0201201N002010012019N0010001N1+02261+02151101361ADDAA106000021AA224032191AY141061AY241061GA1071+001201061GF107991071051001501999999IA1019KA1240M+03101KA2120N+02261MA1999999095741MD1210031+0281MW1051REMSYN136AAXX  24121 76393 01210 71202 10226 20215 39574 40136 52003 69901 70544 875// 91150 333 0/3// 10310 20226 30223 58028 69901 70321 87604;
0236763930999992010092415004+25733-100300FM-12+051599999V0201101N002010036019N0010001N1+02561+02201101601ADDAY141031AY241031GA1061+003601061GF106991061999004501001051IA1099MA1999999095961MD1210221+0331MW1051REMSYN106AAXX  24151 76393 31410 61102 10256 20220 39596 40160 52022 70544 86005 91450 333 0/300 31/// 58033 86612;EQDQ01+000002SCOLCG
0161763930999992010092418004+25733-100300FM-12+051599999V0201001N003010075019N0020001N1+02761+02181101651ADDAY121061AY221061GF105991051051008001001001MA1999999096031MD1210071+9999MW1051REMSYN072AAXX  24181 76393 31520 51003 10276 20218 39603 40165 52007 70522 85500;
0217763930999992010092421004+25733-100300FM-12+051599999V0200901N003010096019N0030001N1+02941+02161101341ADDAY121031AY221031GA1051+009601081GF105991051011008001001001IA1019MA1999999095761MD1710271+0311MW1051REMSYN106AAXX  24211 76393 31530 50903 10294 20216 39576 40134 57027 70522 85100 92050 333 00300 30/// 58031 85832;
0161763930999992010092500004+25733-100300FM-12+051599999V0201201N004012200019N0020001N1+02901+02061101241ADDAY141061AY201061GF102991021031008001001001MA1999999095691MD1410001+9999MW1051REMSYN072AAXX  25001 76393 31520 21204 10290 20206 39569 40124 54007 70540 82300;
0217763930999992010092503004+25733-100300FM-12+051599999V0201601N001010027019N0020001N1+02421+02141101561ADDAY141031AY221031GA1081+002701061GF108991081051002501999999IA1019MA1999999096001MD1210311+0351MW1051REMSYN106AAXX  25031 76393 31320 81601 10242 20214 39600 40156 52031 70542 885// 90255 333 0/399 30/// 58035 88609;
0161763930999992010092506004+25733-100300FM-12+051599999V0201001N002010012019N0010001N1+02301+02191101611ADDAY121061AY221061GF108991081061001501999999MA1999999096031MD1210031+9999MW1051REMSYN072AAXX  25061 76393 31210 81002 10230 20219 39603 40161 52003 70522 886//;
0234763930999992010092509004+25733-100300FM-12+051599999V0200601N002010018019N0010001N1+02221+02081101541ADDAA103003091AY121031AY221031GA1081+001801071GF108991081061001501999999IA1099MA1999999095931MD1710101+0221MW1051REMSYN112AAXX  25091 76393 21210 80602 10222 20208 39593 40154 57010 70522 886// 90850 333 0/3// 31/// 58022 60037 88706;
0346763930999992010092512004+25733-100300FM-12+051599999V0203201N001010009019N0010001N1+02211+02111101511ADDAA103999999AA224003391AY151061AY241061GA1071+000901061GF107991071051000751999999IA1019KA1240M+03181KA2120N+02211MA1999999095871MD1710061+0131MW1051REMSYN136AAXX  25121 76393 01110 73201 10221 20211 39587 40151 57006 69901 70554 875// 91150 333 0/3// 10318 20221 30221 58013 69907 70033 87603;EQDQ01  00002PRCP06Q02  99992PRCP03Q03  00002PRCP06
0161763930999992010092518004+25733-100300FM-12+051599999V0200901N001010042019N0010001N1+02621+02291101571ADDAY151061AY211061GF106991061051004501001001MA1999999095931MD1710031+9999MW1051REMSYN072AAXX  25181 76393 21410 60901 10262 20229 39593 40157 57003 70551 86500;
0217763930999992010092521004+25733-100300FM-12+051599999V0200601N001010084019N0020001N1+02881+02191101201ADDAY141031AY211031GA1061+008401061GF106991061051008001001001IA1019MA1999999095611MD1710321-0151MW1051REMSYN106AAXX  25211 76393 31520 60601 10288 20219 39561 40120 57032 70541 86500 92055 333 0/300 30/// 59015 86628;
0295763930999992010092600004+25733-100300FM-12+051599999V0200501N001010021019N0020001N1+02361+02161101161ADDAA106000021AA224007191AY151061AY221061GA1081+002101071GF108991081071001501999999IA1099KA1120M+03041KA2180N+02211MA1999999095591MD1310181-0101MW1501REMSYN136AAXX  26001 76393 11220 80501 10236 20216 39559 40116 53018 69901 75052 887// 92355 333 0/399 10304 20221 31/// 50391 59010 70071 88707;
0234763930999992010092603004+25733-100300FM-12+051599999V0202301N001010006019N0020001N1+02181+02121101361ADDAA103053091AY161031AY221031GA1081+000601071GF108991081071000751999999IA1129MA1999999095771MD1710181-0231MW1601REMSYN112AAXX  26031 76393 21120 82301 10218 20212 39577 40136 57018 76062 887// 90255 333 0/399 33/// 59023 60537 88702;
0303763930999992010092606004+25733-100300FM-12+051599999V0201801N002010006019N0010001N1+02161+02101101471ADDAA103042091AA206095091AY161061AY221061GA1081+000601071GF108991081071000751999999GJ101929IA1119KA1240M+03041KA2240N+02211MA1999999095871MD1210101-0161MW1611REMSYN136AAXX  26061 76393 01110 81802 10216 20210 39587 40147 52010 60951 76162 887// 90555 333 0/3// 10304 20221 32/// 55032 59016 60427 88702;
0234763930999992010092609004+25733-100300FM-12+051599999V0202301N001010006019N0010001N1+02161+02101101211ADDAA103004091AY121031AY221031GA1081+000601071GF108991081061000751999999IA1119MA1999999095591MD1710281-0341MW1051REMSYN112AAXX  26091 76393 21110 82301 10216 20210 39559 40121 57028 70522 886// 90855 333 0/3// 32/// 59034 60047 88702;
0289763930999992010092612004+25733-100300FM-12+051599999V0202301N001010012019N0020001N1+02161+02071101251ADDAA106004191AA224103291AY141061AY221061GA1071+001201061GF107991071051001501999999IA1099KA1240M+03041KA2120N+02081MA1999999095601MD1210011-0271MW1051REMSYN130AAXX  26121 76393 11220 72301 10216 20207 39560 40125 52001 60041 70542 875// 91155 333 0/399 10304 20208 31/// 59027 71032 87604;
0240763930999992010092615004+25733-100300FM-12+051599999V0202401N00101001201CN0020001N1+02261+02171101461ADDAA103000591AY151031AY221031GA1041+001201071GF108991081061001501999999IA1099MA1999999095801MD1210201-0161MW1051REMSYN118AAXX  26151 76393 21220 82401 10226 20217 39580 40146 52020 70552 886// 91455 333 0/399 31/// 59016 69957 84704 84607;
0289763930999992010092618004+25733-100300FM-12+051599999V0202001N001010063019N0030001N1+02621+02111101451ADDAA103000591AA206001091AY121061AY221061GA1071+006301061GF107991071051008001999999IA1099KA1120M+02701KA2240N+02081MA1999999095801MD1410001-0131MW1051REMSYN130AAXX  26181 76393 01530 72001 10262 20211 39580 40145 54000 60011 70522 875// 91750 333 0/399 10270 20208 31/// 59013 69957 87621;
0217763930999992010092621004+25733-100300FM-12+051599999V0209999C000010108019N0050001N1+02841+01961101091ADDAY121031AY221031GA1071+010801061GF107991071051012501999999IA1099MA1999999095491MD1710311-0121MW1051REMSYN106AAXX  26211 76393 31650 70000 10284 20196 39549 40109 57031 70522 875// 92050 333 0/399 31/// 59012 87636;
0314763930999992010092700004+25733-100300FM-12+051599999V0200901N001010048019N0030001N1+02541+02061101101ADDAA106000091AA224100491AY141061AY221061GA1081+004801061GF108991081051004501999999IA1099KA1120M+02961KA2180N+02081MA1999999095531MD1410001-0061MW1051REMSYN136AAXX  27001 76393 11430 80901 10254 20206 39553 40110 54004 69901 70542 885// 92355 333 0/399 10296 20208 31/// 50231 59006 71004 88616;EQDQ01  00002PRCP06
0253763930999992010092703004+25733-100300FM-12+051599999V0201801N002010036019N0030001N1+02421+02051101211ADDAA103000091AY141031AY221031GA1081+003601061GF108991081051004501999999IA1099MA1999999095641MD1310111-0131MW1051REMSYN112AAXX  27031 76393 21430 81802 10242 20205 39564 40121 53011 70542 885// 90255 333 0/399 31/// 59013 69907 88612;EQDQ01  00002PRCP03
0161763930999992010092706004+25733-100300FM-12+051599999V0200401N001010042019N0020001N1+02261+02001101251ADDAY121061AY221061GF108991081051004501999999MA1999999095671MD1210031+9999MW1051REMSYN072AAXX  27061 76393 31420 80401 10226 20200 39567 40125 52003 70522 885//;
0234763930999992010092709004+25733-100300FM-12+051599999V0202801N003010021019N0010001N1+02181+02011101241ADDAA103000991AY121031AY221031GA1081+002101071GF108991081061002501999999IA1099MA1999999095631MD1710041+0041MW1501REMSYN112AAXX  27091 76393 21310 82803 10218 20201 39563 40124 57004 75022 886// 90850 333 0/3// 31/// 58004 69997 88707;
0295763930999992010092712004+25733-100300FM-12+051599999V0201801N001010012019N0010001N1+02121+02001101381ADDAA106002091AA224002591AY151061AY251061GA1081+001201061GF108991081051001501999999IA1019KA1240M+02961KA2120N+02101MA1999999095741MD1210111+0141MW1501REMSYN136AAXX  27121 76393 01210 81801 10212 20200 39574 40138 52011 60021 75055 885// 91150 333 0/3// 10296 20210 30207 58014 60021 70025 88604;
0234763930999992010092715004+25733-100300FM-12+051599999V0202801N001010015019N0008001N1+01871+01721101651ADDAA103001091AY151031AY251031GA1081+001501061GF108991081051001501999999IA1099MA1999999095981MD1210241+0181MW1501REMSYN112AAXX  27151 76393 21208 82801 10187 20172 39598 40165 52024 75055 885// 91450 333 0/3// 31/// 58018 60017 88605;
0289763930999992010092718004+25733-100300FM-12+051599999V0203601N001010063019N0020001N1+01981+01481101771ADDAA103999929AA206001091AY151061AY251061GA1081+006301061GF108991081051008001999999IA1099KA1120M+02021KA2240N+01901MA1999999096061MD1210081+0261MW1501REMSYN130AAXX  27181 76393 01520 83601 10198 20148 39606 40177 52008 60011 75055 885// 91750 333 0/399 10202 20190 31/// 58026 69907 88621;
0217763930999992010092721004+25733-100300FM-12+051599999V0202901N001010060019N0020001N1+02121+01631101531ADDAY121031AY221031GA1081+006001061GF108991081051008001999999IA1099MA1999999095841MD1710221+0351MW1051REMSYN106AAXX  27211 76393 31520 82901 10212 20163 39584 40153 57022 70522 885// 92050 333 0/399 31/// 58035 88620;
0161763930999992010092800004+25733-100300FM-12+051599999V0203201N001012200019N0020001N1+02241+01731101391ADDAY141061AY211061GF104991001001999999001041MA1999999095711MD1610131+9999MW1051REMSYN072AAXX  28001 76393 31920 43201 10224 20173 39571 40139 56013 70541 80004;
0217763930999992010092803004+25733-100300FM-12+051599999V0202501N001010720019N0020001N1+02101+01801101441ADDAY141031AY211031GA1051+072001001GF105991001001999999001041IA1019MA1999999095771MD1410001+0131MW1051REMSYN106AAXX  28031 76393 31920 52501 10210 20180 39577 40144 54006 70541 80004 90255 333 0/005 30/// 58013 85074;
0161763930999992010092806004+25733-100300FM-12+051599999V0201001N001010042019N0020001N1+01981+01641101481ADDAY111061AY211061GF105991051051004501001001MA1999999095811MD1210041+9999MW1051REMSYN072AAXX  28061 76393 31420 51001 10198 20164 39581 40148 52004 70511 85500;
0195763930999992010092809004+25733-100300FM-12+051599999V0209999C000012200019N0020001N1+01821+01701101391ADDAY101031AY201031GF103991031001999999011001IA1019MA1999999095711MD1210101+0081MW1051REMSYN100AAXX  28091 76393 31920 30000 10182 20170 39571 40139 52010 70500 83010 90855 333 0/05/ 30/// 58008;
0161763930999992010092812004+25733-100300FM-12+051599999V0209999C000012200019N0020001N1+01841+01621101481ADDAY141061AY241061GF102991001001999999001011MA1999999095771MD1210061+9999MW1051REMSYN072AAXX  28121 76393 31920 20000 10184 20162 39577 40148 52006 70544 80001;
0217763930999992010092815004+25733-100300FM-12+051599999V0202001N001012200019N0010001N1+02301+01691101571ADDAY141031AY241031GA1011+003901061GF101991011051004501001001IA1099MA1999999095861MD1210091-0121MW1051REMSYN106AAXX  28151 76393 31410 12001 10230 20169 39586 40157 52009 70544 81500 91450 333 0/300 31/// 59012 81613;
0237763930999992010092818004+25733-100300FM-12+051599999V0200201N003012200019N0020001N1+02681+01221101451ADDAY101061AY201061GA1001+999999999GF100991001001999999001001IA1019KA1120M+02781KA2240N+01701MA1999999095781MD1710081-0281MW1011REMSYN100AAXX  28181 76393 31920 00203 10268 20122 39578 40145 57008 70100 91750 333 10278 20170 30/// 59028;
0171763930999992010092821004+25733-100300FM-12+051599999V0200101N001012200019N0050001N1+02961+01241101001ADDGA1001+999999999GF100991001001999999001001IA1019MA1999999095401MD1710381-0441REMSYN082AAXX  28211 76393 32950 00101 10296 20124 39540 40100 57038 92050 333 30/// 59044;
0279763930999992010092900004+25733-100300FM-12+051599999V0200801N001012200019N0050001N1+02741+01011100931ADDAA124000091AY141061AY201061GA1001+999999999GF100991001001999999001001IA1019KA1120M+03081KA2180N+01701MA1999999095371MD1510031-0341MW1051REMSYN112AAXX  29001 76393 31950 00801 10274 20101 39537 40093 55003 70540 92355 333 10308 20170 30/// 50581 59034 70000;EQDQ01  00002PRCP24
0199763930999992010092903004+25733-100300FM-12+051599999V0202001N001012200019N0030001N1+02361+01771101011ADDAY141031AY241031GA1001+999999999GF100991001001999999001001IA1019MA1999999095471MD1210101-0301MW1051REMSYN088AAXX  29031 76393 31930 02001 10236 20177 39547 40101 52010 70544 90250 333 30/// 59030;
0251763930999992010092906004+25733-100300FM-12+051599999V0202301N001012200019N0020001N1+02041+01491101021ADDAY101061AY201061GA1001+999999999GF100991001001999999001001GJ106549IA1019KA1240M+03081KA2240N+01701MA1999999095461MD1710011-0351MW1051REMSYN106AAXX  29061 76393 31920 02301 10204 20149 39546 40102 57001 70500 90550 333 10308 20170 30/// 55109 59035;
0199763930999992010092909004+25733-100300FM-12+051599999V0202301N001012200019N0020001N1+01881+01501100941ADDAY101031AY201031GA1001+999999999GF100991001001999999001001IA1019MA1999999095341MD1710121-0371MW1051REMSYN088AAXX  29091 76393 31920 02301 10188 20150 39534 40094 57012 70500 80850 333 30/// 59037;
0273763930999992010092912004+25733-100300FM-12+051599999V0202101N001012200019N0020001N1+01901+01211100961ADDAA124000091AY141061AY241061GA1001+999999999GF100991001001999999001001IA1019KA1240M+03081KA2120N+01781MA1999999095321MD1710021-0451MW1051REMSYN106AAXX  29121 76393 31920 02101 10190 20121 39532 40096 57002 70544 91150 333 10308 20178 30158 59045 70000;EQDQ01  00002PRCP24
0199763930999992010092915004+25733-100300FM-12+051599999V0202001N001012200019N0020001N1+02461+01251101101ADDAY141031AY241031GA1001+999999999GF100991001001999999001001IA1099MA1999999095441MD1210121-0421MW1041REMSYN088AAXX  29151 76393 31920 02001 10246 20125 39544 40110 52012 70444 91450 333 31/// 59042;
0209763930999992010092918004+25733-100300FM-12+051599999V0200201N001012200019N0030001N1+03081+01111100981ADDGA1001+999999999GF100991001001999999001001IA1019KA1120M+03201KA2240N+01781MA1999999095361MD1710081-0421REMSYN094AAXX  29181 76393 32930 00201 10308 20111 39536 40098 57008 92050 333 10320 20178 30/// 59042;
0199763930999992010092921004+25733-100300FM-12+051599999V0200701N001012200019N0050001N1+03001+01171100671ADDAY101031AY201031GA1001+999999999GF100991001001999999001001IA1019MA1999999095121MD1710241-0281MW1021REMSYN088AAXX  29211 76393 31950 00701 10300 20117 39512 40067 57024 70200 92045 333 30/// 59028;
0279763930999992010093000004+25733-100300FM-12+051599999V0201201N005012200019N0030001N1+02921+01461100571ADDAA124000091AY141061AY201061GA1001+999999999GF100991001001999999001001IA1019KA1120M+03121KA2180N+01781MA1999999095081MD1410001-0291MW1051REMSYN112AAXX  30001 76393 31930 01205 10292 20146 39508 40057 54004 70540 92355 333 10312 20178 30/// 50331 59029 70000;EQDQ01  00002PRCP24
0199763930999992010093003004+25733-100300FM-12+051599999V0202201N001012200019N0030001N1+02441+01551100771ADDAY141031AY201031GA1001+999999999GF100991001001999999001001IA1019MA1999999095281MD1210201-0191MW1051REMSYN088AAXX  30031 76393 31930 02201 10244 20155 39528 40077 52020 70540 90255 333 30/// 59019;
0251763930999992010093006004+25733-100300FM-12+051599999V0201501N001012200019N0020001N1+02221+01541100901ADDAY141061AY241061GA1001+999999999GF100991001001999999001001GJ106489IA1019KA1240M+03121KA2240N+01781MA1999999095371MD1010091-0091MW1051REMSYN106AAXX  30061 76393 31920 01501 10222 20154 39537 40090 50009 70544 90555 333 10312 20178 30/// 55108 59009;
0199763930999992010093009004+25733-100300FM-12+051599999V0202201N001012200019N0020001N1+02041+01511100931ADDAY141031AY241031GA1001+999999999GF100991001001999999001001IA1019MA1999999095361MD1810011+0021MW1051REMSYN088AAXX  30091 76393 31920 02201 10204 20151 39536 40093 58001 70544 90855 333 30/// 58002;
0273763930999992010093012004+25733-100300FM-12+051599999V0202101N001012200019N0020001N1+02061+01521101101ADDAA124000091AY141061AY241061GA1001+999999999GF100991001001999999001001IA1019KA1240M+03121KA2120N+01801MA1999999095481MD1210121+0161MW1051REMSYN106AAXX  30121 76393 31920 02101 10206 20152 39548 40110 52012 70544 91150 333 10312 20180 30173 58016 70000;EQDQ01  00002PRCP24
0199763930999992010093015004+25733-100300FM-12+051599999V0202001N001012200019N0020001N1+02571+01521101371ADDAY141031AY241031GA1001+999999999GF100991001001999999001001IA1099MA1999999095711MD1210231+0271MW1051REMSYN088AAXX  30151 76393 31920 02001 10257 20152 39571 40137 52023 70544 91450 333 31/// 58027;
0237763930999992010093018004+25733-100300FM-12+051599999V0201201N002012200019N0020001N1+03141+01321101341ADDAY101061AY201061GA1001+999999999GF100991001001999999001001IA1019KA1120M+03281KA2240N+01731MA1999999095721MD1210011+0361MW1021REMSYN100AAXX  30181 76393 31920 01202 10314 20132 39572 40134 52001 70200 91750 333 10328 20173 30/// 58036;
0199763930999992010093021004+25733-100300FM-12+051599999V0201101N002012200019N0040001N1+03221+01401101151ADDAY101031AY201031GA1001+999999999GF100991001001999999001001IA1019MA1999999095591MD1710131+0471MW1021REMSYN088AAXX  30211 76393 31940 01102 10322 20140 39559 40115 57013 70200 92045 333 30/// 58047;
0279763930999992010100100004+25733-100300FM-12+051599999V0201401N002012200019N0040001N1+03001+01531101181ADDAA124000091AY101061AY201061GA1001+999999999GF100991001001999999001001IA1019KA1120M+03351KA2180N+01731MA1999999095661MD1210071+0581MW1051REMSYN112AAXX  01001 76393 31940 01402 10300 20153 39566 40118 52007 70500 92330 333 10335 20173 30/// 5//// 58058 70000;EQDQ01  00002PRCP24
0199763930999992010100103004+25733-100300FM-12+051599999V0201301N001012200019N0020001N1+02681+01531101401ADDAY101031AY201031GA1001+999999999GF100991001001999999001001IA1019MA1999999095891MD1210231+0611MW1051REMSYN088AAXX  01031 76393 31920 01301 10268 20153 39589 40140 52023 70500 90230 333 30/// 58061;
0251763930999992010100106004+25733-100300FM-12+051599999V0202101N002012200019N0020001N1+02381+01521101471ADDAY101061AY201061GA1001+999999999GF100991001001999999001001GJ106429IA1019KA1240M+03351KA2240N+01731MA1999999095941MD1210051+0571MW1051REMSYN106AAXX  01061 76393 31920 02102 10238 20152 39594 40147 52005 70500 90550 333 10335 20173 30/// 55107 58057;
0199763930999992010100109004+25733-100300FM-12+051599999V0202201N001012200019N0020001N1+02181+01531101491ADDAY101031AY201031GA1001+999999999GF100991001001999999001001IA1019MA1999999095911MD1710031+0551MW1051REMSYN088AAXX  01091 76393 31920 02201 10218 20153 39591 40149 57003 70500 90855 333 30/// 58055;
0273763930999992010100112004+25733-100300FM-12+051599999V0202301N001012200019N0020001N1+02171+01561101641ADDAA124000091AY141061AY241061GA1001+999999999GF100991001001999999001001IA1019KA1240M+03351KA2120N+02101MA1999999096011MD1210101+0531MW1051REMSYN106AAXX  01121 76393 31920 02301 10217 20156 39601 40164 52010 70544 91150 333 10335 20210 30210 58053 70000;EQDQ01  00002PRCP24
0199763930999992010100115004+25733-100300FM-12+051599999V0202001N001012200019N0020001N1+02651+01491101821ADDAY141031AY241031GA1001+999999999GF100991001001999999001001IA1019MA1999999096171MD1210161+0461MW1051REMSYN088AAXX  01151 76393 31920 02001 10265 20149 39617 40182 52016 70544 91450 333 30/// 58046;
0161763930999992010100118004+25733-100300FM-12+051599999V0200201N002012200019N0020001N1+02961+01591101731ADDAY101061AY201061GF101991011011017501001001MA1999999096101MD1710071+9999MW1021REMSYN072AAXX  01181 76393 31720 10202 10296 20159 39610 40173 57007 70200 81100;
0195763930999992010100121004+25733-100300FM-12+051599999V0200401N002012200019N0020001N1+03021+01591101461ADDAY101031AY201031GF101991011001999999041001IA1019MA1999999095891MD1710211+0301MW1041REMSYN100AAXX  01211 76393 31920 10402 10302 20159 39589 40146 57021 70400 81040 92050 333 0/050 30/// 58030;
0279763930999992010100200004+25733-100300FM-12+051599999V0200301N002012200019N0030001N1+02881+01291101401ADDAA124000091AY101061AY201061GA1001+999999999GF100991001001999999001001IA1019KA1120M+03281KA2180N+02101MA1999999095861MD1510031+0201MW1041REMSYN112AAXX  02001 76393 31930 00302 10288 20129 39586 40140 55003 70400 92340 333 10328 20210 30/// 50731 58020 70000;EQDQ01  00002PRCP24
0199763930999992010100203004+25733-100300FM-12+051599999V0202101N001012200019N0020001N1+02541+01671101551ADDAY101031AY201031GA1001+999999999GF100991001001999999001001IA1019MA1999999096021MD1210161+0131MW1041REMSYN088AAXX  02031 76393 31920 02101 10254 20167 39602 40155 52016 70400 90230 333 30/// 58013;
0251763930999992010100206004+25733-100300FM-12+051599999V0202001N001012200019N0020001N1+02381+01761101501ADDAY101061AY201061GA1001+999999999GF100991001001999999001001GJ106009IA1019KA1240M+03061KA2240N+02101MA1999999095951MD1710071+0011MW1051REMSYN106AAXX  02061 76393 31920 02001 10238 20176 39595 40150 57007 70500 90550 333 10306 20210 30/// 55100 58001;
0199763930999992010100209004+25733-100300FM-12+051599999V0202301N001012200019N0020001N1+02181+01601101491ADDAY101031AY201031GA1001+999999999GF100991001001999999001001IA1019MA1999999095891MD1710061-0021MW1051REMSYN088AAXX  02091 76393 31920 02301 10218 20160 39589 40149 57006 70500 90850 333 30/// 59002;
0273763930999992010100212004+25733-100300FM-12+051599999V0202101N001012200019N0020001N1+02101+01541101611ADDAA124000091AY141061AY241061GA1001+999999999GF100991001001999999001001IA1019KA1240M+03061KA2120N+02001MA1999999095981MD1210091-0031MW1051REMSYN106AAXX  02121 76393 31920 02101 10210 20154 39598 40161 52009 70544 91150 333 10306 20200 30198 59003 70000;EQDQ01  00002PRCP24
0199763930999992010100215004+25733-100300FM-12+051599999V0202401N001012200019N0020001N1+02601+01451101811ADDAY141031AY241031GA1001+999999999GF100991001001999999001001IA1019MA1999999096151MD1210171-0021MW1051REMSYN088AAXX  02151 76393 31920 02401 10260 20145 39615 40181 52017 70544 91450 333 30/// 59002;
0237763930999992010100218004+25733-100300FM-12+051599999V0200501N003012200019N0020001N1+03021+01521101721ADDAY101061AY201061GA1001+999999999GF100991001001999999001001IA1019KA1120M+03101KA2240N+02001MA1999999096091MD1710061-0011MW1021REMSYN100AAXX  02181 76393 31920 00503 10302 20152 39609 40172 57006 70200 91750 333 10310 20200 30/// 59001;
0217763930999992010100221004+25733-100300FM-12+051599999V0203601N001012200019N0040001N1+03161+01511101491ADDAY101031AY201031GA1011+021001081GF104991011011022501031011IA1019MA1999999095911MD1710181+0021MW1031REMSYN106AAXX  02211 76393 31840 43601 10316 20151 39591 40149 57018 70300 81131 92045 333 00355 30/// 58002 81857;
0161763930999992010100300004+25733-100300FM-12+051599999V0203601N003010360019N0030001N1+02841+01541101481ADDAY111061AY211061GF105991041021017501031001MA1999999095941MD1210031+9999MW1041REMSYN072AAXX  03001 76393 31730 53603 10284 20154 39594 40148 52003 70411 84230;
0217763930999992010100303004+25733-100300FM-12+051599999V0209999C000010300019N0020001N1+02601+01711101691ADDAY141031AY221031GA1051+030001031GF105991051001999999051001IA1019MA1999999096141MD1210201+0121MW1051REMSYN106AAXX  03031 76393 31920 50000 10260 20171 39614 40169 52020 70542 85050 90240 333 0/050 30/// 58012 85360;
0161763930999992010100306004+25733-100300FM-12+051599999V0201801N001012200019N0020001N1+02481+01871101751ADDAY101061AY201061GF103991031001999999041001MA1999999096191MD1210051+9999MW1051REMSYN072AAXX  03061 76393 31920 31801 10248 20187 39619 40175 52005 70500 83040;
0195763930999992010100309004+25733-100300FM-12+051599999V0201201N001012200019N0020001N1+02321+01491101811ADDAY101031AY201031GF103991031051012501001001IA1019MA1999999096211MD1210021+0321MW1051REMSYN100AAXX  03091 76393 31620 31201 10232 20149 39621 40181 52002 70500 83500 90850 333 0/300 30/// 58032;
0273763930999992010100312004+25733-100300FM-12+051599999V0201201N002012200019N0020001N1+02121+01571101981ADDAA124000091AY141061AY241061GA1001+999999999GF100991001001999999001001IA1019KA1240M+03321KA2120N+02101MA1999999096331MD1210121+0351MW1051REMSYN106AAXX  03121 76393 31920 01202 10212 20157 39633 40198 52012 70544 91155 333 10332 20210 30198 58035 70000;EQDQ01  00002PRCP24
0217763930999992010100315004+25733-100300FM-12+051599999V0201201N001012200019N0060001N1+02461+01721102171ADDAY141031AY241031GA1011+009001061GF101991011051008001001001IA1019MA1999999096501MD1210171+0351MW1051REMSYN106AAXX  03151 76393 31556 11201 10246 20172 39650 40217 52017 70544 81500 91455 333 0/300 30/// 58035 81630;
0161763930999992010100318004+25733-100300FM-12+051599999V0201501N001012200019N0060001N1+02621+01381102141ADDAY141061AY201061GF103991031021017501001001MA1999999096471MD1010031+9999MW1051REMSYN072AAXX  03181 76393 31756 31501 10262 20138 39647 40214 50003 70540 83200;
0221763930999992010100321004+25733-100300FM-12+051599999V0201201N001012200019N0080001N1+02841+01321101831ADDAY141031AY201031GA1021+018001031GF102991021001022501041001IA1019MD1710261+0301MW1051REMSYN106AAXX  03211 76393 31858 21201 10284 20132 39521 40183 57026 70540 82040 92055 333 0/050 30/// 58030 82356;EQDQ01+095213APOSP 
0161763930999992010100400004+25733-100300FM-12+051599999V0201201N005012200019N0030001N1+02641+01331101851ADDAY141061AY221061GF104991021021017501041001MA1999999096251MD1210041+9999MW1051REMSYN072AAXX  04001 76393 31730 41205 10264 20133 39625 40185 52004 70542 82240;
0214763930999992010100403004+25733-100300FM-12+051599999V0201301N003012200019N0020001N1+02401+01131102021ADDAY141031AY221031GF102991999001999999041001IA1019MA1999999096411MD1210161+0271MW1051REMSYN100AAXX  04031 76393 31920 21303 10240 20113 39641 40202 52016 70542 80040 90230 333 0/050 30/// 58027;EQDQ01+000002SCOTLC
0251763930999992010100406004+25733-100300FM-12+051599999V0209999C000012200019N0020001N1+02121+01391102001ADDAY101061AY201061GA1001+999999999GF100991001001999999001001GJ106369IA1019KA1240M+03021KA2240N+02101MA1999999096381MD1710031+0191MW1051REMSYN106AAXX  04061 76393 31920 00000 10212 20139 39638 40200 57003 70500 90550 333 10302 20210 30/// 55106 58019;
0199763930999992010100409004+25733-100300FM-12+051599999V0202001N001012200019N0020001N1+01961+01351102041ADDAY101031AY201031GA1001+999999999GF100991001001999999001001IA1019MA1999999096381MD1410001+0171MW1051REMSYN088AAXX  04091 76393 31920 02001 10196 20135 39638 40204 54000 70500 90850 333 30/// 58017;
0161763930999992010100412004+25733-100300FM-12+051599999V0200401N001012200019N0020001N1+01841+01251102131ADDAY141061AY241061GF101991011011004501001001MA1999999096431MD1210051+9999MW1051REMSYN072AAXX  04121 76393 31420 10401 10184 20125 39643 40213 52005 70544 81100;
0199763930999992010100415004+25733-100300FM-12+051599999V0201201N002012200019N0020001N1+02201+01451102341ADDAY141031AY241031GA1001+999999999GF100991001001999999001001IA1019MA1999999096601MD1210171+0101MW1041REMSYN088AAXX  04151 76393 31920 01202 10220 20145 39660 40234 52017 70444 91450 333 30/// 58010;
0161763930999992010100418004+25733-100300FM-12+051599999V0201101N003012200019N0020001N1+02681+01491102231ADDAY101061AY201061GF101991011011012501001001MA1999999096521MD1710081+9999MW1051REMSYN072AAXX  04181 76393 31620 11103 10268 20149 39652 40223 57008 70500 81100;
0217763930999992010100421004+25733-100300FM-12+051599999V0201101N004012200019N0040001N1+02861+01301101971ADDAY101031AY201031GA1031+018001081GF103991031011017501001001IA1019MA1999999096311MD1710211+0101MW1041REMSYN106AAXX  04211 76393 31740 31104 10286 20130 39631 40197 57021 70400 83100 92050 333 00300 30/// 58010 83856;
0161763930999992010100500004+25733-100300FM-12+051599999V0201401N004012200019N0030001N1+02561+01561101931ADDAY141061AY221061GF104991041021012501001001MA1999999096311MD1410001+9999MW1051REMSYN072AAXX  05001 76393 31630 41404 10256 20156 39631 40193 54000 70542 84200;
0217763930999992010100503004+25733-100300FM-12+051599999V0201301N004010120019N0020001N1+02381+01411102061ADDAY141031AY221031GA1071+012001061GF107991071061012501999999IA1019MA1999999096411MD1210101+0001MW1051REMSYN106AAXX  05031 76393 31620 71304 10238 20141 39641 40206 52010 70542 876// 90240 333 0/3// 30/// 58000 87640;
0161763930999992010100506004+25733-100300FM-12+051599999V0201401N004010120019N0020001N1+02301+01461102081ADDAY121061AY221061GF106991061051012501001001MA1999999096451MD1410001+9999MW1051REMSYN072AAXX  05061 76393 31620 61404 10230 20146 39645 40208 54000 70522 86500;
0217763930999992010100509004+25733-100300FM-12+051599999V0201401N005010060019N0020001N1+02041+01551102051ADDAY121031AY221031GA1051+006001061GF105991051051008001001001IA1019MA1999999096401MD1710051+0021MW1051REMSYN106AAXX  05091 76393 31520 51405 10204 20155 39640 40205 57005 70522 85500 90850 333 0/300 30/// 58002 85620;
0161763930999992010100512004+25733-100300FM-12+051599999V0201201N001010021019N0020001N1+01821+01591102181ADDAY141061AY241061GF107991071051002501999999MA1999999096481MD1210081+9999MW1051REMSYN072AAXX  05121 76393 31320 71201 10182 20159 39648 40218 52008 70544 875//;
0217763930999992010100515004+25733-100300FM-12+051599999V0201201N002010036019N0020001N1+01961+01591102391ADDAY141031AY241031GA1081+003601061GF108991081051004501999999IA1019MA1999999096651MD1210171+0051MW1051REMSYN106AAXX  05151 76393 31420 81202 10196 20159 39665 40239 52017 70544 885// 91450 333 0/3// 30/// 58005 88612;
0217763930999992010100521004+25733-100300FM-12+051599999V0201201N005010099019N0020001N1+02501+01701102171ADDAY121031AY221031GA1071+009901061GF107991071051008001999999IA1019MA1999999096461MD1710191+0151MW1051REMSYN106AAXX  05211 76393 31520 71205 10250 20170 39646 40217 57019 70522 875// 92045 333 0/399 30/// 58015 87633;
0161763930999992010100600004+25733-100300FM-12+051599999V0201201N003010120019N0020001N1+02381+01561102131ADDAY141061AY221061GF106991061051012501999999MA1999999096451MD1510011+9999MW1051REMSYN072AAXX  06001 76393 31620 61203 10238 20156 39645 40213 55001 70542 865//;
0217763930999992010100603004+25733-100300FM-12+051599999V0201001N002010093019N0020001N1+02341+01581102261ADDAY141031AY221031GA1081+009301061GF108991081051008001999999IA1019MA1999999096591MD1210141+0141MW1051REMSYN106AAXX  06031 76393 31520 81002 10234 20158 39659 40226 52014 70542 885// 90255 333 0/399 30/// 58014 88631;
0161763930999992010100606004+25733-100300FM-12+051599999V0201301N005010075019N0020001N1+02081+01491102251ADDAY121061AY221061GF108991081051008001999999MA1999999096581MD1710011+9999MW1051REMSYN072AAXX  06061 76393 31520 81305 10208 20149 39658 40225 57001 70522 885//;
0234763930999992010100609004+25733-100300FM-12+051599999V0201401N004010066019N0020001N1+02001+01471102211ADDAA103000991AY121031AY221031GA1081+006601061GF108991081051008001999999IA1019MA1999999096521MD1710061+0121MW1051REMSYN112AAXX  06091 76393 21520 81404 10200 20147 39652 40221 57006 70522 885// 90850 333 0/3// 30/// 58012 69997 88622;
0161763930999992010100612004+25733-100300FM-12+051599999V0200901N001010042019N0020001N1+01971+01581102341ADDAY141061AY241061GF107991071051004501999999MA1999999096621MD1210101+9999MW1051REMSYN072AAXX  06121 76393 31420 70901 10197 20158 39662 40234 52010 70544 875//;
0234763930999992010100615004+25733-100300FM-12+051599999V0200801N001010033019N0020001N1+01941+01601102511ADDAA103000021AY141031AY221031GA1081+003301061GF108991081051004501999999IA1019MA1999999096771MD1210151+0121MW1501REMSYN112AAXX  06151 76393 21420 80801 10194 20160 39677 40251 52015 75042 885// 91450 333 0/4// 30/// 58012 69907 88611;
0161763930999992010100618004+25733-100300FM-12+051599999V0201401N001010075019N0020001N1+02301+01741102501ADDAY141061AY211061GF106991061051008001999999MA1999999096751MD1710031+9999MW1051REMSYN072AAXX  06181 76393 31520 61401 10230 20174 39675 40250 57003 70541 865//;
0217763930999992010100621004+25733-100300FM-12+051599999V0201201N003012200019N0050001N1+02561+01661102151ADDAY141031AY211031GA1041+011101061GF104991041051012501001001IA1019MA1999999096451MD1710301-0011MW1051REMSYN106AAXX  06211 76393 31650 41203 10256 20166 39645 40215 57030 70541 84500 92055 333 0/300 30/// 59001 84637;
0161763930999992010100700004+25733-100300FM-12+051599999V0201401N004010120019N0030001N1+02481+01421102081ADDAY111061AY211061GF105991051061012501001001MA1999999096411MD1510041+9999MW1051REMSYN072AAXX  07001 76393 31630 51404 10248 20142 39641 40208 55004 70511 85600;
0217763930999992010100703004+25733-100300FM-12+051599999V0201201N003010102019N0020001N1+02321+01451102181ADDAY121031AY221031GA1071+010201061GF107991071061012501999999IA1019MA1999999096521MD1210111-0071MW1051REMSYN106AAXX  07031 76393 31620 71203 10232 20145 39652 40218 52011 70522 876// 90240 333 0/3// 30/// 59007 87634;
0161763930999992010100706004+25733-100300FM-12+051599999V0200801N002012200019N0020001N1+02181+01431102151ADDAY141061AY201061GF104991041051008001001001MA1999999096501MD1010021+9999MW1051REMSYN072AAXX  07061 76393 31520 40802 10218 20143 39650 40215 50002 70540 84500;
0217763930999992010100709004+25733-100300FM-12+051599999V0201501N002010057019N0020001N1+01961+01491102081ADDAY141031AY211031GA1061+005701061GF106991061051004501001001IA1019MA1999999096411MD1710091+9999MW1051REMSYN106AAXX  07091 76393 31420 61502 10196 20149 39641 40208 57009 70541 86500 90855 333 0/399 30/// 590// 86619;
0161763930999992010100712004+25733-100300FM-12+051599999V0200301N001010042019N0020001N1+01821+01491102221ADDAY141061AY241061GF107991071051004501999999MA1999999096501MD1210091+9999MW1051REMSYN072AAXX  07121 76393 31420 70301 10182 20149 39650 40222 52009 70544 875//;
0223763930999992010100715004+25733-100300FM-12+051599999V0209999C000012200019N0020001N1+02151+01531102391ADDAY141031AY241031GA1011+006001081GF102991021081008001001001IA1019MA1999999096651MD1210151-0121MW1051REMSYN112AAXX  07151 76393 31520 20000 10215 20153 39665 40239 52015 70544 82800 91450 333 00400 30/// 59012 81820 81634;
0180763930999992010100718004+25733-100300FM-12+051599999V0201201N005012200019N0020001N1+02601+01641102331ADDAY121061AY221061GF103991999011012501001001MA1999999096601MD1710051+9999MW1051REMSYN072AAXX  07181 76393 31620 31205 10260 20164 39660 40233 57005 70522 85100;EQDQ01+000052SCOTLC
0217763930999992010100721004+25733-100300FM-12+051599999V0201201N006010135019N0030001N1+02601+01501101981ADDAY121031AY221031GA1061+013501081GF106991061011012501001001IA1019MA1999999096301MD1710301-0451MW1041REMSYN106AAXX  07211 76393 31630 61206 10260 20150 39630 40198 57030 70422 86100 92050 333 00300 30/// 59045 86845;
0161763930999992010100800004+25733-100300FM-12+051599999V0201301N003012200019N0040001N1+02401+01401101901ADDAY111061AY211061GF103991031021012501001001MA1999999096261MD1510041+9999MW1051REMSYN072AAXX  08001 76393 31640 31303 10240 20140 39626 40190 55004 70511 83200;
0236763930999992010100803004+25733-100300FM-12+051599999V0201201N001012200019N0030001N1+02241+01281101991ADDAY111031AY211031GA1031+030001031GF103991999001999999051001IA1019MA1999999096351MD1210091-0171MW1051REMSYN106AAXX  08031 76393 31930 31201 10224 20128 39635 40199 52009 70511 80050 90240 333 0/050 30/// 59017 83360;EQDQ01+000002SCOTLC
0161763930999992010100806004+25733-100300FM-12+051599999V0201301N001012200019N0030001N1+02101+01331101991ADDAY101061AY201061GF103991031001999999041001MA1999999096341MD1710011+9999MW1051REMSYN072AAXX  08061 76393 31930 31301 10210 20133 39634 40199 57001 70500 83040;
0199763930999992010100809004+25733-100300FM-12+051599999V0200901N001012200019N0020001N1+01841+01321101921ADDAY101031AY201031GA1001+999999999GF100991001001999999001001IA1019MA1999999096251MD1710091-0161MW1051REMSYN088AAXX  08091 76393 31920 00901 10184 20132 39625 40192 57009 70500 90850 333 30/// 59016;
0273763930999992010100812004+25733-100300FM-12+051599999V0209999C000012200019N0020001N1+01681+01271101981ADDAA124000091AY141061AY241061GA1001+999999999GF100991001001999999001001IA1019KA1240M+02721KA2120N+01501MA1999999096261MD1210011-0241MW1051REMSYN106AAXX  08121 76393 31920 00000 10168 20127 39626 40198 52001 70544 91150 333 10272 20150 30146 59024 70000;EQDQ01  00002PRCP24
0199763930999992010100815004+25733-100300FM-12+051599999V0209999C000012200019N0010001N1+02061+01321102161ADDAY141031AY241031GA1001+999999999GF100991001001999999001001IA1019MA1999999096411MD1210151-0241MW1041REMSYN088AAXX  08151 76393 31910 00000 10206 20132 39641 40216 52015 70444 91450 333 30/// 59024;
0161763930999992010100818004+25733-100300FM-12+051599999V0200601N002012200019N0010001N1+02601+01461102081ADDAY101061AY201061GF102991021011012501001001MA1999999096351MD1710061+9999MW1041REMSYN072AAXX  08181 76393 31610 20602 10260 20146 39635 40208 57006 70400 82100;
0217763930999992010100821004+25733-100300FM-12+051599999V0201201N003012200019N0030001N1+02801+01571101741ADDAY101031AY201031GA1021+015001081GF102991021011012501001001IA1019MA1999999096071MD1710281-0231MW1041REMSYN106AAXX  08211 76393 31630 21203 10280 20157 39607 40174 57028 70400 82100 92055 333 00300 30/// 59023 82850;
0161763930999992010100900004+25733-100300FM-12+051599999V0201101N003012200019N0030001N1+02541+01501101671ADDAY101061AY201061GF102991011021012501041001MA1999999096041MD1510031+9999MW1051REMSYN072AAXX  09001 76393 31630 21103 10254 20150 39604 40167 55003 70500 81240;
0211763930999992010100903004+25733-100300FM-12+051599999V0201201N003012200019N0020001N1+02361+01351101781ADDAY101031AY201031GA1011+012301081GF101991999999012501999999IA1019MA1999999096171MD1210131-0181MW1051REMSYN100AAXX  09031 76393 31620 11203 10236 20135 39617 40178 52013 70500 90230 333 0/300 30/// 59018 81841;
0251763930999992010100906004+25733-100300FM-12+051599999V0202101N001012200019N0020001N1+02121+01631101741ADDAY101061AY201061GA1001+999999999GF100991001001999999001001GJ106309IA1019KA1240M+02901KA2240N+01501MA1999999096121MD1710051-0221MW1051REMSYN106AAXX  09061 76393 31920 02101 10212 20163 39612 40174 57005 70500 90550 333 10290 20150 30/// 55105 59022;
0199763930999992010100909004+25733-100300FM-12+051599999V0201601N001012200019N0020001N1+01921+01581101641ADDAY101031AY201031GA1001+999999999GF100991001001999999001001IA1019MA1999999096001MD1710121-0251MW1051REMSYN088AAXX  09091 76393 31920 01601 10192 20158 39600 40164 57012 70500 90850 333 30/// 59025;
0161763930999992010100912004+25733-100300FM-12+051599999V0202401N001012200019N0020001N1+01761+01411101771ADDAY141061AY241061GF101991001001999999001011MA1999999096071MD1210071+9999MW1051REMSYN072AAXX  09121 76393 31920 12401 10176 20141 39607 40177 52007 70544 80001;
0199763930999992010100915004+25733-100300FM-12+051599999V0200901N001012200019N0010001N1+02211+01531101901ADDAY141031AY241031GA1001+999999999GF100991001001999999001001IA1019MA1999999096191MD1210121-0221MW1041REMSYN088AAXX  09151 76393 31910 00901 10221 20153 39619 40190 52012 70444 91450 333 30/// 59022;
0237763930999992010100918004+25733-100300FM-12+051599999V0200601N001012200019N0020001N1+02741+01641101821ADDAY141061AY241061GA1001+999999999GF100991001001999999001001IA1019KA1120M+02861KA2240N+01701MA1999999096121MD1010071-0231MW1051REMSYN100AAXX  09181 76393 31920 00601 10274 20164 39612 40182 50007 70544 91755 333 10286 20170 30/// 59023;
0199763930999992010100921004+25733-100300FM-12+051599999V0201301N003012200019N0020001N1+03021+01771101491ADDAY141031AY241031GA1001+999999999GF100991001001999999001001IA1019MA1999999095851MD1710271-0221MW1051REMSYN088AAXX  09211 76393 31920 01303 10302 20177 39585 40149 57027 70544 92055 333 30/// 59022;
0279763930999992010101000004+25733-100300FM-12+051599999V0201201N002012200019N0030001N1+02701+01661101391ADDAA124000091AY101061AY201061GA1001+999999999GF100991001001999999001001IA1019KA1120M+03081KA2180N+01701MA1999999095811MD1310041-0231MW1051REMSYN112AAXX  10001 76393 31930 01202 10270 20166 39581 40139 53004 70500 92330 333 10308 20170 30/// 50441 59023 70000;EQDQ01  00002PRCP24
0199763930999992010101003004+25733-100300FM-12+051599999V0202701N001012200019N0020001N1+02341+01681101451ADDAY101031AY201031GA1001+999999999GF100991001001999999001001IA1019MA1999999095881MD1210071-0291MW1051REMSYN088AAXX  10031 76393 31920 02701 10234 20168 39588 40145 52007 70500 90230 333 30/// 59029;
0251763930999992010101006004+25733-100300FM-12+051599999V0202201N001012200019N0020001N1+02181+01601101441ADDAY101061AY201061GA1001+999999999GF100991001001999999001001GJ106189IA1019KA1240M+03081KA2240N+01701MA1999999095861MD1710021-0261MW1051REMSYN106AAXX  10061 76393 31920 02201 10218 20160 39586 40144 57002 70500 90550 333 10308 20170 30/// 55103 59026;
0199763930999992010101009004+25733-100300FM-12+051599999V0202201N001012200019N0020001N1+01981+01481101341ADDAY101031AY201031GA1001+999999999GF100991001001999999001001IA1019MA1999999095721MD1710141-0281MW1051REMSYN088AAXX  10091 76393 31920 02201 10198 20148 39572 40134 57014 70500 90850 333 30/// 59028;
0273763930999992010101012004+25733-100300FM-12+051599999V0203201N001012200019N0020001N1+01861+01761101431ADDAA124000091AY141061AY241061GA1001+999999999GF100991001001999999001001IA1019KA1240M+03081KA2120N+01761MA1999999095781MD1510061-0291MW1051REMSYN106AAXX  10121 76393 31920 03201 10186 20176 39578 40143 55006 70544 91155 333 10308 20176 30170 59029 70000;EQDQ01  00002PRCP24
0237763930999992010101018004+25733-100300FM-12+051599999V0200601N002012200019N0010001N1+02781+01671101381ADDAY101061AY201061GA1001+999999999GF100991001001999999001001IA1019KA1120M+02901KA2240N+01761MA1999999095721MD1710111-0401MW1051REMSYN100AAXX  10181 76393 31910 00602 10278 20167 39572 40138 57011 70500 91750 333 10290 20176 30/// 59040;
0199763930999992010101021004+25733-100300FM-12+051599999V0200901N003012200019N0010001N1+03001+01851101041ADDAY101031AY201031GA1001+999999999GF100991001001999999001001IA1019MA1999999095441MD1710281-0411MW1051REMSYN088AAXX  10211 76393 31910 00903 10300 20185 39544 40104 57028 70500 92045 333 30/// 59041;
0279763930999992010101100004+25733-100300FM-12+051599999V0201201N001012200019N0020001N1+02801+01461100931ADDAA124000091AY141061AY221061GA1001+999999999GF100991001001999999001001IA1019KA1120M+03101KA2180N+01761MA1999999095371MD1610071-0441MW1051REMSYN112AAXX  11001 76393 31920 01201 10280 20146 39537 40093 56007 70542 92330 333 10310 20176 30/// 50581 59044 70000;EQDQ01  00002PRCP24
0199763930999992010101103004+25733-100300FM-12+051599999V0201801N001012200019N0020001N1+02441+01631101021ADDAY141031AY221031GA1001+999999999GF100991001001999999001001IA1019MA1999999095491MD1210121-0391MW1051REMSYN088AAXX  11031 76393 31920 01801 10244 20163 39549 40102 52012 70542 90230 333 30/// 59039;
0251763930999992010101106004+25733-100300FM-12+051599999V0202101N001012200019N0020001N1+02241+01671100981ADDAY101061AY201061GA1001+999999999GF100991001001999999001001GJ105769IA1019KA1240M+03101KA2240N+01761MA1999999095441MD1710051-0421MW1051REMSYN106AAXX  11061 76393 31920 02101 10224 20167 39544 40098 57005 70500 90550 333 10310 20176 30/// 55096 59042;
0199763930999992010101109004+25733-100300FM-12+051599999V0209999C000012200019N0020001N1+01901+01691100981ADDAY101031AY201031GA1001+999999999GF100991001001999999001001IA1019MA1999999095391MD1710051-0331MW1051REMSYN088AAXX  11091 76393 31920 00000 10190 20169 39539 40098 57005 70500 90855 333 30/// 59033;
0273763930999992010101112004+25733-100300FM-12+051599999V0202901N001012200019N0020001N1+01841+01691101041ADDAA124000091AY141061AY241061GA1001+999999999GF100991001001999999001001IA1019KA1240M+03101KA2120N+01741MA1999999095401MD1210011-0381MW1051REMSYN106AAXX  11121 76393 31920 02901 10184 20169 39540 40104 52001 70544 91150 333 10310 20174 30168 59038 70000;EQDQ01  00002PRCP24
0217763930999992010101115004+25733-100300FM-12+051599999V0202901N001012200019N0020001N1+02291+01551101161ADDAY141031AY241031GA1011+007201061GF102991011051008001031001IA1019MA1999999095501MD1210101-0281MW1041REMSYN106AAXX  11151 76393 31520 22901 10229 20155 39550 40116 52010 70444 81530 91450 333 0/150 30/// 59028 81624;
0161763930999992010101118004+25733-100300FM-12+051599999V0201201N002012200019N0010001N1+03081+01631101061ADDAY101061AY201061GF101991011051017501001001MA1999999095431MD1710071+9999MW1041REMSYN072AAXX  11181 76393 31710 11202 10308 20163 39543 40106 57007 70400 81500;
0217763930999992010101121004+25733-100300FM-12+051599999V0200901N003012200019N0020001N1+03141+01781100791ADDAY101031AY201031GA1011+018001081GF101991011011017501001001IA1019MA1999999095231MD1710201-0211MW1041REMSYN106AAXX  11211 76393 31720 10903 10314 20178 39523 40079 57020 70400 81100 92050 333 00700 30/// 59021 81856;
0161763930999992010101200004+25733-100300FM-12+051599999V0201101N003012200019N0040001N1+02961+01801100821ADDAY141061AY221061GF102991001001999999041011MA1999999095301MD1210071+9999MW1051REMSYN072AAXX  12001 76393 31940 21103 10296 20180 39530 40082 52007 70542 80041;
0199763930999992010101203004+25733-100300FM-12+051599999V0209999C000012200019N0020001N1+02621+01701100981ADDAY141031AY221031GA1001+999999999GF100991001001999999001001IA1019MA1999999095481MD1210181-0011MW1051REMSYN088AAXX  12031 76393 31920 00000 10262 20170 39548 40098 52018 70542 90230 333 30/// 59001;
0251763930999992010101206004+25733-100300FM-12+051599999V0201001N001012200019N0020001N1+02301+01891101041ADDAY101061AY201061GA1001+999999999GF100991001001999999001001GJ106009IA1019KA1240M+03281KA2240N+01741MA1999999095521MD1210041+0081MW1051REMSYN106AAXX  12061 76393 31920 01001 10230 20189 39552 40104 52004 70500 90550 333 10328 20174 30/// 55100 58008;
0199763930999992010101209004+25733-100300FM-12+051599999V0203201N001012200019N0020001N1+02101+01921101121ADDAY101031AY201031GA1001+999999999GF100991001001999999001001IA1019MA1999999095561MD1210041+0171MW1051REMSYN088AAXX  12091 76393 31920 03201 10210 20192 39556 40112 52004 70500 90850 333 30/// 58017;
0273763930999992010101212004+25733-100300FM-12+051599999V0203001N001012200019N0020001N1+02061+01881101271ADDAA124000091AY141061AY241061GA1001+999999999GF100991001001999999001001IA1019KA1240M+03281KA2120N+02001MA1999999095651MD1210091-0251MW1051REMSYN106AAXX  12121 76393 31920 03001 10206 20188 39565 40127 52009 70544 91150 333 10328 20200 30198 59025 70000;EQDQ01  00002PRCP24
0217763930999992010101215004+25733-100300FM-12+051599999V0203101N001012200019N0010001N1+02401+01931101531ADDAY141031AY241031GA1011+004501081GF101991011011004501001001IA1019MA1999999095871MD1210221+0371MW1041REMSYN106AAXX  12151 76393 31410 13101 10240 20193 39587 40153 52022 70444 81100 91450 333 00800 30/// 58037 81815;
0161763930999992010101218004+25733-100300FM-12+051599999V0201101N002012200019N0010001N1+03041+01691101521ADDAY101061AY201061GF102991011011017501031001MA1999999095891MD1210021+9999MW1041REMSYN072AAXX  12181 76393 31710 21102 10304 20169 39589 40152 52002 70400 81130;
0217763930999992010101221004+25733-100300FM-12+051599999V0200901N002012200019N0020001N1+03221+01781101311ADDAY101031AY201031GA1021+018001081GF104991021011017501001041IA1019MA1999999095741MD1710151+0511MW1041REMSYN106AAXX  12211 76393 31720 40902 10322 20178 39574 40131 57015 70400 82104 92050 333 00305 30/// 58051 82856;
0161763930999992010101300004+25733-100300FM-12+051599999V0201201N002012200019N0050001N1+02861+01851101381ADDAY141061AY201061GF103991031051012501001001MA1999999095851MD1210111+9999MW1051REMSYN072AAXX  13001 76393 31650 31202 10286 20185 39585 40138 52011 70540 83500;
0217763930999992010101303004+25733-100300FM-12+051599999V0202001N002012200019N0020001N1+02621+01901101581ADDAY141031AY201031GA1011+009001061GF101991011051008001001001IA1019MA1999999096051MD1210201+0571MW1051REMSYN106AAXX  13031 76393 31520 12002 10262 20190 39605 40158 52020 70540 81500 90250 333 0/300 30/// 58057 81630;
0251763930999992010101306004+25733-100300FM-12+051599999V0202301N001012200019N0020001N1+02361+01801101711ADDAY101061AY201061GA1001+999999999GF100991001001999999001001GJ105889IA1019KA1240M+03321KA2240N+02001MA1999999096161MD1210111+0641MW1051REMSYN106AAXX  13061 76393 31920 02301 10236 20180 39616 40171 52011 70500 90550 333 10332 20200 30/// 55098 58064;
0199763930999992010101309004+25733-100300FM-12+051599999V0209999C000012200019N0020001N1+02181+01791101741ADDAY101031AY201031GA1001+999999999GF100991001001999999001001IA1019MA1999999096151MD1710011+0591MW1051REMSYN088AAXX  13091 76393 31920 00000 10218 20179 39615 40174 57001 70500 90850 333 30/// 58059;
0161763930999992010101312004+25733-100300FM-12+051599999V0209999C000012200019N0020001N1+02181+01751101901ADDAY141061AY241061GF102991011001022501031011MA1999999096251MD1210101+9999MW1051REMSYN072AAXX  13121 76393 31820 20000 10218 20175 39625 40190 52010 70544 81031;
0223763930999992010101315004+25733-100300FM-12+051599999V0201501N001012200019N0020001N1+02531+01931102201ADDAY141031AY241031GA1011+006001081GF102991021081008001001001IA1019MA1999999096531MD1210281+0661MW1051REMSYN112AAXX  13151 76393 31520 21501 10253 20193 39653 40220 52028 70544 82800 91450 333 01400 30/// 58066 81820 81634;
0161763930999992010101318004+25733-100300FM-12+051599999V0201001N006010150019N0020001N1+03021+01661102181ADDAY111061AY211061GF105991051021017501001001MA1999999096531MD1410001+9999MW1051REMSYN072AAXX  13181 76393 31720 51006 10302 20166 39653 40218 54000 70511 85200;
0245763930999992010101321004+25733-100300FM-12+051599999V0200301N00601036001CN0030001N1+02961+01731101951ADDAY121031AY221031GA1011+015001081GA2021+015001061GF106991031021012501011001IA1019MA1999999096341MD1710191+0401MW1051REMSYN118AAXX  13211 76393 31630 60306 10296 20173 39634 40195 57019 70522 83210 92050 333 02350 30/// 58040 81850 82650 83363;
0161763930999992010101400004+25733-100300FM-12+051599999V0201001N001019999999N0030001N1+02421+01571102121ADDAY121061AY221061GF107991071001999999071999MA1999999096511MD1210171+9999MW1051REMSYN072AAXX  14001 76393 31930 71001 10242 20157 39651 40212 52017 70522 8707/;
0217763930999992010101403004+25733-100300FM-12+051599999V0202101N002010300019N0020001N1+02321+01691102281ADDAY121031AY221031GA1081+030001031GF108991081001999999071999IA1019MA1999999096661MD1210151+0611MW1051REMSYN106AAXX  14031 76393 31920 82102 10232 20169 39666 40228 52015 70522 8807/ 90240 333 0/05/ 30/// 58061 88360;
0161763930999992010101406004+25733-100300FM-12+051599999V0202201N001012200019N0020001N1+02161+01651102341ADDAY141061AY241061GF103991031001999999041001MA1999999096691MD1710031+9999MW1051REMSYN072AAXX  14061 76393 31920 32201 10216 20165 39669 40234 57003 70544 83040;
0199763930999992010101409004+25733-100300FM-12+051599999V0201201N001012200019N0020001N1+02021+01531102341ADDAY141031AY241031GA1001+999999999GF100991001001999999001001IA1019MA1999999096651MD1610041+0501MW1051REMSYN088AAXX  14091 76393 31920 01201 10202 20153 39665 40234 56004 70544 90850 333 30/// 58050;
0273763930999992010101412004+25733-100300FM-12+051599999V0201801N001012200019N0020001N1+02011+01341102471ADDAA124000091AY141061AY241061GA1001+999999999GF100991001001999999001001IA1019KA1240M+03181KA2120N+01901MA1999999096751MD1210101+0501MW1051REMSYN106AAXX  14121 76393 31920 01801 10201 20134 39675 40247 52010 70544 91150 333 10318 20190 30185 58050 70000;EQDQ01  00002PRCP24
0217763930999992010101415004+25733-100300FM-12+051599999V0200201N002012200019N0020001N1+02281+01291102621ADDAY141031AY241031GA1041+009901061GF104991041051008001001001IA1019MA1999999096881MD1210131+0351MW1051REMSYN106AAXX  14151 76393 31520 40202 10228 20129 39688 40262 52013 70544 84500 91450 333 0/100 30/// 58035 84633;
0161763930999992010101418004+25733-100300FM-12+051599999V0200301N002012200019N0020001N1+02581+01361102521ADDAY101061AY201061GF101991011011012501001001MA1999999096801MD1710081+9999MW1041REMSYN072AAXX  14181 76393 31620 10302 10258 20136 39680 40252 57008 70400 81100;
0217763930999992010101421004+25733-100300FM-12+051599999V0200401N003012200019N0040001N1+02961+01111102151ADDAY101031AY201031GA1021+021001081GF103991021011022501001041IA1019MA1999999096491MD1710311-0311MW1041REMSYN106AAXX  14211 76393 31840 30403 10296 20111 39649 40215 57031 70400 82104 92050 333 00505 30/// 59031 82857;
0161763930999992010101500004+25733-100300FM-12+051599999V0200401N002012200019N0030001N1+02521+01211102061ADDAY111061AY211061GF104991011021017501051001MA1999999096431MD1610061+9999MW1051REMSYN072AAXX  15001 76393 31730 40402 10252 20121 39643 40206 56006 70511 81250;
0199763930999992010101503004+25733-100300FM-12+051599999V0202701N001012200019N0020001N1+02361+01501102171ADDAY101031AY201031GA1001+999999999GF100991001001999999001001IA1019MA1999999096541MD1210111-0121MW1051REMSYN088AAXX  15031 76393 31920 02701 10236 20150 39654 40217 52011 70500 90240 333 30/// 59012;
0251763930999992010101506004+25733-100300FM-12+051599999V0202201N001012200019N0020001N1+02101+01581102181ADDAY101061AY201061GA1001+999999999GF100991001001999999001001GJ106009IA1019KA1240M+03021KA2240N+01901MA1999999096541MD1410001-0151MW1051REMSYN106AAXX  15061 76393 31920 02201 10210 20158 39654 40218 54000 70500 90550 333 10302 20190 30/// 55100 59015;
0199763930999992010101509004+25733-100300FM-12+051599999V0209999C000012200019N0020001N1+01881+01541102091ADDAY101031AY201031GA1001+999999999GF100991001001999999001001IA1019MA1999999096411MD1710131-0241MW1051REMSYN088AAXX  15091 76393 31920 00000 10188 20154 39641 40209 57013 70500 90850 333 30/// 59024;
0273763930999992010101512004+25733-100300FM-12+051599999V0201801N001012200019N0020001N1+01901+01391102051ADDAA124000091AY141061AY241061GA1001+999999999GF100991001001999999001001IA1019KA1240M+03021KA2120N+01701MA1999999096351MD1710061-0401MW1051REMSYN106AAXX  15121 76393 31920 01801 10190 20139 39635 40205 57006 70544 91150 333 10302 20170 30159 59040 70000;EQDQ01  00002PRCP24
0199763930999992010101515004+25733-100300FM-12+051599999V0201801N001012200019N0020001N1+02301+01281102181ADDAY141031AY241031GA1001+999999999GF100991001001999999001001IA1019MA1999999096451MD1210101-0431MW1041REMSYN088AAXX  15151 76393 31920 01801 10230 20128 39645 40218 52010 70444 91450 333 30/// 59043;
0237763930999992010101518004+25733-100300FM-12+051599999V0201401N001012200019N0030001N1+02761+00901102051ADDAY101061AY201061GA1001+999999999GF100991001001999999001001IA1019KA1120M+02961KA2240N+01701MA1999999096361MD1710091-0441MW1051REMSYN100AAXX  15181 76393 31930 01401 10276 20090 39636 40205 57009 70500 91740 333 10296 20170 30/// 59044;
0199763930999992010101521004+25733-100300FM-12+051599999V0200501N003012200019N0030001N1+02961+00831101711ADDAY101031AY201031GA1001+999999999GF100991001001999999001001IA1019MA1999999096081MD1710281-0411MW1051REMSYN088AAXX  15211 76393 31930 00503 10296 20083 39608 40171 57028 70500 92040 333 30/// 59041;
0161763930999992010101600004+25733-100300FM-12+051599999V0201201N005012200019N0030001N1+02681+00961101641ADDAY141061AY201061GF102991001001999999001041MA1999999096041MD1410001+9999MW1051REMSYN072AAXX  16001 76393 31930 21205 10268 20096 39604 40164 54004 70540 80004;
0195763930999992010101603004+25733-100300FM-12+051599999V0201301N002012200019N0040001N1+02381+00851101751ADDAY141031AY201031GF102991001001999999001041IA1019MA1999999096171MD1310171-0371MW1051REMSYN100AAXX  16031 76393 31940 21302 10238 20085 39617 40175 53017 70540 80004 90255 333 0/005 30/// 59037;
0251763930999992010101606004+25733-100300FM-12+051599999V0202301N001012200019N0030001N1+02081+01121101761ADDAY101061AY201061GA1001+999999999GF100991001001999999001001GJ106069IA1019KA1240M+03081KA2240N+01701MA1999999096151MD1710021-0391MW1051REMSYN106AAXX  16061 76393 31930 02301 10208 20112 39615 40176 57002 70500 90550 333 10308 20170 30/// 55101 59039;
0199763930999992010101609004+25733-100300FM-12+051599999V0201001N001012200019N0020001N1+01801+01091101751ADDAY101031AY201031GA1001+999999999GF100991001001999999001001IA1019MA1999999096101MD1710051-0311MW1051REMSYN088AAXX  16091 76393 31920 01001 10180 20109 39610 40175 57005 70500 90850 333 30/// 59031;
0161763930999992010101612004+25733-100300FM-12+051599999V0209999C000012200019N0020001N1+01661+01141101871ADDAY141061AY241061GF102991001001999999001011MA1999999096161MD1210061+9999MW1051REMSYN072AAXX  16121 76393 31920 20000 10166 20114 39616 40187 52006 70544 80001;
0199763930999992010101615004+25733-100300FM-12+051599999V0202101N001012200019N0010001N1+02091+01131102011ADDAY141031AY241031GA1001+999999999GF100991001001999999001001IA1019MA1999999096271MD1210111-0181MW1041REMSYN088AAXX  16151 76393 31910 02101 10209 20113 39627 40201 52011 70444 91450 333 30/// 59018;
0237763930999992010101618004+25733-100300FM-12+051599999V0200701N001012200019N0010001N1+02641+01251101951ADDAY141061AY241061GA1001+999999999GF100991001001999999001001IA1019KA1120M+02741KA2240N+01601MA1999999096231MD1710041-0131MW1051REMSYN100AAXX  16181 76393 31910 00701 10264 20125 39623 40195 57004 70544 91755 333 10274 20160 30/// 59013;
0199763930999992010101621004+25733-100300FM-12+051599999V0200801N002012200019N0010001N1+02861+01421101591ADDAY141031AY241031GA1001+999999999GF100991001001999999001001IA1019MA1999999095941MD1710291-0141MW1051REMSYN088AAXX  16211 76393 31910 00802 10286 20142 39594 40159 57029 70544 92055 333 30/// 59014;
0161763930999992010101700004+25733-100300FM-12+051599999V0201201N003012200019N0030001N1+02601+01241101571ADDAY141061AY201061GF102991001001999999001041MA1999999095961MD1410001+9999MW1051REMSYN072AAXX  17001 76393 31930 21203 10260 20124 39596 40157 54002 70540 80004;
0195763930999992010101703004+25733-100300FM-12+051599999V0201001N003012200019N0030001N1+02361+01201101691ADDAY141031AY201031GF102991001001999999001041IA1019MA1999999096101MD1210141-0071MW1051REMSYN100AAXX  17031 76393 31930 21003 10236 20120 39610 40169 52014 70540 80004 90255 333 0/005 30/// 59007;
0251763930999992010101706004+25733-100300FM-12+051599999V0200101N001012200019N0020001N1+02061+01361101701ADDAY101061AY201061GA1001+999999999GF100991001001999999001001GJ106069IA1019KA1240M+02961KA2240N+01601MA1999999096081MD1710021-0071MW1051REMSYN106AAXX  17061 76393 31920 00101 10206 20136 39608 40170 57002 70500 90555 333 10296 20160 30/// 55101 59007;
0199763930999992010101709004+25733-100300FM-12+051599999V0203401N001012200019N0020001N1+01781+01461101691ADDAY101031AY201031GA1001+999999999GF100991001001999999001001IA1019MA1999999096031MD1710051-0071MW1051REMSYN088AAXX  17091 76393 31920 03401 10178 20146 39603 40169 57005 70500 90850 333 30/// 59007;
0273763930999992010101712004+25733-100300FM-12+051599999V0203201N001012200019N0010001N1+01721+01501101791ADDAA124000091AY141061AY241061GA1001+999999999GF100991001001999999001001IA1019KA1240M+02961KA2120N+01541MA1999999096091MD1210061-0051MW1051REMSYN106AAXX  17121 76393 31910 03201 10172 20150 39609 40179 52006 70544 91155 333 10296 20154 30148 59005 70000;EQDQ01  00002PRCP24
0161763930999992010101718004+25733-100300FM-12+051599999V0200901N001012200019N0020001N1+02601+01541101801ADDAY141061AY221061GF101991011021012501001001MA1999999096071MD1010041+9999MW1051REMSYN072AAXX  17181 76393 31620 10901 10260 20154 39607 40180 50004 70542 81200;
0217763930999992010101721004+25733-100300FM-12+051599999V0201201N003012200019N0020001N1+02801+01611101431ADDAY141031AY221031GA1021+012901081GF102991021021012501001001IA1019MA1999999095771MD1710301-0171MW1051REMSYN106AAXX  17211 76393 31620 21203 10280 20161 39577 40143 57030 70542 82200 92040 333 0/300 30/// 59017 82843;
0161763930999992010101800004+25733-100300FM-12+051599999V0201301N005012200019N0030001N1+02601+01311101341ADDAY141061AY201061GF102991021001022501031001MA1999999095741MD1410001+9999MW1051REMSYN072AAXX  18001 76393 31830 21305 10260 20131 39574 40134 54003 70540 82030;
0217763930999992010101803004+25733-100300FM-12+051599999V0202501N001012200019N0020001N1+02301+01361101431ADDAY141031AY201031GA1031+027001031GF103991031001022501031001IA1019MA1999999095841MD1310101-0261MW1051REMSYN106AAXX  18031 76393 31820 32501 10230 20136 39584 40143 53010 70540 83030 90255 333 0/050 30/// 59026 83359;
0251763930999992010101806004+25733-100300FM-12+051599999V0200701N002012200019N0020001N1+02061+01431101381ADDAY101061AY201061GA1001+999999999GF100991001001999999001001GJ105829IA1019KA1240M+02901KA2240N+01541MA1999999095781MD1710061-0301MW1051REMSYN106AAXX  18061 76393 31920 00702 10206 20143 39578 40138 57006 70500 90550 333 10290 20154 30/// 55097 59030;
0199763930999992010101809004+25733-100300FM-12+051599999V0203101N001012200019N0020001N1+01801+01521101321ADDAY101031AY201031GA1001+999999999GF100991001001999999001001IA1019MA1999999095681MD1710101-0351MW1051REMSYN088AAXX  18091 76393 31920 03101 10180 20152 39568 40132 57010 70500 90850 333 30/// 59035;
0161763930999992010101812004+25733-100300FM-12+051599999V0202801N001012200019N0020001N1+01741+01571101331ADDAY141061AY241061GF102991021051001501001001MA1999999095691MD1210011+9999MW1051REMSYN072AAXX  18121 76393 31220 22801 10174 20157 39569 40133 52001 70544 82500;
0199763930999992010101815004+25733-100300FM-12+051599999V0202601N001012200019N0020001N1+02021+01571101461ADDAY141031AY241031GA1001+999999999GF100991001001999999001001IA1019MA1999999095751MD1210061-0041MW1051REMSYN088AAXX  18151 76393 31920 02601 10202 20157 39575 40146 52006 70544 91450 333 30/// 59004;
0161763930999992010101818004+25733-100300FM-12+051599999V0201101N001012200019N0010001N1+02681+01601101391ADDAY141061AY221061GF101991011021012501001001MA1999999095701MD1710051+9999MW1051REMSYN072AAXX  18181 76393 31610 11101 10268 20160 39570 40139 57005 70542 81200;
0199763930999992010101821004+25733-100300FM-12+051599999V0200901N001012200019N0020001N1+02941+01811101051ADDAY141031AY221031GA1001+999999999GF100991001001999999001001IA1019MA1999999095431MD1710271-0341MW1051REMSYN088AAXX  18211 76393 31920 00901 10294 20181 39543 40105 57027 70542 92040 333 30/// 59034;
0161763930999992010101900004+25733-100300FM-12+051599999V0201201N006012200019N0030001N1+02761+01631100981ADDAY141061AY201061GF102991021001022501041001MA1999999095411MD1410001+9999MW1051REMSYN072AAXX  19001 76393 31830 21206 10276 20163 39541 40098 54002 70540 82040;
0236763930999992010101903004+25733-100300FM-12+051599999V0201101N003012200019N0030001N1+02521+01651999999ADDAY141031AY201031GA1021+027001031GF102991021001022501041001IA1019MA1999999095521MD1310111-0321MW1051REMSYN106AAXX  19031 76393 31830 21103 10252 20165 39552 40223 53011 70540 82040 90255 333 0/050 30/// 59032 82359;EQDQ01 102233APOSLP
0251763930999992010101906004+25733-100300FM-12+051599999V0201001N001012200019N0020001N1+02181+01671101081ADDAY101061AY201061GA1001+999999999GF100991001001999999001001GJ105769IA1019KA1240M+03061KA2240N+01681MA1999999095531MD1210011-0251MW1051REMSYN106AAXX  19061 76393 31920 01001 10218 20167 39553 40108 52001 70500 90550 333 10306 20168 30/// 55096 59025;
0199763930999992010101909004+25733-100300FM-12+051599999V0203401N001012200019N0020001N1+01921+01741101041ADDAY101031AY201031GA1001+999999999GF100991001001999999001001IA1019MA1999999095451MD1710081-0231MW1051REMSYN088AAXX  19091 76393 31920 03401 10192 20174 39545 40104 57008 70500 90850 333 30/// 59023;
0161763930999992010101912004+25733-100300FM-12+051599999V0202501N001010360019N0008001N1+01841+01721101131ADDAY141061AY241061GF106991041051001501031001MA1999999095491MD1210041+9999MW1051REMSYN072AAXX  19121 76393 31208 62501 10184 20172 39549 40113 52004 70544 84530;
0217763930999992010101915004+25733-100300FM-12+051599999V0202701N001010030019N0006001N1+02031+01731101341ADDAY141031AY241031GA1081+003001061GF108991081051002501999999IA1019MA1999999095661MD1210171-0091MW1051REMSYN106AAXX  19151 76393 31306 82701 10203 20173 39566 40134 52017 70544 885// 91450 333 0/8// 30/// 59009 88610;
0161763930999992010101918004+25733-100300FM-12+051599999V0201101N001012200019N0010001N1+02621+01701101311ADDAY141061AY221061GF101991011021012501001001MA1999999095641MD1710011+9999MW1051REMSYN072AAXX  19181 76393 31610 11101 10262 20170 39564 40131 57001 70542 81200;
0214763930999992010101921004+25733-100300FM-12+051599999V0201101N006012200019N0020001N1+03001+01781101041ADDAY141031AY221031GF101991999001999999031001IA1019MA1999999095431MD1710211+0001MW1051REMSYN100AAXX  19211 76393 31920 11106 10300 20178 39543 40104 57021 70542 80030 92040 333 0/050 30/// 59000;EQDQ01+000002SCOTLC
0161763930999992010102000004+25733-100300FM-12+051599999V0201001N004012200019N0030001N1+02701+01961101051ADDAY141061AY201061GF103991031051008001001001MA1999999095481MD1210051+9999MW1051REMSYN072AAXX  20001 76393 31530 31004 10270 20196 39548 40105 52005 70540 83500;
0217763930999992010102003004+25733-100300FM-12+051599999V0201101N005012200019N0020001N1+02501+01891101211ADDAY141031AY201031GA1031+007501061GF103991031051008001001001IA1019MA1999999095651MD1210171+0131MW1051REMSYN106AAXX  20031 76393 31520 31105 10250 20189 39565 40121 52017 70540 83500 90250 333 0/300 30/// 58013 83625;
0161763930999992010102006004+25733-100300FM-12+051599999V0201101N002012200019N0020001N1+02181+01981101261ADDAY101061AY201061GF103991031051002501001001MA1999999095701MD1210051+9999MW1051REMSYN072AAXX  20061 76393 31320 31102 10218 20198 39570 40126 52005 70500 83500;
0217763930999992010102009004+25733-100300FM-12+051599999V0200701N001010021019N0010001N1+02121+01951101211ADDAY141031AY221031GA1081+002101071GF108991081061002501999999IA1019MA1999999095621MD1710081+0171MW1051REMSYN106AAXX  20091 76393 31310 80701 10212 20195 39562 40121 57008 70542 886// 90850 333 0/3// 30/// 58017 88707;
0161763930999992010102012004+25733-100300FM-12+051599999V0200501N001010012019N0010001N1+02071+01911101321ADDAY141061AY241061GF108991081051001501999999MA1999999095691MD1210071+9999MW1051REMSYN072AAXX  20121 76393 31210 80501 10207 20191 39569 40132 52007 70544 885//;
0217763930999992010102015004+25733-100300FM-12+051599999V0200201N001010033019N0020001N1+02241+01891101511ADDAY141031AY241031GA1081+003301061GF108991081051004501999999IA1019MA1999999095851MD1210161+0201MW1051REMSYN106AAXX  20151 76393 31420 80201 10224 20189 39585 40151 52016 70544 885// 91450 333 0/3// 30/// 58020 88611;
0161763930999992010102018004+25733-100300FM-12+051599999V0200901N001010075019N0020001N1+02541+01971101601ADDAY121061AY221061GF108991081041008001999999MA1999999095941MD1610091+9999MW1051REMSYN072AAXX  20181 76393 31520 80901 10254 20197 39594 40160 56009 70522 884//;
0217763930999992010102021004+25733-100300FM-12+051599999V0201201N005010081019N0020001N1+02581+01921101371ADDAY121031AY221031GA1081+008101061GF108991081041008001999999IA1019MA1999999095751MD1710191+0321MW1051REMSYN106AAXX  20211 76393 31520 81205 10258 20192 39575 40137 57019 70522 884// 92040 333 0/3// 30/// 58032 88627;
0161763930999992010102100004+25733-100300FM-12+051599999V0200901N006012200019N0030001N1+02461+01911101301ADDAY141061AY201061GF102991021051004501001001MA1999999095701MD1410001+9999MW1051REMSYN072AAXX  21001 76393 31430 20906 10246 20191 39570 40130 54005 70540 82500;
0217763930999992010102103004+25733-100300FM-12+051599999V0202301N001012200019N0020001N1+02381+01891101411ADDAY141031AY201031GA1031+004801061GF103991031051004501001001IA1019MA1999999095811MD1310111+0161MW1051REMSYN106AAXX  21031 76393 31420 32301 10238 20189 39581 40141 53011 70540 83500 90255 333 0/300 30/// 58016 83616;
0161763930999992010102106004+25733-100300FM-12+051599999V0201201N002012200019N0020001N1+02181+01951101411ADDAY141061AY201061GF103991031051002501001001MA1999999095811MD1010001+9999MW1051REMSYN072AAXX  21061 76393 31320 31202 10218 20195 39581 40141 50000 70540 83500;
0223763930999992010102109004+25733-100300FM-12+051599999V0201101N00201001201CN0010001N1+02101+01951101211ADDAY141031AY221031GA1031+001801071GF107991071061001501999999IA1019MA1999999095691MD1710121+0071MW1051REMSYN112AAXX  21091 76393 31210 71102 10210 20195 39569 40121 57012 70542 876// 90855 333 0/399 30/// 58007 83706 84611;
0161763930999992010102112004+25733-100300FM-12+051599999V0201201N001010012019N0010001N1+02051+01931101291ADDAY141061AY241061GF108991081051001501999999MA1999999095651MD1710041+9999MW1051REMSYN072AAXX  21121 76393 31210 81201 10205 20193 39565 40129 57004 70544 885//;
0253763930999992010102115004+25733-100300FM-12+051599999V0201101N001010018019N0005001N1+02061+01871101441ADDAA103000091AY151031AY241031GA1081+001801061GF108991081051001501999999IA1019MA1999999095771MD1210121-0081MW1051REMSYN112AAXX  21151 76393 21205 81101 10206 20187 39577 40144 52012 70554 885// 91450 333 0/3// 30/// 59008 69907 88606;EQDQ01  00002PRCP03
0161763930999992010102118004+25733-100300FM-12+051599999V0200901N001010042019N0008001N1+02381+01921101471ADDAY121061AY221061GF108991081061004501999999MA1999999095801MD1610031+9999MW1051REMSYN072AAXX  21181 76393 31408 80901 10238 20192 39580 40147 56003 70522 886//;
0217763930999992010102121004+25733-100300FM-12+051599999V0201201N001010075019N0010001N1+02581+01981101471ADDAY121031AY221031GA1081+007501061GF108991081041008001999999IA1019MA1999999095811MD1510011+0061MW1051REMSYN106AAXX  21211 76393 31510 81201 10258 20198 39581 40147 55001 70522 884// 92040 333 0/3// 30/// 58006 88625;
0161763930999992010102200004+25733-100300FM-12+051599999V0202301N001019999999N0020001N1+02521+01821100991ADDAY141061AY211061GF106991061001022501001041MA1999999095391MD1210421+9999MW1051REMSYN072AAXX  22001 76393 31820 62301 10252 20182 39539 40099 52042 70541 86004;
0236763930999992010102203004+25733-100300FM-12+051599999V0202001N001010720019N0020001N1+02421+01841101001ADDAY141031AY211031GA1071+072001001GF107991001001999999001041IA1019MA1999999095421MD1410001-0391MW1051REMSYN106AAXX  22031 76393 31920 72001 10242 20184 39542 40100 54003 70541 87004 90255 333 0/005 30/// 59039 87074;EQDQ01+000072SCOTLC
0161763930999992010102206004+25733-100300FM-12+051599999V0200701N001012200019N0020001N1+02221+01901100951ADDAY121061AY221061GF104991041051004501001001MA1999999095371MD1710051+9999MW1051REMSYN072AAXX  22061 76393 31420 40701 10222 20190 39537 40095 57005 70522 84500;
0217763930999992010102209004+25733-100300FM-12+051599999V0201001N001010018019N0010001N1+02021+01871100941ADDAY121031AY221031GA1081+001801071GF108991081061001501999999IA1019MA1999999095351MD1710021-0341MW1051REMSYN106AAXX  22091 76393 31210 81001 10202 20187 39535 40094 57002 70522 886// 90850 333 0/3// 30/// 59034 88706;
0161763930999992010102212004+25733-100300FM-12+051599999V0200701N001010021019N0010001N1+02111+01871101001ADDAY141061AY241061GF108991081051002501999999MA1999999095371MD1210021+9999MW1051REMSYN072AAXX  22121 76393 31310 80701 10211 20187 39537 40100 52002 70544 885//;
0217763930999992010102215004+25733-100300FM-12+051599999V0201201N001010036019N0010001N1+02231+01851101201ADDAY141031AY241031GA1071+003601061GF107991071051004501999999IA1019MA1999999095561MD1210191-0211MW1051REMSYN106AAXX  22151 76393 31410 71201 10223 20185 39556 40120 52019 70544 875// 91450 333 0/3// 30/// 59021 87612;
0161763930999992010102218004+25733-100300FM-12+051599999V0200501N001012200019N0010001N1+02701+01991101181ADDAY111061AY211061GF104991041061008001001001MA1999999095551MD1710011+9999MW1051REMSYN072AAXX  22181 76393 31510 40501 10270 20199 39555 40118 57001 70511 84600;
0214763930999992010102221004+25733-100300FM-12+051599999V0201001N003012200019N0010001N1+02881+02061100921ADDAY111031AY211031GF103991999001999999041001IA1019MA1999999095341MD1710211+0471MW1051REMSYN100AAXX  22211 76393 31910 31003 10288 20206 39534 40092 57021 70511 80040 92040 333 0/050 30/// 58047;EQDQ01+000002SCOTLC
0161763930999992010102300004+25733-100300FM-12+051599999V0201301N005012200019N0020001N1+02761+01961100851ADDAY141061AY211061GF104991041051008001001001MA1999999095311MD1410001+9999MW1051REMSYN072AAXX  23001 76393 31520 41305 10276 20196 39531 40085 54003 70541 84500;
0217763930999992010102303004+25733-100300FM-12+051599999V0202301N001012200019N0020001N1+02501+01761100921ADDAY141031AY211031GA1041+007501061GF104991041051008001001001IA1019MA1999999095391MD1410001-0031MW1051REMSYN106AAXX  23031 76393 31520 42301 10250 20176 39539 40092 54008 70541 84500 90255 333 0/300 30/// 59003 84625;
0161763930999992010102306004+25733-100300FM-12+051599999V0201101N002012200019N0020001N1+02221+01741101001ADDAY101061AY201061GF103991031051004501001001MA1999999095451MD1210061+9999MW1051REMSYN072AAXX  23061 76393 31420 31102 10222 20174 39545 40100 52006 70500 83500;
0217763930999992010102309004+25733-100300FM-12+051599999V0201101N003010027019N0020001N1+02061+01851100991ADDAY121031AY221031GA1081+002701071GF108991081061002501999999IA1019MA1999999095411MD1710041+0061MW1051REMSYN106AAXX  23091 76393 31320 81103 10206 20185 39541 40099 57004 70522 886// 90850 333 0/3// 30/// 58006 88709;
0161763930999992010102312004+25733-100300FM-12+051599999V0200701N001010021019N0020001N1+02021+01801101081ADDAY141061AY241061GF108991081051002501999999MA1999999095461MD1210051+9999MW1051REMSYN072AAXX  23121 76393 31320 80701 10202 20180 39546 40108 52005 70544 885//;
0217763930999992010102315004+25733-100300FM-12+051599999V0201001N001010042019N0020001N1+02281+01841101211ADDAY141031AY241031GA1071+004201061GF107991071051004501999999IA1019MA1999999095561MD1210101+0001MW1051REMSYN106AAXX  23151 76393 31420 71001 10228 20184 39556 40121 52010 70544 875// 91450 333 0/8// 30/// 58000 87614;
0237763930999992010102318004+25733-100300FM-12+051599999V0200901N002012200019N0010001N1+02741+01941101201ADDAY141061AY241061GA1001+999999999GF100991001001999999001001IA1019KA1120M+02821KA2240N+02001MA1999999095561MD1410001+0011MW1051REMSYN100AAXX  23181 76393 31910 00902 10274 20194 39556 40120 54000 70544 91755 333 10282 20200 30/// 58001;
0199763930999992010102321004+25733-100300FM-12+051599999V0201201N002012200019N0020001N1+02981+02051100921ADDAY141031AY241031GA1001+999999999GF100991001001999999001001IA1019MA1999999095341MD1710221+0001MW1051REMSYN088AAXX  23211 76393 31920 01202 10298 20205 39534 40092 57022 70544 92055 333 30/// 58000;
0180763930999992010102400004+25733-100300FM-12+051599999V0200901N004012200019N0020001N1+02761+01901100911ADDAY141061AY201061GF102991001001999999001041MA1999999095361MD1410001+9999MW1051REMSYN072AAXX  24001 76393 31920 20904 10276 20190 39536 40091 54002 70540 82004;EQDQ01+000022SCOTLC
0214763930999992010102403004+25733-100300FM-12+051599999V0201301N001012200019N0020001N1+02561+01891101071ADDAY141031AY201031GF102991001001999999001041IA1019MA1999999095541MD1310181+0151MW1051REMSYN100AAXX  24031 76393 31920 21301 10256 20189 39554 40107 53018 70540 82004 90255 333 0/005 30/// 58015;EQDQ01+000022SCOTLC
0251763930999992010102406004+25733-100300FM-12+051599999V0209999C000012200019N0020001N1+02301+01891101091ADDAY101061AY201061GA1001+999999999GF100991001001999999001001GJ105109IA1019KA1240M+03101KA2240N+02001MA1999999095551MD1210011+0101MW1051REMSYN106AAXX  24061 76393 31920 00000 10230 20189 39555 40109 52001 70500 90550 333 10310 20200 30/// 55085 58010;
0217763930999992010102409004+25733-100300FM-12+051599999V0200501N001010012019N0020001N1+02061+01971101101ADDAY121031AY221031GA1061+001201071GF106991061061001501001001IA1019MA1999999095511MD1710041+0101MW1051REMSYN106AAXX  24091 76393 31220 60501 10206 20197 39551 40110 57004 70522 86600 90850 333 0/300 30/// 58010 86704;
0161763930999992010102412004+25733-100300FM-12+051599999V0202901N001010012019N0010001N1+02041+01891101261ADDAY141061AY221061GF108991081011001501999999MA1999999095631MD1210121+9999MW1051REMSYN072AAXX  24121 76393 31210 82901 10204 20189 39563 40126 52012 70542 881//;
0203763930999992010102415004+25733-100300FM-12+051599999V0203101N001012200019N0005001N1+02261+01751101441ADDAY141031AY241031GA1001+999999999GF100991001001999999001001IA1019MD1210151+0281MW1051REMSYN088AAXX  24151 76393 31905 03101 10226 20175 37578 40144 52015 70544 91455 333 30/// 58028;EQDQ01+075783APOSP 
0237763930999992010102418004+25733-100300FM-12+051599999V0200501N002012200019N0020001N1+02901+01761101271ADDAY101061AY201061GA1001+999999999GF100991001001999999001001IA1019KA1120M+03101KA2240N+02021MA1999999095641MD1710141+0081MW1051REMSYN100AAXX  24181 76393 31920 00502 10290 20176 39564 40127 57014 70500 91740 333 10310 20202 30/// 58008;
0199763930999992010102421004+25733-100300FM-12+051599999V0200901N001012200019N0020001N1+03221+01851100941ADDAY101031AY201031GA1001+999999999GF100991001001999999001001IA1019MA1999999095371MD1710271-0031MW1051REMSYN088AAXX  24211 76393 31920 00901 10322 20185 39537 40094 57027 70500 92040 333 30/// 59003;
0161763930999992010102500004+25733-100300FM-12+051599999V0201301N005012200019N0020001N1+02781+01951100871ADDAY141061AY201061GF102991021001022501041001MA1999999095351MD1410001+9999MW1051REMSYN072AAXX  25001 76393 31820 21305 10278 20195 39535 40087 54002 70540 82040;
0217763930999992010102503004+25733-100300FM-12+051599999V0200901N001012200019N0020001N1+02561+01931100951ADDAY141031AY201031GA1021+027001031GF102991021001022501041001IA1019MA1999999095451MD1310101-0091MW1051REMSYN106AAXX  25031 76393 31820 20901 10256 20193 39545 40095 53010 70540 82040 90255 333 0/050 30/// 59009 82359;
0251763930999992010102506004+25733-100300FM-12+051599999V0202001N002012200019N0020001N1+02361+01891100921ADDAY101061AY201061GA1001+999999999GF100991001001999999001001GJ105529IA1019KA1240M+03321KA2240N+02021MA1999999095401MD1710051-0151MW1051REMSYN106AAXX  25061 76393 31920 02002 10236 20189 39540 40092 57005 70500 90550 333 10332 20202 30/// 55092 59015;
0199763930999992010102509004+25733-100300FM-12+051599999V0203201N001012200019N0020001N1+02101+01741100871ADDAY101031AY201031GA1001+999999999GF100991001001999999001001IA1019MA1999999095311MD1710091-0201MW1051REMSYN088AAXX  25091 76393 31920 03201 10210 20174 39531 40087 57009 70500 90850 333 30/// 59020;
0273763930999992010102512004+25733-100300FM-12+051599999V0202101N001012200019N0020001N1+02051+01471100811ADDAA124000091AY141061AY241061GA1001+999999999GF100991001001999999001001IA1019KA1240M+03321KA2120N+01901MA1999999095211MD1710101-0421MW1051REMSYN106AAXX  25121 76393 31920 02101 10205 20147 39521 40081 57010 70544 91150 333 10332 20190 30180 59042 70000;EQDQ01  00002PRCP24
0199763930999992010102515004+25733-100300FM-12+051599999V0201801N001012200019N0020001N1+02501+01261100851ADDAY141031AY241031GA1001+999999999GF100991001001999999001001IA1019MA1999999095231MD1210021-0551MW1041REMSYN088AAXX  25151 76393 31920 01801 10250 20126 39523 40085 52002 70444 91450 333 30/// 59055;
0237763930999992010102518004+25733-100300FM-12+051599999V0201401N001012200019N0020001N1+03181+01261100631ADDAY101061AY201061GA1001+999999999GF100991001001999999001001IA1019KA1120M+03341KA2240N+01901MA1999999095061MD1710171-0581MW1051REMSYN100AAXX  25181 76393 31920 01401 10318 20126 39506 40063 57017 70500 91740 333 10334 20190 30/// 59058;
0199763930999992010102521004+25733-100300FM-12+051599999V0201301N003012200019N0030001N1+03481+01831100121ADDAY101031AY201031GA1001+999999999GF100991001001999999001001IA1019MA1999999094641MD1710421-0731MW1051REMSYN088AAXX  25211 76393 31930 01303 10348 20183 39464 40012 57042 70500 92040 333 30/// 59073;
0161763930999992010102600004+25733-100300FM-12+051599999V0201401N001012200019N0020001N1+03081+01561099991ADDAY141061AY201061GF102991001001999999001041MA1999999094561MD1410001+9999MW1051REMSYN072AAXX  26001 76393 31920 21401 10308 20156 39456 49999 54008 70540 80004;
0195763930999992010102603004+25733-100300FM-12+051599999V0209999C000012200019N0020001N1+02661+01581100121ADDAY141031AY201031GF102991001001999999001041IA1019MA1999999094701MD1310141-0751MW1051REMSYN100AAXX  26031 76393 31920 20000 10266 20158 39470 40012 53014 70540 80004 90255 333 0/005 30/// 59075;
0251763930999992010102606004+25733-100300FM-12+051599999V0209999C000012200019N0020001N1+02361+01801100151ADDAY101061AY201061GA1001+999999999GF100991001001999999001001GJ105649IA1019KA1240M+03561KA2240N+01901MA1999999094711MD1210011-0691MW1051REMSYN106AAXX  26061 76393 31920 00000 10236 20180 39471 40015 52001 70500 90550 333 10356 20190 30/// 55094 59069;
0199763930999992010102609004+25733-100300FM-12+051599999V0203201N001012200019N0020001N1+02081+01621100101ADDAY101031AY201031GA1001+999999999GF100991001001999999001001IA1019MA1999999094601MD1710111-0711MW1051REMSYN088AAXX  26091 76393 31920 03201 10208 20162 39460 40010 57011 70500 90850 333 30/// 59071;
0273763930999992010102612004+25733-100300FM-12+051599999V0202101N002012200019N0010001N1+02201+01001100241ADDAA124000091AY141061AY241061GA1001+999999999GF100991001001999999001001IA1019KA1240M+03561KA2120N+02001MA1999999094681MD1210081-0531MW1051REMSYN106AAXX  26121 76393 31910 02102 10220 20100 39468 40024 52008 70544 91150 333 10356 20200 30179 59053 70000;EQDQ01  00002PRCP24
0195763930999992010102615004+25733-100300FM-12+051599999V0202301N005012200019N0010001N1+03041+00601100511ADDAY141031AY241031GF104991001001999999001061IA1019MA1999999094941MD1210261-0291MW1051REMSYN100AAXX  26151 76393 31910 42305 10304 20060 39494 40051 52026 70544 80006 91450 333 0/007 30/// 59029;
0161763930999992010102618004+25733-100300FM-12+051599999V0200301N003019999999N0030001N1+03141+00831100661ADDAY121061AY221061GF105991001001999999001011MA1999999095111MD1110171+9999MW1321REMSYN072AAXX  26181 76393 31930 50303 10314 20083 39511 40066 51017 73222 80001;
0217763930999992010102621004+25733-100300FM-12+051599999V0200501N002010600019N0030001N1+03181+00941100451ADDAY121031AY221031GA1051+060001001GF105991001001999999001011IA1019MA1999999094961MD1710151+0321MW1051REMSYN106AAXX  26211 76393 31930 50502 10318 20094 39496 40045 57015 70522 80001 92040 333 0/005 30/// 58032 85070;
0161763930999992010102700004+25733-100300FM-12+051599999V0200501N001012200019N0030001N1+02901+01401100391ADDAY141061AY201061GF104991041001999999011001MA1999999094941MD1510021+9999MW1051REMSYN072AAXX  27001 76393 31930 40501 10290 20140 39494 40039 55002 70540 84010;
0199763930999992010102703004+25733-100300FM-12+051599999V0203001N001012200019N0020001N1+02601+01501100631ADDAY141031AY241031GA1001+999999999GF100991001001999999001001IA1019MA1999999095171MD1210231+0471MW1051REMSYN088AAXX  27031 76393 31920 03001 10260 20150 39517 40063 52023 70544 90255 333 30/// 58047;
0251763930999992010102706004+25733-100300FM-12+051599999V0202501N002012200019N0020001N1+02381+01381100671ADDAY101061AY201061GA1001+999999999GF100991001001999999001001GJ106009IA1019KA1240M+03381KA2240N+02001MA1999999095181MD1210011+9999MW1051REMSYN106AAXX  27061 76393 31920 02502 10238 20138 39518 40067 52001 70500 90550 333 10338 20200 30/// 55100 58518;
0199763930999992010102709004+25733-100300FM-12+051599999V0209999C000012200019N0020001N1+02101+01481100701ADDAY101031AY201031GA1001+999999999GF100991001001999999001001IA1019MA1999999095161MD1710021+0561MW1051REMSYN088AAXX  27091 76393 31920 00000 10210 20148 39516 40070 57002 70500 90850 333 30/// 58056;
0273763930999992010102712004+25733-100300FM-12+051599999V0202201N001012200019N0020001N1+02141+01271100821ADDAA124000091AY141061AY241061GA1001+999999999GF100991001001999999001001IA1019KA1240M+03381KA2120N+02041MA1999999095241MD1210081+0561MW1051REMSYN106AAXX  27121 76393 31920 02201 10214 20127 39524 40082 52008 70544 91150 333 10338 20204 30200 58056 70000;EQDQ01  00002PRCP24
0199763930999992010102715004+25733-100300FM-12+051599999V0202101N001012200019N0020001N1+02601+01301101061ADDAY141031AY241031GA1001+999999999GF100991001001999999001001IA1019MA1999999095441MD1210101+0501MW1051REMSYN088AAXX  27151 76393 31920 02101 10260 20130 39544 40106 52010 70544 91450 333 30/// 58050;
0181763930999992010102718004+25733-100300FM-12+051599999V0201401N001012200019N0010001N1+03101+01681999999ADDGA1001+999999999GF100991001001999999001001KA1120M+03241KA2240N+02041REMSYN101AAXX  27181 76393 31910 01401 10310 20168 3 39548 40107 5004 70500 91750 333 10324 20204 30/// 58037;
0199763930999992010102721004+25733-100300FM-12+051599999V0200901N001012200019N0020001N1+03401+01571100901ADDAY101031AY201031GA1001+999999999GF100991001001999999001001IA1019MA1999999095371MD1710111+0411MW1051REMSYN088AAXX  27211 76393 31920 00901 10340 20157 39537 40090 57011 70500 92040 333 30/// 58041;
0279763930999992010102800004+25733-100300FM-12+051599999V0201301N003012200019N0020001N1+03001+01641100991ADDAA124000091AY141061AY201061GA1001+999999999GF100991001001999999001001IA1019KA1120M+03481KA2180N+02041MA1999999095501MD1310131+0561MW1051REMSYN112AAXX  28001 76393 31920 01303 10300 20164 39550 40099 53013 70540 92355 333 10348 20204 30/// 50581 58056 70000;EQDQ01  00002PRCP24
0199763930999992010102803004+25733-100300FM-12+051599999V0202201N001012200019N0020001N1+02721+01651101321ADDAY141031AY201031GA1001+999999999GF100991001001999999001001IA1019MA1999999095831MD1210331+0661MW1051REMSYN088AAXX  28031 76393 31920 02201 10272 20165 39583 40132 52033 70540 90255 333 30/// 58066;
0239763930999992010102806004+25733-100300FM-12+051599999V0202001N001012200019N0020001N1+02461+01811101571ADDAY141061AY241061GA1001+999999999GF100991001001999999001001GJ105889KA1240M+03481KA2240N+01981MA1999999096041MD1210211+0861MW1051REMSYN100AAXX  28061 76393 31920 02001 10246 20181 39604 40157 52021 70544 90555 333 10348 20198 55098 58086;
0199763930999992010102809004+25733-100300FM-12+051599999V0202101N001012200019N0020001N1+02281+01801101781ADDAY141031AY241031GA1001+999999999GF100991001001999999001001IA1019MA1999999096201MD1210161+1041MW1051REMSYN088AAXX  28091 76393 31920 02101 10228 20180 39620 40178 52016 70544 90850 333 30/// 58104;
0161763930999992010102812004+25733-100300FM-12+051599999V0203101N001010075019N0020001N1+02281+01681101991ADDAY141061AY241061GF106991061051008001001001MA1999999096361MD1210161+9999MW1051REMSYN072AAXX  28121 76393 31520 63101 10228 20168 39636 40199 52016 70544 86500;
0180763930999992010102818004+25733-100300FM-12+051599999V0200201N004010075019N0020001N1+02001+01361102802ADDAY121061AY221061GF108991081071008001999999MA1999999097081MD1210351+9999MW1051REMSYN072AAXX  28181 76393 31520 80204 10200 20136 39708 40280 52035 70522 887//;EQDQ01+102803APOSLP
0217763930999992010102821004+25733-100300FM-12+051599999V0203601N004010300019N0030001N1+02101+00681102731ADDAY121031AY221031GA1081+030001031GF108991081001999999051999IA1019MA1999999097001MD1610081+1631MW1051REMSYN106AAXX  28211 76393 31930 83604 10210 20068 39700 40273 56008 70522 8805/ 92040 333 0/05/ 30/// 58163 88360;
0172763930999992010102900004+25733-100300FM-12+051599999V0203501N003019999999N0020001N1+02001+00261102761ADDAA106004191AY141061AY221061GF108991999999017501999999MA1999999097021MD1410001+9999MW1051REMSYN072AAXX  29001 76393 01720 83503 10200 20026 39702 40276 54002 60041 70542;
0217763930999992010102903004+25733-100300FM-12+051599999V0202301N001010132019N0020001N1+02001+00681102971ADDAY141031AY221031GA1081+013201061GF108991081081012501999999IA1019MA1999999097201MD1710201+1371MW1051REMSYN106AAXX  29031 76393 31620 82301 10200 20068 39720 40297 57020 70542 888// 90255 333 0/399 30/// 58137 88644;
0161763930999992010102906004+25733-100300FM-12+051599999V0202101N001010120019N0020001N1+01881+01071102951ADDAY121061AY221061GF108991081051012501999999MA1999999097181MD1710011+9999MW1051REMSYN072AAXX  29061 76393 31620 82101 10188 20107 39718 40295 57001 70522 885//;
0217763930999992010102909004+25733-100300FM-12+051599999V0202301N002012200019N0020001N1+01661+00891102801ADDAY101031AY201031GA1031+009601061GF103991031051008001001001IA1019MA1999999097021MD1710161+0821MW1051REMSYN106AAXX  29091 76393 31520 32302 10166 20089 39702 40280 57016 70500 83500 90850 333 0/300 30/// 58082 83632;
0254763930999992010102912004+25733-100300FM-12+051599999V0202901N001012200019N0020001N1+01571+00031102811ADDAA124003691AY141061AY241061GA1001+999999999GF100991001001999999001001IA1019KA1240M+02481KA2120N+01501MA1999999097011MD1710011+0651MW1051REMSYN106AAXX  29121 76393 31920 02901 10157 20003 39701 40281 57001 70544 91150 333 10248 20150 30138 58065 70035;
0199763930999992010102915004+25733-100300FM-12+051599999V0203301N003012200019N0020001N1+01731-00171102971ADDAY141031AY241031GA1001+999999999GF100991001001999999001001IA1019MA1999999097141MD1210131+0411MW1041REMSYN088AAXX  29151 76393 31920 03303 10173 21017 39714 40297 52013 70444 91450 333 30/// 58041;
0237763930999992010102918004+25733-100300FM-12+051599999V0203201N001012200019N0030001N1+02141+00151102841ADDAY101061AY201061GA1001+999999999GF100991001001999999001001IA1019KA1120M+02241KA2240N+01501MA1999999097021MD1710121-0061MW1051REMSYN100AAXX  29181 76393 31930 03201 10214 20015 39702 40284 57012 70500 91740 333 10224 20150 30/// 59006;
0199763930999992010102921004+25733-100300FM-12+051599999V0200501N001012200019N0030001N1+02461+00301102421ADDAY101031AY201031GA1001+999999999GF100991001001999999001001IA1019MA1999999096661MD1710361-0341MW1051REMSYN088AAXX  29211 76393 31930 00501 10246 20030 39666 40242 57036 70500 92040 333 30/// 59034;
0161763930999992010103000004+25733-100300FM-12+051599999V0201301N003012200019N0020001N1+02221+00511102291ADDAY141061AY201061GF101991001001999999001041MA1999999096571MD1410001+9999MW1051REMSYN072AAXX  30001 76393 31920 11303 10222 20051 39657 40229 54009 70540 80004;
0195763930999992010103003004+25733-100300FM-12+051599999V0201401N002012200019N0020001N1+01881+00651102341ADDAY141031AY201031GF101991001001999999001041IA1019MA1999999096631MD1410001-0571MW1051REMSYN100AAXX  30031 76393 31920 11402 10188 20065 39663 40234 54006 70540 80004 90255 333 0/005 30/// 59057;
0251763930999992010103006004+25733-100300FM-12+051599999V0202701N001012200019N0020001N1+01681+00661102241ADDAY101061AY201061GA1001+999999999GF100991001001999999001001GJ105949IA1019KA1240M+02621KA2240N+01501MA1999999096521MD1710111-0661MW1051REMSYN106AAXX  30061 76393 31920 02701 10168 20066 39652 40224 57011 70500 90550 333 10262 20150 30/// 55099 59066;
0273763930999992010103012004+25733-100300FM-12+051599999V0201701N001012200019N0020001N1+01461+00691102031ADDAA124000091AY141061AY241061GA1001+999999999GF100991001001999999001001IA1019KA1240M+02621KA2120N+01301MA1999999096241MD1710091-0771MW1051REMSYN106AAXX  30121 76393 31920 01701 10146 20069 39624 40203 57009 70544 91150 333 10262 20130 30119 59077 70000;EQDQ01  00002PRCP24
0199763930999992010103015004+25733-100300FM-12+051599999V0201801N001012200019N0020001N1+01911+00801102151ADDAY141031AY241031GA1001+999999999GF100991001001999999001001IA1019MA1999999096341MD1210101-0801MW1051REMSYN088AAXX  30151 76393 31920 01801 10191 20080 39634 40215 52010 70544 91450 333 30/// 59080;
0237763930999992010103018004+25733-100300FM-12+051599999V0201401N001012200019N0020001N1+02481+00761102031ADDAY101061AY201061GA1001+999999999GF100991001001999999001001IA1019KA1120M+02521KA2240N+01301MA1999999096261MD1710081-0761MW1051REMSYN100AAXX  30181 76393 31920 01401 10248 20076 39626 40203 57008 70500 91745 333 10252 20130 30/// 59076;
0199763930999992010103021004+25733-100300FM-12+051599999V0201201N003012200019N0040001N1+02701+00901101611ADDAY101031AY201031GA1001+999999999GF100991001001999999001001IA1019MA1999999095921MD1710341-0741MW1051REMSYN088AAXX  30211 76393 31940 01203 10270 20090 39592 40161 57034 70500 92045 333 30/// 59074;
0161763930999992010103100004+25733-100300FM-12+051599999V0201301N002012200019N0030001N1+02361+01001101501ADDAY141061AY201061GF101991001001999999001041MA1999999095861MD1610131+9999MW1051REMSYN072AAXX  31001 76393 31930 11302 10236 20100 39586 40150 56013 70540 80004;
0195763930999992010103103004+25733-100300FM-12+051599999V0201701N001012200019N0020001N1+02121+01171101581ADDAY141031AY201031GF101991001001999999001041IA1019MA1999999095961MD1310101-0671MW1051REMSYN100AAXX  31031 76393 31920 11701 10212 20117 39596 40158 53010 70540 80004 90255 333 0/005 30/// 59067;
0251763930999992010103106004+25733-100300FM-12+051599999V0202301N001012200019N0020001N1+01921+01241101581ADDAY101061AY201061GA1001+999999999GF100991001001999999001001GJ105829IA1019KA1240M+02781KA2240N+01301MA1999999095941MD1710021-0581MW1051REMSYN106AAXX  31061 76393 31920 02301 10192 20124 39594 40158 57002 70500 90550 333 10278 20130 30/// 55097 59058;
0199763930999992010103109004+25733-100300FM-12+051599999V0203301N001012200019N0020001N1+01681+01251101451ADDAY101031AY201031GA1001+999999999GF100991001001999999001001IA1019MA1999999095781MD1710161-0551MW1051REMSYN088AAXX  31091 76393 31920 03301 10168 20125 39578 40145 57016 70500 90850 333 30/// 59055;
0273763930999992010103112004+25733-100300FM-12+051599999V0202301N001012200019N0020001N1+01641+01211101451ADDAA124000091AY101061AY201061GA1001+999999999GF100991001001999999001001IA1019KA1240M+02781KA2120N+01501MA1999999095731MD1710051-0511MW1051REMSYN106AAXX  31121 76393 31920 02301 10164 20121 39573 40145 57005 70500 91150 333 10278 20150 30134 59051 70000;EQDQ01  00002PRCP24
0198763930999992010103121004+25733-100300FM-12+051599999V0201201N004012200019N0020001N1+03261+01321101061ADDAY141031AY241031GA1001+999999999GF100991001001999999001001IA1019MA1999999095461MD1710251+9999MW1051REMSYN087AAXX  31211 76393 31920 01204 10326 20132 39546 40106 57025 70544 92050 333 30/// 5946;
0273763930999992010110100004+25733-100300FM-12+051599999V0200201N999992200019N0030001N1+99999+99999101101ADDAA124000091AY141061AY241061GF101991999999999999999999IA1019KA1120M+03351KA2180N+01501MA1999999095561MD1210101-0301MW1051REMSYN106AAXX  01001 76393 31930 10292 20138 39556 40110 52010 70544 92350 333 10335 20150 30/// 50541 59030 70000;EQDQ01+009201WOSPD Q02  00002PRCP24
0199763930999992010110103004+25733-100300FM-12+051599999V0203201N001012200019N0020001N1+02421+01431101291ADDAY141031AY201031GA1001+999999999GF100991001001999999001001IA1019MA1999999095771MD1310211-0191MW1051REMSYN088AAXX  01031 76393 31920 03201 10242 20143 39577 40129 53021 70540 90255 333 30/// 59019;
0251763930999992010110106004+25733-100300FM-12+051599999V0202201N001012200019N0020001N1+02241+01391101331ADDAY141061AY201061GA1001+999999999GF100991001001999999001001GJ105829IA1019KA1240M+03351KA2240N+01501MA1999999095791MD1410001-0151MW1051REMSYN106AAXX  01061 76393 31920 02201 10224 20139 39579 40133 54002 70540 90555 333 10335 20150 30/// 55097 59015;
0199763930999992010110109004+25733-100300FM-12+051599999V0202101N001012200019N0020001N1+01941+01331101241ADDAY101031AY201031GA1001+999999999GF100991001001999999001001IA1019MA1999999095641MD1710151-0141MW1051REMSYN088AAXX  01091 76393 31920 02101 10194 20133 39564 40124 57015 70500 90850 333 30/// 59014;
0273763930999992010110112004+25733-100300FM-12+051599999V0202101N001012200019N0020001N1+01861+01281101341ADDAA124000091AY101061AY201061GA1001+999999999GF100991001001999999001001IA1019KA1240M+03351KA2120N+01661MA1999999095691MD1210051-0041MW1051REMSYN106AAXX  01121 76393 31920 02101 10186 20128 39569 40134 52005 70500 91150 333 10335 20166 30154 59004 70000;EQDQ01  00002PRCP24
0199763930999992010110115004+25733-100300FM-12+051599999V0201501N001012200019N0030001N1+02501+01101101521ADDAY141031AY241031GA1001+999999999GF100991001001999999001001IA1019MA1999999095841MD1210151+0021MW1051REMSYN088AAXX  01151 76393 31930 01501 10250 20110 39584 40152 52015 70544 91455 333 30/// 58002;
0237763930999992010110118004+25733-100300FM-12+051599999V0200801N002012200019N0050001N1+03261+01291101421ADDAY141061AY241061GA1001+999999999GF100991001001999999001001IA1019KA1120M+03341KA2240N+01661MA1999999095781MD1710061+0081MW1051REMSYN100AAXX  01181 76393 31950 00802 10326 20129 39578 40142 57006 70544 91750 333 10334 20166 30/// 58008;
0199763930999992010110121004+25733-100300FM-12+051599999V0201001N003012200019N0020001N1+03461+01241101111ADDAY101031AY201031GA1001+999999999GF100991001001999999001001IA1019MA1999999095551MD1710231+0091MW1051REMSYN088AAXX  01211 76393 31920 01003 10346 20124 39555 40111 57023 70500 92040 333 30/// 58009;
0196763930999992010110200004+25733-100300FM-12+051599999V0200901N004012200019N0030001N1+02961+01441101051ADDAY101061AY201061GF103991001001999999001011MA1999999095551MD1710061+9999MW1051REMSYN072AAXX  02001 76393 31930 30904 10296 20144 39555 40105 53000 70500 80001;EQDQ01+000032APCTENQ02+000002APC3  
0195763930999992010110203004+25733-100300FM-12+051599999V0203201N001012200019N0020001N1+02481+01391101221ADDAY141031AY201031GF102991001001999999001041IA1019MA1999999095731MD1310181-0041MW1051REMSYN100AAXX  02031 76393 31920 23201 10248 20139 39573 40122 53018 70540 80004 90255 333 0/005 30/// 59004;
0161763930999992010110206004+25733-100300FM-12+051599999V0202201N001012200019N0020001N1+02281+01331101241ADDAY141061AY201061GF102991001001999999001041MA1999999095721MD1410001+9999MW1051REMSYN072AAXX  02061 76393 31920 22201 10228 20133 39572 40124 54001 70540 80004;
0199763930999992010110209004+25733-100300FM-12+051599999V0200501N001012200019N0020001N1+02101+01481101411ADDAY101031AY201031GA1001+999999999GF100991001001999999001001IA1019MA1999999095831MD1210111+0191MW1051REMSYN088AAXX  02091 76393 31920 00501 10210 20148 39583 40141 52011 70500 90850 333 30/// 58019;
0274763930999992010110212004+25733-100300FM-12+051599999V0203301N006012200019N0020001N1+02041+00781101851ADDAA124000091AY101061AY201061GA1001+999999999GF100991001001999999001001IA1019KA1240M+03561KA2120N+01901MD1210361+0501MW1051REMSYN106AAXX  02121 76393 31920 03306 10204 20078 39319 40185 52036 70500 91150 333 10356 20190 30182 58050 70000;EQDQ01+093193APOSP Q02  00002PRCP24
0217763930999992010110215004+25733-100300FM-12+051599999V0203401N003012200019N0020001N1+02121+00611102191ADDAY111031AY211031GA1041+030001031GF104991041001999999041001IA1019MA1999999096491MD1210301+0651MW1051REMSYN106AAXX  02151 76393 31920 43403 10212 20061 39649 40219 52030 70511 84040 91440 333 0/050 30/// 58065 84360;
0237763930999992010110218004+25733-100300FM-12+051599999V0203401N005012200019N0020001N1+02501+00701101971ADDAY101061AY201061GA1001+999999999GF100991001001999999001001IA1019KA1120M+02601KA2240N+01901MA1999999096281MD1710211+0501MW1051REMSYN100AAXX  02181 76393 31920 03405 10250 20070 39628 40197 57021 70500 91740 333 10260 20190 30/// 58050;
0195763930999992010110221004+25733-100300FM-12+051599999V0203301N003012200019N0030001N1+02721+00641101541ADDAY101031AY201031GF101991001001999999001041IA1019MA1999999095901MD1710381+0351MW1051REMSYN100AAXX  02211 76393 31930 13303 10272 20064 39590 40154 57038 70500 80004 92048 333 0/005 30/// 58035;
0161763930999992010110300004+25733-100300FM-12+051599999V0203601N004012200019N0030001N1+02341+00541101551ADDAY101061AY201061GF101991001001999999001011MA1999999095921MD1210021+9999MW1051REMSYN072AAXX  03001 76393 31930 13604 10234 20054 39592 40155 52002 70500 80001;
0217763930999992010110303004+25733-100300FM-12+051599999V0202201N002012200019N0020001N1+02101+00911101811ADDAY141031AY241031GA1041+018001031GF104991041001999999041001IA1019MA1999999096181MD1210261+0451MW1051REMSYN106AAXX  03031 76393 31920 42202 10210 20091 39618 40181 52026 70544 84040 90255 333 0/050 30/// 58045 84356;
0161763930999992010110306004+25733-100300FM-12+051599999V0201901N001012200019N0020001N1+01921+00971101841ADDAY141061AY241061GF101991011001012501041001MA1999999096191MD1010011+9999MW1051REMSYN072AAXX  03061 76393 31620 11901 10192 20097 39619 40184 50001 70544 81040;
0217763930999992010110309004+25733-100300FM-12+051599999V0202701N022012200019N0020001N1+01781+00511101761ADDAY141031AY201031GA1021+024001031GF102991021001022501041001IA1019MA1999999096071MD1610121+0241MW1051REMSYN106AAXX  03091 76393 31820 22722 10178 20051 39607 40176 56012 70540 82040 90855 333 0/050 30/// 58024 82358;
0273763930999992010110312004+25733-100300FM-12+051599999V0203101N002012200019N0020001N1+01721+00371101811ADDAA124000091AY141061AY201061GA1001+999999999GF100991001001999999001001IA1019KA1240M+02841KA2120N+01661MA1999999096081MD1410001-0111MW1051REMSYN106AAXX  03121 76393 31920 03102 10172 20037 39608 40181 54001 70540 91155 333 10284 20166 30140 59011 70000;EQDQ01  00002PRCP24
0199763930999992010110315004+25733-100300FM-12+051599999V0203201N003012200019N0020001N1+02141+00321101971ADDAY101031AY201031GA1001+999999999GF100991001001999999001001IA1019MA1999999096231MD1210151-0261MW1051REMSYN088AAXX  03151 76393 31920 03203 10214 20032 39623 40197 52015 70500 91440 333 30/// 59026;
0237763930999992010110318004+25733-100300FM-12+051599999V0203101N011012200019N0030001N1+02521+00231101831ADDAY101061AY201061GA1001+999999999GF100991001001999999001001IA1019KA1120M+02641KA2240N+01661MA1999999096111MD1710121-0171MW1341REMSYN100AAXX  03181 76393 31930 03111 10252 20023 39611 40183 57012 73400 91740 333 10264 20166 30/// 59017;
0217763930999992010110321004+25733-100300FM-12+051599999V0203201N006012200019N0040001N1+02701-00011101451ADDAY141031AY241031GA1011+024001081GF101991011011022501001001IA1019MA1999999095801MD1710311-0101MW1041REMSYN106AAXX  03211 76393 31840 13206 10270 21001 39580 40145 57031 70444 81100 92050 333 00800 30/// 59010 81858;
0279763930999992010110400004+25733-100300FM-12+051599999V0203201N005012200019N0040001N1+02391-00031101531ADDAA124000091AY141061AY241061GA1001+999999999GF100991001001999999001001IA1019KA1120M+02761KA2180N+01661MA1999999095911MD1210111-0011MW1051REMSYN112AAXX  04001 76393 31940 03205 10239 21003 39591 40153 52011 70544 92350 333 10276 20166 30/// 50871 59001 70000;EQDQ01  00002PRCP24
0217763930999992010110409004+25733-100300FM-12+051599999V0203501N005010180019N0020001N1+02021-00011102121ADDAY141031AY221031GA1071+018001031GF107991071001022501041999IA1019MA1999999096441MD1999999+0371MW1051REMSYN106AAXX  04091 76393 31820 73505 10202 21001 39644 40212 5//// 70542 8704/ 90855 333 0/05/ 30/// 58037 87356;
0273763930999992010110412004+25733-100300FM-12+051599999V0202901N003012200019N0020001N1+01821+00201102361ADDAA124000091AY141061AY241061GA1001+999999999GF100991001001999999001001IA1019KA1240M+02761KA2120N+01801MA1999999096631MD1210191+0551MW1051REMSYN106AAXX  04121 76393 31920 02903 10182 20020 39663 40236 52019 70544 91155 333 10276 20180 30166 58055 70000;EQDQ01  00002PRCP24
0195763930999992010110415004+25733-100300FM-12+051599999V0203101N003012200019N0030001N1+02041+00271102601ADDAY101031AY201031GF101991011001999999031001IA1019MA1999999096841MD1210211+0611MW1051REMSYN100AAXX  04151 76393 31930 13103 10204 20027 39684 40260 52021 70500 81030 91440 333 0/050 30/// 58061;
0199763930999992010110421004+25733-100300FM-12+051599999V0203201N002012200019N0040001N1+02491+00091102021ADDAY141031AY241031GA1001+999999999GF100991001001999999001001IA1019MA1999999096321MD1710391+0521MW1041REMSYN088AAXX  04211 76393 31940 03202 10249 20009 39632 40202 57039 70444 92050 333 30/// 58052;
0279763930999992010110500004+25733-100300FM-12+051599999V0203601N005012200019N0040001N1+02081-00091101951ADDAA124000091AY141061AY241061GA1001+999999999GF100991001001999999001001IA1019KA1120M+02561KA2180N+01701MA1999999096271MD1710051+0361MW1041REMSYN112AAXX  05001 76393 31940 03605 10208 21009 39627 40195 57005 70444 92350 333 10256 20170 30/// 51141 58036 70000;EQDQ01  00002PRCP24
0199763930999992010110503004+25733-100300FM-12+051599999V0203201N001012200019N0020001N1+01761+00321102251ADDAY101031AY201031GA1001+999999999GF100991001001999999001001IA1019MA1999999096551MD1210281+9999MW1051REMSYN088AAXX  05031 76393 31920 03201 10176 20032 39655 40225 52028 70500 90250 333 30/// 58///;
0251763930999992010110506004+25733-100300FM-12+051599999V0202201N001012200019N0020001N1+01661+00491102371ADDAY101061AY201061GA1001+999999999GF100991001001999999001001GJ105529IA1019KA1240M+02561KA2240N+01641MA1999999096631MD1210081+9999MW1051REMSYN106AAXX  05061 76393 31920 02201 10166 20049 39663 40237 52008 70500 90550 333 10256 20164 30/// 55092 58///;
0199763930999992010110509004+25733-100300FM-12+051599999V0202201N001012200019N0020001N1+01321+00321102391ADDAY141031AY201031GA1001+999999999GF100991001001999999001001IA1019MA1999999096601MD1410001+0161MW1051REMSYN088AAXX  05091 76393 31920 02201 10132 20032 39660 40239 54003 70540 90855 333 30/// 58016;
0273763930999992010110512004+25733-100300FM-12+051599999V0201801N001012200019N0030001N1+01361+00051102541ADDAA124000091AY141061AY201061GA1001+999999999GF100991001001999999001001IA1019KA1240M+02561KA2120N+01301MA1999999096701MD1310101+0071MW1051REMSYN106AAXX  05121 76393 31930 01801 10136 20005 39670 40254 53010 70540 91155 333 10256 20130 30094 58007 70000;EQDQ01  00002PRCP24
0199763930999992010110515004+25733-100300FM-12+051599999V0201601N001012200019N0030001N1+01741+00241102711ADDAY101031AY201031GA1001+999999999GF100991001001999999001001IA1019MA1999999096851MD1210151+0011MW1051REMSYN088AAXX  05151 76393 31930 01601 10174 20024 39685 40271 52015 70500 91440 333 30/// 58001;
0237763930999992010110518004+25733-100300FM-12+051599999V0203601N003012200019N0030001N1+02021+00051102611ADDAY101061AY201061GA1001+999999999GF100991001001999999001001IA1019KA1120M+02221KA2240N+01301MA1999999096771MD1710081+0061MW1051REMSYN100AAXX  05181 76393 31930 03603 10202 20005 39677 40261 57008 70500 91740 333 10222 20130 30/// 58006;
0199763930999992010110521004+25733-100300FM-12+051599999V0200401N002012200019N0040001N1+02361-00231102211ADDAY141031AY241031GA1001+999999999GF100991001001999999001001IA1019MA1999999096441MD1710331+0121MW1041REMSYN088AAXX  05211 76393 31940 00402 10236 21023 39644 40221 57033 70444 92050 333 30/// 58012;
0279763930999992010110600004+25733-100300FM-12+051599999V0201201N003012200019N0040001N1+02181-00031102191ADDAA124000091AY141061AY241061GA1001+999999999GF100991001001999999001001IA1019KA1120M+02461KA2180N+01301MA1999999096461MD1210021+0191MW1041REMSYN112AAXX  06001 76393 31940 01203 10218 21003 39646 40219 52002 70444 92350 333 10246 20130 30/// 50531 58019 70000;EQDQ01  00002PRCP24
0199763930999992010110603004+25733-100300FM-12+051599999V0201201N001012200019N0020001N1+01841-00011102341ADDAY101031AY201031GA1001+999999999GF100991001001999999001001IA1019MA1999999096621MD1210161+0071MW1051REMSYN088AAXX  06031 76393 31920 01201 10184 21001 39662 40234 52016 70500 90250 333 30/// 58007;
0251763930999992010110606004+25733-100300FM-12+051599999V0202301N001012200019N0020001N1+01501+00461102401ADDAY101061AY201061GA1001+999999999GF100991001001999999001001GJ105769IA1019KA1240M+02461KA2240N+01301MA1999999096651MD1210031+0021MW1051REMSYN106AAXX  06061 76393 31920 02301 10150 20046 39665 40240 52003 70500 90550 333 10246 20130 30/// 55096 58002;
0199763930999992010110609004+25733-100300FM-12+051599999V0201401N001012200019N0030001N1+01261+00281102401ADDAY141031AY201031GA1001+999999999GF100991001001999999001001IA1019MA1999999096611MD1410001+0011MW1051REMSYN088AAXX  06091 76393 31930 01401 10126 20028 39661 40240 54004 70540 90855 333 30/// 58001;
0273763930999992010110612004+25733-100300FM-12+051599999V0201901N001012200019N0030001N1+01101+00281102521ADDAA124000091AY141061AY201061GA1001+999999999GF100991001001999999001001IA1019KA1240M+02461KA2120N+01001MA1999999096661MD1410001-0041MW1051REMSYN106AAXX  06121 76393 31930 01901 10110 20028 39666 40252 54005 70540 91155 333 10246 20100 30072 59004 70000;EQDQ01  00002PRCP24
0199763930999992010110615004+25733-100300FM-12+051599999V0209999C000012200019N0030001N1+01641+00361102731ADDAY101031AY201031GA1001+999999999GF100991001001999999001001IA1019MA1999999096841MD1210181-0011MW1051REMSYN088AAXX  06151 76393 31930 00000 10164 20036 39684 40273 52018 70500 91430 333 30/// 59001;
0237763930999992010110618004+25733-100300FM-12+051599999V0200901N003012200019N0030001N1+02021+00181102691ADDAY101061AY201061GA1001+999999999GF100991001001999999001001IA1019KA1120M+02201KA2240N+01001MA1999999096821MD1710021+0051MW1051REMSYN100AAXX  06181 76393 31930 00903 10202 20018 39682 40269 57002 70500 91740 333 10220 20100 30/// 58005;
0199763930999992010110621004+25733-100300FM-12+051599999V0201101N004012200019N0050001N1+02281+00391102401ADDAY141031AY241031GA1001+999999999GF100991001001999999001001IA1019MA1999999096591MD1710231+0051MW1051REMSYN088AAXX  06211 76393 31950 01104 10228 20039 39659 40240 57023 70544 92055 333 30/// 58005;
0273763930999992010110700004+25733-100300FM-12+051599999V0201101N002012200019N0050001N1+02101+00431102431ADDAA124000091AY101061AY201061GA1001+999999999GF100991001001999999001001IA1019KA1120M+02401KA2180N+01001MA1999999096671MD1710081+9999MW1051REMSYN106AAXX  07001 76393 31950 01102 10210 20043 39667 40243 57008 70500 92345 333 10240 20100 30/// 50591 70000;EQDQ01  00002PRCP24
0199763930999992010110703004+25733-100300FM-12+051599999V0201101N002012200019N0020001N1+01781+00131102541ADDAY101031AY201031GA1001+999999999GF100991001001999999001001IA1019MA1999999096801MD1210131+0181MW1051REMSYN088AAXX  07031 76393 31920 01102 10178 20013 39680 40254 52013 70500 90250 333 30/// 58018;
0251763930999992010110706004+25733-100300FM-12+051599999V0202301N001012200019N0020001N1+01541+00321102561ADDAY101061AY201061GA1001+999999999GF100991001001999999001001GJ105769IA1019KA1240M+02401KA2240N+01001MA1999999096801MD1410001+0151MW1051REMSYN106AAXX  07061 76393 31920 02301 10154 20032 39680 40256 54000 70500 90550 333 10240 20100 30/// 55096 58015;
0199763930999992010110709004+25733-100300FM-12+051599999V0201401N001012200019N0030001N1+01281+00361102541ADDAY141031AY201031GA1001+999999999GF100991001001999999001001IA1019MA1999999096731MD1410001+0121MW1051REMSYN088AAXX  07091 76393 31930 01401 10128 20036 39673 40254 54007 70540 90855 333 30/// 58012;
0273763930999992010110712004+25733-100300FM-12+051599999V0201401N001012200019N0030001N1+01021+00461102591ADDAA124000091AY141061AY201061GA1001+999999999GF100991001001999999001001IA1019KA1240M+02401KA2120N+00961MA1999999096731MD1410001+0071MW1051REMSYN106AAXX  07121 76393 31930 01401 10102 20046 39673 40259 54000 70540 91155 333 10240 20096 30080 58007 70000;EQDQ01  00002PRCP24
0199763930999992010110715004+25733-100300FM-12+051599999V0203001N002012200019N0050001N1+01361+00521102771ADDAY141031AY241031GA1001+999999999GF100991001001999999001001IA1019MA1999999096861MD1210131+0021MW1051REMSYN088AAXX  07151 76393 31950 03002 10136 20052 39686 40277 52013 70544 91455 333 30/// 58002;
0237763930999992010110718004+25733-100300FM-12+051599999V0201201N003012200019N0050001N1+02121+00971102621ADDAY141061AY241061GA1001+999999999GF100991001001999999001001IA1019KA1120M+02221KA2240N+00961MA1999999096741MD1710121-0081MW1051REMSYN100AAXX  07181 76393 31950 01203 10212 20097 39674 40262 57012 70544 91750 333 10222 20096 30/// 59008;
0199763930999992010110721004+25733-100300FM-12+051599999V0201201N003012200019N0040001N1+02381+00801102311ADDAY141031AY241031GA1001+999999999GF100991001001999999001001IA1019MA1999999096401MD1710381-0191MW1051REMSYN088AAXX  07211 76393 31940 01203 10238 20080 39640 40231 57038 70544 92050 333 30/// 59019;
0279763930999992010110800004+25733-100300FM-12+051599999V0201401N002012200019N0040001N1+02181+00701102111ADDAA124000091AY141061AY241061GA1001+999999999GF100991001001999999001001IA1019KA1120M+02481KA2180N+00961MA1999999096371MD1710031-0301MW1051REMSYN112AAXX  08001 76393 31940 01402 10218 20070 39637 40211 57003 70544 92350 333 10248 20096 30/// 50501 59030 70000;EQDQ01  00002PRCP24
0199763930999992010110803004+25733-100300FM-12+051599999V0202901N001012200019N0020001N1+01781+01031102191ADDAY101031AY201031GA1001+999999999GF100991001001999999001001IA1019MA1999999096471MD1210101-0331MW1051REMSYN088AAXX  08031 76393 31920 02901 10178 20103 39647 40219 52010 70500 90250 333 30/// 59033;
0251763930999992010110806004+25733-100300FM-12+051599999V0201301N002012200019N0020001N1+01621+01081102091ADDAY101061AY201061GA1001+999999999GF100991001001999999001001GJ105889IA1019KA1240M+02481KA2240N+00961MA1999999096371MD1710101-0431MW1051REMSYN106AAXX  08061 76393 31920 01302 10162 20108 39637 40209 57010 70500 90550 333 10248 20096 30/// 55098 59043;
0199763930999992010110809004+25733-100300FM-12+051599999V0200501N001012200019N0030001N1+01281+00891101951ADDAY141031AY201031GA1001+999999999GF100991001001999999001001IA1019MA1999999096191MD1610181-0541MW1051REMSYN088AAXX  08091 76393 31930 00501 10128 20089 39619 40195 56018 70540 90855 333 30/// 59054;
0273763930999992010110812004+25733-100300FM-12+051599999V0203501N001012200019N0020001N1+01121+00911101961ADDAA124000091AY141061AY201061GA1001+999999999GF100991001001999999001001IA1019KA1240M+02481KA2120N+01001MA1999999096141MD1410001-0591MW1051REMSYN106AAXX  08121 76393 31920 03501 10112 20091 39614 40196 54005 70540 91155 333 10248 20100 30088 59059 70000;EQDQ01  00002PRCP24
0199763930999992010110815004+25733-100300FM-12+051599999V0203001N001012200019N0010001N1+01421+01081102081ADDAY101031AY201031GA1001+999999999GF100991001001999999001001IA1019MA1999999096231MD1210091-0631MW1041REMSYN088AAXX  08151 76393 31910 03001 10142 20108 39623 40208 52009 70400 91430 333 30/// 59063;
0237763930999992010110818004+25733-100300FM-12+051599999V0200201N001012200019N0010001N1+02121+01211101921ADDAY101061AY201061GA1001+999999999GF100991001001999999001001IA1019KA1120M+02141KA2240N+01001MA1999999096091MD1710141-0251MW1041REMSYN100AAXX  08181 76393 31910 00201 10212 20121 39609 40192 57014 70400 91740 333 10214 20100 30/// 59025;
0195763930999992010110821004+25733-100300FM-12+051599999V0201201N002012200019N0020001N1+02521+01041101441ADDAY141031AY241031GF101991001001999999001011IA1019MA1999999095691MD1710401-0711MW1051REMSYN100AAXX  08211 76393 31920 11202 10252 20104 39569 40144 57040 70544 80001 92050 333 0/005 30/// 59071;
0161763930999992010110900004+25733-100300FM-12+051599999V0200501N001019999999N0040001N1+02321+00981101331ADDAY141061AY241061GF107991001001999999001061MA1999999095641MD1710051+9999MW1051REMSYN072AAXX  09001 76393 31940 70501 10232 20098 39564 40133 57005 70544 80006;
0199763930999992010110903004+25733-100300FM-12+051599999V0202101N001012200019N0020001N1+01981+01161101311ADDAY101031AY201031GA1001+999999999GF100991001001999999001001IA1019MA1999999095661MD1210021-0811MW1051REMSYN088AAXX  09031 76393 31920 02101 10198 20116 39566 40131 52002 70500 90250 333 30/// 59081;
0251763930999992010110906004+25733-100300FM-12+051599999V0200601N001012200019N0020001N1+01721+00961101301ADDAY101061AY201061GA1001+999999999GF100991001001999999001001GJ105109IA1019KA1240M+02571KA2240N+01001MA1999999095651MD1710011-0721MW1051REMSYN106AAXX  09061 76393 31920 00601 10172 20096 39565 40130 57001 70500 90550 333 10257 20100 30/// 55085 59072;
0199763930999992010110909004+25733-100300FM-12+051599999V0203601N001012200019N0020001N1+01341+00991101201ADDAY141031AY201031GA1001+999999999GF100991001001999999001001IA1019MA1999999095511MD1610141-0681MW1051REMSYN088AAXX  09091 76393 31920 03601 10134 20099 39551 40120 56014 70540 90855 333 30/// 59068;
0273763930999992010110912004+25733-100300FM-12+051599999V0203001N001012200019N0020001N1+01281+01071101211ADDAA124000091AY141061AY201061GA1001+999999999GF100991001001999999001001IA1019KA1240M+02571KA2120N+01001MA1999999095461MD1410001-0681MW1051REMSYN106AAXX  09121 76393 31920 03001 10128 20107 39546 40121 54005 70540 91155 333 10257 20100 30094 59068 70000;EQDQ01  00002PRCP24
0217763930999992010110915004+25733-100300FM-12+051599999V0203101N002010600019N0010001N1+01561+01161101331ADDAY121031AY221031GA1081+060001001GF108991001001999999001041IA1019MA1999999095551MD1210091-0681MW1041REMSYN106AAXX  09151 76393 31910 83102 10156 20116 39555 40133 52009 70422 80004 91430 333 0/005 30/// 59068 88070;
0161763930999992010110918004+25733-100300FM-12+051599999V0200401N001019999999N0010001N1+02261+01191101231ADDAY121061AY221061GF108991001001999999001041MA1999999095461MD1710091+9999MW1041REMSYN072AAXX  09181 76393 31910 80401 10226 20119 39546 40123 57009 70422 80004;
0217763930999992010110921004+25733-100300FM-12+051599999V0201201N001010600019N0020001N1+02611+01311100831ADDAY141031AY241031GA1071+060001021GF107991001001999999001071IA1019MA1999999095141MD1710321-0551MW1051REMSYN106AAXX  09211 76393 31920 71201 10261 20131 39514 40083 57032 70544 80007 92050 333 0/005 30/// 59055 87270;
0161763930999992010111000004+25733-100300FM-12+051599999V0200901N001019999999N0020001N1+02331+01161100811ADDAY141061AY241061GF106991001001999999001061MA1999999095171MD1210031+9999MW1051REMSYN072AAXX  10001 76393 31920 60901 10233 20116 39517 40081 52003 70544 80006;
0199763930999992010111003004+25733-100300FM-12+051599999V0201301N002012200019N0020001N1+02001+01291100871ADDAY141031AY241031GA1001+999999999GF100991001001999999001001IA1019MA1999999095271MD1210101-0391MW1051REMSYN088AAXX  10031 76393 31920 01302 10200 20129 39527 40087 52010 70544 90255 333 30/// 59039;
0251763930999992010111006004+25733-100300FM-12+051599999V0201501N001012200019N0020001N1+01761+01311100941ADDAY141061AY241061GA1001+999999999GF100991001001999999001001GJ104689IA1019KA1240M+02671KA2240N+01761MA1999999095311MD1410001-0341MW1051REMSYN106AAXX  10061 76393 31920 01501 10176 20131 39531 40094 54004 70544 90550 333 10267 20176 30/// 55078 59034;
0199763930999992010111009004+25733-100300FM-12+051599999V0209999C000012200019N0020001N1+01481+01211100951ADDAY141031AY201031GA1001+999999999GF100991001001999999001001IA1019MA1999999095281MD1410001-0231MW1051REMSYN088AAXX  10091 76393 31920 00000 10148 20121 39528 40095 54003 70540 90855 333 30/// 59023;
0217763930999992010111015004+25733-100300FM-12+051599999V0203201N001012200019N0010001N1+01801+01171101311ADDAY101031AY201031GA1031+042001031GF103991031001999999051001IA1019MA1999999095561MD1210211+0011MW1041REMSYN106AAXX  10151 76393 31910 33201 10180 20117 39556 40131 52021 70400 83050 91440 333 0/050 30/// 58001 83364;
0180763930999992010111018004+25733-100300FM-12+051599999V0200901N001012200019N0020001N1+02501+01221101291ADDAY101061AY201061GF104991999001999999051001MA1999999095561MD1410001+9999MW1041REMSYN072AAXX  10181 76393 31920 40901 10250 20122 39556 40129 54000 70400 80050;EQDQ01+000002SCOTLC
0217763930999992010111021004+25733-100300FM-12+051599999V0201201N004010600019N0020001N1+02621+01381101041ADDAY141031AY241031GA1061+060001001GF106991001001999999001061IA1019MA1999999095361MD1710201+0221MW1041REMSYN106AAXX  10211 76393 31920 61204 10262 20138 39536 40104 57020 70444 80006 92050 333 0/005 30/// 58022 86070;
0161763930999992010111100004+25733-100300FM-12+051599999V0201201N004019999999N0020001N1+02401+01291101071ADDAY141061AY241061GF107991001001999999001071MA1999999095451MD1210091+9999MW1041REMSYN072AAXX  11001 76393 31920 71204 10240 20129 39545 40107 52009 70444 80007;
0199763930999992010111103004+25733-100300FM-12+051599999V0203101N001012200019N0020001N1+02021+01451101211ADDAY101031AY201031GA1001+999999999GF100991001001999999001001IA1019MA1999999095611MD1210161+0341MW1051REMSYN088AAXX  11031 76393 31920 03101 10202 20145 39561 40121 52016 70500 90250 333 30/// 58034;
0251763930999992010111106004+25733-100300FM-12+051599999V0201201N001012200019N0020001N1+01961+01421101301ADDAY101061AY201061GA1001+999999999GF100991001001999999001001GJ105229IA1019KA1240M+02761KA2240N+01301MA1999999095671MD1210061+9999MW1051REMSYN106AAXX  11061 76393 31920 01201 10196 20142 39567 40130 52006 70500 90550 333 10276 20130 30/// 55087 58567;
0199763930999992010111109004+25733-100300FM-12+051599999V0200601N002012200019N0020001N1+01701+01551101321ADDAY141031AY241031GA1001+999999999GF100991001001999999001001IA1019MA1999999095661MD1210011+0381MW1051REMSYN088AAXX  11091 76393 31920 00602 10170 20155 39566 40132 52001 70544 90855 333 30/// 58038;
0161763930999992010111112004+25733-100300FM-12+051599999V0200501N001010012019N0010001N1+01701+01571101451ADDAY141061AY221061GF108991081061001501999999MA1999999095751MD1210081+9999MW1051REMSYN072AAXX  11121 76393 31210 80501 10170 20157 39575 40145 52008 70542 886//;
0217763930999992010111115004+25733-100300FM-12+051599999V0200601N001010045019N0020001N1+01881+01501101471ADDAY121031AY221031GA1081+004501061GF108991081061004501999999IA1019MA1999999095741MD1410001+0181MW1041REMSYN106AAXX  11151 76393 31420 80601 10188 20150 39574 40147 54000 70422 886// 91440 333 0/3// 30/// 58018 88615;
0161763930999992010111118004+25733-100300FM-12+051599999V0201001N003010075019N0010001N1+02121+01501101721ADDAY121061AY221061GF106991061031008001001001MA1999999095981MD1010241+9999MW1041REMSYN072AAXX  11181 76393 31510 61003 10212 20150 39598 40172 50024 70422 86300;
0223763930999992010111121004+25733-100300FM-12+051599999V0201201N003012200019N0020001N1+02621+01431101471ADDAY141031AY241031GA1011+010801081GF103991031021012501001001IA1019MA1999999095791MD1710191+0431MW1051REMSYN112AAXX  11211 76393 31620 31203 10262 20143 39579 40147 57019 70544 83200 92050 333 01300 30/// 58043 81836 82636;
0161763930999992010111200004+25733-100300FM-12+051599999V0201401N005012200019N0020001N1+02501+01411101441ADDAY141061AY241061GF101991011051012501001001MA1999999095801MD1210011+9999MW1051REMSYN072AAXX  12001 76393 31620 11405 10250 20141 39580 40144 52001 70544 81500;
0199763930999992010111203004+25733-100300FM-12+051599999V0201401N002012200019N0020001N1+02401+01291101501ADDAY101031AY201031GA1001+999999999GF100991001001999999001001IA1019MA1999999095881MD1210081+0271MW1051REMSYN088AAXX  12031 76393 31920 01402 10240 20129 39588 40150 52008 70500 90250 333 30/// 58027;
0257763930999992010111206004+25733-100300FM-12+051599999V0201001N002012200019N0020001N1+01901+01491101571ADDAY101061AY201061GA1001+999999999GF100991001001999999001001GJ104389IA1019KA1240M+02691KA2240N+01541MA1999999095951MD1210071+9999MW1051REMSYN112AAXX  12061 76393 31920 01002 10190 20149 39595 40157 52007 70500 90550 333 10269 20154 30/// 54315 55073 58028;
0142763930999992010111209004+25733-100300FM-12+051599999V0200801N001012200019N0020001N1+01661+99999999999ADDGA1001+999999999GF100991001001999999001001REMSYN088AAXX  12091 76393 31920 00801 10166 10147 39587 40155 54008 70541 90855 333 30/// 58021;
0161763930999992010111212004+25733-100300FM-12+051599999V0200501N001019999999N0020001N1+01681+01491101551ADDAY141061AY221061GF108991081051999999999999MA1999999095881MD1410001+9999MW1051REMSYN072AAXX  12121 76393 31920 80501 10168 20149 39588 40155 54001 70542 885//;
0217763930999992010111215004+25733-100300FM-12+051599999V0209999C000010027019N0010001N1+01761+01541101801ADDAY101031AY201031GA1081+002701071GF108991081061002501999999IA1019MA1999999096051MD1210171+0311MW1041REMSYN106AAXX  12151 76393 31310 80000 10176 20154 39605 40180 52017 70400 886// 91440 333 0/3// 30/// 58031 88709;
0161763930999992010111218004+25733-100300FM-12+051599999V0203401N001010075019N0010001N1+02061+01531101881ADDAY121061AY221061GF108991081051008001999999MA1999999096121MD1810071+9999MW1041REMSYN072AAXX  12181 76393 31510 83401 10206 20153 39612 40188 58007 70422 885//;
0217763930999992010111221004+25733-100300FM-12+051599999V0200501N002012200019N0020001N1+02431+01421101691ADDAY141031AY241031GA1011+010201081GF101991011011008001001001IA1019MA1999999095971MD1710151+0181MW1041REMSYN106AAXX  12211 76393 31520 10502 10243 20142 39597 40169 57015 70444 81100 92050 333 00500 30/// 58018 81834;
0279763930999992010111300004+25733-100300FM-12+051599999V0200401N001012200019N0020001N1+02331+01391101741ADDAA124000091AY141061AY241061GA1001+999999999GF100991001001999999001001IA1019KA1120M+02611KA2180N+01541MA1999999096051MD1210081+0251MW1051REMSYN112AAXX  13001 76393 31920 00401 10233 20139 39605 40174 52008 70544 92350 333 10261 20154 30/// 50311 58025 70000;EQDQ01  00002PRCP24
0199763930999992010111303004+25733-100300FM-12+051599999V0201601N001012200019N0000001N1+02221+01511101921ADDAY101031AY201031GA1001+999999999GF100991001001999999001001IA1019MA1999999096251MD1210201+0371MW1051REMSYN088AAXX  13031 76393 31900 01601 10222 20151 39625 40192 52020 70500 90255 333 30/// 58037;
0161763930999992010111306004+25733-100300FM-12+051599999V0201401N001010075019N0020001N1+02061+01531101951ADDAY121061AY221061GF105991051051008001001001MA1999999096271MD1210021+9999MW1051REMSYN072AAXX  13061 76393 31520 51401 10206 20153 39627 40195 52002 70522 85500;
0217763930999992010111309004+25733-100300FM-12+051599999V0200401N001010108019N0020001N1+01961+00891101991ADDAY141031AY211031GA1081+010801061GF108991081051012501999999IA1019MA1999999096331MD1410001+0501MW1051REMSYN106AAXX  13091 76393 31620 80401 10196 20089 39633 40199 54006 70541 885// 90855 333 0/399 30/// 58050 88636;
0161763930999992010111312004+25733-100300FM-12+051599999V0200401N001010120019N0020001N1+01821+00421102141ADDAY141061AY221061GF108991081051012501999999MA1999999096421MD1410001+9999MW1051REMSYN072AAXX  13121 76393 31620 80401 10182 20042 39642 40214 54009 70542 885//;
0217763930999992010111315004+25733-100300FM-12+051599999V0203601N001010450019N0060001N1+01721+00521102391ADDAY121031AY221031GA1081+045001031GF108991081001999999071999IA1019MA1999999096631MD1010211+0581MW1051REMSYN106AAXX  13151 76393 31956 83601 10172 20052 39663 40239 50021 70522 8807/ 91440 333 0/05/ 30/// 58058 88365;
0161763930999992010111318004+25733-100300FM-12+051599999V0200401N002019999999N0050001N1+01821+00711102311ADDAY121061AY221061GF108991081001999999071999MA1999999096541MD1710091+9999MW1051REMSYN072AAXX  13181 76393 31950 80402 10182 20071 39654 40231 57009 70522 8807/;
0217763930999992010111321004+25733-100300FM-12+051599999V0203601N003010600019N0050001N1+01801+00701101951ADDAY121031AY221031GA1081+060001031GF108991081001999999041999IA1019MA1999999096191MD1710351+0221MW1051REMSYN106AAXX  13211 76393 31950 83603 10180 20070 39619 40195 57035 70522 8804/ 92045 333 0/050 30/// 58022 88370;
0161763930999992010111400004+25733-100300FM-12+051599999V0200601N00101036001CN0030001N1+01761+00791101841ADDAY121061AY221061GF105991021041012501041999MA1999999096091MD1710101+9999MW1051REMSYN072AAXX  14001 76393 31630 50601 10176 20079 39609 40184 57010 70522 8244/;
0189763930999992010111403004+25733-100300FM-12+051599999V0200901N003012200019N0020001N1+01721+00621101921ADDAY101031AY201031GF103991031001999999041001IA1019MA1999999096161MD1210071-0091MW1051REMSYN094AAXX  14031 76393 31920 30903 10172 20062 39616 40192 52007 70500 83040 90250 333 30/// 59009;
0161763930999992010111406004+25733-100300FM-12+051599999V0201201N003012200019N0020001N1+01521+00761101841ADDAY101061AY201061GF102991021051008001001001MA1999999096081MD1710081+9999MW1051REMSYN072AAXX  14061 76393 31520 21203 10152 20076 39608 40184 57008 70500 82500;
0217763930999992010111409004+25733-100300FM-12+051599999V0209999C000012200019N0020001N1+01321+00701101671ADDAY141031AY211031GA1021+006301061GF102991021051008001001001IA1019MA1999999095901MD1710181-0431MW1051REMSYN106AAXX  14091 76393 31520 20000 10132 20070 39590 40167 57018 70541 82500 90855 333 0/300 30/// 59043 82621;
0161763930999992010111412004+25733-100300FM-12+051599999V0200501N001012200019N0020001N1+01201+00711101651ADDAY141061AY211061GF102991021051004501001001MA1999999095891MD1410001+9999MW1051REMSYN072AAXX  14121 76393 31420 20501 10120 20071 39589 40165 54001 70541 82500;
0199763930999992010111415004+25733-100300FM-12+051599999V0201801N001012200019N0030001N1+01481+00961101791ADDAY141031AY241031GA1001+999999999GF100991001001999999001001IA1019MA1999999095961MD1210081-0671MW1051REMSYN088AAXX  14151 76393 31930 01801 10148 20096 39596 40179 52008 70544 91455 333 30/// 59067;
0161763930999992010111418004+25733-100300FM-12+051599999V0200601N001012200019N0030001N1+01901+00771101611ADDAY141061AY241061GF102991021001999999041001MA1999999095801MD1710161+9999MW1051REMSYN072AAXX  14181 76393 31930 20601 10190 20077 39580 40161 57016 70544 82040;
0195763930999992010111421004+25733-100300FM-12+051599999V0200601N002012200019N0020001N1+02341+00811101171ADDAY141031AY241031GF102991021001022501031001IA1019MA1999999095431MD1710371-0761MW1051REMSYN100AAXX  14211 76393 31820 20602 10234 20081 39543 40117 57037 70544 82030 92050 333 0/050 30/// 59076;
0161763930999992010111500004+25733-100300FM-12+051599999V0200901N001012200019N0020001N1+02071+00971101011ADDAY141061AY241061GF104991031051012501031001MA1999999095331MD1710101+9999MW1051REMSYN072AAXX  15001 76393 31620 40901 10207 20097 39533 40101 57010 70544 83530;
0195763930999992010111503004+25733-100300FM-12+051599999V0200401N001012200019N0020001N1+01781+00951101031ADDAY101031AY201031GF102991021001999999041001IA1019MA1999999095361MD1210031-0801MW1051REMSYN100AAXX  15031 76393 31920 20401 10178 20095 39536 40103 52003 70500 82040 90250 333 0/050 30/// 59080;
0256763930999992010111506004+25733-100300FM-12+051599999V0200901N002012200019N0020001N1+01561+01161999999ADDAY101061AY201061GA1001+999999999GF100991001001999999001001IA1019KA1240M+02401KA2240N+01181MA1999999095321MD1710041+9999MW1051REMSYN100AAXX  15061 76393 31920 00902 10156 20116 39532 40010 57004 70500 90545 333 10240 20118 30/// 55886;EQDQ01+100103APOSLP
0199763930999992010111509004+25733-100300FM-12+051599999V0209999C000012200019N0020001N1+01381+01111100931ADDAY141031AY201031GA1001+999999999GF100991001001999999001001IA1019MA1999999095231MD1410001-0671MW1051REMSYN088AAXX  15091 76393 31920 00000 10138 20111 39523 40093 54009 70540 90855 333 30/// 59067;
0273763930999992010111512004+25733-100300FM-12+051599999V0202001N001012200019N0020001N1+01341+01061100831ADDAA124000091AY141061AY201061GA1001+999999999GF100991001001999999001001IA1019KA1240M+02401KA2120N+01241MA1999999095081MD1610151-0801MW1051REMSYN106AAXX  15121 76393 31920 02001 10134 20106 39508 40083 56015 70540 91155 333 10240 20124 30106 59080 70000;EQDQ01  00002PRCP24
0195763930999992010111515004+25733-100300FM-12+051599999V0201401N001012200019N0020001N1+01761+01091100871ADDAY101031AY201031GF101991011001999999031001IA1019MA1999999095111MD1110021-0851MW1051REMSYN100AAXX  15151 76393 31920 11401 10176 20109 39511 40087 51002 70500 81030 91440 333 0/050 30/// 59085;
0237763930999992010111518004+25733-100300FM-12+051599999V0201301N001012200019N0020001N1+02601+01031100681ADDAY101061AY201061GA1001+999999999GF100991001001999999001001IA1019KA1120M+02721KA2240N+01181MA1999999094971MD1710141-0831MW1051REMSYN100AAXX  15181 76393 31920 01301 10260 20103 39497 40068 57014 70500 91740 333 10272 20118 30/// 59083;
0217763930999992010111521004+25733-100300FM-12+051599999V0200901N001012200019N0030001N1+02961+00971100171ADDAY141031AY241031GA1011+018001081GF101991011011017501001001IA1019MA1999999094571MD1710401-0861MW1041REMSYN106AAXX  15211 76393 31730 10901 10296 20097 39457 40017 57040 70444 81100 92050 333 00500 30/// 59086 81856;
0279763930999992010111600004+25733-100300FM-12+051599999V0201701N002012200019N0030001N1+02641+00911100211ADDAA124000091AY141061AY241061GA1001+999999999GF100991001001999999001001IA1019KA1120M+03151KA2180N+01181MA1999999094671MD1210101-0661MW1041REMSYN112AAXX  16001 76393 31930 01702 10264 20091 39467 40021 52010 70444 92350 333 10315 20118 30/// 50391 59066 70000;EQDQ01  00002PRCP24
0199763930999992010111603004+25733-100300FM-12+051599999V0200401N001012200019N0020001N1+02121+01211100441ADDAY101031AY201031GA1001+999999999GF100991001001999999001001IA1019MA1999999094921MD1210251-0441MW1051REMSYN088AAXX  16031 76393 31920 00401 10212 20121 39492 40044 52025 70500 90250 333 30/// 59044;
0251763930999992010111606004+25733-100300FM-12+051599999V0202801N001012200019N0020001N1+01901+01101100741ADDAY101061AY201061GA1001+999999999GF100991001001999999001001GJ105769IA1019KA1240M+03151KA2240N+01241MA1999999095191MD1210271-0131MW1051REMSYN106AAXX  16061 76393 31920 02801 10190 20110 39519 40074 52027 70500 90550 333 10315 20124 30/// 55096 59013;
0199763930999992010111609004+25733-100300FM-12+051599999V0202701N001012200019N0020001N1+01681+00871100991ADDAY141031AY201031GA1001+999999999GF100991001001999999001001IA1019MA1999999095361MD1310171+0131MW1051REMSYN088AAXX  16091 76393 31920 02701 10168 20087 39536 40099 53017 70540 90855 333 30/// 58013;
0273763930999992010111612004+25733-100300FM-12+051599999V0202501N001012200019N0020001N1+01621+00671101261ADDAA124000091AY141061AY201061GA1001+999999999GF100991001001999999001001IA1019KA1240M+03151KA2120N+01321MA1999999095561MD1310201+0481MW1051REMSYN106AAXX  16121 76393 31920 02501 10162 20067 39556 40126 53020 70540 91155 333 10315 20132 30122 58048 70000;EQDQ01  00002PRCP24
0199763930999992010111615004+25733-100300FM-12+051599999V0202701N001012200019N0020001N1+02201+00531101571ADDAY101031AY201031GA1001+999999999GF100991001001999999001001IA1019MA1999999095801MD1210241+0691MW1051REMSYN088AAXX  16151 76393 31920 02701 10220 20053 39580 40157 52024 70500 91440 333 30/// 58069;
0237763930999992010111618004+25733-100300FM-12+051599999V0203601N002012200019N0030001N1+02401+00251101471ADDAY101061AY201061GA1001+999999999GF100991001001999999001001IA1019KA1120M+02541KA2240N+01241MA1999999095761MD1710081+0791MW1051REMSYN100AAXX  16181 76393 31930 03602 10240 20025 39576 40147 57008 70500 91740 333 10254 20124 30/// 58079;
0199763930999992010111621004+25733-100300FM-12+051599999V0201101N001012200019N0030001N1+02751+00361101121ADDAY141031AY241031GA1001+999999999GF100991001001999999001001IA1019MA1999999095471MD1710291+0901MW1041REMSYN088AAXX  16211 76393 31930 01101 10275 20036 39547 40112 57029 70444 92050 333 30/// 58090;
0279763930999992010111700004+25733-100300FM-12+051599999V0201001N004012200019N0030001N1+02291+00341101111ADDAA124000091AY141061AY241061GA1001+999999999GF100991001001999999001001IA1019KA1120M+02851KA2180N+01241MA1999999095501MD1210031+0831MW1041REMSYN112AAXX  17001 76393 31930 01004 10229 20034 39550 40111 52003 70444 92350 333 10285 20124 30/// 50421 58083 70000;EQDQ01  00002PRCP24
0199763930999992010111703004+25733-100300FM-12+051599999V0202901N001012200019N0020001N1+01961+00581101261ADDAY141031AY241031GA1001+999999999GF100991001001999999001001IA1019MA1999999095651MD1210151+0731MW1051REMSYN088AAXX  17031 76393 31920 02901 10196 20058 39565 40126 52015 70544 90255 333 30/// 58073;
0223763930999992010111706004+25733-100300FM-12+051599999V0200601N001012200019N0020001N1+01701+00341101301ADDGA1001+999999999GF100991001001999999001001GJ105649IA1019KA1240M+02851KA2240N+01241MA1999999095661MD1210011+0471REMSYN100AAXX  17061 76393 31920 00601 10170 20034 39566 40130 52001 90555 333 10285 20124 30/// 55094 58047;
0199763930999992010111709004+25733-100300FM-12+051599999V0200101N001012200019N0020001N1+01281+00691101301ADDAY141031AY201031GA1001+999999999GF100991001001999999001001IA1019MA1999999095601MD1410001+0241MW1051REMSYN088AAXX  17091 76393 31920 00101 10128 20069 39560 40130 54006 70540 90855 333 30/// 58024;
0273763930999992010111712004+25733-100300FM-12+051599999V0202301N001012200019N0020001N1+01201+00841101441ADDAA124000091AY141061AY201061GA1001+999999999GF100991001001999999001001IA1019KA1240M+02851KA2120N+01081MA1999999095671MD1410001+0111MW1051REMSYN106AAXX  17121 76393 31920 02301 10120 20084 39567 40144 54007 70540 91155 333 10285 20108 30088 58011 70000;EQDQ01  00002PRCP24
0199763930999992010111715004+25733-100300FM-12+051599999V0202501N001012200019N0020001N1+01741+00551101791ADDAY101031AY201031GA1001+999999999GF100991001001999999001001IA1019MA1999999095851MD1210101+0051MW1051REMSYN088AAXX  17151 76393 31920 02501 10174 20055 39585 40179 52010 70500 91430 333 30/// 58005;
0237763930999992010111718004+25733-100300FM-12+051599999V0200501N001012200019N0010001N1+02461+00821101571ADDAY101061AY201061GA1001+999999999GF100991001001999999001001IA1019KA1120M+02601KA2240N+01241MA1999999095851MD1410001+0091MW1041REMSYN100AAXX  17181 76393 31910 00501 10246 20082 39585 40157 54000 70400 91740 333 10260 20124 30/// 58009;
0199763930999992010111721004+25733-100300FM-12+051599999V0201201N002012200019N0020001N1+02881+00531101371ADDAY141031AY241031GA1001+999999999GF100991001001999999001001IA1019MA1999999095721MD1710131+0251MW1041REMSYN088AAXX  17211 76393 31920 01202 10288 20053 39572 40137 57013 70444 92050 333 30/// 58025;
0279763930999992010111800004+25733-100300FM-12+051599999V0200901N001012200019N0030001N1+02701+00611101531ADDAA124000091AY141061AY241061GA1001+999999999GF100991001001999999001001IA1019KA1120M+03021KA2180N+01241MA1999999095901MD1210181+0401MW1041REMSYN112AAXX  18001 76393 31930 00901 10270 20061 39590 40153 52018 70444 92350 333 10302 20124 30/// 50601 58040 70000;EQDQ01  00002PRCP24
0199763930999992010111803004+25733-100300FM-12+051599999V0209999C000012200019N0020001N1+02201+00861101971ADDAY101031AY201031GA1001+999999999GF100991001001999999001001IA1019MA1999999096351MD1210451+0701MW1051REMSYN088AAXX  18031 76393 31920 00000 10220 20086 39635 40197 52045 70500 90250 333 30/// 58070;
0251763930999992010111806004+25733-100300FM-12+051599999V0202801N001012200019N0020001N1+01901+00631102241ADDAY101061AY201061GA1001+999999999GF100991001001999999001001GJ105709IA1019KA1240M+03021KA2240N+01081MA1999999096591MD1210241+0931MW1051REMSYN106AAXX  18061 76393 31920 02801 10190 20063 39659 40224 52024 70500 90550 333 10302 20108 30/// 55095 58093;
0199763930999992010111809004+25733-100300FM-12+051599999V0200701N001012200019N0020001N1+01741+00511102431ADDAY141031AY241031GA1001+999999999GF100991001001999999001001IA1019MA1999999096731MD1210141+9999MW1051REMSYN088AAXX  18091 76393 31920 00701 10174 20051 39673 40243 52014 70544 90855 333 30/// 58///;
0273763930999992010111812004+25733-100300FM-12+051599999V0202201N001012200019N0020001N1+01521+00571102701ADDAA124000091AY141061AY241061GA1001+999999999GF100991001001999999001001IA1019KA1240M+03021KA2120N+01161MA1999999096921MD1210191+9999MW1051REMSYN106AAXX  18121 76393 31920 02201 10152 20057 39692 40270 52019 70544 91150 333 10302 20116 30110 58/// 70000;EQDQ01  00002PRCP24
0211763930999992010111815004+25733-100300FM-12+051599999V0203601N001010600019N0040001N1+01461+00261102981ADDAY111031AY211031GA1051+060001001GF105991999999999999999999IA1019MA1999999097141MD1210221+1291MW1051REMSYN100AAXX  18151 76393 31940 53601 10146 20026 39714 40298 52022 70511 91440 333 0/005 30/// 58129 85070;
0161763930999992010111818004+25733-100300FM-12+051599999V0200201N001019999999N0030001N1+01861+00421102831ADDAY111061AY211061GF106991001001999999001041MA1999999097001MD1710141+9999MW1051REMSYN072AAXX  18181 76393 31930 60201 10186 20042 39700 40283 57014 70511 80004;
0236763930999992010111821004+25733-100300FM-12+051599999V0200901N001010600019N0030001N1+02231+00391102142ADDAY141031AY241031GA1061+060001001GF106991001001999999001051IA1019MA1999999096611MD1710391+0891MW1041REMSYN106AAXX  18211 76393 31930 60901 10223 20039 39661 40214 57039 70444 80005 92050 333 0/005 30/// 58089 86070;EQDQ01+102143APOSLP
0161763930999992010111900004+25733-100300FM-12+051599999V0200901N004019999999N0030001N1+01961+00501102361ADDAY141061AY241061GF107991001001999999001081MA1999999096601MD1710011+9999MW1041REMSYN072AAXX  19001 76393 31930 70904 10196 20050 39660 40236 57001 70444 80008;
0199763930999992010111903004+25733-100300FM-12+051599999V0200901N004012200019N0020001N1+01761+00321102441ADDAY101031AY201031GA1001+999999999GF100991001001999999001001IA1019MA1999999096691MD1210091+0341MW1051REMSYN088AAXX  19031 76393 31920 00904 10176 20032 39669 40244 52009 70500 90250 333 30/// 58034;
0251763930999992010111906004+25733-100300FM-12+051599999V0203201N001012200019N0020001N1+01501+00511102401ADDAY101061AY201061GA1001+999999999GF100991001001999999001001GJ105529IA1019KA1240M+02411KA2240N+01161MA1999999096651MD1710041+0061MW1051REMSYN106AAXX  19061 76393 31920 03201 10150 20051 39665 40240 57004 70500 90550 333 10241 20116 30/// 55092 58006;
0199763930999992010111909004+25733-100300FM-12+051599999V0201501N001012200019N0020001N1+01301+00491102261ADDAY141031AY201031GA1001+999999999GF100991001001999999001001IA1019MA1999999096471MD1610181-0261MW1051REMSYN088AAXX  19091 76393 31920 01501 10130 20049 39647 40226 56018 70540 90855 333 30/// 59026;
0273763930999992010111912004+25733-100300FM-12+051599999V0201701N001012200019N0020001N1+01241+00461102241ADDAA124000091AY141061AY201061GA1001+999999999GF100991001001999999001001IA1019KA1240M+02411KA2120N+01081MA1999999096401MD1410001-0521MW1051REMSYN106AAXX  19121 76393 31920 01701 10124 20046 39640 40224 54007 70540 91155 333 10241 20108 30084 59052 70000;EQDQ01  00002PRCP24
0195763930999992010111915004+25733-100300FM-12+051599999V0201901N001012200019N0020001N1+01561+00591102371ADDAY101031AY201031GF103991001001999999001041IA1019MA1999999096501MD1210101-0641MW1041REMSYN100AAXX  19151 76393 31920 31901 10156 20059 39650 40237 52010 70400 80004 91440 333 0/005 30/// 59064;
0161763930999992010111918004+25733-100300FM-12+051599999V0200901N001012200019N0020001N1+02041+00591102261ADDAY101061AY201061GF103991001001999999001041MA1999999096411MD1010081+9999MW1041REMSYN072AAXX  19181 76393 31920 30901 10204 20059 39641 40226 50008 70400 80004;
0237763930999992010112018004+25733-100300FM-12+051599999V0200901N002012200019N0020001N1+02341+01231101801ADDAY101061AY201061GA1001+999999999GF100991001001999999001001IA1019KA1120M+02501KA2240N+00981MA1999999096011MD1310081-0311MW1041REMSYN100AAXX  20181 76393 31920 00902 10234 20123 39601 40180 53008 70400 91740 333 10250 20098 30/// 59031;
0199763930999992010112021004+25733-100300FM-12+051599999V0201101N003012200019N0010001N1+02721+01281101491ADDAY101031AY201031GA1001+999999999GF100991001001999999001001IA1019MA1999999095771MD1710241-0271MW1051REMSYN088AAXX  20211 76393 31910 01103 10272 20128 39577 40149 57024 70500 92045 333 30/// 59027;
0199763930999992010112103004+25733-100300FM-12+051599999V0202601N001012200019N0020001N1+02101+01481101471ADDAY101031AY201031GA1001+999999999GF100991001001999999001001IA1019MA1999999095851MD1210141-0291MW1051REMSYN088AAXX  21031 76393 31920 02601 10210 20148 39585 40147 52014 70500 90250 333 30/// 59029;
0251763930999992010112106004+25733-100300FM-12+051599999V0202701N001012200019N0020001N1+01901+01561101521ADDAY101061AY201061GA1001+999999999GF100991001001999999001001GJ105649IA1019KA1240M+02801KA2240N+00981MA1999999095891MD1210041-0201MW1051REMSYN106AAXX  21061 76393 31920 02701 10190 20156 39589 40152 52004 70500 90550 333 10280 20098 30/// 55094 59020;
0199763930999992010112109004+25733-100300FM-12+051599999V0203301N001012200019N0020001N1+01661+01531101501ADDAY141031AY201031GA1001+999999999GF100991001001999999001001IA1019MA1999999095831MD1410001-0121MW1051REMSYN088AAXX  21091 76393 31920 03301 10166 20153 39583 40150 54006 70540 90855 333 30/// 59012;
0161763930999992010112112004+25733-100300FM-12+051599999V0203101N001010012019N0010001N1+01721+01591101521ADDAY141061AY221061GF108991081051001501999999MA1999999095801MD1410001+9999MW1051REMSYN072AAXX  21121 76393 31210 83101 10172 20159 39580 40152 54003 70542 885//;
0217763930999992010112115004+25733-100300FM-12+051599999V0202701N001010018019N0003001N1+01821+01641101691ADDAY141031AY241031GA1081+001801071GF108991081061001501999999IA1019MA1999999095951MD1210151-0141MW1441REMSYN106AAXX  21151 76393 31203 82701 10182 20164 39595 40169 52015 74444 886// 91455 333 0/399 30/// 59014 88706;
0237763930999992010112118004+25733-100300FM-12+051599999V0200701N001012200019N0010001N1+02561+01661101591ADDAY101061AY201061GA1001+999999999GF100991001001999999001001IA1019KA1120M+02701KA2240N+01521MA1999999095851MD1710101-0161MW1051REMSYN100AAXX  21181 76393 31910 00701 10256 20166 39585 40159 57010 70500 91750 333 10270 20152 30/// 59016;
0195763930999992010112121004+25733-100300FM-12+051599999V0200901N003012200019N0010001N1+02901+01671101201ADDAY141031AY241031GF102991001001999999001011IA1019MA1999999095551MD1710301-0221MW1051REMSYN100AAXX  21211 76393 31910 20903 10290 20167 39555 40120 57030 70544 80001 92050 333 0/005 30/// 59022;
0161763930999992010112200004+25733-100300FM-12+051599999V0209999C000012200019N0010001N1+02591+01561101161ADDAY141061AY241061GF102991001001999999001011MA1999999095561MD1210011+9999MW1051REMSYN072AAXX  22001 76393 31910 20000 10259 20156 39556 40116 52001 70544 80001;
0199763930999992010112203004+25733-100300FM-12+051599999V0201801N001012200019N0020001N1+02401+01711101271ADDAY101031AY201031GA1001+999999999GF100991001001999999001001IA1019MA1999999095701MD1210141-0151MW1051REMSYN088AAXX  22031 76393 31920 01801 10240 20171 39570 40127 52014 70500 90250 333 30/// 59015;
0251763930999992010112206004+25733-100300FM-12+051599999V0201001N001012200019N0020001N1+02041+01681101261ADDAY101061AY201061GA1001+999999999GF100991001001999999001001GJ105109IA1019KA1240M+03001KA2240N+01521MA1999999095691MD1710011-0201MW1051REMSYN106AAXX  22061 76393 31920 01001 10204 20168 39569 40126 57001 70500 90550 333 10300 20152 30/// 55085 59020;
0217763930999992010112209004+25733-100300FM-12+051599999V0200501N001010009019N0020001N1+01861+01771101261ADDAY141031AY201031GA1081+000901061GF108991081051000751999999IA1019MA1999999095641MD1410001-0191MW1051REMSYN106AAXX  22091 76393 31120 80501 10186 20177 39564 40126 54005 70540 885// 90855 333 0/399 30/// 59019 88603;
0161763930999992010112212004+25733-100300FM-12+051599999V0200901N001010012019N0010001N1+01941+01761101291ADDAY141061AY221061GF108991081051001501999999MA1999999095631MD1410001+9999MW1051REMSYN072AAXX  22121 76393 31210 80901 10194 20176 39563 40129 54001 70542 885//;
0161763930999992010112218004+25733-100300FM-12+051599999V0201301N001012200019N0006001N1+02801+01671101301ADDAY141061AY221061GF104991041061012501001001MA1999999095631MD1710121+9999MW1041REMSYN072AAXX  22181 76393 31606 41301 10280 20167 39563 40130 57012 70442 84600;
0199763930999992010112221004+25733-100300FM-12+051599999V0201101N002012200019N0010001N1+03221+01761100921ADDAY141031AY241031GA1001+999999999GF100991001001999999001001IA1019MA1999999095341MD1710291-0211MW1051REMSYN088AAXX  22211 76393 31910 01102 10322 20176 39534 40092 57029 70544 92050 333 30/// 59021;
0161763930999992010112300004+25733-100300FM-12+051599999V0201201N002012200019N0020001N1+02851+01631100971ADDAY141061AY241061GF101991001001999999001011MA1999999095431MD1210091+9999MW1041REMSYN072AAXX  23001 76393 31920 11202 10285 20163 39543 40097 52009 70444 80001;
0218763930999992010112303004+25733-100300FM-12+051599999V0200901N001012200019N0020001N1+02501+01661101531ADDAY101031AY201031GA1001+999999999GF100991001001999999001001IA1019MA1999999095991MD1210562+0291MW1051REMSYN088AAXX  23031 76393 31920 00901 10250 20166 39599 40153 52056 70500 90250 333 30/// 58029;EQDQ01+000562APC3  
0251763930999992010112306004+25733-100300FM-12+051599999V0209999C000012200019N0020001N1+02181+01631101181ADDAY101061AY201061GA1001+999999999GF100991001001999999001001GJ105529IA1019KA1240M+03321KA2240N+01761MA1999999095641MD1210051-0051MW1051REMSYN106AAXX  23061 76393 31920 00000 10218 20163 39564 40118 52005 70500 90550 333 10332 20176 30/// 55092 59005;
0199763930999992010112309004+25733-100300FM-12+051599999V0200501N001012200019N0020001N1+01921+01741101351ADDAY141031AY201031GA1001+999999999GF100991001001999999001001IA1019MA1999999095561MD1410001-0081MW1051REMSYN088AAXX  23091 76393 31920 00501 10192 20174 39556 40135 54008 70540 90855 333 30/// 59008;
0161763930999992010112312004+25733-100300FM-12+051599999V0200201N001012200019N0020001N1+01821+01601101311ADDAY141061AY211061GF104991041051002501001001MA1999999095571MD1610151+9999MW1051REMSYN072AAXX  23121 76393 31320 40201 10182 20160 39557 40131 56015 70541 84500;
0217763930999992010112315004+25733-100300FM-12+051599999V0202701N001010033019N0006001N1+01981+01711101421ADDAY141031AY231031GA1071+003301061GF107991071051004501999999IA1019MA1999999095731MD1210161-0021MW1041REMSYN106AAXX  23151 76393 31406 72701 10198 20171 39573 40142 52016 70443 875// 91440 333 0/3// 30/// 59002 87611;
0161763930999992010112318004+25733-100300FM-12+051599999V0200401N001012200019N0006001N1+02621+01751101391ADDAY141061AY221061GF105991021061008001001011MA1999999095701MD1710031+9999MW1041REMSYN072AAXX  23181 76393 31506 50401 10262 20175 39570 40139 57003 70442 82601;
0195763930999992010112321004+25733-100300FM-12+051599999V0200901N002012200019N0008001N1+02831+01861101041ADDAY141031AY241031GF101991001001999999001011IA1019MA1999999095421MD1710281+0081MW1051REMSYN100AAXX  23211 76393 31908 10902 10283 20186 39542 40104 57028 70544 80001 92050 333 0/005 30/// 58008;
0161763930999992010112400004+25733-100300FM-12+051599999V0200901N001012200019N0020001N1+02651+01751101051ADDAY141061AY241061GF101991011011008001001001MA1999999095451MD1210031+9999MW1051REMSYN072AAXX  24001 76393 31520 10901 10265 20175 39545 40105 52003 70544 81100;
0217763930999992010112403004+25733-100300FM-12+051599999V0202301N001012200019N0010001N1+02341+01901101101ADDAY141031AY201031GA1031+006301061GF103991031041008001001001IA1019MA1999999095531MD1210081-0061MW1051REMSYN106AAXX  24031 76393 31510 32301 10234 20190 39553 40110 52008 70540 83400 90255 333 0/300 30/// 59006 83621;
0161763930999992010112406004+25733-100300FM-12+051599999V0200601N001012200019N0010001N1+02161+01901101101ADDAY141061AY241061GF101991011041004501001001MA1999999095531MD1410001+9999MW1051REMSYN072AAXX  24061 76393 31410 10601 10216 20190 39553 40110 54000 70544 81400;
0190763930999992010112409004+25733-100300FM-12+051599999V0200901N001010012019N0020001N1+02001+01881100991ADDAY141031AY211031GA1061+001201061GF106991061061002501001001IA1019MD1999999-0171MW1051REMSYN094AAXX  24091 76393 31320 60901 10200 20188 40099 70541 86600 90855 333 0/300 30/// 59017 86604;
0161763930999992010112412004+25733-100300FM-12+051599999V0200901N001010012019N0020001N1+02021+01901100911ADDAY141061AY221061GF108991081061001501999999MA1999999095281MD1610111+9999MW1051REMSYN072AAXX  24121 76393 31220 80901 10202 20190 39528 40091 56011 70542 886//;
0217763930999992010112415004+25733-100300FM-12+051599999V0200901N001010051019N0008001N1+02201+01781101031ADDAY121031AY221031GA1081+005101061GF108991081051999999999999IA1019MA1999999095381MD1210181-0351MW1051REMSYN106AAXX  24151 76393 31908 80901 10220 20178 39538 40103 52018 70522 885// 91440 333 0/3// 30/// 59035 88617;
0161763930999992010112418004+25733-100300FM-12+051599999V0201001N002012200019N0010001N1+02541+01811100921ADDAY141061AY241061GF104991041061008001001001MA1999999095301MD1710051+9999MW1051REMSYN072AAXX  24181 76393 31510 41002 10254 20181 39530 40092 57005 70544 84600;
0199763930999992010112421004+25733-100300FM-12+051599999V0201101N002012200019N0010001N1+02861+01911100491ADDAY141031AY241031GA1001+999999999GF100991001001999999001001IA1019MA1999999094911MD1710381-0511MW1051REMSYN088AAXX  24211 76393 31910 01102 10286 20191 39491 40049 57038 70544 92050 333 30/// 59051;
0161763930999992010112500004+25733-100300FM-12+051599999V0202501N001012200019N0020001N1+02641+01721100391ADDAY141061AY241061GF102991001001999999001011MA1999999094861MD1710051+9999MW1051REMSYN072AAXX  25001 76393 31920 22501 10264 20172 39486 40039 57005 70544 80001;
0199763930999992010112503004+25733-100300FM-12+051599999V0201001N001012200019N0020001N1+02441+01731100451ADDAY101031AY201031GA1001+999999999GF100991001001999999001001IA1019MA1999999094931MD1210071-0601MW1051REMSYN088AAXX  25031 76393 31920 01001 10244 20173 39493 40045 52007 70500 90250 333 30/// 59060;
0251763930999992010112506004+25733-100300FM-12+051599999V0200901N001012200019N0020001N1+02121+01731100471ADDAY101061AY201061GA1001+999999999GF100991001001999999001001GJ104389IA1019KA1240M+02991KA2240N+01721MA1999999094931MD1410001-0601MW1051REMSYN106AAXX  25061 76393 31920 00901 10212 20173 39493 40047 54000 70500 90550 333 10299 20172 30/// 55073 59060;
0199763930999992010112509004+25733-100300FM-12+051599999V0200601N001012200019N0010001N1+01841+01691100421ADDAY141031AY241031GA1001+999999999GF100991001001999999001001IA1019MA1999999094851MD1710081-0541MW1051REMSYN088AAXX  25091 76393 31910 00601 10184 20169 39485 40042 57008 70544 90855 333 30/// 59054;
0273763930999992010112512004+25733-100300FM-12+051599999V0203301N001012200019N0010001N1+01821+01641100481ADDAA124000091AY141061AY241061GA1001+999999999GF100991001001999999001001IA1019KA1240M+02991KA2120N+01801MA1999999094861MD1510011-0421MW1051REMSYN106AAXX  25121 76393 31910 03301 10182 20164 39486 40048 55001 70544 91150 333 10299 20180 30154 59042 70000;EQDQ01  00002PRCP24
0217763930999992010112515004+25733-100300FM-12+051599999V0201401N001010600019N0010001N1+02161+01481100611ADDAY141031AY221031GA1051+060001001GF105991001001999999001011IA1019MA1999999094951MD1210091-0431MW1041REMSYN106AAXX  25151 76393 31910 51401 10216 20148 39495 40061 52009 70442 80001 91440 333 0/005 30/// 59043 85070;
0161763930999992010112518004+25733-100300FM-12+051599999V0201001N002019999999N0020001N1+02921+01611100591ADDAY141061AY241061GF107991001001999999001011MA1999999094971MD1010021+9999MW1051REMSYN072AAXX  25181 76393 31920 71002 10292 20161 39497 40059 50002 70544 80001;
0217763930999992010112521004+25733-100300FM-12+051599999V0201101N003010600019N0010001N1+03271+01671100271ADDAY141031AY241031GA1071+060001001GF107991001001999999001061IA1019MA1999999094721MD1710251-0191MW1051REMSYN106AAXX  25211 76393 31910 71103 10327 20167 39472 40027 57025 70544 80006 92050 333 0/005 30/// 59019 87070;
0195763930999992010112603004+25733-100300FM-12+051599999V0202801N001012200019N0020001N1+02381+01591100551ADDAY101031AY201031GF103991031001999999011001IA1019MA1999999095071MD1210271+0141MW1051REMSYN100AAXX  26031 76393 31920 32801 10238 20159 39507 40055 52027 70500 83010 90250 333 0/050 30/// 58014;
0161763930999992010112606004+25733-100300FM-12+051599999V0200601N001012200019N0020001N1+02341+01651100911ADDAY101061AY201061GF103991031001999999011001MA1999999095391MD1210321+9999MW1051REMSYN072AAXX  26061 76393 31920 30601 10234 20165 39539 40091 52032 70500 83010;
0217763930999992010112609004+25733-100300FM-12+051599999V0200501N003010087019N0020001N1+01601+00731101341ADDAY141031AY221031GA1061+008701061GF106991061051008001001001IA1019MA1999999095741MD1210351-0111MW1051REMSYN106AAXX  26091 76393 31520 60503 10160 20073 39574 40134 52035 70542 86500 90855 333 0/300 30/// 59011 86629;
0161763930999992010112612004+25733-100300FM-12+051599999V0200201N007010075019N0020001N1+01341+00391101731ADDAY141061AY211061GF108991081051008001999999MA1999999096021MD1210281+9999MW1051REMSYN072AAXX  26121 76393 31520 80207 10134 20039 39602 40173 52028 70541 885//;
0217763930999992010112615004+25733-100300FM-12+051599999V0203601N002010450019N0030001N1+01301-00341102261ADDAY121031AY221031GA1081+045001031GF108991081001999999061999IA1019MA1999999096461MD1210441+1511MW1051REMSYN106AAXX  26151 76393 31930 83602 10130 21034 39646 40226 52044 70522 8806/ 91440 333 0/05/ 30/// 58151 88365;
0161763930999992010112618004+25733-100300FM-12+051599999V0200501N002019999999N0030001N1+01681-00221102371ADDAY121061AY221061GF106991061001999999071999MA1999999096531MD1010071+9999MW1051REMSYN072AAXX  26181 76393 31930 60502 10168 21022 39653 40237 50007 70522 8607/;
0199763930999992010112621004+25733-100300FM-12+051599999V0200301N002012200019N0030001N1+02061-00261102111ADDAY141031AY241031GA1001+999999999GF100991001001999999001001IA1019MA1999999096301MD1710231+1581MW1051REMSYN088AAXX  26211 76393 31930 00302 10206 21026 39630 40211 57023 70544 92050 333 30/// 58158;
0161763930999992010112700004+25733-100300FM-12+051599999V0200401N002012200019N0030001N1+01681-00191102161ADDAY141061AY241061GF101991001001999999001011MA1999999096371MD1210071+9999MW1041REMSYN072AAXX  27001 76393 31930 10402 10168 21019 39637 40216 52007 70444 80001;
0199763930999992010112715004+25733-100300FM-12+051599999V0201601N001012200019N0030001N1+01201-00121102541ADDAY101031AY201031GA1001+999999999GF100991001001999999001001IA1019MA1999999096601MD1210111-0141MW1051REMSYN088AAXX  27151 76393 31930 01601 10120 21012 39660 40254 52011 70500 91440 333 30/// 59014;
0273763930999992010112812004+25733-100300FM-12+051599999V0203201N001012200019N0020001N1+00801+00101101451ADDAA124000091AY141061AY201061GA1001+999999999GF100991001001999999001001IA1019KA1240M+02001KA2120N+00781MA1999999095601MD1610121-0891MW1051REMSYN106AAXX  28121 76393 31920 03201 10080 20010 39560 40145 56012 70540 91155 333 10200 20078 30056 59089 70000;EQDQ01  00002PRCP24
0199763930999992010112815004+25733-100300FM-12+051599999V0203001N002012200019N0020001N1+01141+00231101531ADDAY141031AY241031GA1001+999999999GF100991001001999999001001IA1019MA1999999095651MD1210031-0951MW1051REMSYN088AAXX  28151 76393 31920 03002 10114 20023 39565 40153 52003 70544 91455 333 30/// 59095;
0237763930999992010112818004+25733-100300FM-12+051599999V0202201N001012200019N0030001N1+01781+00791101341ADDAY141061AY241061GA1001+999999999GF100991001001999999001001IA1019KA1120M+01881KA2240N+00781MA1999999095481MD1710171-0981MW1051REMSYN100AAXX  28181 76393 31930 02201 10178 20079 39548 40134 57017 70544 91755 333 10188 20078 30/// 59098;
0199763930999992010112821004+25733-100300FM-12+051599999V0201201N002012200019N0020001N1+02291+00591100791ADDAY141031AY241031GA1001+999999999GF100991001001999999001001IA1019MA1999999095021MD1710461-1121MW1051REMSYN088AAXX  28211 76393 31920 01202 10229 20059 39502 40079 57046 70544 92050 333 30/// 59112;
0161763930999992010112900004+25733-100300FM-12+051599999V0202301N001012200019N0020001N1+02121+00751100661ADDAY141061AY241061GF101991001001999999001011MA1999999094961MD1710061+9999MW1051REMSYN072AAXX  29001 76393 31920 12301 10212 20075 39496 40066 57006 70544 80001;
0199763930999992010112903004+25733-100300FM-12+051599999V0201701N001012200019N0020001N1+01741+00941100651ADDAY101031AY201031GA1001+999999999GF100991001001999999001001IA1019MA1999999094991MD1210031-1031MW1051REMSYN088AAXX  29031 76393 31920 01701 10174 20094 39499 40065 52003 70500 90250 333 30/// 59103;
0199763930999992010112909004+25733-100300FM-12+051599999V0202701N001012200019N0020001N1+01381+00761100571ADDAY141031AY201031GA1001+999999999GF100991001001999999001001IA1019MA1999999094891MD1610101-0831MW1051REMSYN088AAXX  29091 76393 31920 02701 10138 20076 39489 40057 56010 70540 90855 333 30/// 59083;
0273763930999992010112912004+25733-100300FM-12+051599999V0202701N001012200019N0020001N1+01321+00771100521ADDAA124000091AY141061AY201061GA1001+999999999GF100991001001999999001001IA1019KA1240M+02401KA2120N+01101MA1999999094801MD1410001-0801MW1051REMSYN106AAXX  29121 76393 31920 02701 10132 20077 39480 40052 54009 70540 91155 333 10240 20110 30102 59080 70000;EQDQ01  00002PRCP24
0217763930999992010112915004+25733-100300FM-12+051599999V0201901N002012200019N0030001N1+02081+00741100791ADDAY111031AY211031GA1041+045001031GF104991041001999999041001IA1019MA1999999095011MD1210211-0641MW1051REMSYN106AAXX  29151 76393 31930 41902 10208 20074 39501 40079 52021 70511 84040 91440 333 0/050 30/// 59064 84365;
0161763930999992010112918004+25733-100300FM-12+051599999V0200601N001019999999N0030001N1+03161+00601100631ADDAY121061AY221061GF107991001001999999001041MA1999999094961MD1710051+9999MW1051REMSYN072AAXX  29181 76393 31930 70601 10316 20060 39496 40063 57005 70522 80004;
0195763930999992010112921004+25733-100300FM-12+051599999V0201201N003012200019N0030001N1+03511+00341100281ADDAY141031AY241031GF101991001001999999001011IA1019MA1999999094701MD1710291-0321MW1051REMSYN100AAXX  29211 76393 31930 11203 10351 20034 39470 40028 57029 70544 80001 92050 333 0/005 30/// 59032;
0161763930999992010113000004+25733-100300FM-12+051599999V0200901N002012200019N0030001N1+02641+01291100301ADDAY141061AY241061GF101991001001999999001011MA1999999094811MD1210111+9999MW1051REMSYN072AAXX  30001 76393 31930 10902 10264 20129 39481 40030 52011 70544 80001;
0199763930999992010113003004+25733-100300FM-12+051599999V0209999C000012200019N0020001N1+02101+01191100631ADDAY101031AY201031GA1001+999999999GF100991001001999999001001IA1019MA1999999095141MD1210331+0151MW1051REMSYN088AAXX  30031 76393 31920 00000 10210 20119 39514 40063 52033 70500 90250 333 30/// 58015;
0251763930999992010113006004+25733-100300FM-12+051599999V0200501N005012200019N0020001N1+01921+00921101081ADDAY101061AY201061GA1001+999999999GF100991001001999999001001GJ105529IA1019KA1240M+03561KA2240N+01101MA1999999095541MD1210401+0551MW1051REMSYN106AAXX  30061 76393 31920 00505 10192 20092 39554 40108 52040 70500 90550 333 10356 20110 30/// 55092 58055;
0199763930999992010113009004+25733-100300FM-12+051599999V0200401N006012200019N0020001N1+01581-00081101601ADDAY141031AY201031GA1001+999999999GF100991001001999999001001IA1019MA1999999095951MD1210411+1061MW1051REMSYN088AAXX  30091 76393 31920 00406 10158 21008 39595 40160 52041 70540 90855 333 30/// 58106;
0161763930999992010113012004+25733-100300FM-12+051599999V0200501N001010006019N0020001N1+01321-00571101141ADDAY141061AY201061GF108991081051000751999999MA1999999095411MD1710541+9999MW1051REMSYN072AAXX  30121 76393 31120 80501 10132 21057 39541 40114 57054 70540 885//;
0258763930999992010113015004+25733-100300FM-12+051599999V0203601N005012200019N0030001N1+01281-00751102642ADDAY111031AY211031GA1031+030001031GF104991031001999999071041IA1019MA1999999096802MD1210411+0791MW1051REMSYN112AAXX  30151 76393 31930 43605 10128 21075 39680 40264 52041 70511 83074 91440 333 0/055 30/// 58079 83360 81070;EQDQ01+096803APOSP Q02+102643APOSLP
0161763930999992010113018004+25733-100300FM-12+051599999V0203601N005012200019N0030001N1+01821-00371102681ADDAY101061AY201061GF101991001001999999001011MA1999999096811MD1010011+9999MW1051REMSYN072AAXX  30181 76393 31930 13605 10182 21037 39681 40268 50001 70500 80001;
0199763930999992010113021004+25733-100300FM-12+051599999V0200101N003012200019N0030001N1+01881-00401102481ADDAY141031AY241031GA1001+999999999GF100991001001999999001001IA1019MA1999999096641MD1710171+1941MW1051REMSYN088AAXX  30211 76393 31930 00103 10188 21040 39664 40248 57017 70544 92050 333 30/// 58194;
0279763930999992010120100004+25733-100300FM-12+051599999V0200201N001012200019N0030001N1+01601-00501102641ADDAA124000091AY141061AY241061GA1001+999999999GF100991001001999999001001IA1019KA1120M+02011KA2180N+01201MA1999999096811MD1210171+2001MW1051REMSYN112AAXX  01001 76393 31930 00201 10160 21050 39681 40264 52017 70544 92350 333 10201 20120 30/// 50871 58200 70000;EQDQ01  00002PRCP24
0199763930999992010120103004+25733-100300FM-12+051599999V0200401N001012200019N0020001N1+01181-00211102891ADDAY141031AY241031GA1001+999999999GF100991001001999999001001IA1019MA1999999097041MD1210231+1901MW1051REMSYN088AAXX  01031 76393 31920 00401 10118 21021 39704 40289 52023 70544 90255 333 30/// 58190;
0285763930999992010120112004+25733-100300FM-12+051599999V0209999C000012200019N0020001N1+00841-00121102901ADDAA124000091AY141061AY201061GA1001+999999999GF100991001001999999001001IA1019IA2999+00469KA1240M+02011KA2120N+00721MA1999999096931MD1410001+0541MW1051REMSYN106AAXX  01121 76393 31920 00000 10084 21012 39693 40290 54005 70540 91155 333 10201 20072 30046 58054 70000;EQDQ01  00002PRCP24
0199763930999992010120115004+25733-100300FM-12+051599999V0202601N001012200019N0030001N1+01201-00181102991ADDAY101031AY201031GA1001+999999999GF100991001001999999001001IA1019MA1999999097011MD1210081+0211MW1051REMSYN088AAXX  01151 76393 31930 02601 10120 21018 39701 40299 52008 70500 91440 333 30/// 58021;
0237763930999992010120118004+25733-100300FM-12+051599999V0200901N003012200019N0030001N1+01621-00471102791ADDAY101061AY201061GA1001+999999999GF100991001001999999001001IA1019KA1120M+02021KA2240N+01201MA1999999096841MD1710111+0031MW1051REMSYN100AAXX  01181 76393 31930 00903 10162 21047 39684 40279 57011 70500 91740 333 10202 20120 30/// 58003;
0199763930999992010120121004+25733-100300FM-12+051599999V0201001N002012200019N0030001N1+01981-00021102341ADDAY141031AY241031GA1001+999999999GF100991001001999999001001IA1019MA1999999096471MD1710371-0171MW1051REMSYN088AAXX  01211 76393 31930 01002 10198 21002 39647 40234 57037 70544 92050 333 30/// 59017;
0279763930999992010120200004+25733-100300FM-12+051599999V0200901N003012200019N0030001N1+01701-00191102181ADDAA124000091AY141061AY241061GA1001+999999999GF100991001001999999001001IA1019KA1120M+02031KA2180N+00721MA1999999096371MD1710101-0441MW1051REMSYN112AAXX  02001 76393 31930 00903 10170 21019 39637 40218 57010 70544 92350 333 10203 20072 30/// 51351 59044 70000;EQDQ01  00002PRCP24
0199763930999992010120203004+25733-100300FM-12+051599999V0202701N001012200019N0020001N1+01301+00131102231ADDAY101031AY201031GA1001+999999999GF100991001001999999001001IA1019MA1999999096431MD1210061-0611MW1051REMSYN088AAXX  02031 76393 31920 02701 10130 20013 39643 40223 52006 70500 90250 333 30/// 59061;
0285763930999992010120212004+25733-100300FM-12+051599999V0202801N001012200019N0020001N1+00841+00301102231ADDAA124000091AY141061AY241061GA1001+999999999GF100991001001999999001001IA1019IA2999+00509KA1240M+02031KA2120N+00641MA1999999096331MD1510001-0601MW1051REMSYN106AAXX  02121 76393 31920 02801 10084 20030 39633 40223 55000 70544 91155 333 10203 20064 30050 59060 70000;EQDQ01  00002PRCP24
0199763930999992010120215004+25733-100300FM-12+051599999V0203401N001012200019N0010001N1+01301+00021102381ADDAY101031AY201031GA1001+999999999GF100991001001999999001001IA1019MA1999999096451MD1210121+9999MW1051REMSYN088AAXX  02151 76393 31910 03401 10130 20002 39645 40238 52012 70500 91440 333 30/// 50050;
0237763930999992010120218004+25733-100300FM-12+051599999V0200601N001012200019N0010001N1+02001+00321102301ADDAY101061AY201061GA1001+999999999GF100991001001999999001001IA1019KA1120M+02141KA2240N+00641MA1999999096401MD1710051-0441MW1051REMSYN100AAXX  02181 76393 31910 00601 10200 20032 39640 40230 57005 70500 91740 333 10214 20064 30/// 59044;
0279763930999992010120300004+25733-100300FM-12+051599999V0200901N002012200019N0020001N1+02171+00461101931ADDAA124000091AY141061AY241061GA1001+999999999GF100991001001999999001001IA1019KA1120M+02491KA2180N+00641MA1999999096181MD1210041-0191MW1051REMSYN112AAXX  03001 76393 31920 00902 10217 20046 39618 40193 52004 70544 92350 333 10249 20064 30/// 50221 59019 70000;EQDQ01  00002PRCP24
0199763930999992010120303004+25733-100300FM-12+051599999V0202601N001012200019N0020001N1+01621+00381102061ADDAY101031AY201031GA1001+999999999GF100991001001999999001001IA1019MA1999999096351MD1210171-0081MW1051REMSYN088AAXX  03031 76393 31920 02601 10162 20038 39635 40206 52017 70500 90250 333 30/// 59008;
0267763930999992010120312004+25733-100300FM-12+051599999V0202401N001012200019N0020001N1+01081+00451102041ADDAA124000091AY141061AY201061GA1001+999999999GF100991001001999999001001IA1019KA1240M+02491KA2120N+00891MA1999999096201MD1410001+9999MW1051REMSYN100AAXX  03121 76393 31920 02401 10108 20045 39620 40204 54003 70540 91155 333 10249 20089 30072 70000;EQDQ01  00002PRCP24
0199763930999992010120315004+25733-100300FM-12+051599999V0201901N001012200019N0010001N1+01601+00351102231ADDAY101031AY201031GA1001+999999999GF100991001001999999001001IA1019MA1999999096351MD1210151+0101MW1051REMSYN088AAXX  03151 76393 31910 01901 10160 20035 39635 40223 52015 70500 91440 333 30/// 58010;
0237763930999992010120318004+25733-100300FM-12+051599999V0200501N003012200019N0010001N1+02261+00621102131ADDAY101061AY201061GA1001+999999999GF100991001001999999001001IA1019KA1120M+02381KA2240N+00891MA1999999096281MD1210071+0121MW1071REMSYN100AAXX  03181 76393 31910 00503 10226 20062 39628 40213 52007 70700 91740 333 10238 20089 30/// 58012;
0199763930999992010120321004+25733-100300FM-12+051599999V0200901N002012200019N0010001N1+02601+00651101701ADDAY141031AY241031GA1001+999999999GF100991001001999999001001IA1019MA1999999095951MD1710331-0191MW1051REMSYN088AAXX  03211 76393 31910 00902 10260 20065 39595 40170 57033 70544 92050 333 30/// 59019;
0279763930999992010120400004+25733-100300FM-12+051599999V0202601N001012200019N0020001N1+02231+00671101651ADDAA124000091AY141061AY241061GA1001+999999999GF100991001001999999001001IA1019KA1120M+02681KA2180N+00891MA1999999095971MD1210021-0211MW1051REMSYN112AAXX  04001 76393 31920 02601 10223 20067 39597 40165 52002 70544 92350 333 10268 20089 30/// 50441 59021 70000;EQDQ01  00002PRCP24
0273763930999992010120412004+25733-100300FM-12+051599999V0202201N001012200019N0020001N1+01261+00621101591ADDAA124000091AY141061AY201061GA1001+999999999GF100991001001999999001001IA1019KA1240M+02681KA2120N+01121MA1999999096331MD1210411+0131MW1051REMSYN106AAXX  04121 76393 31920 02201 10126 20062 39633 40159 52041 70540 91155 333 10268 20112 30090 58013 70000;EQDQ01  00002PRCP24
0217763930999992010120415004+25733-100300FM-12+051599999V0202601N002012200019N0020001N1+01701+00381101771ADDAY101031AY201031GA1011+060001001GF101991001001999999001011IA1019MA1999999095951MD1210141-0401MW1071REMSYN106AAXX  04151 76393 31920 12602 10170 20038 39595 40177 52014 70700 80001 91440 333 30/// 56005 59040 81070;
0237763930999992010120418004+25733-100300FM-12+051599999V0200901N002012200019N0020001N1+02601+00551101711ADDAY101061AY201061GA1001+999999999GF100991001001999999001001IA1019KA1120M+02741KA2240N+01121MA1999999095931MD1710021-0351MW1071REMSYN100AAXX  04181 76393 31920 00902 10260 20055 39593 40171 57002 70700 91740 333 10274 20112 30/// 59035;
0279763930999992010120500004+25733-100300FM-12+051599999V0200601N002012200019N0030001N1+02561+00921101461ADDAA124000091AY101061AY201061GA1001+999999999GF100991001001999999001001IA1019KA1120M+03141KA2180N+01121MA1999999095831MD1210131-0141MW1051REMSYN112AAXX  05001 76393 31930 00602 10256 20092 39583 40146 52013 70500 92350 333 10314 20112 30/// 50491 59014 70000;EQDQ01  00002PRCP24
0199763930999992010120503004+25733-100300FM-12+051599999V0202101N001012200019N0020001N1+02101+00861101681ADDAY101031AY201031GA1001+999999999GF100991001001999999001001IA1019MA1999999096071MD1210241-0011MW1051REMSYN088AAXX  05031 76393 31920 02101 10210 20086 39607 40168 52024 70500 90250 333 30/// 59001;
0273763930999992010120512004+25733-100300FM-12+051599999V0201001N001012200019N0020001N1+01401+00171102171ADDAA124000091AY141061AY201061GA1001+999999999GF100991001001999999001001IA1019KA1240M+03141KA2120N+01281MA1999999096391MD1310141+0581MW1051REMSYN106AAXX  05121 76393 31920 01001 10140 20017 39639 40217 53014 70540 91155 333 10314 20128 30092 58058 70000;EQDQ01  00002PRCP24
0199763930999992010120515004+25733-100300FM-12+051599999V0200301N002012200019N0030001N1+01441+00431102501ADDAY141031AY241031GA1001+999999999GF100991001001999999001001IA1019MA1999999096651MD1210251+0801MW1051REMSYN088AAXX  05151 76393 31930 00302 10144 20043 39665 40250 52025 70544 91455 333 30/// 58080;
0255763930999992010120518004+25733-100300FM-12+051599999V0203501N001012200019N0030001N1+01801+00441102511ADDAY141061AY201061GA1021+018001031GF102991021001017501041001IA1019KA1120M+01961KA2240N+01281MA1999999096671MD1010021+0741MW1051REMSYN118AAXX  05181 76393 31730 23501 10180 20044 39667 40251 50002 70540 82040 91755 333 10196 20128 30/// 56030 58074 82356;
0217763930999992010120521004+25733-100300FM-12+051599999V0200501N003012200019N0030001N1+02091+00681102241ADDAY141031AY241031GA1011+015001061GF102991011051012501001011IA1019MA1999999096441MD1710241+0741MW1041REMSYN106AAXX  05211 76393 31630 20503 10209 20068 39644 40224 57024 70444 81501 92050 333 30/// 56305 58074 81650;
0262763930999992010120600004+25733-100300FM-12+051599999V0201201N004010120019N0030001N1+01701+00551102411ADDAA124000091AY141061AY241061GF107991061051012501001011IA1019KA1120M+02261KA2180N+01281MA1999999096621MD1210181+0791MW1051REMSYN130AAXX  06001 76393 31630 71204 10170 20055 39662 40241 52018 70544 86501 92350 333 10226 20128 30/// 50401 56305 58079 70000 86636;
0217763930999992010120603004+25733-100300FM-12+051599999V0200901N001010114019N0020001N1+01561+00641102621ADDAY121031AY221031GA1081+011401061GF108991081051012501999999IA1019MA1999999096831MD1210211+0761MW1051REMSYN106AAXX  06031 76393 31620 80901 10156 20064 39683 40262 52021 70522 885// 90250 333 30/// 563// 58076 88638;
0161763930999992010120612004+25733-100300FM-12+051599999V0203601N003010120019N0020001N1+01241+00211102821ADDAY141061AY221061GF108991081051012501999999MA1999999096941MD1410001+9999MW1051REMSYN072AAXX  06121 76393 31620 83603 10124 20021 39694 40282 54008 70542 885//;
0217763930999992010120615004+25733-100300FM-12+051599999V0200401N002010450019N0030001N1+01161+00151103091ADDAY121031AY221031GA1081+045001031GF108991081001999999071999IA1019MA1999999097171MD1210241+0721MW1051REMSYN106AAXX  06151 76393 31930 80402 10116 20015 39717 40309 52024 70522 8807/ 91440 333 30/// 5605/ 58072 88365;
0274763930999992010120618004+25733-100300FM-12+051599999V0200301N001010450019N0030001N1+01261+00241103101ADDAY121061AY221061GA1081+045001031GF108991081001999999071999IA1019KA1120M+01341KA2240N+01121MA1999999097171MD1610011+0491MW1051REMSYN118AAXX  06181 76393 31930 80301 10126 20024 39717 40310 56000 70522 8807/ 91740 333 10134 20112 30/// 5605/ 58049 88365;EQDQ01+000002APC3  
0211763930999992010120621004+25733-100300FM-12+051599999V0200901N002010120019N0030001N1+01571+00361102731ADDAY141031AY241031GA1061+012001061GF106991061051012501001001IA1019MA1999999096831MD1710341+0391MW1051REMSYN100AAXX  06211 76393 31630 60902 10157 20036 39683 40273 57034 70544 86500 92050 333 30/// 58039 86640;
0262763930999992010120700004+25733-100300FM-12+051599999V0200901N003012200019N0030001N1+01381+00441102651ADDAA124000091AY141061AY241061GF104991041051008001001001IA1019KA1120M+01771KA2180N+01121MA1999999096771MD1710061+0151MW1051REMSYN130AAXX  07001 76393 31530 40903 10138 20044 39677 40265 57006 70544 84500 92350 333 10177 20112 30/// 50421 56300 58015 70000 84631;
0217763930999992010120703004+25733-100300FM-12+051599999V0200801N002012200019N0020001N1+01121+00451102671ADDAY101031AY201031GA1031+008101061GF103991031051008001001001IA1019MA1999999096781MD1210011-0051MW1051REMSYN106AAXX  07031 76393 31520 30802 10112 20045 39678 40267 52001 70500 83500 90250 333 30/// 56300 59005 83627;
0251763930999992010120706004+25733-100300FM-12+051599999V0200901N001012200019N0020001N1+00901+00631102521ADDAY101061AY201061GA1001+999999999GF100991001001999999001001GJ101629IA1019KA1240M+01771KA2240N+00901MA1999999096631MD1710151-0331MW1051REMSYN106AAXX  07061 76393 31920 00901 10090 20063 39663 40252 57015 70500 90550 333 10177 20090 30/// 55027 59033;
0199763930999992010120709004+25733-100300FM-12+051599999V0200701N001012200019N0030001N1+00841+00391102371ADDAY141031AY221031GA1001+999999999GF100991001001999999001001IA1019MA1999999096451MD1610181-0451MW1051REMSYN088AAXX  07091 76393 31930 00701 10084 20039 39645 40237 56018 70542 90555 333 30/// 59045;
0273763930999992010120712004+25733-100300FM-12+051599999V0201801N001012200019N0030001N1+00801+00431102241ADDAA124000091AY141061AY201061GA1001+999999999GF100991001001999999001001IA1019KA1240M+01771KA2120N+00801MA1999999096301MD1610151-0631MW1051REMSYN106AAXX  07121 76393 31930 01801 10080 20043 39630 40224 56015 70540 91155 333 10177 20080 30060 59063 70000;EQDQ01  00002PRCP24
0217763930999992010120715004+25733-100300FM-12+051599999V0201301N001012200019N0020001N1+01201+00591102211ADDAY111031AY211031GA1031+036001031GF104991031001999999071011IA1019MA1999999096271MD1010031-0901MW1071REMSYN106AAXX  07151 76393 31920 41301 10120 20059 39627 40221 50003 70711 83071 91440 333 30/// 56055 59090 83362;
0255763930999992010120718004+25733-100300FM-12+051599999V0200501N002010600019N0020001N1+01741+00781102031ADDAY121061AY221061GA1061+060001001GF106991001001999999001041IA1019KA1120M+01781KA2240N+00801MA1999999096131MD1710141-1041MW1051REMSYN118AAXX  07181 76393 31920 60502 10174 20078 39613 40203 57014 70522 80004 91740 333 10178 20080 30/// 56005 59104 86070;
0195763930999992010120721004+25733-100300FM-12+051599999V0200901N002012200019N0030001N1+01971+00931101531ADDAY141031AY241031GF102991011001022501031011IA1019MA1999999095701MD1710431-1131MW1051REMSYN100AAXX  07211 76393 31830 20902 10197 20093 39570 40153 57043 70544 81031 92050 333 30/// 56055 59113;
0245763930999992010120800004+25733-100300FM-12+051599999V0200601N001012200019N0030001N1+01961+01021101431ADDAY141061AY241061GF102991001001999999001011IA1019KA1120M+02111KA2180N+00801MA1999999095661MD1710041-1111MW1051REMSYN124AAXX  08001 76393 31930 20601 10196 20102 39566 40143 57004 70544 80001 92350 333 10211 20080 30/// 50301 56005 59111 70000;
0199763930999992010120803004+25733-100300FM-12+051599999V0203101N001012200019N0020001N1+01621+01001101531ADDAY141031AY241031GA1001+999999999GF100991001001999999001001IA1019MA1999999095801MD1210141-0981MW1051REMSYN088AAXX  08031 76393 31920 03101 10162 20100 39580 40153 52014 70544 90250 333 30/// 59098;
0251763930999992010120806004+25733-100300FM-12+051599999V0202101N001012200019N0020001N1+01481+01071101851ADDAY141061AY241061GA1001+999999999GF100991001001999999001001GJ104209IA1019KA1240M+02111KA2240N+00801MA1999999096101MD1210301-0531MW1051REMSYN106AAXX  08061 76393 31920 02101 10148 20107 39610 40185 52030 70544 90550 333 10211 20080 30/// 55070 59053;
0199763930999992010120809004+25733-100300FM-12+051599999V0200901N001012200019N0020001N1+01401+00941102131ADDAY141031AY201031GA1001+999999999GF100991001001999999001001IA1019MA1999999096341MD1310291-0111MW1051REMSYN088AAXX  08091 76393 31920 00901 10140 20094 39634 40213 53029 70540 90855 333 30/// 59011;
0273763930999992010120812004+25733-100300FM-12+051599999V0202601N001012200019N0020001N1+01241+00921102301ADDAA124000091AY141061AY201061GA1001+999999999GF100991001001999999001001IA1019KA1240M+02111KA2120N+01101MA1999999096461MD1310121+0161MW1051REMSYN106AAXX  08121 76393 31920 02601 10124 20092 39646 40230 53012 70540 91155 333 10211 20110 30102 58016 70000;EQDQ01  00002PRCP24
0195763930999992010120815004+25733-100300FM-12+051599999V0202701N002012200019N0020001N1+01621+00921102661ADDAY101031AY201031GF101991011001999999071001IA1019MA1999999096791MD1210331+0521MW1051REMSYN100AAXX  08151 76393 31920 12702 10162 20092 39679 40266 52033 70500 81070 91440 333 30/// 56050 58052;
0237763930999992010120818004+25733-100300FM-12+051599999V0203601N003012200019N0020001N1+01861+00141102681ADDAY121061AY221061GA1001+999999999GF100991001001999999001001IA1019KA1120M+02021KA2240N+01101MA1999999096821MD1710031+0691MW1051REMSYN100AAXX  08181 76393 31920 03603 10186 20014 39682 40268 57003 70522 91740 333 10202 20110 30/// 58069;
0199763930999992010120821004+25733-100300FM-12+051599999V0203501N003012200019N0030001N1+02091-00011102371ADDAY141031AY241031GA1001+999999999GF100991001001999999001001IA1019MA1999999096551MD1710271+0851MW1051REMSYN088AAXX  08211 76393 31930 03503 10209 21001 39655 40237 57027 70544 92050 333 30/// 58085;
0279763930999992010120900004+25733-100300FM-12+051599999V0200701N002012200019N0030001N1+01781+00101102411ADDAA124000091AY141061AY241061GA1001+999999999GF100991001001999999001001IA1019KA1120M+02151KA2180N+01101MA1999999096631MD1210081+0971MW1051REMSYN112AAXX  09001 76393 31930 00702 10178 20010 39663 40241 52008 70544 92350 333 10215 20110 30/// 50351 58097 70000;EQDQ01  00002PRCP24
0199763930999992010120903004+25733-100300FM-12+051599999V0202101N002012200019N0020001N1+01401+00331102591ADDAY101031AY201031GA1001+999999999GF100991001001999999001001IA1019MA1999999096801MD1210171+1001MW1051REMSYN088AAXX  09031 76393 31920 02102 10140 20033 39680 40259 52017 70500 90250 333 30/// 58100;
0251763930999992010120906004+25733-100300FM-12+051599999V0202301N001012200019N0020001N1+01181+00281102551ADDAY101061AY201061GA1001+999999999GF100991001001999999001001GJ103249IA1019KA1240M+02151KA2240N+01021MA1999999096731MD1710071+0631MW1051REMSYN106AAXX  09061 76393 31920 02301 10118 20028 39673 40255 57007 70500 90550 333 10215 20102 30/// 55054 58063;
0199763930999992010120909004+25733-100300FM-12+051599999V0201901N001012200019N0020001N1+00981+00181102531ADDAY141031AY241031GA1001+999999999GF100991001001999999001001IA1019MA1999999096671MD1710061+0331MW1051REMSYN088AAXX  09091 76393 31920 01901 10098 20018 39667 40253 57006 70544 90855 333 30/// 58033;
0285763930999992010120912004+25733-100300FM-12+051599999V0202301N001012200019N0020001N1+00801+00251102471ADDAA124000091AY141061AY241061GA1001+999999999GF100991001001999999001001IA1019IA2999+00489KA1240M+02151KA2120N+00501MA1999999096551MD1210121+0091MW1051REMSYN106AAXX  09121 76393 31920 02301 10080 20025 39655 40247 52012 70544 91155 333 10215 20050 30048 58009 70000;EQDQ01  00002PRCP24
0199763930999992010120915004+25733-100300FM-12+051599999V0209999C000012200019N0010001N1+01041+00251102521ADDAY101031AY201031GA1001+999999999GF100991001001999999001001IA1019MA1999999096571MD1110021-0221MW1051REMSYN088AAXX  09151 76393 31910 00000 10104 20025 39657 40252 51002 70500 91440 333 30/// 59022;
0237763930999992010120918004+25733-100300FM-12+051599999V0200501N003012200019N0008001N1+01761+00321102371ADDAY101061AY201061GA1001+999999999GF100991001001999999001001IA1019KA1120M+01921KA2240N+00501MA1999999096451MD1710121-0371MW1051REMSYN100AAXX  09181 76393 31908 00503 10176 20032 39645 40237 57012 70500 91740 333 10192 20050 30/// 59037;
0199763930999992010120921004+25733-100300FM-12+051599999V0200901N003012200019N0010001N1+02161+00411101861ADDAY141031AY241031GA1001+999999999GF100991001001999999001001IA1019MA1999999096021MD1710431-0531MW1051REMSYN088AAXX  09211 76393 31910 00903 10216 20041 39602 40186 57043 70544 92050 333 30/// 59053;
0279763930999992010121000004+25733-100300FM-12+051599999V0201201N001012200019N0020001N1+02001+00481101691ADDAA124000091AY141061AY241061GA1001+999999999GF100991001001999999001001IA1019KA1120M+02291KA2180N+00501MA1999999095921MD1710101-0711MW1051REMSYN112AAXX  10001 76393 31920 01201 10200 20048 39592 40169 57010 70544 92350 333 10229 20050 30/// 50381 59071 70000;EQDQ01  00002PRCP24
0199763930999992010121003004+25733-100300FM-12+051599999V0202001N001012200019N0020001N1+01621+00621101761ADDAY101031AY201031GA1001+999999999GF100991001001999999001001IA1019MA1999999096031MD1210111-0771MW1051REMSYN088AAXX  10031 76393 31920 02001 10162 20062 39603 40176 52011 70500 90250 333 30/// 59077;
0251763930999992010121006004+25733-100300FM-12+051599999V0201901N001012200019N0020001N1+01261+00781101681ADDAY101061AY201061GA1001+999999999GF100991001001999999001001GJ103489IA1019KA1240M+02291KA2240N+00501MA1999999095941MD1710091-0791MW1051REMSYN106AAXX  10061 76393 31920 01901 10126 20078 39594 40168 57009 70500 90550 333 10229 20050 30/// 55058 59079;
0199763930999992010121009004+25733-100300FM-12+051599999V0202401N001012200019N0020001N1+01101+00281101601ADDAY141031AY201031GA1001+999999999GF100991001001999999001001IA1019MA1999999095821MD1610121-0851MW1051REMSYN088AAXX  10091 76393 31920 02401 10110 20028 39582 40160 56012 70540 90855 333 30/// 59085;
0273763930999992010121012004+25733-100300FM-12+051599999V0202301N001012200019N0020001N1+01101+00121101551ADDAA124000091AY141061AY201061GA1001+999999999GF100991001001999999001001IA1019KA1240M+02291KA2120N+01001MA1999999095701MD1610121-0851MW1051REMSYN106AAXX  10121 76393 31920 02301 10110 20012 39570 40155 56012 70540 91155 333 10229 20100 30090 59085 70000;EQDQ01  00002PRCP24
0199763930999992010121015004+25733-100300FM-12+051599999V0201301N001012200019N0020001N1+01681+00151101681ADDAY101031AY201031GA1001+999999999GF100991001001999999001001IA1019MA1999999095831MD1210131-0741MW1051REMSYN088AAXX  10151 76393 31920 01301 10168 20015 39583 40168 52013 70500 91440 333 30/// 59074;
0273763930999992010121018004+25733-100300FM-12+051599999V0200901N001012200019N0020001N1+02541+00201101601ADDAA124000091AY101061AY201061GA1001+999999999GF100991001001999999001001IA1019KA1120M+02641KA2240N+01001MA1999999095771MD1710061-0681MW1041REMSYN106AAXX  10181 76393 31920 00901 10254 20020 39577 40160 57006 70400 91750 333 10264 20100 30/// 59068 70000;EQDQ01  00002PRCP24
0199763930999992010121021004+25733-100300FM-12+051599999V0200601N002012200019N0020001N1+02901+00511101151ADDAY101031AY201031GA1001+999999999GF100991001001999999001001IA1019MA1999999095461MD1710311-0561MW1041REMSYN088AAXX  10211 76393 31920 00602 10290 20051 39546 40115 57031 70400 92050 333 30/// 59056;
0279763930999992010121100004+25733-100300FM-12+051599999V0203401N002012200019N0030001N1+02241+00381101071ADDAA124000091AY101061AY201061GA1001+999999999GF100991001001999999001001IA1019KA1120M+02981KA2180N+01001MA1999999095451MD1710011-0471MW1041REMSYN112AAXX  11001 76393 31930 03402 10224 20038 39545 40107 57001 70400 92350 333 10298 20100 30/// 50301 59047 70000;EQDQ01  00002PRCP24
0199763930999992010121103004+25733-100300FM-12+051599999V0201601N001012200019N0020001N1+01841+00501101181ADDAY101031AY201031GA1001+999999999GF100991001001999999001001IA1019MA1999999095581MD1210131-0451MW1051REMSYN088AAXX  11031 76393 31920 01601 10184 20050 39558 40118 52013 70500 90250 333 30/// 59045;
0251763930999992010121106004+25733-100300FM-12+051599999V0202101N001012200019N0020001N1+01601+00601101191ADDAY101061AY201061GA1001+999999999GF100991001001999999001001GJ103669IA1019KA1240M+02981KA2240N+01001MA1999999095561MD1710021-0381MW1051REMSYN106AAXX  11061 76393 31920 02101 10160 20060 39556 40119 57002 70500 90550 333 10298 20100 30/// 55061 59038;
0199763930999992010121109004+25733-100300FM-12+051599999V0202401N002012200019N0020001N1+01541+00321101121ADDAY141031AY201031GA1001+999999999GF100991001001999999001001IA1019MA1999999095431MD1610131-0391MW1051REMSYN088AAXX  11091 76393 31920 02402 10154 20032 39543 40112 56013 70540 90855 333 30/// 59039;
0273763930999992010121112004+25733-100300FM-12+051599999V0202301N001012200019N0020001N1+01421+00781101131ADDAA124000091AY141061AY201061GA1001+999999999GF100991001001999999001001IA1019KA1240M+02981KA2120N+01381MA1999999095391MD1410001-0311MW1051REMSYN106AAXX  11121 76393 31920 02301 10142 20078 39539 40113 54004 70540 91155 333 10298 20138 30122 59031 70000;EQDQ01  00002PRCP24
0199763930999992010121115004+25733-100300FM-12+051599999V0201901N001012200019N0020001N1+02021+00121101301ADDAY101031AY201031GA1001+999999999GF100991001001999999001001IA1019MA1999999095541MD1210151-0291MW1051REMSYN088AAXX  11151 76393 31920 01901 10202 20012 39554 40130 52015 70500 91440 333 30/// 59029;
0233763930999992010121118004+25733-100300FM-12+051599999V0203001N001012200019N0020001N1+02961-00011101161ADDAY101061AY201061GF101991011001999999031001IA1019KA1120M+03101KA2240N+01381MA1999999095461MD1710081-0311MW1051REMSYN112AAXX  11181 76393 31920 13001 10296 21001 39546 40116 57008 70500 81030 91740 333 10310 20138 30/// 56050 59031;
0199763930999992010121121004+25733-100300FM-12+051599999V0201801N002012200019N0030001N1+03221+00071100791ADDAY141031AY241031GA1001+999999999GF100991001001999999001001IA1019MA1999999095191MD1710271-0271MW1051REMSYN088AAXX  11211 76393 31930 01802 10322 20007 39519 40079 57027 70544 92058 333 30/// 59027;
0279763930999992010121200004+25733-100300FM-12+051599999V0200601N002012200019N0030001N1+02501+00371101041ADDAA124000091AY141061AY241061GA1001+999999999GF100991001001999999001001IA1019KA1120M+03521KA2180N+01381MA1999999095481MD1210291+0031MW1051REMSYN112AAXX  12001 76393 31930 00602 10250 20037 39548 40104 52029 70544 92355 333 10352 20138 30/// 50501 58003 70000;EQDQ01  00002PRCP24
0199763930999992010121203004+25733-100300FM-12+051599999V0203401N003012200019N0020001N1+02181+00091101501ADDAY101031AY201031GA1001+999999999GF100991001001999999001001IA1019MA1999999095941MD1210461+0361MW1051REMSYN088AAXX  12031 76393 31920 03403 10218 20009 39594 40150 52046 70500 90250 333 30/// 58036;
0251763930999992010121206004+25733-100300FM-12+051599999V0203201N003012200019N0020001N1+01861+00141101941ADDAY101061AY201061GA1001+999999999GF100991001001999999001001GJ103129IA1019KA1240M+03521KA2240N+01381MA1999999096321MD1210381+0761MW1051REMSYN106AAXX  12061 76393 31920 03203 10186 20014 39632 40194 52038 70500 90550 333 10352 20138 30/// 55052 58076;
0199763930999992010121209004+25733-100300FM-12+051599999V0202601N001012200019N0020001N1+01441+00121102301ADDAY141031AY201031GA1001+999999999GF100991001001999999001001IA1019MA1999999096581MD1210261+1151MW1051REMSYN088AAXX  12091 76393 31920 02601 10144 20012 39658 40230 52026 70540 90855 333 30/// 58115;
0273763930999992010121212004+25733-100300FM-12+051599999V0203101N001012200019N0020001N1+01201-00311102501ADDAA124000091AY141061AY201061GA1001+999999999GF100991001001999999001001IA1019KA1240M+03521KA2120N+01161MA1999999096701MD1210121+1311MW1051REMSYN106AAXX  12121 76393 31920 03101 10120 21031 39670 40250 52012 70540 91155 333 10352 20116 30102 58131 70000;EQDQ01  00002PRCP24
0199763930999992010121215004+25733-100300FM-12+051599999V0201801N001012200019N0050001N1+01121+00061102911ADDAY141031AY241031GA1001+999999999GF100991001001999999001001IA1019MA1999999097031MD1210331+1491MW1051REMSYN088AAXX  12151 76393 31950 01801 10112 20006 39703 40291 52033 70544 91455 333 30/// 58149;
0237763930999992010121218004+25733-100300FM-12+051599999V0201101N005012200019N0050001N1+01521-00231102931ADDAY141061AY241061GA1001+999999999GF100991001001999999001001IA1019KA1120M+01681KA2240N+01101MA1999999097031MD1410001+1571MW1051REMSYN100AAXX  12181 76393 31950 01105 10152 21023 39703 40293 54000 70544 91750 333 10168 20110 30/// 58157;
0199763930999992010121221004+25733-100300FM-12+051599999V0201101N006012200019N0050001N1+01781-00381102541ADDAY101031AY201031GA1001+999999999GF100991001001999999001001IA1019MA1999999096671MD1710361+1481MW1041REMSYN088AAXX  12211 76393 31950 01106 10178 21038 39667 40254 57036 70400 92050 333 30/// 58148;
0279763930999992010121300004+25733-100300FM-12+051599999V0200601N003012200019N0050001N1+01581-00471102541ADDAA124000091AY101061AY201061GA1001+999999999GF100991001001999999001001IA1019KA1120M+01901KA2180N+01101MA1999999096691MD1210021+1211MW1041REMSYN112AAXX  13001 76393 31950 00603 10158 21047 39669 40254 52002 70400 92350 333 10190 20110 30/// 50661 58121 70000;EQDQ01  00002PRCP24
0199763930999992010121303004+25733-100300FM-12+051599999V0201201N003012200019N0020001N1+01361-00431102691ADDAY101031AY201031GA1001+999999999GF100991001001999999001001IA1019MA1999999096841MD1210151+0901MW1051REMSYN088AAXX  13031 76393 31920 01203 10136 21043 39684 40269 52015 70500 90250 333 30/// 58090;
0251763930999992010121306004+25733-100300FM-12+051599999V0202501N001012200019N0020001N1+01161-00181102621ADDAY101061AY201061GA1001+999999999GF100991001001999999001001GJ102949IA1019KA1240M+01901KA2240N+01101MA1999999096781MD1710061+0461MW1051REMSYN106AAXX  13061 76393 31920 02501 10116 21018 39678 40262 57006 70500 90550 333 10190 20110 30/// 55049 58046;
0199763930999992010121309004+25733-100300FM-12+051599999V0202901N001012200019N0020001N1+00881-00241102611ADDAY141031AY211031GA1001+999999999GF100991001001999999001001IA1019MA1999999096711MD1410001+0131MW1051REMSYN088AAXX  13091 76393 31920 02901 10088 21024 39671 40261 54007 70541 90855 333 30/// 58013;
0273763930999992010121312004+25733-100300FM-12+051599999V0200701N001012200019N0020001N1+00801-00111102581ADDAA124000091AY141061AY201061GA1001+999999999GF100991001001999999001001IA1019KA1240M+01901KA2120N+00701MA1999999096651MD1410001-0051MW1051REMSYN106AAXX  13121 76393 31920 00701 10080 21011 39665 40258 54006 70540 91155 333 10190 20070 30056 59005 70000;EQDQ01  00002PRCP24
0199763930999992010121315004+25733-100300FM-12+051599999V0201401N001012200019N0020001N1+01171-00081102701ADDAY141031AY241031GA1001+999999999GF100991001001999999001001IA1019MA1999999096731MD1210081+0031MW1051REMSYN088AAXX  13151 76393 31920 01401 10117 21008 39673 40270 52008 70544 91450 333 30/// 58003;
0237763930999992010121318004+25733-100300FM-12+051599999V0201401N002012200019N0020001N1+01681-00161102571ADDAY141061AY241061GA1001+999999999GF100991001001999999001001IA1019KA1120M+01791KA2240N+00701MA1999999096621MD1710111-0411MW1051REMSYN100AAXX  13181 76393 31920 01402 10168 21016 39662 40257 57011 70544 91750 333 10179 20070 30/// 59041;
0199763930999992010121321004+25733-100300FM-12+051599999V0201401N003012200019N0030001N1+01961-00051102131ADDAY101031AY201031GA1001+999999999GF100991001001999999001001IA1019MA1999999096261MD1710361-0411MW1041REMSYN088AAXX  13211 76393 31930 01403 10196 21005 39626 40213 57036 70400 92050 333 30/// 59041;
0273763930999992010121400004+25733-100300FM-12+051599999V0200901N002012200019N0030001N1+01641-00101102081ADDAA124000091AY101061AY201061GA1001+999999999GF100991001001999999001001IA1019KA1120M+02061KA2180N+00701MA1999999096271MD1210011+9999MW1041REMSYN106AAXX  14001 76393 31930 00902 10164 21010 39627 40208 52001 70400 92350 333 10206 20070 30/// 50461 70000;EQDQ01  00002PRCP24
0199763930999992010121403004+25733-100300FM-12+051599999V0200601N002012200019N0020001N1+01381-00151102141ADDAY101031AY201031GA1001+999999999GF100991001001999999001001IA1019MA1999999096351MD1210081-0491MW1051REMSYN088AAXX  14031 76393 31920 00602 10138 21015 39635 40214 52008 70500 90250 333 30/// 59049;
0251763930999992010121406004+25733-100300FM-12+051599999V0209999C000012200019N0020001N1+01121+00351102091ADDAY101061AY201061GA1001+999999999GF100991001001999999001001GJ102709IA1019KA1240M+02061KA2240N+00701MA1999999096291MD1710061-0491MW1051REMSYN106AAXX  14061 76393 31920 00000 10112 20035 39629 40209 57006 70500 90550 333 10206 20070 30/// 55045 59049;
0199763930999992010121409004+25733-100300FM-12+051599999V0203201N001012200019N0020001N1+00841-00121101991ADDAY141031AY201031GA1001+999999999GF100991001001999999001001IA1019MA1999999096141MD1610151-0571MW1051REMSYN088AAXX  14091 76393 31920 03201 10084 21012 39614 40199 56015 70540 90855 333 30/// 59057;
0285763930999992010121412004+25733-100300FM-12+051599999V0203201N001012200019N0020001N1+00701-00081101921ADDAA124000091AY141061AY201061GA1001+999999999GF100991001001999999001001IA1019IA2999+00489KA1240M+02061KA2120N+00681MA1999999096021MD1610121-0631MW1051REMSYN106AAXX  14121 76393 31920 03201 10070 21008 39602 40192 56012 70540 91155 333 10206 20068 30048 59063 70000;EQDQ01  00002PRCP24
0199763930999992010121415004+25733-100300FM-12+051599999V0201801N001012200019N0010001N1+01301+00131101991ADDAY141031AY241031GA1001+999999999GF100991001001999999001001IA1019MA1999999096071MD1210051-0661MW1051REMSYN088AAXX  14151 76393 31910 01801 10130 20013 39607 40199 52005 70544 91450 333 30/// 59066;
0237763930999992010121418004+25733-100300FM-12+051599999V0200601N002012200019N0010001N1+02061+00251101821ADDAY141061AY241061GA1001+999999999GF100991001001999999001001IA1019KA1120M+02181KA2240N+00681MA1999999095941MD1710131-0681MW1051REMSYN100AAXX  14181 76393 31910 00602 10206 20025 39594 40182 57013 70544 91750 333 10218 20068 30/// 59068;
0199763930999992010121421004+25733-100300FM-12+051599999V0201201N001012200019N0020001N1+02341+00431101411ADDAY101031AY201031GA1001+999999999GF100991001001999999001001IA1019MA1999999095611MD1710331-0651MW1041REMSYN088AAXX  14211 76393 31920 01201 10234 20043 39561 40141 57033 70400 92050 333 30/// 59065;
0279763930999992010121500004+25733-100300FM-12+051599999V0200901N002012200019N0020001N1+02141+00441101241ADDAA124000091AY101061AY201061GA1001+999999999GF100991001001999999001001IA1019KA1120M+02481KA2180N+00681MA1999999095541MD1710071-0731MW1041REMSYN112AAXX  15001 76393 31920 00902 10214 20044 39554 40124 57007 70400 92350 333 10248 20068 30/// 50321 59073 70000;EQDQ01  00002PRCP24
0199763930999992010121503004+25733-100300FM-12+051599999V0201701N001012200019N0020001N1+01761+00761101271ADDAY141031AY241031GA1001+999999999GF100991001001999999001001IA1019MA1999999095601MD1210061-0761MW1051REMSYN088AAXX  15031 76393 31920 01701 10176 20076 39560 40127 52006 70544 90255 333 30/// 59076;
0199763930999992010121515004+25733-100300FM-12+051599999V0202201N001012200019N0020001N1+01621+00331101091ADDAY141031AY241031GA1001+999999999GF100991001001999999001001IA1019MA1999999095271MD1210051-0801MW1051REMSYN088AAXX  15151 76393 31920 02201 10162 20033 39527 40109 52005 70544 91450 333 30/// 59080;
0237763930999992010121518004+25733-100300FM-12+051599999V0201501N002012200019N0020001N1+02501+00541100941ADDAY141061AY241061GA1001+999999999GF100991001001999999001001IA1019KA1120M+02631KA2240N+00981MA1999999095181MD1710091-0761MW1041REMSYN100AAXX  15181 76393 31920 01502 10250 20054 39518 40094 57009 70444 91750 333 10263 20098 30/// 59076;
0199763930999992010121521004+25733-100300FM-12+051599999V0201601N001012200019N0030001N1+02861+00691100501ADDAY141031AY241031GA1001+999999999GF100991001001999999001001IA1019MA1999999094841MD1710341-0771MW1051REMSYN088AAXX  15211 76393 31930 01601 10286 20069 39484 40050 57034 70544 92055 333 30/// 59077;
0279763930999992010121600004+25733-100300FM-12+051599999V0203401N001012200019N0030001N1+02401+00921100391ADDAA124000091AY141061AY241061GA1001+999999999GF100991001001999999001001IA1019KA1120M+02941KA2180N+00981MA1999999094801MD1510041-0741MW1051REMSYN112AAXX  16001 76393 31930 03401 10240 20092 39480 40039 55004 70544 92355 333 10294 20098 30/// 50401 59074 70000;EQDQ01  00002PRCP24
0199763930999992010121603004+25733-100300FM-12+051599999V0202001N001012200019N0020001N1+02081+00741100471ADDAY101031AY201031GA1001+999999999GF100991001001999999001001IA1019MA1999999094921MD1210121-0681MW1051REMSYN088AAXX  16031 76393 31920 02001 10208 20074 39492 40047 52012 70500 90250 333 30/// 59068;
0251763930999992010121606004+25733-100300FM-12+051599999V0203001N001012200019N0020001N1+01601+00981100551ADDAY101061AY201061GA1001+999999999GF100991001001999999001001GJ102409IA1019KA1240M+02941KA2240N+00981MA1999999094961MD1210041-0511MW1051REMSYN106AAXX  16061 76393 31920 03001 10160 20098 39496 40055 52004 70500 90550 333 10294 20098 30/// 55040 59051;
0199763930999992010121609004+25733-100300FM-12+051599999V0202301N001012200019N0010001N1+01441+00481100581ADDAY101031AY201031GA1001+999999999GF100991001001999999001001IA1019MA1999999094931MD1710031-0381MW1041REMSYN088AAXX  16091 76393 31910 02301 10144 20048 39493 40058 57003 70400 90845 333 30/// 59038;
0273763930999992010121612004+25733-100300FM-12+051599999V0202101N002012200019N0010001N1+01441+00171100721ADDAA124000091AY101061AY201061GA1001+999999999GF100991001001999999001001IA1019KA1240M+02941KA2120N+01281MA1999999095011MD1210081-0211MW1041REMSYN106AAXX  16121 76393 31910 02102 10144 20017 39501 40072 52008 70400 91150 333 10294 20128 30114 59021 70000;EQDQ01  00002PRCP24
0199763930999992010121615004+25733-100300FM-12+051599999V0202101N001012200019N0020001N1+01961+00191100931ADDAY141031AY241031GA1001+999999999GF100991001001999999001001IA1019MA1999999095181MD1210171-0091MW1051REMSYN088AAXX  16151 76393 31920 02101 10196 20019 39518 40093 52017 70544 91450 333 30/// 59009;
0237763930999992010121618004+25733-100300FM-12+051599999V0203001N001012200019N0020001N1+02961+00131100881ADDAY141061AY241061GA1001+999999999GF100991001001999999001001IA1019KA1120M+03071KA2240N+01281MA1999999095181MD1410001+0001MW1051REMSYN100AAXX  16181 76393 31920 03001 10296 20013 39518 40088 54000 70544 91750 333 10307 20128 30/// 58000;
0199763930999992010121621004+25733-100300FM-12+051599999V0200401N001012200019N0050001N1+03131-00131100571ADDAY141031AY241031GA1001+999999999GF100991001001999999001001IA1019MA1999999094951MD1710131+0111MW1051REMSYN088AAXX  16211 76393 31950 00401 10313 21013 39495 40057 57013 70544 92055 333 30/// 58011;
0199763930999992010121703004+25733-100300FM-12+051599999V0203201N002012200019N0020001N1+02001+00531101021ADDAY101031AY201031GA1001+999999999GF100991001001999999001001IA1019MA1999999095471MD1210291+0551MW1051REMSYN088AAXX  17031 76393 31920 03202 10200 20053 39547 40102 52029 70500 90250 333 30/// 58055;
0251763930999992010121706004+25733-100300FM-12+051599999V0203601N002012200019N0020001N1+01721+01111101161ADDAY101061AY201061GA1001+999999999GF100991001001999999001001GJ102289IA1019KA1240M+03321KA2240N+01281MA1999999095561MD1210091+0601MW1041REMSYN106AAXX  17061 76393 31920 03602 10172 20111 39556 40116 52009 70400 90545 333 10332 20128 30/// 55038 58060;
0217763930999992010121709004+25733-100300FM-12+051599999V0200301N001012200019N0010001N1+01381+00671101241ADDAY101031AY201031GA1031+008701061GF103991031051008001001001IA1019MA1999999095561MD1410001+0631MW1031REMSYN106AAXX  17091 76393 31510 30301 10138 20067 39556 40124 54000 70300 83500 90850 333 30/// 56500 58063 83629;
0266763930999992010121712004+25733-100300FM-12+051599999V0209999C000012200019N0020001N1+01201+00551101291ADDAA124000091AY101061AY201061GA1011+008101061GF101991011051008001001001IA1019KA1240M+03321KA2120N+01081MA1999999095551MD1710011+0541MW1011REMSYN118AAXX  17121 76393 31520 10000 10120 20055 39555 40129 57001 70100 81500 91145 333 10332 20108 30096 58054 70000 81627;
0217763930999992010121715004+25733-100300FM-12+051599999V0200401N001012200019N0020001N1+01261+00391101521ADDAY141031AY201031GA1021+008701061GF102991021051008001001001IA1019MA1999999095721MD1210171+0541MW1051REMSYN106AAXX  17151 76393 31520 20401 10126 20039 39572 40152 52017 70540 82500 91455 333 30/// 56300 58054 82629;
0237763930999992010121718004+25733-100300FM-12+051599999V0200901N001012200019N0010001N1+01921+00661101471ADDAY141061AY241061GA1001+999999999GF100991001001999999001001IA1019KA1120M+02021KA2240N+01081MA1999999095671MD1710051+0491MW1051REMSYN100AAXX  17181 76393 31910 00901 10192 20066 39567 40147 57005 70544 91750 333 10202 20108 30/// 58049;
0199763930999992010121803004+25733-100300FM-12+051599999V0200501N001012200019N0020001N1+01561+00541101691ADDAY101031AY201031GA1001+999999999GF100991001001999999001001IA1019MA1999999095931MD1210301+0461MW1051REMSYN088AAXX  18031 76393 31920 00501 10156 20054 39593 40169 52030 70500 90250 333 30/// 58046;
0251763930999992010121806004+25733-100300FM-12+051599999V0203401N002012200019N0020001N1+01301+00241101931ADDAY101061AY201061GA1001+999999999GF100991001001999999001001GJ101989IA1019KA1240M+02361KA2240N+01081MA1999999096121MD1210191+0561MW1051REMSYN106AAXX  18061 76393 31920 03402 10130 20024 39612 40193 52019 70500 90550 333 10236 20108 30/// 55033 58056;
0183763930999992010121815004+25733-100300FM-12+051599999V0200401N002019999999N0020001N1+00861+00181102261ADDAY141031AY201031GF108991999999999999999999IA1019MA1999999096241MD1999999+1111MW1051REMSYN088AAXX  18151 76393 31920 80402 10086 20018 39624 40226 5//// 70540 91455 333 30/// 58111;
0237763930999992010121818004+25733-100300FM-12+051599999V0200601N003012200019N0020001N1+01381+00301102081ADDAY141061AY201061GA1001+999999999GF100991001001999999001001IA1019KA1120M+01481KA2240N+00701MA1999999096171MD1410001+0501MW1051REMSYN100AAXX  18181 76393 31920 00603 10138 20030 39617 40208 54007 70540 91755 333 10148 20070 30/// 58050;
0199763930999992010121821004+25733-100300FM-12+051599999V0200701N003012200019N0020001N1+01901+00481101721ADDAY101031AY201031GA1001+999999999GF100991001001999999001001IA1019MA1999999095861MD1710311+0191MW1041REMSYN088AAXX  18211 76393 31920 00703 10190 20048 39586 40172 57031 70400 92045 333 30/// 58019;
0279763930999992010121900004+25733-100300FM-12+051599999V0201401N003012200019N0020001N1+01561+00451101561ADDAA124000091AY101061AY201061GA1001+999999999GF100991001001999999001001IA1019KA1120M+02001KA2180N+00701MA1999999095751MD1710111+0121MW1041REMSYN112AAXX  19001 76393 31920 01403 10156 20045 39575 40156 57011 70400 92350 333 10200 20070 30/// 50181 58012 70000;EQDQ01  00002PRCP24
0199763930999992010121915004+25733-100300FM-12+051599999V0202201N001012200019N0020001N1+01161+00541101681ADDAY141031AY201031GA1001+999999999GF100991001001999999001001IA1019MA1999999095721MD1999999-0521MW1051REMSYN088AAXX  19151 76393 31920 02201 10116 20054 39572 40168 5//// 70540 91455 333 30/// 59052;
0273763930999992010121918004+25733-100300FM-12+051599999V0200901N001012200019N0020001N1+01921+00561101561ADDAA124000091AY141061AY201061GA1001+999999999GF100991001001999999001001IA1019KA1120M+02081KA2240N+00721MA1999999095741MD1410001-0431MW1051REMSYN106AAXX  19181 76393 31920 00901 10192 20056 39574 40156 54002 70540 91755 333 10208 20072 30/// 59043 70000;EQDQ01  00002PRCP24
0199763930999992010121921004+25733-100300FM-12+051599999V0201301N003012200019N0020001N1+02441+00651101221ADDAY101031AY201031GA1001+999999999GF100991001001999999001001IA1019MA1999999095451MD1710291-0411MW1041REMSYN088AAXX  19211 76393 31920 01303 10244 20065 39545 40122 57029 70400 92050 333 30/// 59041;
0279763930999992010122000004+25733-100300FM-12+051599999V0200901N003012200019N0020001N1+02201+00681101171ADDAA124000091AY101061AY201061GA1001+999999999GF100991001001999999001001IA1019KA1120M+02621KA2180N+00721MA1999999095471MD1710021-0281MW1041REMSYN112AAXX  20001 76393 31920 00903 10220 20068 39547 40117 57002 70400 92350 333 10262 20072 30/// 50361 59028 70000;EQDQ01  00002PRCP24
0199763930999992010122003004+25733-100300FM-12+051599999V0200701N002012200019N0020001N1+01801+00901101221ADDAY101031AY201031GA1001+999999999GF100991001001999999001001IA1019MA1999999095561MD1210091+9999MW1051REMSYN088AAXX  20031 76393 31920 00702 10180 20090 39556 40122 52009 70500 90250 333 30/// 58///;
0251763930999992010122006004+25733-100300FM-12+051599999V0202301N001012200019N0020001N1+01521+00921101271ADDAY101061AY201061GA1001+999999999GF100991001001999999001001GJ102049IA1019KA1240M+02621KA2240N+00721MA1999999095601MD1210041+9999MW1051REMSYN106AAXX  20061 76393 31920 02301 10152 20092 39560 40127 52004 70500 90550 333 10262 20072 30/// 55034 58///;
0199763930999992010122021004+25733-100300FM-12+051599999V0201201N002012200019N0010001N1+03141+00831100901ADDAY101031AY201031GA1001+999999999GF100991001001999999001001IA1019MA1999999095281MD1710301-0171MW1041REMSYN088AAXX  20211 76393 31910 01202 10314 20083 39528 40090 57030 70400 92050 333 30/// 59017;
0279763930999992010122100004+25733-100300FM-12+051599999V0201201N004012200019N0020001N1+02661+00891100931ADDAA124000091AY101061AY201061GA1001+999999999GF100991001001999999001001IA1019KA1120M+03241KA2180N+00921MA1999999095361MD1210081-0111MW1041REMSYN112AAXX  21001 76393 31920 01204 10266 20089 39536 40093 52008 70400 92350 333 10324 20092 30/// 50271 59011 70000;EQDQ01  00002PRCP24
0199763930999992010122103004+25733-100300FM-12+051599999V0202401N001012200019N0020001N1+02181+01051101071ADDAY101031AY201031GA1001+999999999GF100991001001999999001001IA1019MA1999999095531MD1210171-0031MW1051REMSYN088AAXX  21031 76393 31920 02401 10218 20105 39553 40107 52017 70500 90250 333 30/// 59003;
0251763930999992010122106004+25733-100300FM-12+051599999V0202501N001012200019N0020001N1+01841+01181101181ADDAY101061AY201061GA1001+999999999GF100991001001999999001001GJ101989IA1019KA1240M+03241KA2240N+00921MA1999999095611MD1210081+0011MW1051REMSYN106AAXX  21061 76393 31920 02501 10184 20118 39561 40118 52008 70500 90550 333 10324 20092 30/// 55033 58001;
0199763930999992010122115004+25733-100300FM-12+051599999V0202401N001012200019N0010001N1+01881+00741101731ADDAY141031AY201031GA1001+999999999GF100991001001999999001001IA1019MA1999999095771MD1999999+0201MW1051REMSYN088AAXX  21151 76393 31910 02401 10188 20074 39577 40173 5//// 70540 91455 333 30/// 58020;
0233763930999992010122118004+25733-100300FM-12+051599999V0203601N001012200019N0010001N1+02541+00851101551ADDAY141061AY201061GF101991001001999999001041IA1019KA1120M+02821KA2240N+01401MA1999999095851MD1210081+0271MW1041REMSYN112AAXX  21181 76393 31910 13601 10254 20085 39585 40155 52008 70440 80004 91755 333 10282 20140 30/// 56005 58027;
0272763930999992010122200004+25733-100300FM-12+051599999V0200901N005010600019N0020001N1+02641+01331101291ADDAA124000091AY121061AY221061GA1051+060001001GF105991001001999999001011IA1019KA1120M+03121KA2180N+01401MA1999999095691MD1210091+9999MW1051REMSYN124AAXX  22001 76393 31920 50905 10264 20133 39569 40129 52009 70522 80001 92350 333 10312 20140 30/// 50481 56008 70000 85070;
0199763930999992010122203004+25733-100300FM-12+051599999V0200701N002012200019N0020001N1+02281+01291101421ADDAY101031AY201031GA1001+999999999GF100991001001999999001001IA1019MA1999999095851MD1210161+0321MW1051REMSYN088AAXX  22031 76393 31920 00702 10228 20129 39585 40142 52016 70500 90250 333 30/// 58032;
0251763930999992010122206004+25733-100300FM-12+051599999V0202101N001012200019N0020001N1+01921+01411101501ADDAY101061AY201061GA1001+999999999GF100991001001999999001001GJ102649IA1019KA1240M+03121KA2240N+01401MA1999999095901MD1210051+0291MW1051REMSYN106AAXX  22061 76393 31920 02101 10192 20141 39590 40150 52005 70500 90550 333 10312 20140 30/// 55044 58029;
0237763930999992010122218004+25733-100300FM-12+051599999V0200601N002012200019N0010001N1+02261+01451101821ADDAY101061AY201061GA1001+999999999GF100991001001999999001001IA1019KA1120M+02361KA2240N+00981MA1999999096071MD1410001+0231MW1041REMSYN100AAXX  22181 76393 31910 00602 10226 20145 39607 40182 54001 70400 91750 333 10236 20098 30/// 58023;
0199763930999992010122221004+25733-100300FM-12+051599999V0200601N003012200019N0010001N1+02541+01541101571ADDAY141031AY201031GA1001+999999999GF100991001001999999001001IA1019MA1999999095891MD1710181+0391MW1051REMSYN088AAXX  22211 76393 31910 00603 10254 20154 39589 40157 57018 70540 92055 333 30/// 58039;
0261763930999992010122300004+25733-100300FM-12+051599999V0201301N005012200019N0020001N1+02261+01591101661ADDAY141061AY201061GA1001+999999999GF100991001001999999001001IA1019KA1120M+02661KA2180N+00981MA1999999096001MD1310111+0401MW1051REMSYN124AAXX  23001 76393 31920 01305 10226 20159 39600 40166 53011 70540 80004 92355 333 10266 20098 30/// 50451 56005 58040 70000;
0217763930999992010122303004+25733-100300FM-12+051599999V0200501N002010063019N0020001N1+02141+01621101851ADDAY121031AY221031GA1051+006301061GF105991051051008001001001IA1019MA1999999096191MD1210191+0341MW1051REMSYN106AAXX  23031 76393 31520 50502 10214 20162 39619 40185 52019 70522 85500 90250 333 30/// 56300 58034 85621;
0253763930999992010122306004+25733-100300FM-12+051599999V0200901N002010042019N0010001N1+01981+01581101871ADDAY121061AY221061GF106991061051004501001001GJ104869IA1019KA1240M+02661KA2240N+00981MA1999999096201MD1210011+0301MW1051REMSYN124AAXX  23061 76393 31410 60902 10198 20158 39620 40187 52001 70522 86500 90550 333 10266 20098 30/// 55081 56300 58030 86615;
0217763930999992010122309004+25733-100300FM-12+051599999V0200901N002010039019N0003001N1+01821+01511101821ADDAY141031AY241031GA1081+003901071GF108991081061004501999999IA1019MA1999999096131MD1710071+9999MW1101REMSYN106AAXX  23091 76393 31403 80902 10182 20151 39613 40182 57007 71044 886// 90855 333 30/// 562// 58/// 88713;
0272763930999992010122312004+25733-100300FM-12+051599999V0200901N001010006019N0002001N1+01761+01701101851ADDAA124000091AY141061AY241061GA1081+000601071GF108991081061000751999999IA1019KA1240M+02661KA2120N+01701MA1999999096091MD1710041+0161MW1101REMSYN124AAXX  23121 76393 31102 80901 10176 20170 39609 40185 57004 71044 886// 91150 333 10266 20170 30162 562// 58016 70000 88702;
0217763930999992010122321004+25733-100300FM-12+051599999V0201201N002012200019N0010001N1+02201+01351101521ADDAY101031AY201031GA1041+010501061GF104991041051012501001001IA1019MA1999999095801MD1710351-0091MW1011REMSYN106AAXX  23211 76393 31610 41202 10220 20135 39580 40152 57035 70100 84500 92050 333 30/// 56200 59009 84635;
0217763930999992010122403004+25733-100300FM-12+051599999V0203201N001012200019N0020001N1+01881+01371101371ADDAY101031AY201031GA1041+006301061GF104991041051008001001001IA1019MA1999999095691MD1710031-0501MW1051REMSYN106AAXX  24031 76393 31520 43201 10188 20137 39569 40137 57003 70500 84500 90250 333 30/// 56300 59050 84621;
0253763930999992010122406004+25733-100300FM-12+051599999V0201201N004012200019N0020001N1+01801+01491101381ADDAY101061AY201061GF103991031051004501001001GJ101629IA1019KA1240M+02361KA2240N+01221MA1999999095691MD1410001-0511MW1051REMSYN124AAXX  24061 76393 31420 31204 10180 20149 39569 40138 54000 70500 83500 90550 333 10236 20122 30/// 55027 56300 59051 83613;
0217763930999992010122409004+25733-100300FM-12+051599999V0209999C000010024019N0020001N1+01701+01511101311ADDAY141031AY241031GA1081+002401061GF108991081051002501999999IA1019MA1999999095611MD1710081-0521MW1051REMSYN106AAXX  24091 76393 31320 80000 10170 20151 39561 40131 57008 70544 885// 90845 333 30/// 563// 59052 88608;
0272763930999992010122412004+25733-100300FM-12+051599999V0200901N001010018019N0010001N1+01681+01521101411ADDAA124000091AY121061AY221061GA1081+001801061GF108991081051001501999999IA1019KA1240M+02361KA2120N+01581MA1999999095651MD1210041-0441MW1111REMSYN124AAXX  24121 76393 31210 80901 10168 20152 39565 40141 52004 71122 885// 91145 333 10236 20158 30150 563// 59044 70000 88606;
0211763930999992010122415004+25733-100300FM-12+051599999V0209999C000010030019N0010001N1+01761+01151101571ADDAY121031AY201031GA1081+003001061GF108991051081004501999999IA1019MA1999999095791MD1210141+9999MW1051REMSYN100AAXX  24151 76393 31410 83600 10176 20115 39579 40157 52014 70520 858// 91450 333 30/// 56/// 88610;
0217763930999992010122421004+25733-100300FM-12+051599999V0201301N003010102019N0020001N1+02441+01411101361ADDAY141031AY221031GA1071+010201061GF107991071051012501999999IA1019MA1999999095671MD1710221-0131MW1051REMSYN106AAXX  24211 76393 31620 71303 10244 20141 39567 40136 57022 70542 875// 92055 333 30/// 56399 59013 87634;
0262763930999992010122500004+25733-100300FM-12+051599999V0200901N003012200019N0020001N1+02201+01451101461ADDAA124000091AY141061AY201061GF103991031041008001001001IA1019KA1120M+02581KA2180N+01141MA1999999095781MD1310111+0061MW1051REMSYN130AAXX  25001 76393 31520 30903 10220 20145 39578 40146 53011 70540 83400 92355 333 10258 20114 30/// 50041 56300 58006 70000 83625;
0217763930999992010122503004+25733-100300FM-12+051599999V0200101N006010096019N0020001N1+02021+01241101751ADDAY121031AY221031GA1071+009601061GF107991071051008001999999IA1019MA1999999096081MD1210301+0391MW1041REMSYN106AAXX  25031 76393 31520 70106 10202 20124 39608 40175 52030 70422 875// 90245 333 30/// 563// 58039 87632;
0272763930999992010122512004+25733-100300FM-12+051599999V0203601N002010084019N0010001N1+01041+00351102451ADDAA124000091AY121061AY221061GA1071+008401061GF107991071051008001999999IA1019KA1240M+02581KA2120N+00961MA1999999096621MD1210121+0971MW1051REMSYN124AAXX  25121 76393 31510 73602 10104 20035 39662 40245 52012 70522 875// 91145 333 10258 20096 30086 568// 58097 70000 87628;
0199763930999992010122521004+25733-100300FM-12+051599999V0200501N002012200019N0020001N1+01741+00131102491ADDAY141031AY201031GA1001+999999999GF100991001001999999001001IA1019MA1999999096631MD1710211+0961MW1051REMSYN088AAXX  25211 76393 31920 00502 10174 20013 39663 40249 57021 70540 92055 333 30/// 58096;
0279763930999992010122600004+25733-100300FM-12+051599999V0200901N003012200019N0040001N1+01501-00141102561ADDAA124000091AY141061AY201061GA1001+999999999GF100991001001999999001001IA1019KA1120M+01901KA2180N+00961MA1999999096741MD1310111+0961MW1051REMSYN112AAXX  26001 76393 31940 00903 10150 21014 39674 40256 53011 70540 92355 333 10190 20096 30/// 50651 58096 70000;EQDQ01  00002PRCP24
0199763930999992010122603004+25733-100300FM-12+051599999V0209999C000012200019N0020001N1+01261+00011102851ADDAY101031AY201031GA1001+999999999GF100991001001999999001001IA1019MA1999999096991MD1210251+0911MW1051REMSYN088AAXX  26031 76393 31920 00000 10126 20001 39699 40285 52025 70500 90250 333 30/// 58091;
0251763930999992010122606004+25733-100300FM-12+051599999V0200901N001012200019N0020001N1+01081+00251102911ADDAY101061AY201061GA1001+999999999GF100991001001999999001001GJ105109IA1019KA1240M+01901KA2240N+00961MA1999999097031MD1210041+0681MW1051REMSYN106AAXX  26061 76393 31920 00901 10108 20025 39703 40291 52004 70500 90550 333 10190 20096 30/// 55085 58068;
0171763930999992010122609004+25733-100300FM-12+051599999V0209999C000012200019N0020001N1+00841-00011102931ADDGA1001+999999999GF100991001001999999001001IA1019MA1999999097011MD1710021+0511REMSYN082AAXX  26091 76393 32920 00000 10084 21001 39701 40293 57002 90850 333 30/// 58051;
0257763930999992010122612004+25733-100300FM-12+051599999V0200201N001012200019N0020001N1+00581-00071103011ADDAA124000091GA1001+999999999GF100991001001999999001001IA1019IA2999+00469KA1240M+01901KA2120N+00521MA1999999097031MD1210021+0411REMSYN100AAXX  26121 76393 32920 00201 10058 21007 39703 40301 52002 91145 333 10190 20052 30046 58041 70000;EQDQ01  00002PRCP24
0199763930999992010122621004+25733-100300FM-12+051599999V0201201N003012200019N0020001N1+01381+00141102491ADDAY141031AY201031GA1001+999999999GF100991001001999999001001IA1019MA1999999096551MD1710311-0081MW1051REMSYN088AAXX  26211 76393 31920 01203 10138 20014 39655 40249 57031 70540 92055 333 30/// 59008;
0245763930999992010122700004+25733-100300FM-12+051599999V0200901N005012200019N0030001N1+01201-00121102401ADDAY141061AY201061GF102991001001999999001041IA1019KA1120M+01521KA2180N+00521MA1999999096521MD1410001-0221MW1051REMSYN124AAXX  27001 76393 31930 20905 10120 21012 39652 40240 54003 70540 80004 92355 333 10152 20052 30/// 50231 56005 59022 70000;
0199763930999992010122703004+25733-100300FM-12+051599999V0200601N002012200019N0020001N1+00961-00071102461ADDAY101031AY201031GA1001+999999999GF100991001001999999001001IA1019MA1999999096561MD1210041-0431MW1051REMSYN088AAXX  27031 76393 31920 00602 10096 21007 39656 40246 52004 70500 90250 333 30/// 59043;
0251763930999992010122706004+25733-100300FM-12+051599999V0202301N001012200019N0020001N1+00861+00171102371ADDAY101061AY201061GA1001+999999999GF100991001001999999001001GJ104989IA1019KA1240M+01521KA2240N+00521MA1999999096451MD1710111-0581MW1051REMSYN106AAXX  27061 76393 31920 02301 10086 20017 39645 40237 57011 70500 90550 333 10152 20052 30/// 55083 59058;
0199763930999992010122715004+25733-100300FM-12+051599999V0209999C000012200019N0010001N1+00741-00131102481ADDAY101031AY201031GA1001+999999999GF100991001001999999001001IA1019MA1999999096381MD1210061-0741MW1051REMSYN088AAXX  27151 76393 31910 00600 10074 21013 39638 40248 52006 70500 91450 333 30/// 59074;
0237763930999992010122718004+25733-100300FM-12+051599999V0200401N002012200019N0010001N1+01281+00221102281ADDAY141061AY201061GA1001+999999999GF100991001001999999001001IA1019KA1120M+01521KA2240N+00461MA1999999096321MD1710061-0641MW1041REMSYN100AAXX  27181 76393 31910 00402 10128 20022 39632 40228 57006 70440 91750 333 10152 20046 30/// 59064;
0199763930999992010122721004+25733-100300FM-12+051599999V0201301N003012200019N0020001N1+01801+00231101871ADDAY141031AY201031GA1001+999999999GF100991001001999999001001IA1019MA1999999095981MD1710341-0571MW1051REMSYN088AAXX  27211 76393 31920 01303 10180 20023 39598 40187 57034 70540 92055 333 30/// 59057;
0279763930999992010122800004+25733-100300FM-12+051599999V0200901N002012200019N0030001N1+01701+00641101771ADDAA124000091AY141061AY201061GA1001+999999999GF100991001001999999001001IA1019KA1120M+01901KA2180N+00461MA1999999095931MD1410001-0591MW1051REMSYN112AAXX  28001 76393 31930 00902 10170 20064 39593 40177 54005 70540 92355 333 10190 20046 30/// 50111 59059 70000;EQDQ01  00002PRCP24
0199763930999992010122803004+25733-100300FM-12+051599999V0200501N003012200019N0020001N1+01321+00511101891ADDAY101031AY201031GA1001+999999999GF100991001001999999001001IA1019MA1999999096071MD1210141-0491MW1051REMSYN088AAXX  28031 76393 31920 00503 10132 20051 39607 40189 52014 70500 90250 333 30/// 59049;
0251763930999992010122806004+25733-100300FM-12+051599999V0201001N001012200019N0020001N1+01321+00811101851ADDAY101061AY201061GA1001+999999999GF100991001001999999001001GJ105109IA1019KA1240M+01901KA2240N+00461MA1999999096051MD1710021-0401MW1051REMSYN106AAXX  28061 76393 31920 01001 10132 20081 39605 40185 57002 70500 90550 333 10190 20046 30/// 55085 59040;
0199763930999992010122809004+25733-100300FM-12+051599999V0209999C000012200019N0010001N1+01001+00651101771ADDAY141031AY241031GA1001+999999999GF100991001001999999001001IA1019MA1999999095941MD1710111-0111MW1051REMSYN088AAXX  28091 76393 31910 00000 10100 20065 39594 40177 57011 70544 90840 333 30/// 59011;
0273763930999992010122812004+25733-100300FM-12+051599999V0203201N001012200019N0010001N1+00961+00571101741ADDAA124000091AY141061AY241061GA1001+999999999GF100991001001999999001001IA1019KA1240M+01901KA2120N+00801MA1999999095881MD1610061+0401MW1051REMSYN106AAXX  28121 76393 31910 03201 10096 20057 39588 40174 56006 70544 91140 333 10190 20080 30074 58040 70000;EQDQ01  00002PRCP24
0217763930999992010122821004+25733-100300FM-12+051599999V0200501N002012200019N0020001N1+02121+01101101281ADDAY141031AY201031GA1011+010201081GF102991011041012501001041IA1019MA1999999095491MD1710371-0491MW1051REMSYN106AAXX  28211 76393 31620 20502 10212 20110 39549 40128 57037 70540 81404 92055 333 30/// 56305 59049 81834;
0262763930999992010122900004+25733-100300FM-12+051599999V0200901N002012200019N0030001N1+02101+01071101161ADDAA124000091AY141061AY201061GF101991011041012501001001IA1019KA1120M+02381KA2180N+00801MA1999999095431MD1410001-0501MW1051REMSYN130AAXX  29001 76393 31630 10902 10210 20107 39543 40116 54006 70540 81400 92355 333 10238 20080 30/// 50081 56300 59050 70000 81634;
0217763930999992010122903004+25733-100300FM-12+051599999V0200801N001012200019N0020001N1+01901+01251101231ADDAY101031AY201031GA1021+008101061GF102991021041008001001001IA1019MA1999999095531MD1210101-0541MW1051REMSYN106AAXX  29031 76393 32520 20801 10190 20125 39553 40123 52010 70500 82400 90255 333 30/// 56300 59054 82627;
0251763930999992010122906004+25733-100300FM-12+051599999V0200901N001012200019N0020001N1+01601+01301101231ADDAY101061AY201061GA1001+999999999GF100991001001999999001001GJ104269IA1019KA1240M+01901KA2240N+00801MA1999999095541MD1210011-0511MW1051REMSYN106AAXX  29061 76393 31920 00901 10160 20130 39554 40123 52001 70500 90550 333 10190 20080 30/// 55071 59051;
0217763930999992010122909004+25733-100300FM-12+051599999V0203201N001012200019N0010001N1+01261+01161101091ADDAY141031AY221031GA1021+001201061GF102991021051001501001001IA1019MA1999999095381MD1610161+0561MW1051REMSYN106AAXX  29091 76393 31210 23201 10126 20116 39538 40109 56016 70542 82500 90840 333 30/// 56800 58056 82604;
0272763930999992010122912004+25733-100300FM-12+051599999V0202601N001010033019N0010001N1+01461+01191101031ADDAA124000091AY121061AY221061GA1081+003301061GF108991081051004501999999IA1019KA1240M+01901KA2120N+01141MA1999999095291MD1710091+0591MW1051REMSYN124AAXX  29121 76393 31410 82601 10146 20119 39529 40103 57009 70522 885// 91140 333 10190 20114 30110 563// 58059 70000 88611;
0199763930999992010122915004+25733-100300FM-12+051599999V0202601N001012200019N0010001N1+01541+01171101121ADDAY101031AY201031GA1001+999999999GF100991001001999999001001IA1019MA1999999095331MD1210041-0661MW1041REMSYN088AAXX  29151 76393 31910 02601 10154 20117 39533 40112 52004 70400 91450 333 30/// 59066;
0237763930999992010122918004+25733-100300FM-12+051599999V0201101N001012200019N0010001N1+02181+01131100941ADDAY101061AY201061GA1001+999999999GF100991001001999999001001IA1019KA1120M+02381KA2240N+01101MA1999999095191MD1710141-0671MW1051REMSYN100AAXX  29181 76393 31910 01101 10218 20113 39519 40094 57014 70500 91750 333 10238 20110 30/// 59067;
0199763930999992010122921004+25733-100300FM-12+051599999V0201301N004012200019N0020001N1+02661+00981100451ADDAY141031AY201031GA1001+999999999GF100991001001999999001001IA1019MA1999999094791MD1710391-0701MW1051REMSYN088AAXX  29211 76393 31920 01304 10266 20098 39479 40045 57039 70540 92055 333 30/// 59070;
0279763930999992010123000004+25733-100300FM-12+051599999V0202201N001012200019N0020001N1+02361+00821100311ADDAA124000091AY141061AY201061GA1001+999999999GF100991001001999999001001IA1019KA1120M+02801KA2180N+01141MA1999999094701MD1410001-0731MW1051REMSYN112AAXX  30001 76393 31920 02201 10236 20082 39470 40031 54009 70540 92355 333 10280 20114 30/// 50411 59073 70000;EQDQ01  00002PRCP24
0199763930999992010123003004+25733-100300FM-12+051599999V0202101N002012200019N0020001N1+02001+00901100391ADDAY101031AY201031GA1001+999999999GF100991001001999999001001IA1019MA1999999094811MD1210111-0721MW1051REMSYN088AAXX  30031 76393 31920 02102 10200 20090 39481 40039 52011 70500 90250 333 30/// 59072;
0251763930999992010123006004+25733-100300FM-12+051599999V0202701N002012200019N0020001N1+01761+00971100391ADDAY101061AY201061GA1001+999999999GF100991001001999999001001GJ105409IA1019KA1240M+02801KA2240N+01141MA1999999094801MD1710011-0741MW1051REMSYN106AAXX  30061 76393 31920 02702 10176 20097 39480 40039 57001 70500 90550 333 10280 20114 30/// 55090 59074;
0199763930999992010123009004+25733-100300FM-12+051599999V0202801N002012200019N0010001N1+01521+00291100321ADDAY101031AY201031GA1001+999999999GF100991001001999999001001IA1019MA1999999094691MD1710111+0691MW1051REMSYN088AAXX  30091 76393 31910 02802 10152 20029 39469 40032 57011 70500 90840 333 30/// 58069;
0273763930999992010123012004+25733-100300FM-12+051599999V0202601N001012200019N0010001N1+01341+00351100331ADDAA124000091AY101061AY201061GA1001+999999999GF100991001001999999001001IA1019KA1240M+02801KA2120N+01301MA1999999094651MD1710041+0641MW1051REMSYN106AAXX  30121 76393 31910 02601 10134 20035 39465 40033 57004 70500 91140 333 10280 20130 30110 58064 70000;EQDQ01  00002PRCP24
0217763930999992010123021004+25733-100300FM-12+051599999V0200901N001019999999N0030001N1+03101-00141099921ADDAY121031AY221031GA1031+030001031GF105991031001999999011011IA1019MA1999999094331MD1710351-0461MW1051REMSYN106AAXX  30211 76393 31930 50901 10310 21014 39433 49992 57035 70522 83011 92050 333 30/// 56058 59046 83360;
0262763930999992010123100004+25733-100300FM-12+051599999V0202001N003019999999N0040001N1+02701-00011099821ADDAA124000091AY121061AY221061GF106991051001999999071041IA1019KA1120M+03221KA2180N+01301MA1999999094291MD1710041-0411MW1051REMSYN130AAXX  31001 76393 31940 62003 10270 21001 39429 49982 57004 70522 85074 92350 333 10322 20130 30/// 50441 56058 59041 70000 85363;
0199763930999992010123103004+25733-100300FM-12+051599999V0202001N001012200019N0020001N1+02161+00241099971ADDAY101031AY201031GA1001+999999999GF100991001001999999001001IA1019MA1999999094471MD1210181-0341MW1051REMSYN088AAXX  31031 76393 31920 02001 10216 20024 39447 49997 52018 70500 90250 333 30/// 59034;
0251763930999992010123106004+25733-100300FM-12+051599999V0202401N001012200019N0020001N1+01741+00071099951ADDAY101061AY201061GA1001+999999999GF100991001001999999001001GJ103849IA1019KA1240M+03221KA2240N+01301MA1999999094441MD1310031+0441MW1051REMSYN106AAXX  31061 76393 31920 02401 10174 20007 39444 49995 53003 70500 90550 333 10322 20130 30/// 55064 58044;
0199763930999992010123109004+25733-100300FM-12+051599999V0201901N001012200019N0020001N1+01521+00061100051ADDAY101031AY201031GA1001+999999999GF100991001001999999001001IA1019MA1999999094471MD1310031+0221MW1051REMSYN088AAXX  31091 76393 31920 01901 10152 20006 39447 40005 53003 70500 90840 333 30/// 58022;
0273763930999992010123112004+25733-100300FM-12+051599999V0202701N001012200019N0020001N1+01441+00001100261ADDAA124000091AY101061AY201061GA1001+999999999GF100991001001999999001001IA1019KA1240M+03221KA2120N+01421MA1999999094601MD1210131+0051MW1051REMSYN106AAXX  31121 76393 31920 02701 10144 20000 39460 40026 52013 70500 91140 333 10322 20142 30118 58005 70000;EQDQ01  00002PRCP24
0236763930999992010123115004+25733-100300FM-12+051599999V0202801N001010300019N0010001N1+01901+00261100611ADDAY121031AY201031GA1061+030001011GF106991001001999999001091IA1019MA1999999095442MD1210301+0161MW1041REMSYN106AAXX  31151 76393 31910 62801 10190 20026 39544 40061 52030 70420 80009 91450 333 30/// 56008 58016 86160;EQDQ01+095443APOSP 
0236763930999992010123121004+25733-100300FM-12+051599999V0200501N002010600019N0020001N1+02941+00351100391ADDAY141031AY221031GA1081+060001001GF108991001001999999001041IA1019MA1999999094791MD1710241+0461MW1051REMSYN106AAXX  31211 76393 31920 80502 10294 20035 39479 40039 57024 70542 88004 92055 333 30/// 56005 58046 88070;EQDQ01+000082SCOTLC
