0262763930999992012010100004+25733-100300FM-12+051599999V0201101N001019999999N0040001N1+02181+00741101481ADDAA124000091AY101061AY201061GF106991061001999999021001IA1019KA1120M+02501KA2180N+01101MA1999999095791MD1210051+0031MW1051REMSYN130AAXX  01001 76393 31940 61101 10218 20074 39579 40148 52005 70500 86020 92350 333 10250 20110 30/// 50431 56050 58003 70000 86461;
0217763930999992012010203004+25733-100300FM-12+051599999V0203301N002010150019N0020001N1+01501+00211103471ADDAY121031AY221031GA1081+015001061GF108991081051017501999999IA1019MA1999999097571MD1210241+9999MW1041REMSYN106AAXX  02031 76393 31720 83302 10150 20021 39757 40347 52024 70422 885// 90250 333 30/// 565// 58/// 88650;
0272763930999992012010206004+25733-100300FM-12+051599999V0209999C000019999999N0020001N1+01501+00261103421ADDAY121061AY221061GF107991999051017501999999GJ100009IA1019KA1240M+02461KA2240N+01401MA1999999097521MD1710051+9999MW1041REMSYN124AAXX  02061 76393 31720 70000 10150 20026 39752 40342 57005 70422 885// 90552 333 10246 20140 30/// 55000 565// 58/// 87650;EQDQ01+000082SCOTLC
0211763930999992012010209004+25733-100300FM-12+051599999V0200201N001010138019N0020001N1+01281+00161103401ADDAY121031AY221031GA1061+013801061GF106991061051012501001001IA1019MA1999999097511MD1710011+9999MW1041REMSYN100AAXX  02091 76393 31620 60201 10128 20016 39751 40340 57001 70422 86500 90855 333 30/// 58/// 86646;
0272763930999992012010212004+25733-100300FM-12+051599999V0203601N001010144019N0020001N1+01181+00121103591ADDAA124000091AY121061AY221061GA1061+014401061GF106991061051012501001001IA1019KA1240M+02461KA2120N+01101MA1999999097661MD1210151+9999MW1041REMSYN124AAXX  02121 76393 31620 63601 10118 20012 39766 40359 52015 70422 86500 91150 333 10246 20110 30106 56500 58/// 70000 86648;
0189763930999992012010215004+25733-100300FM-12+051599999V0200301N002010123019N0060001N1+01141-00151103921ADDGA1081+012301061GF108991081051999999999999IA1019MA1999999097951MD1210291+9999REMSYN100AAXX  02151 76393 32956 80302 10114 21015 39795 40392 52029 885// 91450 333 30/// 565// 58/// 88641;
0255763930999992012010218004+25733-100300FM-12+051599999V0200401N002010360019N0050001N1+01421+00201103961ADDAY121061AY221061GA1051+036001031GF105991051001999999071001IA1019KA1120M+01521KA2240N+01101MA1999999097991MD1210041+9999MW1041REMSYN118AAXX  02181 76393 31950 50402 10142 20020 39799 40396 52004 70422 85070 91750 333 10152 20110 30/// 56050 58/// 85362;
0189763930999992012010221004+25733-100300FM-12+051599999V0200201N001012200019N0050001N1+01701+00181103641ADDGA1041+030001031GF104991041001999999071001IA1019MA1999999097691MD1710301+9999REMSYN100AAXX  02211 76393 32950 40201 10170 20018 39769 40364 57030 84070 92050 333 30/// 56050 58/// 84360;
0217763930999992012010300004+25733-100300FM-12+051599999V0201201N004012200019N0050001N1+01541+00151103541ADDGF101991011001999999011001IA1019KA1120M+01811KA2180N+01101MA1999999097621MD1710021+0291REMSYN118AAXX  03001 76393 32950 11204 10154 20015 39762 40354 57002 81010 92350 333 10181 20110 30/// 50431 56050 58029 70000;
0171763930999992012010303004+25733-100300FM-12+051599999V0201201N002012200019N0020001N1+01261-00211103621ADDGA1001+999999999GF100991001001999999001001IA1019MA1999999097701MD1210081+0131REMSYN082AAXX  03031 76393 32920 01202 10126 21021 39770 40362 52008 90252 333 30/// 58013;
0242763930999992012010306004+25733-100300FM-12+051599999V0202101N001012200019N0020001N1+01041+00091103591ADDGA1001+999999999GF100991001001999999001001GJ103129IA1019KA1240M+01811KA2240N+99999MA1999999097661MD1710041+0141REMSYN100AAXX  03061 76393 32920 02101 10104 20009 39766 40359 57004 90551 333 10181 20110 30/// 55052 58014;EQDQ01 +01102ATMN  
0171763930999992012010309004+25733-100300FM-12+051599999V0202101N001012200019N0020001N1+00781+00121103471ADDGA1001+999999999GF100991001001999999001001IA1019MA1999999097511MD1710151+0001REMSYN082AAXX  03091 76393 32920 02101 10078 20012 39751 40347 57015 90855 333 30/// 58000;
0245763930999992012010312004+25733-100300FM-12+051599999V0201601N001012200019N0020001N1+00761-00011103441ADDAA124000091GA1001+999999999GF100991001001999999001001IA1019KA1240M+01811KA2120N+00601MA1999999097441MD1710071-0221REMSYN100AAXX  03121 76393 32920 01601 10076 21001 39744 40344 57007 91150 333 10181 20060 30052 59022 70000;EQDQ01  00002PRCP24
0171763930999992012010315004+25733-100300FM-12+051599999V0201101N001012200019N0030001N1+01061+00181103541ADDGA1001+999999999GF100991001001999999001001IA1019MA1999999097511MD1210071-0441REMSYN082AAXX  03151 76393 32930 01101 10106 20018 39751 40354 52007 91455 333 30/// 59044;
0237763930999992012010318004+25733-100300FM-12+051599999V0201101N001012200019N0040001N1+01611+00211103351ADDAY101061AY201061GA1001+999999999GF100991001001999999001001IA1019KA1120M+01671KA2240N+00601MA1999999097361MD1710151-0631MW1051REMSYN100AAXX  03181 76393 31940 01101 10161 20021 39736 40335 57015 70500 91755 333 10167 20060 30/// 59063;
0171763930999992012010321004+25733-100300FM-12+051599999V0201201N004012200019N0050001N1+01901+00031102841ADDGA1001+999999999GF100991001001999999001001IA1019MA1999999096921MD1710431-0771REMSYN082AAXX  03211 76393 32950 01204 10190 20003 39692 40284 57043 92045 333 30/// 59077;
0251763930999992012010400004+25733-100300FM-12+051599999V0201201N003012200019N0050001N1+01761+00211102651ADDAA124000091GA1001+999999999GF100991001001999999001001IA1019KA1120M+02021KA2180N+00601MA1999999096791MD1710131-0831REMSYN106AAXX  04001 76393 32950 01203 10176 20021 39679 40265 57013 92350 333 10202 20060 30/// 50321 59083 70000;EQDQ01  00002PRCP24
0199763930999992012010403004+25733-100300FM-12+051599999V0203201N002012200019N0020001N1+01401+00521102671ADDAY101031AY201031GA1001+999999999GF100991001001999999001001IA1019MA1999999096841MD1210051-0861MW1051REMSYN088AAXX  04031 76393 31920 03202 10140 20052 39684 40267 52005 70500 90250 333 30/// 59086;
0251763930999992012010406004+25733-100300FM-12+051599999V0201801N001012200019N0020001N1+01221+00481102581ADDAY101061AY201061GA1001+999999999GF100991001001999999001001GJ105589IA1019KA1240M+02021KA2240N+00601MA1999999096751MD1710091-0911MW1051REMSYN106AAXX  04061 76393 31920 01801 10122 20048 39675 40258 57009 70500 90550 333 10202 20060 30/// 55093 59091;
0171763930999992012010409004+25733-100300FM-12+051599999V0202801N001012200019N0020001N1+00961+00341102341ADDGA1001+999999999GF100991001001999999001001IA1019MA1999999096491MD1710261-1021REMSYN082AAXX  04091 76393 32920 02801 10096 20034 39649 40234 57026 90850 333 30/// 59102;
0245763930999992012010412004+25733-100300FM-12+051599999V0202501N001012200019N0020001N1+00861+00361102221ADDAA124000091GA1001+999999999GF100991001001999999001001IA1019KA1240M+02021KA2120N+00701MA1999999096321MD1710171-1121REMSYN100AAXX  04121 76393 32920 02501 10086 20036 39632 40222 57017 91150 333 10202 20070 30064 59112 70000;EQDQ01  00002PRCP24
0171763930999992012010415004+25733-100300FM-12+051599999V0202401N001012200019N0040001N1+01371+00431102361ADDGA1001+999999999GF100991001001999999001001IA1019MA1999999096441MD1210121-1071REMSYN082AAXX  04151 76393 32940 02401 10137 20043 39644 40236 52012 91455 333 30/// 59107;
0205763930999992012010418004+25733-100300FM-12+051599999V0200401N001012200019N0050001N1+02301+00781102271ADDGF101991011001999999031001IA1019KA1120M+02381KA2240N+00701MA1999999096381MD1710061-0981REMSYN106AAXX  04181 76393 32950 10401 10230 20078 39638 40227 57006 81030 91755 333 10238 20070 30/// 56080 59098;
0189763930999992012010421004+25733-100300FM-12+051599999V0201101N003010300019N0050001N1+02661+00651101901ADDGA1071+030001041GF107991071001999999021999IA1019MA1999999096111MD1710281-1241REMSYN100AAXX  04211 76393 32950 71103 10266 20065 39611 40190 57028 8702/ 92050 333 30/// 5608/ 59124 87460;
0262763930999992012010500004+25733-100300FM-12+051599999V0201201N003019999999N0040001N1+02181+00651102051ADDAA124000091AY121061AY221061GF106991051001999999071081IA1019KA1120M+02741KA2180N+00701MA1999999096331MD1210221-0461MW1041REMSYN130AAXX  05001 76393 31940 61203 10218 20065 39633 40205 52022 70422 85078 92350 333 10274 20070 30/// 50251 56088 59046 70000 85360;
0195763930999992012010503004+25733-100300FM-12+051599999V0203601N002012200019N0020001N1+01701+00441102261ADDAY101031AY201031GF102991021001999999011001IA1019MA1999999096561MD1210231-0281MW1041REMSYN100AAXX  05031 76393 31920 23602 10170 20044 39656 40226 52023 70400 82010 90250 333 30/// 56080 59028;
0253763930999992012010506004+25733-100300FM-12+051599999V0209999C000012200019N0020001N1+01521+00721102391ADDAY101061AY201061GF103991031001999999031001GJ103129IA1019KA1240M+02741KA2240N+00701MA1999999096661MD1210101-0091MW1041REMSYN124AAXX  05061 76393 31920 30000 10152 20072 39666 40239 52010 70400 83030 90551 333 10274 20070 30/// 55052 56080 59009 83360;
0217763930999992012010509004+25733-100300FM-12+051599999V0201001N001012200019N0020001N1+01321+00511102371ADDAY101031AY201031GA1021+030001031GF102991021001999999041001IA1019MA1999999096591MD1710071+0101MW1041REMSYN106AAXX  05091 76393 31920 21001 10132 20051 39659 40237 57007 70400 82040 90850 333 30/// 56070 58010 82360;
0272763930999992012010512004+25733-100300FM-12+051599999V0201101N001010330019N0020001N1+01121+00491102481ADDAA124000091AY121061AY221061GA1071+033001031GF107991071001999999031001IA1019KA1240M+02741KA2120N+01061MA1999999096631MD1210041+0311MW1041REMSYN124AAXX  05121 76393 31920 71101 10112 20049 39663 40248 52004 70422 87030 91150 333 10274 20106 30100 56010 58031 70000 87361;
0211763930999992012010515004+25733-100300FM-12+051599999V0209999C000010330019N0030001N1+01381+00591102671ADDAY121031AY221031GA1061+033001031GF106991061001999999071001IA1019MA1999999096791MD1210161+0361MW1041REMSYN100AAXX  05151 76393 31930 60000 10138 20059 39679 40267 52016 70422 86070 91450 333 30/// 58036 86361;
0255763930999992012010518004+25733-100300FM-12+051599999V0200701N001019999999N0030001N1+01861+00421102551ADDAY121061AY221061GA1041+030001041GF106991041001999999011081IA1019KA1120M+01981KA2240N+01061MA1999999096681MD1710111+0291MW1041REMSYN118AAXX  05181 76393 31930 60701 10186 20042 39668 40255 57011 70422 84018 91750 333 10198 20106 30/// 56075 58029 84460;
0217763930999992012010521004+25733-100300FM-12+051599999V0200301N001010300019N0030001N1+02021+00511102161ADDAY121031AY221031GA1071+030001041GF107991071001999999021999IA1019MA1999999096351MD1710331+0241MW1051REMSYN106AAXX  05211 76393 31930 70301 10202 20051 39635 40216 57033 70522 8702/ 92045 333 30/// 5607/ 58024 87460;
0262763930999992012010600004+25733-100300FM-12+051599999V0200901N001019999999N0040001N1+01981+00551101981ADDAA124000091AY121061AY221061GF105991051001999999021001IA1019KA1120M+02171KA2180N+01061MA1999999096221MD1710131-0111MW1041REMSYN130AAXX  06001 76393 31940 50901 10198 20055 39622 40198 57013 70422 85020 92345 333 10217 20106 30/// 50331 56080 59011 70000 85460;
0273763930999992012010612004+25733-100300FM-12+051599999V0202701N001012200019N0020001N1+01041+00621101851ADDAA124000091AY101061AY201061GA1001+999999999GF100991001001999999001001IA1019KA1240M+02171KA2120N+00941MA1999999096031MD1710051-0601MW1041REMSYN106AAXX  06121 76393 31920 02701 10104 20062 39603 40185 57005 70400 91150 333 10217 20094 30088 59060 70000;EQDQ01  00002PRCP24
0171763930999992012010615004+25733-100300FM-12+051599999V0202201N001012200019N0020001N1+01461+00581101861ADDGA1001+999999999GF100991001001999999001001IA1019MA1999999096011MD1710021-0781REMSYN082AAXX  06151 76393 32920 02201 10146 20058 39601 40186 57002 91455 333 30/// 59078;
0209763930999992012010618004+25733-100300FM-12+051599999V0200601N001012200019N0050001N1+02221+00771101721ADDGA1001+999999999GF100991001001999999001001IA1019KA1120M+02291KA2240N+00941MA1999999095911MD1710101-0771REMSYN094AAXX  06181 76393 32950 00601 10222 20077 39591 40172 57010 91755 333 10229 20094 30/// 59077;
0171763930999992012010621004+25733-100300FM-12+051599999V0201301N003012200019N0050001N1+02581+00951101311ADDGA1001+999999999GF100991001001999999001001IA1019MA1999999095571MD1710341-0781REMSYN082AAXX  06211 76393 32950 01303 10258 20095 39557 40131 57034 92050 333 30/// 59078;
0279763930999992012010700004+25733-100300FM-12+051599999V0202001N002012200019N0050001N1+02301+00731101191ADDAA124000091AY101061AY201061GA1001+999999999GF100991001001999999001001IA1019KA1120M+02681KA2180N+00941MA1999999095531MD1710041-0691MW1051REMSYN112AAXX  07001 76393 31950 02002 10230 20073 39553 40119 57004 70500 92350 333 10268 20094 30/// 50521 59069 70000;EQDQ01  00002PRCP24
0199763930999992012010703004+25733-100300FM-12+051599999V0202101N002012200019N0020001N1+01901+00901101281ADDAY101031AY201031GA1001+999999999GF100991001001999999001001IA1019MA1999999095651MD1210121-0641MW1041REMSYN088AAXX  07031 76393 31920 02102 10190 20090 39565 40128 52012 70400 90251 333 30/// 59064;
0251763930999992012010706004+25733-100300FM-12+051599999V0202901N001012200019N0020001N1+01541+00951101331ADDAY101061AY201061GA1001+999999999GF100991001001999999001001GJ105469IA1019KA1240M+02681KA2240N+00941MA1999999095671MD1210021-0561MW1041REMSYN106AAXX  07061 76393 31920 02901 10154 20095 39567 40133 52002 70400 90551 333 10268 20094 30/// 55091 59056;
0245763930999992012010712004+25733-100300FM-12+051599999V0202501N002012200019N0020001N1+01241+00461101431ADDAA124000091GA1001+999999999GF100991001001999999001001IA1019KA1240M+02681KA2120N+01101MA1999999095661MD1210031-0371REMSYN100AAXX  07121 76393 32920 02502 10124 20046 39566 40143 52003 91150 333 10268 20110 30092 59037 70000;EQDQ01  00002PRCP24
0217763930999992012010715004+25733-100300FM-12+051599999V0202101N001010900019N0040001N1+01591+00391101691ADDAY121031AY221031GA1071+090001001GF107991001001999999001031IA1019MA1999999095881MD1210221-0131MW1041REMSYN106AAXX  07151 76393 31940 72101 10159 20039 39588 40169 52022 70422 80003 91455 333 30/// 56007 59013 87080;
0255763930999992012010718004+25733-100300FM-12+051599999V0201301N001010900019N0050001N1+02561+00531101691ADDAY121061AY221061GA1061+090001001GF106991001001999999001041IA1019KA1120M+02641KA2240N+01101MA1999999095901MD1210021-0011MW1041REMSYN118AAXX  07181 76393 31950 61301 10256 20053 39590 40169 52002 70422 80004 91755 333 10264 20110 30/// 56007 59001 86080;
0167763930999992012010721004+25733-100300FM-12+051599999V0201401N002012200019N0060001N1+02821+00591101281ADDGF103991011001999999041081IA1019MA1999999095581MD1710321+0011REMSYN094AAXX  07211 76393 32956 31402 10282 20059 39558 40128 57032 81048 92050 333 30/// 56055 58001;
0217763930999992012010800004+25733-100300FM-12+051599999V0201201N004012200019N0060001N1+02501+00741101241ADDGF102991021001999999011001IA1019KA1120M+02981KA2180N+01101MA1999999095611MD1210031+0081REMSYN118AAXX  08001 76393 32956 21204 10250 20074 39561 40124 52003 82010 92350 333 10298 20110 30/// 50531 56050 58008 70000;
0171763930999992012010803004+25733-100300FM-12+051599999V0201201N003012200019N0020001N1+02141+00211101311ADDGA1001+999999999GF100991001001999999001001IA1019MA1999999095721MD1210111+0071REMSYN082AAXX  08031 76393 32920 01203 10214 20021 39572 40131 52011 90252 333 30/// 58007;
0223763930999992012010806004+25733-100300FM-12+051599999V0203401N001012200019N0020001N1+01721+00661101341ADDGA1001+999999999GF100991001001999999001001GJ105349IA1019KA1240M+02981KA2240N+01101MA1999999095721MD1410001+0051REMSYN100AAXX  08061 76393 32920 03401 10172 20066 39572 40134 54000 90550 333 10298 20110 30/// 55089 58005;
0217763930999992012010809004+25733-100300FM-12+051599999V0202601N001010330019N0020001N1+01521+00491101221ADDAY121031AY221031GA1061+033001041GF106991061001999999011001IA1019MA1999999095551MD1710171-0081MW1041REMSYN106AAXX  08091 76393 31920 62601 10152 20049 39555 40122 57017 70422 86010 90850 333 30/// 56050 59008 86461;
0269763930999992012010812004+25733-100300FM-12+051599999V0202301N001012200019N0020001N1+01321+00601101211ADDAA124000091AY101061AY201061GF101991011001999999011001IA1019KA1240M+02981KA2120N+01221MA1999999095481MD1710071-0181MW1041REMSYN118AAXX  08121 76393 31920 12301 10132 20060 39548 40121 57007 70400 81010 91150 333 10298 20122 30116 56050 59018 70000;EQDQ01  00002PRCP24
0217763930999992012010815004+25733-100300FM-12+051599999V0202801N001010300019N0030001N1+01421+00681101391ADDAY121031AY221031GA1051+030001031GF106991051001999999041081IA1019MA1999999095621MD1210141-0261MW1041REMSYN106AAXX  08151 76393 31930 62801 10142 20068 39562 40139 52014 70422 85048 91455 333 30/// 56077 59026 85360;
0255763930999992012010818004+25733-100300FM-12+051599999V0200601N001010360019N0050001N1+01901+00951101331ADDAY121061AY221061GA1051+036001031GF106991051001999999041081IA1019KA1120M+02021KA2240N+01221MA1999999095561MD1710061-0341MW1041REMSYN118AAXX  08181 76393 31950 60601 10190 20095 39556 40133 57006 70422 85048 91755 333 10202 20122 30/// 56077 59034 85362;
0217763930999992012010821004+25733-100300FM-12+051599999V0200601N002010330019N0050001N1+02241+00961101001ADDAY121031AY221031GA1061+033001041GF106991061001999999021001IA1019MA1999999095271MD1710291-0311MW1051REMSYN106AAXX  08211 76393 31950 60602 10224 20096 39527 40100 57029 70522 86020 92050 333 30/// 56050 59031 86461;
0262763930999992012010900004+25733-100300FM-12+051599999V0200601N001019999999N0040001N1+02101+01231100971ADDAA124000091AY121061AY221061GF106991061001999999021001IA1019KA1120M+02361KA2180N+01221MA1999999095281MD1210011-0331MW1051REMSYN130AAXX  09001 76393 31940 60601 10210 20123 39528 40097 52001 70522 86020 92350 333 10236 20122 30/// 50351 56050 59033 70000 86461;
0217763930999992012010903004+25733-100300FM-12+051599999V0200801N001010300019N0020001N1+01901+01431101061ADDAY121031AY221031GA1071+030001041GF107991071001999999021001IA1019MA1999999095391MD1210111-0331MW1041REMSYN106AAXX  09031 76393 31920 70801 10190 20143 39539 40106 52011 70422 87020 90253 333 30/// 56050 59033 87460;
0253763930999992012010906004+25733-100300FM-12+051599999V0203101N001012200019N0020001N1+01701+01311101021ADDAY111061AY211061GF104991041001999999031001GJ101569IA1019KA1240M+02361KA2240N+01221MA1999999095351MD1710041-0371MW1041REMSYN124AAXX  09061 76393 31920 43101 10170 20131 39535 40102 57004 70411 84030 90550 333 10236 20122 30/// 55026 56070 59037 84360;
0217763930999992012010915004+25733-100300FM-12+051599999V0203401N001010066019N0020001N1+01641+01101101431ADDAY121031AY221031GA1071+006601061GF107991071051008001999999IA1019MA1999999095661MD1210251+0041MW1041REMSYN106AAXX  09151 76393 31520 73401 10164 20110 39566 40143 52025 70422 875// 91455 333 30/// 56199 58004 87622;
0261763930999992012010918004+25733-100300FM-12+051599999V0203201N00101090001CN0020001N1+02011+01191101511ADDAY121061AY221061GA1021+010201061GF107991021051012501001051IA1019KA1120M+02111KA2240N+01301MA1999999095751MD1210091+0191MW1041REMSYN124AAXX  09181 76393 31620 73201 10201 20119 39575 40151 52009 70422 82505 91755 333 10211 20130 30/// 56107 58019 82634 85075;
0195763930999992012010921004+25733-100300FM-12+051599999V0200601N003012200019N0030001N1+02261+01151101201ADDAY101031AY201031GF103991001001999999001081IA1019MA1999999095491MD1710271+0021MW1051REMSYN100AAXX  09211 76393 31930 30603 10226 20115 39549 40120 57027 70500 80008 92050 333 30/// 56007 58002;
0262763930999992012011000004+25733-100300FM-12+051599999V0200401N003010120019N0040001N1+01841+00911101341ADDAA124000091AY121061AY221061GF106991061051012501001001IA1019KA1120M+02381KA2180N+01301MA1999999095641MD1210151+0361MW1051REMSYN130AAXX  10001 76393 31640 60403 10184 20091 39564 40134 52015 70522 86500 92350 333 10238 20130 30/// 50181 56500 58036 70000 86638;
0217763930999992012011003004+25733-100300FM-12+051599999V0200601N002010105019N0020001N1+01461+00601101781ADDAY121031AY221031GA1081+010501061GF108991081051012501999999IA1019MA1999999096051MD1210411+0661MW1041REMSYN106AAXX  10031 76393 31620 80602 10146 20060 39605 40178 52041 70422 885// 90250 333 30/// 565// 58066 88635;
0253763930999992012011006004+25733-100300FM-12+051599999V0200601N001012200019N0020001N1+01201+00411101901ADDAY111061AY211061GF104991041051008001001001GJ102169IA1019KA1240M+02381KA2240N+01161MA1999999096141MD1210091+0791MW1041REMSYN124AAXX  10061 76393 31520 40601 10120 20041 39614 40190 52009 70411 84500 90551 333 10238 20116 30/// 55036 56500 58079 84633;
0199763930999992012011009004+25733-100300FM-12+051599999V0200301N003012200019N0020001N1+00781+00321101961ADDAY101031AY201031GA1001+999999999GF100991001001999999001001IA1019MA1999999096141MD1410001+0741MW1041REMSYN088AAXX  10091 76393 31920 00303 10078 20032 39614 40196 54000 70400 90850 333 30/// 58074;
0273763930999992012011012004+25733-100300FM-12+051599999V0200401N001012200019N0020001N1+00661+00181102071ADDAA124000091AY101061AY201061GA1001+999999999GF100991001001999999001001IA1019KA1240M+02381KA2120N+00601MA1999999096171MD1210031+0771MW1041REMSYN106AAXX  10121 76393 31920 00401 10066 20018 39617 40207 52003 70400 91150 333 10238 20060 30058 58077 70000;EQDQ01  00002PRCP24
0195763930999992012011015004+25733-100300FM-12+051599999V0201801N001012200019N0030001N1+01041+00441102131ADDAY111031AY211031GF102991001001999999001081IA1019MA1999999096191MD1210021+0531MW1041REMSYN100AAXX  10151 76393 31930 21801 10104 20044 39619 40213 52002 70411 80008 91455 333 30/// 56005 58053;
0233763930999992012011018004+25733-100300FM-12+051599999V0201301N001012200019N0030001N1+01941+00331101911ADDAY111061AY211061GF101991001001999999001061IA1019KA1120M+02031KA2240N+00601MA1999999096001MD1710091+0251MW1041REMSYN112AAXX  10181 76393 31930 11301 10194 20033 39600 40191 57009 70411 80006 91755 333 10203 20060 30/// 56005 58025;
0195763930999992012011021004+25733-100300FM-12+051599999V0201001N005012200019N0040001N1+02301+00371101501ADDAY101031AY201031GF102991021001999999011001IA1019MA1999999095691MD1710311+0201MW1041REMSYN100AAXX  10211 76393 31940 21005 10230 20037 39569 40150 57031 70400 82010 92045 333 30/// 56050 58020;
0245763930999992012011100004+25733-100300FM-12+051599999V0201201N004012200019N0040001N1+01861+00481101441ADDAY101061AY201061GF103991011001999999011081IA1019KA1120M+02401KA2180N+00601MA1999999095701MD1210011+0061MW1041REMSYN124AAXX  11001 76393 31940 31204 10186 20048 39570 40144 52001 70400 81018 92345 333 10240 20060 30/// 50461 56055 58006 70000;
0199763930999992012011103004+25733-100300FM-12+051599999V0201401N001012200019N0020001N1+01521+00581101451ADDAY101031AY201031GA1001+999999999GF100991001001999999001001IA1019MA1999999095741MD1210041-0311MW1051REMSYN088AAXX  11031 76393 31920 01401 10152 20058 39574 40145 52004 70500 90250 333 30/// 59031;
0223763930999992012011106004+25733-100300FM-12+051599999V0203001N001012200019N0020001N1+01181+00471101521ADDGA1001+999999999GF100991001001999999001001GJ105409IA1019KA1240M+02401KA2240N+00601MA1999999095781MD1210041-0361REMSYN100AAXX  11061 76393 32920 03001 10118 20047 39578 40152 52004 90550 333 10240 20060 30/// 55090 59036;
0171763930999992012011109004+25733-100300FM-12+051599999V0202401N001012200019N0020001N1+01061+00271101391ADDGA1001+999999999GF100991001001999999001001IA1019MA1999999095601MD1710181-0541REMSYN082AAXX  11091 76393 32920 02401 10106 20027 39560 40139 57018 90850 333 30/// 59054;
0245763930999992012011112004+25733-100300FM-12+051599999V0202901N001012200019N0020001N1+01021+00171101401ADDAA124000091GA1001+999999999GF100991001001999999001001IA1019KA1240M+02401KA2120N+00821MA1999999095571MD1710031-0601REMSYN100AAXX  11121 76393 32920 02901 10102 20017 39557 40140 57003 91150 333 10240 20082 30076 59060 70000;EQDQ01  00002PRCP24
0171763930999992012011115004+25733-100300FM-12+051599999V0202101N001012200019N0050001N1+01481+00261101491ADDGA1001+999999999GF100991001001999999001001IA1019MA1999999095631MD1210061-0561REMSYN082AAXX  11151 76393 32950 02101 10148 20026 39563 40149 52006 91455 333 30/// 59056;
0209763930999992012011118004+25733-100300FM-12+051599999V0201101N001012200019N0050001N1+02271+00531101331ADDGA1001+999999999GF100991001001999999001001IA1019KA1120M+02371KA2240N+00821MA1999999095501MD1710131-0501REMSYN094AAXX  11181 76393 32950 01101 10227 20053 39550 40133 57013 91745 333 10237 20082 30/// 59050;
0171763930999992012011121004+25733-100300FM-12+051599999V0201201N003012200019N0050001N1+02741+00391100881ADDGA1001+999999999GF100991001001999999001001IA1019MA1999999095171MD1710331-0521REMSYN082AAXX  11211 76393 32950 01203 10274 20039 39517 40088 57033 92045 333 30/// 59052;
0284763930999992012011200004+25733-100300FM-12+051599999V0202101N001012200019N0050001N1+02541+00381100731ADDGA1091+030001001GF109991091001999999011999IA1019KA1120M+02901KA2180N+00821MA1999999095101MD1710021+9999REMSYN118AAXX  12001 76393 32950 12101 10254 20038 39510 40073 57002 81010 92345 333 10290 20082 30/// 50431 56050 89060 70000;EQDQ01+000012SCOTCVQ02+000012SCOTLCQ03+000002SCOHCG
0199763930999992012011203004+25733-100300FM-12+051599999V0202201N001012200019N0020001N1+02001+00261100711ADDAY101031AY201031GA1001+999999999GF100991001001999999001001IA1019MA1999999095121MD1210021-0621MW1041REMSYN088AAXX  12031 76393 31920 02201 10200 20026 39512 40071 52002 70400 90251 333 30/// 59062;
0251763930999992012011206004+25733-100300FM-12+051599999V0203501N001012200019N0020001N1+01541+00151100851ADDAY101061AY201061GA1001+999999999GF100991001001999999001001GJ105709IA1019KA1240M+02901KA2240N+00821MA1999999095241MD1210121-0541MW1041REMSYN106AAXX  12061 76393 31920 03501 10154 20015 39524 40085 52012 70400 90551 333 10290 20082 30/// 55095 59054;
0171763930999992012011209004+25733-100300FM-12+051599999V0202501N001012200019N0020001N1+01221+00281101041ADDGA1001+999999999GF100991001001999999001001IA1019MA1999999095361MD1210121-0241REMSYN082AAXX  12091 76393 32920 02501 10122 20028 39536 40104 52012 90851 333 30/// 59024;
0289763930999992012011212004+25733-100300FM-12+051599999V0203601N001012200019N0010001N1+01281+00311101682ADDAA124000091AY101061AY201061GA1001+999999999GF100991001001999999001001IA1019KA1240M+02901KA2120N+01041MA1999999095901MD1210541+0331MW1061REMSYN106AAXX  12121 76393 31910 03601 10128 20031 39590 40168 52054 70600 91149 333 10290 20104 30096 58033 70000;EQDQ01+101683APOSLPQ02  00002PRCP24
0199763930999992012011215004+25733-100300FM-12+051599999V0200601N002012200019N0030001N1+01081+00301102341ADDAY101031AY201031GA1001+999999999GF100991001001999999001001IA1019MA1999999096471MD1210571+0841MW1051REMSYN088AAXX  12151 76393 31930 00602 10108 20030 39647 40234 52057 70500 91450 333 30/// 58084;
0249763930999992012011218004+25733-100300FM-12+051599999V0200401N003012200019N0030001N1+01281+00161102461ADDAY101061AY201061GA1001+999999999GF100991001001999999001001IA1019KA1120M+01361KA2240N+01041MA1999999096561MD1210091+1061MW1051REMSYN112AAXX  12181 76393 31930 00403 10128 20016 39656 40246 52009 70500 80008 91750 333 10136 20104 30/// 56007 58106;
0189763930999992012011221004+25733-100300FM-12+051599999V0200201N005010390019N0040001N1+01221-00091102281ADDGA1061+039001031GF106991061001999999071001IA1019MA1999999096391MD1710171+0221REMSYN100AAXX  12211 76393 32940 60205 10122 21009 39639 40228 57017 86070 92045 333 30/// 56070 58022 86363;
0262763930999992012011300004+25733-100300FM-12+051599999V0200501N003019999999N0030001N1+01001-00121102401ADDAA124000091AY121061AY221061GF107991071001999999071999IA1019KA1120M+01491KA2180N+00961MA1999999096501MD1210111+1401MW1051REMSYN130AAXX  13001 76393 31930 70503 10100 21012 39650 40240 52011 70522 8707/ 92350 333 10149 20096 30/// 50601 56070 58140 70000 87360;
0195763930999992012011303004+25733-100300FM-12+051599999V0203301N001012200019N0020001N1+00861-00201102541ADDAY101031AY201031GF102991021001999999031001IA1019MA1999999096621MD1210121+1501MW1041REMSYN100AAXX  13031 76393 31920 23301 10086 21020 39662 40254 52012 70400 82030 90250 333 30/// 56070 58150;
0251763930999992012011306004+25733-100300FM-12+051599999V0202901N001012200019N0020001N1+00701+00021102531ADDAY101061AY201061GA1001+999999999GF100991001001999999001001GJ102589IA1019KA1240M+01491KA2240N+00661MA1999999096581MD1710041+1341MW1041REMSYN106AAXX  13061 76393 31920 02901 10070 20002 39658 40253 57004 70400 90551 333 10149 20066 30/// 55043 58134;
0171763930999992012011309004+25733-100300FM-12+051599999V0202201N001012200019N0020001N1+00601-00091102471ADDGA1001+999999999GF100991001001999999001001IA1019MA1999999096491MD1710091+1131REMSYN082AAXX  13091 76393 32920 02201 10060 21009 39649 40247 57009 90850 333 30/// 58113;
0257763930999992012011312004+25733-100300FM-12+051599999V0203401N001012200019N0020001N1+00501-00211102581ADDAA124000091GA1001+999999999GF100991001001999999001001IA1019IA2999+00389KA1240M+01491KA2120N+00401MA1999999096561MD1210071+0661REMSYN100AAXX  13121 76393 32920 03401 10050 21021 39656 40258 52007 91150 333 10149 20040 30038 58066 70000;EQDQ01  00002PRCP24
0217763930999992012011315004+25733-100300FM-12+051599999V0200401N001010900019N0030001N1+00801-00171102781ADDAY121031AY221031GA1071+090001001GF107991001001999999001031IA1019MA1999999096751MD1210191+0281MW1041REMSYN106AAXX  13151 76393 31930 70401 10080 21017 39675 40278 52019 70422 80003 91455 333 30/// 56007 58028 87080;
0255763930999992012011318004+25733-100300FM-12+051599999V0201101N001010900019N0040001N1+01161-00181102661ADDAY121061AY221061GA1071+090001001GF107991001001999999001051IA1019KA1120M+01251KA2240N+00401MA1999999096651MD1710101+0091MW1041REMSYN118AAXX  13181 76393 31940 71101 10116 21018 39665 40266 57010 70422 80005 91755 333 10125 20040 30/// 56007 58009 87080;
0195763930999992012011321004+25733-100300FM-12+051599999V0201201N002012200019N0050001N1+01361+00111102411ADDAY101031AY201031GF103991001001999999001081IA1019MA1999999096441MD1710211+0051MW1051REMSYN100AAXX  13211 76393 31950 31202 10136 20011 39644 40241 57021 70500 80008 92050 333 30/// 56005 58005;
0234763930999992012011400004+25733-100300FM-12+051599999V0201201N002019999999N0060001N1+01201-00071102461ADDAA124000091GF106991061001999999031001IA1019KA1120M+01501KA2180N+00401MA1999999096521MD1210081+0021REMSYN124AAXX  14001 76393 32956 61202 10120 21007 39652 40246 52008 86030 92350 333 10150 20040 30/// 50301 56050 58002 70000 86361;
0171763930999992012011403004+25733-100300FM-12+051599999V0200601N001012200019N0020001N1+01001-00181102641ADDGA1001+999999999GF100991001001999999001001IA1019MA1999999096721MD1210201+0101REMSYN082AAXX  14031 76393 32920 00601 10100 21018 39672 40264 52020 90252 333 30/// 58010;
0219763930999992012011406004+25733-100300FM-12+051599999V0202901N001012200019N0020001N1+00781-00031102691ADDGF102991021001999999011001GJ105109IA1019KA1240M+01501KA2240N+00401MA1999999096761MD1210041+9999REMSYN112AAXX  14061 76393 32920 22901 10078 21003 39676 40269 52004 82010 90550 333 10150 20040 30/// 55085 56050 58018;
0171763930999992012011409004+25733-100300FM-12+051599999V0201801N001012200019N0020001N1+00761-00061102761ADDGA1001+999999999GF100991001001999999001001IA1019MA1999999096801MD1210041+0311REMSYN082AAXX  14091 76393 32920 01801 10076 21006 39680 40276 52004 90850 333 30/// 58031;
0257763930999992012011412004+25733-100300FM-12+051599999V0201401N001012200019N0020001N1+00661+00021102831ADDAA124000091GA1001+999999999GF100991001001999999001001IA1019IA2999+00429KA1240M+01501KA2120N+00501MA1999999096831MD1210031+0271REMSYN100AAXX  14121 76393 32920 01401 10066 20002 39683 40283 52003 91145 333 10150 20050 30042 58027 70000;EQDQ01  00002PRCP24
0217763930999992012011415004+25733-100300FM-12+051599999V0201601N001019999999N0030001N1+00901-00121103051ADDAY121031AY221031GA1041+036001031GF107991041001999999041051IA1019MA1999999097021MD1210191+0271MW1041REMSYN106AAXX  14151 76393 31930 71601 10090 21012 39702 40305 52019 70422 84045 91455 333 30/// 56017 58027 84362;
0255763930999992012011418004+25733-100300FM-12+051599999V0200701N001010900019N0030001N1+01511+00131103001ADDAY121061AY221061GA1071+090001001GF107991001001999999001061IA1019KA1120M+01571KA2240N+00501MA1999999097001MD1710021+0371MW1041REMSYN118AAXX  14181 76393 31930 70701 10151 20013 39700 40300 57002 70422 80006 91755 333 10157 20050 30/// 56001 58037 87080;
0217763930999992012011421004+25733-100300FM-12+051599999V0200601N002011050019N0040001N1+01721+00211102601ADDAY121031AY221031GA1071+105001001GF107991001001999999001061IA1019MA1999999096671MD1710331+0231MW1051REMSYN106AAXX  14211 76393 31940 70602 10172 20021 39667 40260 57033 70522 80006 92050 333 30/// 56005 58023 87081;
0217763930999992012011500004+25733-100300FM-12+051599999V0201201N003012200019N0050001N1+01721+00091102541ADDGF104991001001999999001061IA1019KA1120M+01921KA2180N+00501MA1999999096671MD1410001+0151REMSYN118AAXX  15001 76393 32950 41203 10172 20009 39667 40254 54000 80006 92352 333 10192 20050 30/// 50221 56005 58015 70000;
0199763930999992012011503004+25733-100300FM-12+051599999V0200601N001012200019N0020001N1+01441+00431102651ADDAY101031AY201031GA1001+999999999GF100991001001999999001001IA1019MA1999999096811MD1210141+0091MW1051REMSYN088AAXX  15031 76393 31920 00601 10144 20043 39681 40265 52014 70500 90250 333 30/// 58009;
0251763930999992012011506004+25733-100300FM-12+051599999V0200201N002012200019N0020001N1+01261+00481102631ADDAY101061AY201061GA1001+999999999GF100991001001999999001001GJ103549IA1019KA1240M+01921KA2240N+00501MA1999999096781MD1710031+0021MW1051REMSYN106AAXX  15061 76393 31920 00202 10126 20048 39678 40263 57003 70500 90550 333 10192 20050 30/// 55059 58002;
0189763930999992012011509004+25733-100300FM-12+051599999V0201801N001012200019N0020001N1+01041+00621102541ADDGA1021+005101061GF102991021051004501001001IA1019MA1999999096671MD1710111-0131REMSYN100AAXX  15091 76393 32420 21801 10104 20062 39667 40254 57011 82500 90850 333 30/// 56300 59013 82617;
0269763930999992012011512004+25733-100300FM-12+051599999V0202301N001012200019N0010001N1+00901+00591102521ADDAA124000091AY101061AY201061GF101991011001999999021001IA1019KA1240M+01921KA2120N+00801MA1999999096621MD1710051-0211MW1041REMSYN118AAXX  15121 76393 31910 12301 10090 20059 39662 40252 57005 70400 81020 91150 333 10192 20080 30076 56030 59021 70000;EQDQ01  00002PRCP24
0217763930999992012011515004+25733-100300FM-12+051599999V0202401N001010900019N0020001N1+01211+00531102671ADDAY121031AY221031GA1021+008401061GF105991021051008001041011IA1019MA1999999096731MD1210111-0291MW1041REMSYN106AAXX  15151 76393 31520 52401 10121 20053 39673 40267 52011 70422 82541 91455 333 30/// 56475 59029 82628;
0255763930999992012011518004+25733-100300FM-12+051599999V0200601N001012200019N0020001N1+01741+01061102551ADDAY111061AY211061GA1021+008401061GF102991021051008001001001IA1019KA1120M+01831KA2240N+00801MA1999999096641MD1710091-0351MW1041REMSYN118AAXX  15181 76393 31520 20601 10174 20106 39664 40255 57009 70411 82500 91750 333 10183 20080 30/// 56400 59035 82628;
0217763930999992012011521004+25733-100300FM-12+051599999V0200601N003012200019N0010001N1+01881+01331102151ADDAY141031AY241031GA1021+006901061GF103991021051008001011001IA1019MA1999999096301MD1710341-0371MW1051REMSYN106AAXX  15211 76393 31510 30603 10188 20133 39630 40215 57034 70544 82510 92045 333 30/// 56330 59037 82623;
0262763930999992012011600004+25733-100300FM-12+051599999V0200601N002012200019N0020001N1+01821+01411102021ADDAA124000091AY141061AY241061GF101991011051004501001001IA1019KA1120M+02081KA2180N+00801MA1999999096221MD1710081-0451MW1051REMSYN130AAXX  16001 76393 31420 10602 10182 20141 39622 40202 57008 70544 81500 92350 333 10208 20080 30/// 50211 56500 59045 70000 81617;
0217763930999992012011603004+25733-100300FM-12+051599999V0200801N001012200019N0020001N1+01621+01461102091ADDAY111031AY211031GA1041+002101061GF104991041051001501001001IA1019MA1999999096321MD1210101-0491MW1041REMSYN106AAXX  16031 76393 31220 40801 10162 20146 39632 40209 52010 70411 84500 90251 333 30/// 56500 59049 84607;
0247763930999992012011606004+25733-100300FM-12+051599999V0209999C000012200019N0020001N1+01621+01431102031ADDAY101061AY201061GF102991021001999999011001GJ105169IA1019KA1240M+02081KA2240N+00801MA1999999096271MD1710051+9999MW1051REMSYN118AAXX  16061 76393 31920 20000 10162 20143 39627 40203 57005 70500 82010 90550 333 10208 20080 30/// 55086 56050 59051;
0199763930999992012011609004+25733-100300FM-12+051599999V0202701N001012200019N0020001N1+01381+01211101911ADDAY101031AY201031GA1001+999999999GF100991001001999999001001IA1019MA1999999096131MD1710141-0541MW1051REMSYN088AAXX  16091 76393 31920 02701 10138 20121 39613 40191 57014 70500 90850 333 30/// 59054;
0272763930999992012011612004+25733-100300FM-12+051599999V0202501N001012200019N0020001N1+01321+01111101921ADDAA124000091AY101061AY201061GA1031+033001041GF103991031001999999011001IA1019KA1240M+02081KA2120N+01281MA1999999096111MD1710021-0511MW1051REMSYN124AAXX  16121 76393 31920 32501 10132 20111 39611 40192 57002 70500 83010 91150 333 10208 20128 30116 56050 59051 70000 83461;
0217763930999992012011615004+25733-100300FM-12+051599999V0202101N001012200019N0020001N1+01561+01231102011ADDAY111031AY211031GA1021+004201061GF103991021051004501001021IA1019MA1999999096211MD1210101-0521MW1041REMSYN106AAXX  16151 76393 31420 32101 10156 20123 39621 40201 52010 70411 82502 91455 333 30/// 56305 59052 82614;
0261763930999992012011618004+25733-100300FM-12+051599999V0201101N00101220001CN0020001N1+02311+01471101961ADDAY121061AY221061GA1011+010201081GF106991011021012501001041IA1019KA1120M+02371KA2240N+01281MA1999999096161MD1710051-0481MW1041REMSYN124AAXX  16181 76393 31620 61101 10231 20147 39616 40196 57005 70422 81204 91755 333 10237 20128 30/// 56305 59048 81834 85080;
0223763930999992012011621004+25733-100300FM-12+051599999V0201201N00301036001CN0020001N1+02661+01641101491ADDAY141031AY241031GA1011+012601061GF108991011041012501011071IA1019MA1999999095781MD1710381-0521MW1041REMSYN112AAXX  16211 76393 31620 81203 10266 20164 39578 40149 57038 70444 81417 92045 333 30/// 56535 59052 81642 86270;
0262763930999992012011700004+25733-100300FM-12+051599999V0200501N002010360019N0030001N1+02541+01351101391ADDAA124000091AY121061AY221061GF107991011051012501011071IA1019KA1120M+02801KA2180N+01281MA1999999095741MD1710041-0481MW1051REMSYN130AAXX  17001 76393 31630 70502 10254 20135 39574 40139 57004 70522 81517 92345 333 10280 20128 30/// 50351 56535 59048 70000 81649;
0199763930999992012011703004+25733-100300FM-12+051599999V0203101N001012200019N0020001N1+02161+01371101511ADDAY101031AY201031GA1001+999999999GF100991001001999999001001IA1019MA1999999095891MD1210151-0431MW1041REMSYN088AAXX  17031 76393 31920 03101 10216 20137 39589 40151 52015 70400 90251 333 30/// 59043;
0251763930999992012011706004+25733-100300FM-12+051599999V0201901N001012200019N0020001N1+01761+01371101481ADDAY101061AY201061GA1001+999999999GF100991001001999999001001GJ102649IA1019KA1240M+02801KA2240N+01281MA1999999095851MD1710041-0421MW1041REMSYN106AAXX  17061 76393 31920 01901 10176 20137 39585 40148 57004 70400 90552 333 10280 20128 30/// 55044 59042;
0171763930999992012011709004+25733-100300FM-12+051599999V0202701N001012200019N0020001N1+01541+01281101481ADDGA1001+999999999GF100991001001999999001001IA1019MA1999999095811MD1710041-0321REMSYN082AAXX  17091 76393 32920 02701 10154 20128 39581 40148 57004 90850 333 30/// 59032;
0273763930999992012011712004+25733-100300FM-12+051599999V0202401N002012200019N0020001N1+01601+01051101541ADDAA124000091AY101061AY201061GA1001+999999999GF100991001001999999001001IA1019KA1240M+02801KA2120N+01501MA1999999095811MD1410001-0301MW1041REMSYN106AAXX  17121 76393 31920 02402 10160 20105 39581 40154 54000 70400 91150 333 10280 20150 30144 59030 70000;EQDQ01  00002PRCP24
0195763930999992012011715004+25733-100300FM-12+051599999V0202001N001019999999N0020001N1+02201+00951101741ADDAY121031AY221031GF105991011001999999041021IA1019MA1999999095991MD1210181-0211MW1041REMSYN100AAXX  17151 76393 31920 52001 10220 20095 39599 40174 52018 70422 81042 91455 333 30/// 56055 59021;
0255763930999992012011718004+25733-100300FM-12+051599999V0202101N001012200019N0030001N1+03121+00791101671ADDAY121061AY221061GA1011+024001081GF104991011021999999001011IA1019KA1120M+03251KA2240N+01501MA1999999095961MD1710031-0201MW1041REMSYN118AAXX  17181 76393 31930 42101 10312 20079 39596 40167 57003 70422 81201 91745 333 10325 20150 30/// 56505 59020 81858;
0217763930999992012011721004+25733-100300FM-12+051599999V0200201N00301036001CN0040001N1+03221+00911101301ADDAY121031AY221031GA1011+024001081GF106991011041022501041081IA1019MA1999999095701MD1710261-0081MW1041REMSYN106AAXX  17211 76393 31840 60203 10322 20091 39570 40130 57026 70422 81448 92048 333 30/// 56555 59008 81858;
0262763930999992012011800004+25733-100300FM-12+051599999V0200201N006019999999N0040001N1+02621+00971101471ADDAA124000091AY121061AY221061GF105991031001999999011081IA1019KA1120M+03561KA2180N+01501MA1999999095911MD1210211+0171MW1041REMSYN130AAXX  18001 76393 31940 50206 10262 20097 39591 40147 52021 70422 83018 92350 333 10356 20150 30/// 50421 56055 58017 70000 83460;
0199763930999992012011803004+25733-100300FM-12+051599999V0203201N002012200019N0020001N1+02261+01231101761ADDAY101031AY201031GA1001+999999999GF100991001001999999001001IA1019MA1999999096201MD1210291+0311MW1051REMSYN088AAXX  18031 76393 31920 03202 10226 20123 39620 40176 52029 70500 90250 333 30/// 58031;
0223763930999992012011806004+25733-100300FM-12+051599999V0203201N003012200019N0020001N1+02061+01221101901ADDGA1001+999999999GF100991001001999999001001GJ105349IA1019KA1240M+03561KA2240N+01501MA1999999096301MD1210101+0451REMSYN100AAXX  18061 76393 32920 03203 10206 20122 39630 40190 52010 90550 333 10356 20150 30/// 55089 58045;
0217763930999992012011809004+25733-100300FM-12+051599999V0203601N001012200019N0020001N1+01761+01201101971ADDAY101031AY201031GA1021+006901061GF102991021051008001001001IA1019MA1999999096301MD1410001+0491MW1041REMSYN106AAXX  18091 76393 31520 23601 10176 20120 39630 40197 54000 70400 82500 90850 333 30/// 56300 58049 82623;
0272763930999992012011812004+25733-100300FM-12+051599999V0200201N002010300019N0020001N1+01661+01081102111ADDAA124000091AY121061AY221061GA1081+030001041GF108991081001999999021001IA1019KA1240M+03561KA2120N+01601MA1999999096391MD1210091+0581MW1041REMSYN124AAXX  18121 76393 31920 80202 10166 20108 39639 40211 52009 70422 88020 91150 333 10356 20160 30156 56070 58058 70000 88460;
0223763930999992012011815004+25733-100300FM-12+051599999V0200201N00101012001CN0020001N1+01611+00661102381ADDAY121031AY221031GA1041+011101061GF108991081061012501999999IA1019MA1999999096611MD1210241+0621MW1041REMSYN112AAXX  18151 76393 31620 80201 10161 20066 39661 40238 52024 70422 886// 91455 333 30/// 567// 58062 84637 84838;
0261763930999992012011818004+25733-100300FM-12+051599999V0200201N001010081019N0020001N1+01801+01131102381ADDAY121061AY221061GA1051+008101061GF108991051051008001011001IA1019KA1120M+01831KA2240N+01551MA1999999096581MD1710031+0621MW1041REMSYN124AAXX  18181 76393 31520 80201 10180 20113 39658 40238 57003 70422 85510 91745 333 10183 20155 30/// 56550 58062 85627 83360;
0223763930999992012011821004+25733-100300FM-12+051599999V0201201N00301036001CN0030001N1+02001+00811102021ADDAY121031AY221031GA1011+014701061GF107991011041012501071081IA1019MA1999999096251MD1710331+0551MW1041REMSYN112AAXX  18211 76393 31630 71203 10200 20081 39625 40202 57033 70422 81478 92045 333 30/// 56537 58055 81649 84360;
0262763930999992012011900004+25733-100300FM-12+051599999V0201201N003019999999N0040001N1+01761+00801101971ADDAA124000091AY121061AY221061GF106991041001999999071081IA1019KA1120M+02161KA2180N+01551MA1999999096211MD1710041+0301MW1041REMSYN130AAXX  19001 76393 31940 61203 10176 20080 39621 40197 57004 70422 84078 92350 333 10216 20155 30/// 50611 56037 58030 70000 84360;
0195763930999992012011903004+25733-100300FM-12+051599999V0200801N002012200019N0020001N1+01481+00671101941ADDAY101031AY201031GF102991021001999999011001IA1019MA1999999096181MD1710031-0021MW1041REMSYN100AAXX  19031 76393 31920 20802 10148 20067 39618 40194 57003 70400 82010 90253 333 30/// 56070 59002;
0251763930999992012011906004+25733-100300FM-12+051599999V0202501N001012200019N0020001N1+01361+00691101831ADDAY101061AY201061GA1001+999999999GF100991001001999999001001GJ102109IA1019KA1240M+02161KA2240N+01301MA1999999096061MD1710121-0241MW1041REMSYN106AAXX  19061 76393 31920 02501 10136 20069 39606 40183 57012 70400 90552 333 10216 20130 30/// 55035 59024;
0171763930999992012011909004+25733-100300FM-12+051599999V0202001N001012200019N0020001N1+01201+00701101771ADDGA1001+999999999GF100991001001999999001001IA1019MA1999999095961MD1710101-0341REMSYN082AAXX  19091 76393 32920 02001 10120 20070 39596 40177 57010 90850 333 30/// 59034;
0245763930999992012011912004+25733-100300FM-12+051599999V0202101N001012200019N0020001N1+01141+00771101701ADDAA124000091GA1001+999999999GF100991001001999999001001IA1019KA1240M+02161KA2120N+01101MA1999999095871MD1710091-0521REMSYN100AAXX  19121 76393 32920 02101 10114 20077 39587 40170 57009 91150 333 10216 20110 30098 59052 70000;EQDQ01  00002PRCP24
0195763930999992012011915004+25733-100300FM-12+051599999V0202801N001012200019N0030001N1+01561+00931101801ADDAY101031AY201031GF104991021001999999011041IA1019MA1999999095951MD1210081-0661MW1041REMSYN100AAXX  19151 76393 31930 42801 10156 20093 39595 40180 52008 70400 82014 91450 333 30/// 56037 59066;
0233763930999992012011918004+25733-100300FM-12+051599999V0201201N001012200019N0010001N1+02421+01161101651ADDAY101061AY201061GF102991001001999999001081IA1019KA1120M+02501KA2240N+01101MA1999999095851MD1710101-0731MW1041REMSYN112AAXX  19181 76393 31910 21201 10242 20116 39585 40165 57010 70400 80008 91750 333 10250 20110 30/// 56007 59073;
0217763930999992012011921004+25733-100300FM-12+051599999V0201101N002019999999N0020001N1+02901+01151101161ADDAY141031AY241031GA1031+030001041GF107991031001999999011081IA1019MA1999999095471MD1710381-0781MW1051REMSYN106AAXX  19211 76393 31920 71102 10290 20115 39547 40116 57038 70544 83018 92045 333 30/// 56037 59078 83460;
0262763930999992012012000004+25733-100300FM-12+051599999V0201201N003019999999N0040001N1+02661+01071101001ADDAA124000091AY121061AY221061GF108991051001999999021081IA1019KA1120M+03061KA2180N+01101MA1999999095391MD1710051-0821MW1041REMSYN130AAXX  20001 76393 31940 81203 10266 20107 39539 40100 57005 70422 85028 92345 333 10306 20110 30/// 50271 56055 59082 70000 85460;
0217763930999992012012003004+25733-100300FM-12+051599999V0200401N002012200019N0020001N1+02241+01211101041ADDAY101031AY201031GA1031+033001031GF103991031001999999031001IA1019MA1999999095481MD1210091-0701MW1041REMSYN106AAXX  20031 76393 31920 30402 10224 20121 39548 40104 52009 70400 83030 90252 333 30/// 56070 59070 83361;
0247763930999992012012006004+25733-100300FM-12+051599999V0209999C000012200019N0020001N1+01841+01321101011ADDAY101061AY201061GF101991011001999999031001GJ104869IA1019KA1240M+03061KA2240N+01101MA1999999095431MD1710051+9999MW1041REMSYN118AAXX  20061 76393 31920 10000 10184 20132 39543 40101 57005 70400 81030 90551 333 10306 20110 30/// 55081 56070 59063;
0273763930999992012012012004+25733-100300FM-12+051599999V0202301N001012200019N0010001N1+01661+01121100911ADDAA124000091AY101061AY201061GA1001+999999999GF100991001001999999001001IA1019KA1240M+03061KA2120N+01501MA1999999095241MD1710161-0631MW1041REMSYN106AAXX  20121 76393 31910 02301 10166 20112 39524 40091 57016 70400 91150 333 10306 20150 30144 59063 70000;EQDQ01  00002PRCP24
0217763930999992012012015004+25733-100300FM-12+051599999V0202701N001010750019N0020001N1+02141+01081101091ADDAY121031AY221031GA1061+075001001GF107991011001999999031041IA1019MA1999999095371MD1210131-0581MW1041REMSYN106AAXX  20151 76393 31920 72701 10214 20108 39537 40109 52013 70422 81034 91455 333 30/// 56055 59058 86075;
0233763930999992012012018004+25733-100300FM-12+051599999V0200901N001012200019N0030001N1+02871+01091101051ADDAY111061AY211061GF101991001001999999001081IA1019KA1120M+02981KA2240N+01501MA1999999095381MD1210011-0471MW1041REMSYN112AAXX  20181 76393 31930 10901 10287 20109 39538 40105 52001 70411 80008 91755 333 10298 20150 30/// 56007 59047;
0195763930999992012012021004+25733-100300FM-12+051599999V0201201N003012200019N0030001N1+03301+01261100681ADDAY101031AY201031GF102991001001999999001081IA1019MA1999999095091MD1710281-0381MW1041REMSYN100AAXX  20211 76393 31930 21203 10330 20126 39509 40068 57028 70400 80008 92050 333 30/// 56005 59038;
0262763930999992012012100004+25733-100300FM-12+051599999V0201201N004019999999N0040001N1+02981+01141100651ADDAA124000091AY121061AY221061GF105991031001999999021011IA1019KA1120M+03381KA2180N+01501MA1999999095141MD1210051-0251MW1041REMSYN130AAXX  21001 76393 31940 51204 10298 20114 39514 40065 52005 70422 83021 92350 333 10338 20150 30/// 50591 56077 59025 70000 83460;
0195763930999992012012103004+25733-100300FM-12+051599999V0200901N001012200019N0020001N1+02481+01421100841ADDAY101031AY201031GF102991021001999999011001IA1019MA1999999095351MD1210211-0131MW1041REMSYN100AAXX  21031 76393 31920 20901 10248 20142 39535 40084 52021 70400 82010 90252 333 30/// 56070 59013;
0253763930999992012012106004+25733-100300FM-12+051599999V0202201N001012200019N0020001N1+02241+01281100941ADDAY101061AY201061GF103991031001999999011001GJ105409IA1019KA1240M+03381KA2240N+01501MA1999999095421MD1210071-0011MW1041REMSYN124AAXX  21061 76393 31920 32201 10224 20128 39542 40094 52007 70400 83010 90551 333 10338 20150 30/// 55090 56070 59001 83460;
0199763930999992012012109004+25733-100300FM-12+051599999V0201801N001012200019N0010001N1+01961+01241100991ADDAY101031AY201031GA1001+999999999GF100991001001999999001001IA1019MA1999999095421MD1410001+0021MW1041REMSYN088AAXX  21091 76393 31910 01801 10196 20124 39542 40099 54000 70400 90850 333 30/// 58002;
0273763930999992012012112004+25733-100300FM-12+051599999V0202301N002012200019N0010001N1+01801+00731101071ADDAA124000091AY101061AY201061GA1001+999999999GF100991001001999999001001IA1019KA1240M+03381KA2120N+01741MA1999999095431MD1210011+0191MW1041REMSYN106AAXX  21121 76393 31910 02302 10180 20073 39543 40107 52001 70400 91150 333 10338 20174 30166 58019 70000;EQDQ01  00002PRCP24
0195763930999992012012115004+25733-100300FM-12+051599999V0202701N001012200019N0030001N1+01981+00651101301ADDAY111031AY211031GF103991011001999999031051IA1019MA1999999095621MD1210191+0251MW1041REMSYN100AAXX  21151 76393 31930 32701 10198 20065 39562 40130 52019 70411 81035 91455 333 30/// 56055 58025;
0239763930999992012012118004+25733-100300FM-12+051599999V0203401N001012200019N0030001N1+02981+01121101371ADDAY111061AY211061GF103991001001999999001081IA1019KA1120M+03011KA2240N+01741MA1999999095701MD1210081+9999MW1041REMSYN118AAXX  21181 76393 31930 33401 10298 20112 39570 40137 52008 70411 80008 91755 333 10301 20174 30/// 54207 56005 58032;
0217763930999992012012121004+25733-100300FM-12+051599999V0201101N003019999999N0040001N1+03041+01311101031ADDAY121031AY221031GA1041+030001041GF107991041001999999021081IA1019MA1999999095441MD1710271+0351MW1041REMSYN106AAXX  21211 76393 31940 71103 10304 20131 39544 40103 57027 70422 84028 92045 333 30/// 56055 58035 84460;
0262763930999992012012200004+25733-100300FM-12+051599999V0201101N004019999999N0030001N1+02601+01571100911ADDAA124000091AY121061AY221061GF107991031001999999011081IA1019KA1120M+03161KA2180N+01741MA1999999095361MD1710081+0221MW1041REMSYN130AAXX  22001 76393 31930 71104 10260 20157 39536 40091 57008 70422 83018 92345 333 10316 20174 30/// 50581 56055 58022 70000 84460;
0195763930999992012012203004+25733-100300FM-12+051599999V0201201N003012200019N0020001N1+02261+01551101001ADDAY101031AY201031GF102991021001999999011001IA1019MA1999999095461MD1210101+0111MW1041REMSYN100AAXX  22031 76393 31920 21203 10226 20155 39546 40100 52010 70400 82010 90250 333 30/// 56070 58011;
0251763930999992012012206004+25733-100300FM-12+051599999V0203101N001012200019N0020001N1+02001+01601100931ADDAY101061AY201061GA1001+999999999GF100991001001999999001001GJ104689IA1019KA1240M+03161KA2240N+01741MA1999999095371MD1710091-0051MW1041REMSYN106AAXX  22061 76393 31920 03101 10200 20160 39537 40093 57009 70400 90550 333 10316 20174 30/// 55078 59005;
0199763930999992012012209004+25733-100300FM-12+051599999V0201101N001012200019N0010001N1+01901+01531100861ADDAY101031AY201031GA1001+999999999GF100991001001999999001001IA1019MA1999999095251MD1710121+0171MW1041REMSYN088AAXX  22091 76393 31910 01101 10190 20153 39525 40086 57012 70400 90850 333 30/// 58017;
0273763930999992012012212004+25733-100300FM-12+051599999V0202501N001012200019N0010001N1+01721+01431100861ADDAA124000091AY101061AY201061GA1001+999999999GF100991001001999999001001IA1019KA1240M+03161KA2120N+01661MA1999999095211MD1710041+0221MW1041REMSYN106AAXX  22121 76393 31910 02501 10172 20143 39521 40086 57004 70400 91150 333 10316 20166 30156 58022 70000;EQDQ01  00002PRCP24
0217763930999992012012215004+25733-100300FM-12+051599999V0202501N001019999999N0010001N1+01961+01391100951ADDAY141031AY241031GA1041+030001041GF108991041001999999011081IA1019MA1999999095271MD1210061-0351MW1051REMSYN106AAXX  22151 76393 31910 82501 10196 20139 39527 40095 52006 70544 84018 91445 333 30/// 56055 59035 84460;
0245763930999992012012218004+25733-100300FM-12+051599999V0201101N004019999999N0020001N1+02621+01531100881ADDAY141061AY241061GF107991041001999999011081IA1019KA1120M+02801KA2240N+01661MA1999999095221MD1710051-0491MW1051REMSYN124AAXX  22181 76393 31920 71104 10262 20153 39522 40088 57005 70544 84018 91745 333 10280 20166 30/// 54106 56055 59049 84460;
0217763930999992012012221004+25733-100300FM-12+051599999V0201101N001010750019N0030001N1+03101+01091100661ADDAY141031AY241031GA1051+075001011GF107991021001999999011091IA1019MA1999999095061MD1710161-0381MW1051REMSYN106AAXX  22211 76393 31930 71101 10310 20109 39506 40066 57016 70544 82019 92055 333 30/// 56055 59038 85175;
0262763930999992012012300004+25733-100300FM-12+051599999V0201301N001019999999N0040001N1+02811+01541100701ADDAA124000091AY141061AY241061GF107991021001999999011061IA1019KA1120M+03231KA2180N+01661MA1999999095151MD1210091-0211MW1041REMSYN130AAXX  23001 76393 31940 71301 10281 20154 39515 40070 52009 70444 82016 92350 333 10323 20166 30/// 50561 56035 59021 70000 85080;
0171763930999992012012303004+25733-100300FM-12+051599999V0203101N001012200019N0020001N1+02261+01521100951ADDGA1001+999999999GF100991001001999999001001IA1019MA1999999095421MD1210271-0041REMSYN082AAXX  23031 76393 32920 03101 10226 20152 39542 40095 52027 90251 333 30/// 59004;
0223763930999992012012306004+25733-100300FM-12+051599999V0209999C000012200019N0020001N1+01961+01421101061ADDGA1001+999999999GF100991001001999999001001GJ102169IA1019KA1240M+03231KA2240N+01661MA1999999095501MD1210081+0131REMSYN100AAXX  23061 76393 32920 00000 10196 20142 39550 40106 52008 90550 333 10323 20166 30/// 55036 58013;
0217763930999992012012309004+25733-100300FM-12+051599999V0209999C000012200019N0010001N1+01861+01381101141ADDAY101031AY201031GA1041+030001031GF104991041001999999041001IA1019MA1999999095531MD1210031+0271MW1051REMSYN106AAXX  23091 76393 31910 40000 10186 20138 39553 40114 52003 70500 84040 90850 333 30/// 56070 58027 84360;
0273763930999992012012312004+25733-100300FM-12+051599999V0203401N001012200019N0010001N1+01821+01441101361ADDAA124000091AY101061AY201061GA1001+999999999GF100991001001999999001001IA1019KA1240M+03231KA2120N+01741MA1999999095681MD1210151+0471MW1051REMSYN106AAXX  23121 76393 31910 03401 10182 20144 39568 40136 52015 70500 91150 333 10323 20174 30162 58047 70000;EQDQ01  00002PRCP24
0189763930999992012012315004+25733-100300FM-12+051599999V0201101N001010900019N0008001N1+02031+01471101681ADDGA1021+006901061GF105991021051008001031061IA1019MA1999999095971MD1210291+0701REMSYN100AAXX  23151 76393 32508 51101 10203 20147 39597 40168 52029 82536 91455 333 30/// 56355 58070 82623;
0255763930999992012012318004+25733-100300FM-12+051599999V0201101N001012200019N0020001N1+02481+01391101591ADDAY141061AY241061GA1021+014401061GF104991021041012501031021IA1019KA1120M+02591KA2240N+01741MA1999999095901MD1710071+0681MW1051REMSYN118AAXX  23181 76393 31620 41101 10248 20139 39590 40159 57007 70544 82432 91745 333 10259 20174 30/// 56455 58068 82648;
0223763930999992012012321004+25733-100300FM-12+051599999V0201101N00601036001CN0020001N1+02521+01511101171ADDAY141031AY221031GA1021+012301061GF106991021051012501021081IA1019MA1999999095521MD1710381+0451MW1051REMSYN112AAXX  23211 76393 31620 61106 10252 20151 39552 40117 57038 70542 82528 92050 333 30/// 56455 58045 82641 83460;
0262763930999992012012400004+25733-100300FM-12+051599999V0201201N006010075019N0010001N1+02201+01551101221ADDAA124000091AY141061AY221061GF107991071051008001999999IA1019KA1120M+02741KA2180N+01741MA1999999095601MD1210081+0551MW1051REMSYN130AAXX  24001 76393 31510 71206 10220 20155 39560 40122 52008 70542 875// 92350 333 10274 20174 30/// 50251 563// 58055 70000 87627;
0217763930999992012012403004+25733-100300FM-12+051599999V0201101N006010057019N0020001N1+01961+01491101291ADDAY121031AY221031GA1081+005701061GF108991081051004501999999IA1019MA1999999095671MD1210071+0251MW1041REMSYN106AAXX  24031 76393 31420 81106 10196 20149 39567 40129 52007 70422 885// 90251 333 30/// 563// 58025 88619;
0172763930999992012012406004+25733-100300FM-12+051599999V0201701N002019999999N0010001N1+01801+01651101251ADDAA106000021AY151061AY251061GF108991999999001501999999MA1999999095601MD1710071+9999MW1501REMSYN072AAXX  24061 76393 01210 81702 10180 20165 39560 40125 57007 69901 75055;
0234763930999992012012409004+25733-100300FM-12+051599999V0201101N002010006019N0003001N1+01621+01561101201ADDAA103000021AY151031AY251031GA1081+000601071GF108991081061000751999999IA1099MA1999999095511MD1710091-0021MW1201REMSYN112AAXX  24091 76393 21103 81102 10162 20156 39551 40120 57009 72055 886// 90850 333 31/// 56999 59002 69907 88702;
0172763930999992012012412004+25733-100300FM-12+051599999V0200801N001019999999N0003001N1+01601+01541101141ADDAA106000021AY121061AY221061GF108991999999000751999999MA1999999095421MD1710091+9999MW1041REMSYN072AAXX  24121 76393 01103 80801 10160 20154 39542 40114 57009 69901 70422;
0217763930999992012012415004+25733-100300FM-12+051599999V0201601N001010021019N0003001N1+01751+01591101151ADDAY121031AY221031GA1081+002101071GF108991081061001501999999IA1019MA1999999095451MD1210031-0521MW1051REMSYN106AAXX  24151 76393 31203 81601 10175 20159 39545 40115 52003 70522 886// 91455 333 30/// 56999 59052 88707;
0255763930999992012012418004+25733-100300FM-12+051599999V0200601N001010033019N0003001N1+01971+01701101141ADDAY121061AY221061GA1081+003301061GF108991081071004501999999IA1019KA1120M+01991KA2240N+01561MA1999999095401MD1710051-0501MW1051REMSYN118AAXX  24181 76393 31403 80601 10197 20170 39540 40114 57005 70522 887// 91745 333 10199 20156 30/// 56999 59050 88611;
0217763930999992012012421004+25733-100300FM-12+051599999V0201101N004010063019N0004001N1+02201+01691100641ADDAY141031AY221031GA1081+006301071GF108991081071008001999999IA1019MA1999999094961MD1710441-0561MW1101REMSYN106AAXX  24211 76393 31504 81104 10220 20169 39496 40064 57044 71042 887// 92045 333 30/// 56999 59056 88721;
0262763930999992012012500004+25733-100300FM-12+051599999V0201101N003012200019N0010001N1+02101+01711100501ADDAA124999929AY141061AY201061GF102991021051004501001001IA1019KA1120M+02351KA2180N+01561MA1999999094861MD1710101-0741MW1051REMSYN130AAXX  25001 76393 31410 21103 10210 20171 39486 40050 57010 70540 82500 92345 333 10235 20156 30/// 50291 56300 59074 79999 82616;
0199763930999992012012503004+25733-100300FM-12+051599999V0203401N001012200019N0010001N1+01961+01621100411ADDAY141031AY201031GA1001+999999999GF100991001001999999001001IA1019MA1999999094791MD1710071-0881MW1051REMSYN088AAXX  25031 76393 31910 03401 10196 20162 39479 40041 57007 70540 90250 333 30/// 59088;
0253763930999992012012506004+25733-100300FM-12+051599999V0209999C000019999999N0010001N1+01881+01631100461ADDAY121061AY221061GF106991061001999999021001GJ100489IA1019KA1240M+02351KA2240N+01561MA1999999094841MD1210051-0761MW1051REMSYN124AAXX  25061 76393 31910 60000 10188 20163 39484 40046 52005 70522 86020 90550 333 10235 20156 30/// 55008 56030 59076 86461;
0195763930999992012012509004+25733-100300FM-12+051599999V0200601N001012200019N0010001N1+01761+01571100531ADDAY101031AY201031GF102991021001999999021001IA1019MA1999999094881MD1210041-0631MW1041REMSYN100AAXX  25091 76393 31910 20601 10176 20157 39488 40053 52004 70400 82020 90850 333 30/// 56030 59063;
0305763930999992012012512004+25733-100300FM-12+051599999V0203101N003012200019N0010001N1+01961+99999100711ADDAA124000091AY101061AY201061GA1001+999999999GF100991001001999999001001IA1019KA1240M+02351KA2120N+01701MA1999999095041MD1210161-0381MW1041REMSYN106AAXX  25121 76393 31910 03103 10196 20014 39504 40071 52016 70400 91150 333 10235 20170 30160 59038 70000;EQDQ01+000143ATOD  Q02  00002PRCP24Q03 +00143ATOD  
0217763930999992012012515004+25733-100300FM-12+051599999V0201101N001012200019N0010001N1+01911+01541101151ADDAY101031AY201031GA1011+004501061GF101991011051004501001001IA1019MA1999999095451MD1210411+0001MW1051REMSYN106AAXX  25151 76393 31410 11101 10191 20154 39545 40115 52041 70500 81500 91455 333 30/// 56200 58000 81615;
0255763930999992012012518004+25733-100300FM-12+051599999V0201601N001012200019N0020001N1+02361+01081101171ADDAY101061AY201061GA1011+015001081GF101991011011017501001001IA1019KA1120M+02421KA2240N+01701MA1999999095471MD1210021+0071MW1041REMSYN118AAXX  25181 76393 31720 11601 10236 20108 39547 40117 52002 70400 81100 91745 333 10242 20170 30/// 56500 58007 81850;
0217763930999992012012521004+25733-100300FM-12+051599999V0200601N002012200019N0040001N1+02541+00651100751ADDAY101031AY201031GA1021+021001081GF103991021011022501011001IA1019MA1999999095131MD1710341+0171MW1041REMSYN106AAXX  25211 76393 31840 30602 10254 20065 39513 40075 57034 70400 82110 92050 333 30/// 56770 58017 82857;
0262763930999992012012600004+25733-100300FM-12+051599999V0200401N003012200019N0040001N1+02281+00391100931ADDAA124000091AY101061AY201061GF102991021051022501001001IA1019KA1120M+02741KA2180N+01701MA1999999095321MD1210191+0461MW1041REMSYN130AAXX  26001 76393 31840 20403 10228 20039 39532 40093 52019 70400 82500 92345 333 10274 20170 30/// 50451 56700 58046 70000 82658;
0171763930999992012012603004+25733-100300FM-12+051599999V0200201N003012200019N0020001N1+01681+00661101351ADDGA1001+999999999GF100991001001999999001001IA1019MA1999999095721MD1210401+0931REMSYN082AAXX  26031 76393 32920 00203 10168 20066 39572 40135 52040 90251 333 30/// 58093;
0223763930999992012012606004+25733-100300FM-12+051599999V0200501N001012200019N0020001N1+01441+00741101521ADDGA1001+999999999GF100991001001999999001001GJ105589IA1019KA1240M+02741KA2240N+01401MA1999999095841MD1210121+1001REMSYN100AAXX  26061 76393 32920 00501 10144 20074 39584 40152 52012 90552 333 10274 20140 30/// 55093 58100;
0171763930999992012012609004+25733-100300FM-12+051599999V0200301N001012200019N0020001N1+01261+00741101681ADDGA1001+999999999GF100991001001999999001001IA1019MA1999999095941MD1210101+1061REMSYN082AAXX  26091 76393 32920 00301 10126 20074 39594 40168 52010 90850 333 30/// 58106;
0245763930999992012012612004+25733-100300FM-12+051599999V0202601N001012200019N0020001N1+01141+00731101831ADDAA124000091GA1001+999999999GF100991001001999999001001IA1019KA1240M+02741KA2120N+01061MA1999999096011MD1210071+0971REMSYN100AAXX  26121 76393 32920 02601 10114 20073 39601 40183 52007 91150 333 10274 20106 30092 58097 70000;EQDQ01  00002PRCP24
0171763930999992012012615004+25733-100300FM-12+051599999V0202201N001012200019N0030001N1+01461+00691101991ADDGA1001+999999999GF100991001001999999001001IA1019MA1999999096131MD1210121+0681REMSYN082AAXX  26151 76393 32930 02201 10146 20069 39613 40199 52012 91450 333 30/// 58068;
0243763930999992012012618004+25733-100300FM-12+051599999V0203101N004012200019N0030001N1+02361+00181101891ADDAY141061AY241061GA1001+999999999GF100991001001999999001001IA1019KA1120M+02441KA2240N+01061MA1999999096071MD1710061+0601MW1051REMSYN106AAXX  26181 76393 31930 03104 10236 20018 39607 40189 57006 70544 91750 333 10244 20106 30/// 54205 58060;
0171763930999992012012621004+25733-100300FM-12+051599999V0203201N003012200019N0070001N1+02641+00141101511ADDGA1001+999999999GF100991001001999999001001IA1019MA1999999095781MD1710161+0651REMSYN082AAXX  26211 76393 32957 03203 10264 20014 39578 40151 57016 92045 333 30/// 58065;
0251763930999992012012700004+25733-100300FM-12+051599999V0200301N001012200019N0060001N1+02401-00071101521ADDAA124000091GA1001+999999999GF100991001001999999001001IA1019KA1120M+02781KA2180N+01061MA1999999095851MD1210071+0531REMSYN106AAXX  27001 76393 32956 00301 10240 21007 39585 40152 52007 92345 333 10278 20106 30/// 50491 58053 70000;EQDQ01  00002PRCP24
0171763930999992012012703004+25733-100300FM-12+051599999V0200601N001012200019N0020001N1+01881+00451101741ADDGA1001+999999999GF100991001001999999001001IA1019MA1999999096091MD1210241+0371REMSYN082AAXX  27031 76393 32920 00601 10188 20045 39609 40174 52024 90252 333 30/// 58037;
0223763930999992012012706004+25733-100300FM-12+051599999V0202301N002012200019N0020001N1+01661+00491101841ADDGA1001+999999999GF100991001001999999001001GJ105829IA1019KA1240M+02781KA2240N+01061MA1999999096161MD1210071+0321REMSYN100AAXX  27061 76393 32920 02302 10166 20049 39616 40184 52007 90551 333 10278 20106 30/// 55097 58032;
0171763930999992012012709004+25733-100300FM-12+051599999V0202201N001012200019N0020001N1+01521+00491101781ADDGA1001+999999999GF100991001001999999001001IA1019MA1999999096061MD1710101+0121REMSYN082AAXX  27091 76393 32920 02201 10152 20049 39606 40178 57010 90850 333 30/// 58012;
0245763930999992012012712004+25733-100300FM-12+051599999V0202301N002012200019N0020001N1+01301+00531101781ADDAA124000091GA1001+999999999GF100991001001999999001001IA1019KA1240M+02781KA2120N+01161MA1999999096001MD1710061-0011REMSYN100AAXX  27121 76393 32920 02302 10130 20053 39600 40178 57006 91150 333 10278 20116 30104 59001 70000;EQDQ01  00002PRCP24
0171763930999992012012715004+25733-100300FM-12+051599999V0202101N001012200019N0020001N1+01671+00431101901ADDGA1001+999999999GF100991001001999999001001IA1019MA1999999096091MD1210091-0041REMSYN082AAXX  27151 76393 32920 02101 10167 20043 39609 40190 52009 91455 333 30/// 59004;
0237763930999992012012718004+25733-100300FM-12+051599999V0201601N001012200019N0020001N1+02371+00671101751ADDAY141061AY241061GA1001+999999999GF100991001001999999001001IA1019KA1120M+02491KA2240N+01161MA1999999095971MD1710121-0101MW1051REMSYN100AAXX  27181 76393 31920 01601 10237 20067 39597 40175 57012 70544 91750 333 10249 20116 30/// 59010;
0168763930999992012012721004+25733-100300FM-12+051599999V0200201N999992200019N0050001N1+99999+99999101221ADDGF101991999999999999999999IA1019MA1999999095531MD1710441-0251REMSYN076AAXX  27211 76393 32950 10276 20054 39553 40122 57044 92050 333 30/// 59025;EQDQ01+007603WOSPD 
0251763930999992012012800004+25733-100300FM-12+051599999V0201101N004012200019N0050001N1+02561+00741101091ADDAA124000091GA1001+999999999GF100991001001999999001001IA1019KA1120M+02911KA2180N+01161MA1999999095471MD1710061-0381REMSYN106AAXX  28001 76393 32950 01104 10256 20074 39547 40109 57006 92345 333 10291 20116 30/// 50561 59038 70000;EQDQ01  00002PRCP24
0171763930999992012012803004+25733-100300FM-12+051599999V0203301N001012200019N0020001N1+02041+00821101261ADDGA1001+999999999GF100991001001999999001001IA1019MA1999999095661MD1210191-0431REMSYN082AAXX  28031 76393 32920 03301 10204 20082 39566 40126 52019 90251 333 30/// 59043;
0223763930999992012012806004+25733-100300FM-12+051599999V0200401N001012200019N0020001N1+01701+00731101351ADDGA1001+999999999GF100991001001999999001001GJ105949IA1019KA1240M+02911KA2240N+01161MA1999999095731MD1210071-0431REMSYN100AAXX  28061 76393 32920 00401 10170 20073 39573 40135 52007 90550 333 10291 20116 30/// 55099 59043;
0199763930999992012012809004+25733-100300FM-12+051599999V0203101N001012200019N0010001N1+01461+00771101451ADDAY141031AY241031GA1001+999999999GF100991001001999999001001IA1019MA1999999095771MD1210041-0291MW1051REMSYN088AAXX  28091 76393 31910 03101 10146 20077 39577 40145 52004 70544 90850 333 30/// 59029;
0245763930999992012012812004+25733-100300FM-12+051599999V0202801N001012200019N0020001N1+01421+00681101681ADDAA124000091GA1001+999999999GF100991001001999999001001IA1019KA1240M+02911KA2120N+01301MA1999999095931MD1210161-0101REMSYN100AAXX  28121 76393 32920 02801 10142 20068 39593 40168 52016 91150 333 10291 20130 30118 59010 70000;EQDQ01  00002PRCP24
0171763930999992012012815004+25733-100300FM-12+051599999V0203401N001012200019N0020001N1+01551+00581102321ADDGA1001+999999999GF100991001001999999001001IA1019MA1999999096501MD1210571+0411REMSYN082AAXX  28151 76393 32920 03401 10155 20058 39650 40232 52057 91450 333 30/// 58041;
0255763930999992012012818004+25733-100300FM-12+051599999V0200101N001012200019N0030001N1+01831+00911102601ADDAY111061AY211061GA1041+011401061GF104991041051012501001001IA1019KA1120M+01931KA2240N+01301MA1999999096751MD1210251+0781MW1041REMSYN118AAXX  28181 76393 31630 40101 10183 20091 39675 40260 52025 70411 84500 91745 333 10193 20130 30/// 56100 58078 84638;
0189763930999992012012821004+25733-100300FM-12+051599999V0200301N005010081019N0050001N1+01601+00941102411ADDGA1071+008101061GF107991071051008001999999IA1019MA1999999096581MD1710171+1051REMSYN100AAXX  28211 76393 32550 70305 10160 20094 39658 40241 57017 875// 92050 333 30/// 567// 58105 87627;
0262763930999992012012900004+25733-100300FM-12+051599999V0200201N002010075019N0040001N1+01261+00741102551ADDAA124000091AY121061AY221061GF108991081051008001999999IA1019KA1120M+01941KA2180N+01241MA1999999096711MD1210131+1241MW1041REMSYN130AAXX  29001 76393 31540 80202 10126 20074 39671 40255 52013 70422 885// 92345 333 10194 20124 30/// 50431 567// 58124 70000 88621;
0234763930999992012012903004+25733-100300FM-12+051599999V0203201N002010018019N0010001N1+01081+00931102791ADDAA103001091AY151031AY251031GA1081+001801071GF108991081071001501999999IA1099MA1999999096921MD1210211+1261MW1501REMSYN112AAXX  29031 76393 21210 83202 10108 20093 39692 40279 52021 75055 887// 90255 333 31/// 567// 58126 60017 88706;
0172763930999992012012906004+25733-100300FM-12+051599999V0201801N001019999999N0004001N1+01021+00951103001ADDAA106005191AY151061AY251061GF108991999999000751999999MA1999999097081MD1210161+9999MW1501REMSYN072AAXX  29061 76393 01104 81801 10102 20095 39708 40300 52016 60051 75055;
0172763930999992012012918004+25733-100300FM-12+051599999V0200601N001019999999N0002001N1+01041+00971103071ADDAA106000591AY151061AY251061GF108991999999000751999999MA1999999097091MD1710041+9999MW1501REMSYN072AAXX  29181 76393 01102 80601 10104 20097 39709 40307 57004 69951 75055;
0234763930999992012012921004+25733-100300FM-12+051599999V0201101N003010009019N0001001N1+01061+00991102831ADDAA103000291AY151031AY251031GA1081+000901071GF108991081071000751999999IA1099MA1999999096871MD1710221+0291MW1501REMSYN112AAXX  29211 76393 21101 81103 10106 20099 39687 40283 57022 75055 887// 92045 333 31/// 568// 58029 69927 88703;
0172763930999992012013000004+25733-100300FM-12+051599999V0201001N002019999999N0002001N1+01021+00951102711ADDAA106000891AY151061AY251061GF108991999999000751999999MA1999999096761MD1710111+9999MW1501REMSYN072AAXX  30001 76393 01102 81002 10102 20095 39676 40271 57011 69971 75055;
0234763930999992012013003004+25733-100300FM-12+051599999V0200301N001010006019N0002001N1+01001+00961102761ADDAA103000991AY151031AY251031GA1081+000601071GF108991081071000251999999IA1099MA1999999096811MD1210051-0111MW1501REMSYN112AAXX  30031 76393 21002 80301 10100 20096 39681 40276 52005 75055 887// 90251 333 31/// 568// 59011 69997 88702;
0172763930999992012013006004+25733-100300FM-12+051599999V0200201N001019999999N0002001N1+01041+00971102661ADDAA106002091AY151061AY251061GF108991999999000751999999MA1999999096721MD1710091+9999MW1501REMSYN072AAXX  30061 76393 01102 80201 10104 20097 39672 40266 57009 60021 75055;
0217763930999992012013009004+25733-100300FM-12+051599999V0203201N001010006019N0003001N1+01021+99999102511ADDAY121031AY221031GA1081+000601071GF108991081061000251999999IA1099MA1999999096571MD1999999-0151MW1051REMSYN106AAXX  30091 76393 31003 83201 10102 20104 39657 40251 5//// 70522 886// 90850 333 31/// 56800 59015 88702;
0172763930999992012013012004+25733-100300FM-12+051599999V0209999C000019999999N0005001N1+01161+01091102441ADDAA106000021AY141061AY241061GF108991999999000251999999MA1999999096511MD1710061+9999MW1051REMSYN072AAXX  30121 76393 01005 80000 10116 20109 39651 40244 57006 69901 70544;
0234763930999992012013015004+25733-100300FM-12+051599999V0201601N001010012019N0005001N1+01301+01201102521ADDAA103000191AY151031AY251031GA1081+001201071GF108991081071001501999999IA1099MA1999999096591MD1210081-0541MW1501REMSYN112AAXX  30151 76393 21205 81601 10130 20120 39659 40252 52008 75055 887// 91455 333 31/// 56399 59054 69917 88704;
0180763930999992012013018004+25733-100300FM-12+051599999V0200601N001012200019N0008001N1+01781+01331102301ADDAY111061AY211061GF103991999999004501999999MA1999999096411MD1710181+9999MW1041REMSYN072AAXX  30181 76393 01408 30601 10178 20133 39641 40230 57018 69911 70411;EQDQ01  00002PRCP06
0217763930999992012013021004+25733-100300FM-12+051599999V0201401N005012200019N0010001N1+02021+01421101901ADDAY141031AY221031GA1031+007501061GF104991031041008001031001IA1019MA1999999096091MD1710321-0781MW1051REMSYN106AAXX  30211 76393 31510 41405 10202 20142 39609 40190 57032 70542 83430 92045 333 30/// 56350 59078 83625;
0284763930999992012013100004+25733-100300FM-12+051599999V0201001N005010360019N0020001N1+01841+01391101841ADDAA124001691AY141061AY221061GA1021+005701061GF106991021051004501071081IA1019KA1120M+02181KA2180N+01101MA1999999096061MD1710031-0701MW1051REMSYN136AAXX  31001 76393 31420 61005 10184 20139 39606 40184 57003 70542 82578 92346 333 10218 20110 30/// 50071 56335 59070 70016 82619 83360;
0217763930999992012013103004+25733-100300FM-12+051599999V0201201N002012200019N0020001N1+01621+01391101971ADDAY101031AY201031GA1031+002701061GF103991031051002501001001IA1019MA1999999096211MD1210151-0601MW1041REMSYN106AAXX  31031 76393 31320 31202 10162 20139 39621 40197 52015 70400 83500 90250 333 30/// 56300 59060 83609;
0223763930999992012013115004+25733-100300FM-12+051599999V0202701N001010021019N0010001N1+01571+01391102001ADDAY141031AY241031GA1051+002101061GF108991051051002501021999IA1019MA1999999096191MD1210161-0401MW1051REMSYN112AAXX  31151 76393 31310 82701 10157 20139 39619 40200 52016 70544 8552/ 91455 333 30/// 5637/ 59040 85607 83458;
0255763930999992012013118004+25733-100300FM-12+051599999V0202401N001010900019N0010001N1+01921+01341101951ADDAY141061AY241061GA1031+007201061GF107991031051008001001021IA1019KA1120M+02051KA2240N+01401MA1999999096151MD1710041-0261MW1051REMSYN118AAXX  31181 76393 31510 72401 10192 20134 39615 40195 57004 70544 83502 91745 333 10205 20140 30/// 56305 59026 83624;
0223763930999992012013121004+25733-100300FM-12+051599999V0200601N00301036001CN0008001N1+02381+01481101531ADDAY141031AY241031GA1011+011101061GF107991011041012501021081IA1019MA1999999095801MD1710351-0291MW1051REMSYN112AAXX  31211 76393 31608 70603 10238 20148 39580 40153 57035 70544 81428 92045 333 30/// 56337 59029 81637 83460;
0253763930999992012020106004+25733-100300FM-12+051599999V0209999C000012200019N0010001N1+01991+01461101671ADDAY141061AY241061GF103991031001999999011001GJ103249IA1019KA1240M+02581KA2240N+01401MA1999999096011MD1999999-0171MW1051REMSYN124AAXX  01061 76393 31910 30000 10199 20146 39601 40167 5//// 70544 83010 90550 333 10258 20140 30/// 55054 56050 59017 83461;
0199763930999992012020109004+25733-100300FM-12+051599999V0202301N001012200019N0010001N1+01681+01391101941ADDAY141031AY241031GA1001+999999999GF100991001001999999001001IA1019MA1999999095911MD1710101-0141MW1051REMSYN088AAXX  01091 76393 31910 02301 10168 20139 39591 40194 57010 70544 90850 333 30/// 59014;
0273763930999992012020112004+25733-100300FM-12+051599999V0209999C000012200019N0010001N1+01641+01241101851ADDAA124000091AY141061AY241061GA1001+999999999GF100991001001999999001001IA1019KA1240M+02581KA2120N+01561MA1999999095911MD1410001-0121MW1051REMSYN106AAXX  01121 76393 31910 00000 10164 20124 39591 40185 54000 70544 91150 333 10258 20156 30142 59012 70000;EQDQ01  00002PRCP24
0217763930999992012020115004+25733-100300FM-12+051599999V0203101N001012200019N0020001N1+01871+01101101861ADDAY111031AY211031GA1011+009601061GF103991011051008001001061IA1019MA1999999096021MD1210111-0171MW1051REMSYN106AAXX  01151 76393 31520 33101 10187 20110 39602 40186 52011 70511 81506 91455 333 30/// 56305 59017 81632;
0255763930999992012020118004+25733-100300FM-12+051599999V0203401N001012200019N0020001N1+02561+01431101791ADDAY141061AY201061GA1011+014701061GF103991011051012501001011IA1019KA1120M+02681KA2240N+01561MA1999999096051MD1710031-0101MW1051REMSYN118AAXX  01181 76393 31620 33401 10256 20143 39605 40179 57003 70540 81501 91750 333 10268 20156 30/// 56307 59010 81649;
0217763930999992012020121004+25733-100300FM-12+051599999V0201101N003010900019N0020001N1+02861+01501101481ADDAY141031AY221031GA1011+018001081GF106991011011017501011041IA1019MA1999999095821MD1710241+0021MW1041REMSYN106AAXX  01211 76393 31720 61103 10286 20150 39582 40148 57024 70442 81114 92045 333 30/// 56335 58002 81856;
0284763930999992012020200004+25733-100300FM-12+051599999V0201101N003010360019N0040001N1+02721+01471101421ADDAA124000091AY121061AY221061GA1021+015001061GF108991021051017501021081IA1019KA1120M+03041KA2180N+01561MA1999999095811MD1710011+0201MW1041REMSYN136AAXX  02001 76393 31740 81103 10272 20147 39581 40142 57001 70422 82528 92345 333 10304 20156 30/// 50491 56357 58020 70000 82650 83460;
0217763930999992012020203004+25733-100300FM-12+051599999V0201201N003010093019N0020001N1+02321+01561101601ADDAY121031AY221031GA1051+009301061GF105991051051008001001001IA1019MA1999999096011MD1210201+9999MW1041REMSYN106AAXX  02031 76393 31520 51203 10232 20156 39601 40160 52020 70422 85500 90250 333 30/// 56300 58/// 85631;
0253763930999992012020206004+25733-100300FM-12+051599999V0201101N003012200019N0020001N1+02141+01621101621ADDAY101061AY201061GF103991031051008001001001GJ105709IA1019KA1240M+03041KA2240N+01561MA1999999096021MD1210011+0011MW1041REMSYN124AAXX  02061 76393 31520 31103 10214 20162 39602 40162 52001 70400 83500 90551 333 10304 20156 30/// 55095 56300 58001 83621;
0199763930999992012020209004+25733-100300FM-12+051599999V0209999C000012200019N0010001N1+01921+01711101551ADDAY141031AY241031GA1001+999999999GF100991001001999999001001IA1019MA1999999095911MD1710111+0001MW1051REMSYN088AAXX  02091 76393 31910 00000 10192 20171 39591 40155 57011 70544 90850 333 30/// 58000;
0272763930999992012020212004+25733-100300FM-12+051599999V0209999C000012200019N0010001N1+01741+01581101541ADDAA124000091AY141061AY241061GA1021+002101071GF102991021061999999001001IA1019KA1240M+03041KA2120N+01561MA1999999095861MD1710051-0051MW1051REMSYN124AAXX  02121 76393 31910 20000 10174 20158 39586 40154 57005 70544 82600 91150 333 10304 20156 30150 56300 59005 70000 82707;
0217763930999992012020215004+25733-100300FM-12+051599999V0200701N001010030019N0010001N1+01881+01631101631ADDAY121031AY221031GA1071+003001061GF107991071051004501999999IA1019MA1999999095911MD1210051-0111MW1041REMSYN106AAXX  02151 76393 31410 70701 10188 20163 39591 40163 52005 70422 875// 91450 333 30/// 56399 59011 87610;
0207763930999992012020218004+25733-100300FM-12+051599999V0200601N001019999999N0000001N1+01841+01721101521ADDAA106000091AY151061AY251061GF108991999999001501999999MA1999999095801MD1710111+9999MW1441REMSYN072AAXX  02181 76393 01200 80601 10184 20172 39580 40152 57011 69901 74555;EQDQ01+000452PRSWM1Q02  00002PRCP06
0217763930999992012020221004+25733-100300FM-12+051599999V0201101N006010096019N0010001N1+02521+01751101061ADDAY141031AY221031GA1061+009601061GF106991061051008001001001IA1019MA1999999095381MD1710421-0441MW1051REMSYN106AAXX  02211 76393 31510 61106 10252 20175 39538 40106 57042 70542 86500 92045 333 30/// 56300 59044 86632;
0303763930999992012020300004+25733-100300FM-12+051599999V0201201N005010360019N0020001N1+02621+01591100871ADDAA124999999AY141061AY221061GA1021+012601061GF106991021051012501021001IA1019KA1120M+02781KA2180N+01561MA1999999095251MD1710131-0561MW1051REMSYN136AAXX  03001 76393 31620 61205 10262 20159 39525 40087 57013 70542 82520 92345 333 10278 20156 30/// 50281 56350 59056 79999 82642 84460;EQDQ01  99992PRCP24
0217763930999992012020303004+25733-100300FM-12+051599999V0201101N003012200019N0020001N1+02301+01631100961ADDAY101031AY201031GA1021+008401061GF102991021051008001001001IA1019MA1999999095361MD1210111-0651MW1041REMSYN106AAXX  03031 76393 31520 21103 10230 20163 39536 40096 52011 70400 82500 90250 333 30/// 56300 59065 82628;
0253763930999992012020306004+25733-100300FM-12+051599999V0201201N003010042019N0020001N1+02081+01721100991ADDAY121061AY221061GF105991051051004501001001GJ102709IA1019KA1240M+02781KA2240N+01561MA1999999095401MD1210041-0621MW1041REMSYN124AAXX  03061 76393 31420 51203 10208 20172 39540 40099 52004 70422 85500 90551 333 10278 20156 30/// 55045 56300 59062 85615;
0217763930999992012020309004+25733-100300FM-12+051599999V0200501N002010024019N0010001N1+01961+01781100901ADDAY121031AY221031GA1081+002401071GF108991081061999999999999IA1019MA1999999095291MD1710111-0621MW1051REMSYN106AAXX  03091 76393 31910 80502 10196 20178 39529 40090 57011 70522 886// 90850 333 30/// 563// 59062 88708;
0291763930999992012020312004+25733-100300FM-12+051599999V0201201N001010015019N0010001N1+01921+01801101031ADDAA124000091AY121061AY221061GA1081+001501071GF108991081061001501999999IA1019KA1240M+02781KA2120N+01861MA1999999095391MD1210101-0471MW1051REMSYN124AAXX  03121 76393 31210 81201 10192 20180 39539 40103 52010 70522 886// 91150 333 10278 20186 30180 563// 59047 79999 88705;EQDQ01  00002PRCP24
0253763930999992012020315004+25733-100300FM-12+051599999V0200701N001010021019N0010001N1+01911+01731101281ADDAA103000091AY121031AY221031GA1081+002101071GF108991081061002501999999IA1019MA1999999095601MD1710091-0311MW1051REMSYN112AAXX  03151 76393 21310 80701 10191 20173 39560 40128 57009 70522 886// 91455 333 30/// 56399 59031 69907 88707;EQDQ01  00002PRCP03
0191763930999992012020318004+25733-100300FM-12+051599999V0201101N001019999999N0010001N1+02391+01771101211ADDAA106000091AY141061AY241061GF107991999999999999999999MA1999999095531MD1710071+9999MW1051REMSYN072AAXX  03181 76393 11910 71101 10239 20177 39553 40121 57007 69901 70544;EQDQ01  00002PRCP06
0217763930999992012020321004+25733-100300FM-12+051599999V0201101N003010600019N0010001N1+02741+01741100871ADDAY141031AY221031GA1081+060001021GF108991001001999999001071IA1019MA1999999095251MD1710281-0131MW1051REMSYN106AAXX  03211 76393 31910 81103 10274 20174 39525 40087 57028 70542 80007 92045 333 30/// 56007 59013 88270;
0281763930999992012020400004+25733-100300FM-12+051599999V0201101N006019999999N0020001N1+02681+01631100891ADDAA124999999AY141061AY221061GF105991031001999999011081IA1019KA1120M+02881KA2180N+01861MA1999999095291MD1210041+0041MW1051REMSYN130AAXX  04001 76393 31920 51106 10268 20163 39529 40089 52004 70542 83018 92345 333 10288 20186 30/// 50281 56035 58004 79999 83460;EQDQ01  99992PRCP24
0217763930999992012020403004+25733-100300FM-12+051599999V0202901N001012200019N0020001N1+02381+01731101041ADDAY101031AY201031GA1031+033001041GF103991031001999999011001IA1019MA1999999095471MD1210161+0111MW1051REMSYN106AAXX  04031 76393 31920 32901 10238 20173 39547 40104 52016 70500 83010 90250 333 30/// 56030 58011 83461;
0253763930999992012020406004+25733-100300FM-12+051599999V0201201N001019999999N0010001N1+02281+01681101111ADDAY121061AY221061GF107991071001999999021001GJ103189IA1019KA1240M+02881KA2240N+01861MA1999999095531MD1210061+0131MW1051REMSYN124AAXX  04061 76393 31910 71201 10228 20168 39553 40111 52006 70522 87020 90551 333 10288 20186 30/// 55053 56030 58013 87461;
0217763930999992012020409004+25733-100300FM-12+051599999V0200601N001010330019N0010001N1+02001+01731101101ADDAY121031AY221031GA1061+033001031GF106991061001999999041001IA1019MA1999999095501MD1710031+0211MW1051REMSYN106AAXX  04091 76393 31910 60601 10200 20173 39550 40110 57003 70522 86040 90850 333 30/// 56050 58021 86361;
0272763930999992012020412004+25733-100300FM-12+051599999V0209999C000010024019N0010001N1+01981+01801101231ADDAA124000091AY121061AY221061GA1071+002401071GF107991071061002501001001IA1019KA1240M+02881KA2120N+01881MA1999999095581MD1210081+0191MW1051REMSYN124AAXX  04121 76393 31310 70000 10198 20180 39558 40123 52008 70522 87600 91150 333 10288 20188 30176 56700 58019 70000 87708;
0217763930999992012020415004+25733-100300FM-12+051599999V0203601N001010033019N0010001N1+01941+01661101561ADDAY141031AY221031GA1081+003301071GF108991081071004501999999IA1019MA1999999095871MD1210291+0281MW1051REMSYN106AAXX  04151 76393 31410 83601 10194 20166 39587 40156 52029 70542 887// 91445 333 30/// 568// 58028 88711;
0172763930999992012020418004+25733-100300FM-12+051599999V0203601N006019999999N0007001N1+01741+01411101751ADDAA106002091AY151061AY251061GF108991999999004501999999MA1999999096041MD1210171+9999MW1501REMSYN072AAXX  04181 76393 01407 83606 10174 20141 39604 40175 52017 60021 75055;
0234763930999992012020421004+25733-100300FM-12+051599999V0200301N001010060019N0008001N1+01541+01061101661ADDAA103000291AY141031AY241031GA1081+006001071GF108991081071004501999999IA1099MA1999999095921MD1710121+0671MW1051REMSYN112AAXX  04211 76393 21408 80301 10154 20106 39592 40166 57012 70544 887// 92050 333 31/// 561// 58067 69927 88720;
0180763930999992012020500004+25733-100300FM-12+051599999V0200201N003019999999N0008001N1+01301+00791101861ADDAY141061AY241061GF108991999999008001999999MA1999999096081MD1210161+9999MW1051REMSYN072AAXX  05001 76393 01508 80203 10130 20079 39608 40186 52016 69921 70544;EQDQ01  00002PRCP06
0172763930999992012020506004+25733-100300FM-12+051599999V0200201N001019999999N0003001N1+01161+00751102361ADDAA106001091AY151061AY251061GF108991999999004501999999MA1999999096491MD1210241+9999MW1501REMSYN072AAXX  05061 76393 01403 80201 10116 20075 39649 40236 52024 60011 75055;
0223763930999992012020509004+25733-100300FM-12+051599999V0200201N00301036001CN0010001N1+01141+00561102371ADDAY141031AY221031GA1031+007201061GF108991031051008001071999IA1099MA1999999096481MD1710011+0981MW1051REMSYN112AAXX  05091 76393 31510 80203 10114 20056 39648 40237 57001 70542 8357/ 90845 333 31/// 5688/ 58098 83624 85360;
0278763930999992012020512004+25733-100300FM-12+051599999V0203301N00101036001CN0010001N1+01141+00561102391ADDAA124003591AY141061AY221061GA1021+007201061GF108991021051008001021999IA1019KA1240M+02071KA2120N+01061MA1999999096481MD1410001+0901MW1051REMSYN130AAXX  05121 76393 31510 83301 10114 20056 39648 40239 54000 70542 8252/ 91145 333 10207 20106 30100 5688/ 58090 70035 82624 86460;
0223763930999992012020515004+25733-100300FM-12+051599999V0200601N001010057019N0020001N1+01071+00611102641ADDAY121031AY221031GA1051+005701061GF108991051041004501021999IA1019MA1999999096711MD1210231+0841MW1051REMSYN112AAXX  05151 76393 31420 80601 10107 20061 39671 40264 52023 70522 8542/ 91455 333 30/// 5688/ 58084 85619 83460;
0261763930999992012020518004+25733-100300FM-12+051599999V0200701N001010072019N0050001N1+01141+00561102751ADDAY121061AY221061GA1051+007201061GF108991051041008001021999IA1019KA1120M+01191KA2240N+01061MA1999999096811MD1210101+0771MW1051REMSYN124AAXX  05181 76393 31550 80701 10114 20056 39681 40275 52010 70522 8542/ 91755 333 10119 20106 30/// 5688/ 58077 85624 83460;
0223763930999992012020521004+25733-100300FM-12+051599999V0200701N00101036001CN0050001N1+01161+00451102481ADDAY121031AY221031GA1031+008701061GF108991031051008001021999IA1019MA1999999096561MD1710251+0641MW1051REMSYN112AAXX  05211 76393 31550 80701 10116 20045 39656 40248 57025 70522 8352/ 92050 333 30/// 5688/ 58064 83629 85460;
0262763930999992012020600004+25733-100300FM-12+051599999V0200401N002019999999N0040001N1+01121+00581102411ADDAA124001091AY121061AY221061GF108991081999999999021999IA1019KA1120M+01281KA2180N+01061MA1999999096501MD1710061+0421MW1051REMSYN130AAXX  06001 76393 31940 80402 10112 20058 39650 40241 57006 70522 88/2/ 92350 333 10128 20106 30/// 50111 56/8/ 58042 70010 88460;
0195763930999992012020615004+25733-100300FM-12+051599999V0203501N00101036001CN0040001N1+00961+00431102691ADDGA1021+006601061GF108991021051008001021999IA1019MA1999999096721MD1210151+0011REMSYN106AAXX  06151 76393 32540 83501 10096 20043 39672 40269 52015 8252/ 91455 333 30/// 5688/ 58001 82622 86460;
0227763930999992012020618004+25733-100300FM-12+051599999V0200401N001010060019N0050001N1+01081+00581102681ADDGA1081+006001061GF108991081041008001999999IA1019KA1120M+01101KA2240N+00881MA1999999096721MD1410001-0091REMSYN112AAXX  06181 76393 32550 80401 10108 20058 39672 40268 54000 884// 91755 333 10110 20088 30/// 568// 59009 88620;
0217763930999992012020621004+25733-100300FM-12+051599999V0201401N001010078019N0040001N1+01261+00621102261ADDAY121031AY221031GA1051+007801061GF107991071051008001021001IA1019MA1999999096331MD1710391-0231MW1051REMSYN106AAXX  06211 76393 31540 71401 10126 20062 39633 40226 57039 70522 87520 92050 333 30/// 56770 59023 85626;
0281763930999992012020700004+25733-100300FM-12+051599999V0201201N004019999999N0040001N1+01301+00671102111ADDAA124999999AY121061AY221061GF106991061001999999021001IA1019KA1120M+01501KA2180N+00881MA1999999096211MD1710121-0291MW1051REMSYN130AAXX  07001 76393 31940 61204 10130 20067 39621 40211 57012 70522 86020 92350 333 10150 20088 30/// 50261 56070 59029 79999 86461;EQDQ01  99992PRCP24
0217763930999992012020703004+25733-100300FM-12+051599999V0203601N001012200019N0020001N1+01041+00701102231ADDAY111031AY211031GA1041+030001041GF104991041001999999011001IA1019MA1999999096331MD1210121+9999MW1051REMSYN106AAXX  07031 76393 31920 43601 10104 20070 39633 40223 52012 70511 84010 90250 333 30/// 56070 58/// 84460;
0251763930999992012020706004+25733-100300FM-12+051599999V0201801N001012200019N0010001N1+00921+00691102201ADDAY141061AY241061GA1001+999999999GF100991001001999999001001GJ101809IA1019KA1240M+01501KA2240N+00881MA1999999096311MD1710021+9999MW1051REMSYN106AAXX  07061 76393 31910 01801 10092 20069 39631 40220 57002 70544 90550 333 10150 20088 30/// 55030 58///;
0199763930999992012020709004+25733-100300FM-12+051599999V0201801N001012200019N0010001N1+00821+00581102061ADDAY101031AY201031GA1001+999999999GF100991001001999999001001IA1019MA1999999096151MD1710161+9999MW1041REMSYN088AAXX  07091 76393 31910 01801 10082 20058 39615 40206 57016 70400 90850 333 30/// 58///;
0273763930999992012020712004+25733-100300FM-12+051599999V0201501N001012200019N0010001N1+00821+00581102111ADDAA124000091AY101061AY201061GA1001+999999999GF100991001001999999001001IA1019KA1240M+01501KA2120N+00641MA1999999096171MD1210021-0401MW1041REMSYN106AAXX  07121 76393 31910 01501 10082 20058 39617 40211 52002 70400 91150 333 10150 20064 30056 59040 70000;EQDQ01  00002PRCP24
0223763930999992012020715004+25733-100300FM-12+051599999V0201301N00101090001CN0020001N1+01001+00621102281ADDAY121031AY221031GA1011+004801061GF107991011051004501001051IA1019MA1999999096321MD1210151-0401MW1051REMSYN112AAXX  07151 76393 31420 71301 10100 20062 39632 40228 52015 70522 81505 91455 333 30/// 56307 59040 81616 87075;
0261763930999992012020718004+25733-100300FM-12+051599999V0201301N00101036001CN0020001N1+01581+00931102201ADDAY121061AY221061GA1011+008101061GF107991011051008001031021IA1019KA1120M+01671KA2240N+00641MA1999999096261MD1710061-0461MW1051REMSYN124AAXX  07181 76393 31520 71301 10158 20093 39626 40220 57006 70522 81532 91750 333 10167 20064 30/// 56557 59046 81627 85080;
0223763930999992012020721004+25733-100300FM-12+051599999V0201201N00401090001CN0020001N1+01601+01051102001ADDAY141031AY221031GA1011+007501061GF108991011051008001001071IA1019MA1999999096121MD1710141-0211MW1051REMSYN112AAXX  07211 76393 31520 81204 10160 20105 39612 40200 57014 70542 81507 92045 333 30/// 56307 59021 81625 87270;
0284763930999992012020800004+25733-100300FM-12+051599999V0201101N003019999999N0030001N1+01481+01031101991ADDAA124000091AY121061AY221061GA1031+030001041GF108991031001999999011071IA1019KA1120M+01801KA2180N+00641MA1999999096151MD1210031-0061MW1051REMSYN136AAXX  08001 76393 31930 81103 10148 20103 39615 40199 52003 70522 83017 92345 333 10180 20064 30/// 50111 56037 59006 70000 83460 85270;
0217763930999992012020803004+25733-100300FM-12+051599999V0201201N002010030019N0020001N1+01321+01081102261ADDAY121031AY221031GA1061+003001061GF106991061051002501001001IA1019MA1999999096431MD1210281+0101MW1051REMSYN106AAXX  08031 76393 31320 61202 10132 20108 39643 40226 52028 70522 86500 90250 333 30/// 56300 58010 86610;
0172763930999992012020806004+25733-100300FM-12+051599999V0200501N001019999999N0010001N1+01261+01161102451ADDAA106000021AY151061AY251061GF108991999999001501999999MA1999999096601MD1210171+9999MW1511REMSYN072AAXX  08061 76393 01210 80501 10126 20116 39660 40245 52017 69901 75155;
0234763930999992012020809004+25733-100300FM-12+051599999V0201801N001010006019N0003001N1+01241+01211102511ADDAA103002091AY151031AY251031GA1081+000601071GF108991081071000251999999IA1119MA1999999096641MD1210041+0491MW1501REMSYN112AAXX  08091 76393 21003 81801 10124 20121 39664 40251 52004 75055 887// 90850 333 32/// 56999 58049 60027 88702;
0172763930999992012020812004+25733-100300FM-12+051599999V0200401N001019999999N0003001N1+01181+01111102591ADDAA106050091AY151061AY251061GF108991999999000251999999MA1999999096701MD1210061+9999MW1501REMSYN072AAXX  08121 76393 01003 80401 10118 20111 39670 40259 52006 60501 75055;
0234763930999992012020815004+25733-100300FM-12+051599999V0200401N001010006019N0003001N1+01121+01081102821ADDAA103006091AY151031AY251031GA1081+000601071GF108991081071000251999999IA1099MA1999999096921MD1210221+0601MW1501REMSYN112AAXX  08151 76393 21003 80401 10112 20108 39692 40282 52022 75055 887// 91455 333 31/// 56999 58060 60067 88702;
0172763930999992012020818004+25733-100300FM-12+051599999V0200601N001019999999N0003001N1+01141+01101102891ADDAA106009991AY161061AY261061GF108991999999000251999999MA1999999096951MD1210031+9999MW1501REMSYN072AAXX  08181 76393 01003 80601 10114 20110 39695 40289 52003 60101 75066;
0240763930999992012020821004+25733-100300FM-12+051599999V0201201N00301002101CN0020001N1+01241+01031102581ADDAA103001091AY121031AY221031GA1031+002701061GF108991081071002501999999IA1099MA1999999096671MD1710281+0551MW1041REMSYN118AAXX  08211 76393 21320 81203 10124 20103 39667 40258 57028 70422 887// 92045 333 31/// 563// 58055 60017 83609 85710;
0262763930999992012020900004+25733-100300FM-12+051599999V0201201N003010012019N0010001N1+01181+01041102471ADDAA124015591AY141061AY221061GF108991081071001501999999IA1099KA1120M+01301KA2180N+01101MA1999999096561MD1710111+0411MW1051REMSYN130AAXX  09001 76393 31210 81203 10118 20104 39656 40247 57011 70542 887// 92350 333 10130 20110 31/// 50421 563// 58041 70155 88706;
0217763930999992012020903004+25733-100300FM-12+051599999V0201201N004010015019N0010001N1+01041+00931102571ADDAY141031AY241031GA1081+001501071GF108991081071001501999999IA1099MA1999999096651MD1210091+0221MW1051REMSYN106AAXX  09031 76393 31210 81204 10104 20093 39665 40257 52009 70544 887// 90250 333 31/// 563// 58022 88705;
0253763930999992012020906004+25733-100300FM-12+051599999V0201101N003010021019N0010001N1+01021+00801102581ADDAY141061AY241061GF108991081071002501999999GJ100009IA1019KA1240M+01301KA2240N+01001MA1999999096651MD1410001+0051MW1051REMSYN124AAXX  09061 76393 31310 81103 10102 20080 39665 40258 54000 70544 887// 90550 333 10130 20100 30/// 55000 563// 58005 88709;
0217763930999992012020909004+25733-100300FM-12+051599999V0201101N002010021019N0010001N1+00961+00771102411ADDAY121031AY221031GA1081+002101071GF108991081061002501999999IA1019MA1999999096481MD1710171-0161MW1041REMSYN106AAXX  09091 76393 31310 81102 10096 20077 39648 40241 57017 70422 886// 90850 333 30/// 563// 59016 88707;
0172763930999992012020912004+25733-100300FM-12+051599999V0200601N001019999999N0005001N1+00921+00841102431ADDAA106000021AY151061AY251061GF108991999999000751999999MA1999999096491MD1210011+9999MW1501REMSYN072AAXX  09121 76393 01105 80601 10092 20084 39649 40243 52001 69901 75055;
0234763930999992012020915004+25733-100300FM-12+051599999V0201201N002010009019N0003001N1+01001+00931102531ADDAA103000791AY151031AY251031GA1081+000901071GF108991081071000751999999IA1119MA1999999096571MD1210081-0331MW1511REMSYN112AAXX  09151 76393 21103 81202 10100 20093 39657 40253 52008 75155 887// 91450 333 32/// 563// 59033 69977 88703;
0172763930999992012020918004+25733-100300FM-12+051599999V0200601N001019999999N0005001N1+01061+00911102471ADDAA106000891AY141061AY221061GF108991999999001501999999MA1999999096521MD1710051+9999MW1051REMSYN072AAXX  09181 76393 01205 80601 10106 20091 39652 40247 57005 69971 70542;
0217763930999992012020921004+25733-100300FM-12+051599999V0201101N001010018019N0005001N1+01121+00971102141ADDAY141031AY221031GA1081+001801071GF108991081071001501999999IA1019MA1999999096221MD1710301-0451MW1051REMSYN106AAXX  09211 76393 31205 81101 10112 20097 39622 40214 57030 70542 887// 92045 333 30/// 563// 59045 88706;
0234763930999992012021003004+25733-100300FM-12+051599999V0200601N001010006019N0003001N1+01081+01041102051ADDAA103000491AY151031AY251031GA1081+000601071GF108991081071000251999999IA1099MA1999999096151MD1210051-0501MW1501REMSYN112AAXX  10031 76393 21003 80601 10108 20104 39615 40205 52005 75055 887// 90251 333 31/// 563// 59050 69947 88702;
0172763930999992012021006004+25733-100300FM-12+051599999V0201201N001019999999N0003001N1+01061+00991102041ADDAA106000591AY141061AY241061GF108991999999000751999999MA1999999096141MD1710011+9999MW1051REMSYN072AAXX  10061 76393 01103 81201 10106 20099 39614 40204 57001 69941 70544;
0217763930999992012021009004+25733-100300FM-12+051599999V0209999C000010012019N0005001N1+01081+99999101841ADDAY121031AY221031GA1081+001201071GF108991081071001501999999IA1099MA1999999095951MD1710191-0531MW1051REMSYN106AAXX  10091 76393 31205 80000 10108 20120 39595 40184 57019 70522 887// 90850 333 31/// 563// 59053 88704;
0253763930999992012021012004+25733-100300FM-12+051599999V0202901N001010018019N0003001N1+01121+00971101901ADDAA124001191AY121061AY221061GA1081+001801071GF108991081071001501999999IA1019KA1120N+01041MA1999999096001MD1210051-0491MW1051REMSYN118AAXX  10121 76393 31203 82901 10112 20097 39600 40190 52005 70522 887// 91150 333 20104 30098 563// 59049 70011 88706;
0195763930999992012021015004+25733-100300FM-12+051599999V0202701N001012200019N0006001N1+01241+01031102001ADDAY111031AY211031GF101991011001999999031001IA1019MA1999999096101MD1210101-0471MW1051REMSYN100AAXX  10151 76393 31906 12701 10124 20103 39610 40200 52010 70511 81030 91455 333 30/// 56050 59047;
0255763930999992012021018004+25733-100300FM-12+051599999V0200901N001012200019N0008001N1+01971+01151102001ADDAY141061AY241061GA1011+010201081GF101991011021012501001001IA1019KA1120M+02051KA2240N+01041MA1999999096141MD1210041-0381MW1051REMSYN118AAXX  10181 76393 31608 10901 10197 20115 39614 40200 52004 70544 81200 91745 333 10205 20104 30/// 56500 59038 81834;
0223763930999992012021021004+25733-100300FM-12+051599999V0200901N003012200019N0020001N1+02201+01341101821ADDAY141031AY221031GA1011+010501081GF104991041051012501001001IA1019MA1999999096021MD1710121+0201MW1051REMSYN112AAXX  10211 76393 31620 40903 10220 20134 39602 40182 57012 70542 84500 92045 333 30/// 56100 58020 81835 83637;
0284763930999992012021100004+25733-100300FM-12+051599999V0201201N003010360019N0020001N1+01681+01291101951ADDAA124000491AY121061AY221061GA1031+004801061GF108991031051004501021999IA1019KA1120M+02331KA2180N+01041MA1999999096181MD1210161+0081MW1051REMSYN136AAXX  11001 76393 31420 81203 10168 20129 39618 40195 52016 70522 8352/ 92345 333 10233 20104 30/// 50261 5675/ 58008 70004 83616 85460;
0217763930999992012021103004+25733-100300FM-12+051599999V0200601N002010033019N0010001N1+01421+01151102261ADDAY141031AY241031GA1081+003301071GF108991081061004501999999IA1019MA1999999096491MD1210311+0341MW1051REMSYN106AAXX  11031 76393 31410 80602 10142 20115 39649 40226 52031 70544 886// 90250 333 30/// 563// 58034 88711;
0253763930999992012021106004+25733-100300FM-12+051599999V0200801N001010012019N0005001N1+01301+01201102431ADDAY141061AY241061GF108991081071001501999999GJ104689IA1019KA1240M+02331KA2240N+01041MA1999999096631MD1210141+0491MW1051REMSYN124AAXX  11061 76393 31205 80801 10130 20120 39663 40243 52014 70544 887// 90551 333 10233 20104 30/// 55078 563// 58049 88704;
0217763930999992012021109004+25733-100300FM-12+051599999V0209999C000010012019N0005001N1+01221+01121102401ADDAY121031AY221031GA1061+001201071GF106991061071001501999999IA1019MA1999999096561MD1710071+0611MW1051REMSYN106AAXX  11091 76393 31205 60000 10122 20112 39656 40240 57007 70522 867// 90850 333 30/// 563// 58061 86704;
0272763930999992012021112004+25733-100300FM-12+051599999V0200601N001010006019N0005001N1+01221+01151102531ADDAA124000091AY121061AY221061GA1081+000601071GF108991081071000751999999IA1019KA1240M+02331KA2120N+01101MA1999999096651MD1210091+0651MW1051REMSYN124AAXX  11121 76393 31105 80601 10122 20115 39665 40253 52009 70522 887// 91150 333 10233 20110 30100 563// 58065 70000 88702;
0234763930999992012021115004+25733-100300FM-12+051599999V0201101N001010012019N0003001N1+01211+01121102701ADDAA103000491AY151031AY251031GA1081+001201071GF108991081071001501999999IA1099MA1999999096801MD1210151+0701MW1501REMSYN112AAXX  11151 76393 21203 81101 10121 20112 39680 40270 52015 75055 887// 91455 333 31/// 56399 58070 69947 88704;
0172763930999992012021118004+25733-100300FM-12+051599999V0201201N002019999999N0003001N1+01191+01121102721ADDAA106000891AY151061AY251061GF108991999999000751999999MA1999999096811MD1210011+9999MW1501REMSYN072AAXX  11181 76393 01103 81202 10119 20112 39681 40272 52001 69971 75055;
0234763930999992012021121004+25733-100300FM-12+051599999V0201201N005010030019N0020001N1+01321+00891102511ADDAA103000191AY141031AY241031GA1081+003001061GF108991081051002501999999IA1099MA1999999096611MD1710201+0591MW1051REMSYN112AAXX  11211 76393 21320 81205 10132 20089 39661 40251 57020 70544 885// 92050 333 31/// 563// 58059 69917 88610;
0180763930999992012021200004+25733-100300FM-12+051599999V0201901N003019999999N0020001N1+01241+00881102621ADDAY141061AY241061GF108991999999004501999999MA1999999096721MD1210111+9999MW1051REMSYN072AAXX  12001 76393 11420 81903 10124 20088 39672 40262 52011 69911 70544;EQDQ01  00002PRCP06
0217763930999992012021203004+25733-100300FM-12+051599999V0201201N003010042019N0020001N1+01181+00851102651ADDAY141031AY241031GA1081+004201061GF108991081051004501999999IA1019MA1999999096751MD1210031+0261MW1051REMSYN106AAXX  12031 76393 31420 81203 10118 20085 39675 40265 52003 70544 885// 90250 333 30/// 563// 58026 88614;
0172763930999992012021206004+25733-100300FM-12+051599999V0201201N008019999999N0020001N1+00921+00561102751ADDAA106000021AY151061AY251061GF108991999999004501999999MA1999999096831MD1210081+9999MW1501REMSYN072AAXX  12061 76393 01420 81208 10092 20056 39683 40275 52008 69901 75055;
0234763930999992012021209004+25733-100300FM-12+051599999V0201301N005010003019N0005001N1+00881+00841102681ADDAA103004091AY151031AY251031GA1081+000301071GF108991081071000251999999IA1119MA1999999096751MD1710081+0191MW1501REMSYN112AAXX  12091 76393 21005 81305 10088 20084 39675 40268 57008 75055 887// 90852 333 32/// 563// 58019 60047 88701;
0290763930999992012021212004+25733-100300FM-12+051599999V0201101N004010003019N0003001N1+00861+00821102711ADDAA103004091AA206007992AA324007592AY151061AY251061GF108991081071000251999999KA1240M+01401KA2120N+00841MA1999999096751MD1410001+0101MW1501REMSYN142AAXX  12121 76393 01003 81104 10086 20082 39675 40271 54000 60081 75055 887// 91150 333 10140 20084 20084 30078 563// 58010 60047 70075 88701;
0234763930999992012021215004+25733-100300FM-12+051599999V0201201N002010001519N0003001N1+00791+00771102761ADDAA103002091AY151031AY251031GA1081+000151071GF108991081071000251999999IA1119MA1999999096781MD1210021-0021MW1501REMSYN112AAXX  12151 76393 21003 81202 10079 20077 39678 40276 52002 75055 887// 91455 333 32/// 56399 59002 60027 88700;
0172763930999992012021218004+25733-100300FM-12+051599999V0201201N002019999999N0003001N1+00841+00821102701ADDAA106002091AY151061AY251061GF108991999999000251999999MA1999999096711MD1710071+9999MW1501REMSYN072AAXX  12181 76393 01003 81202 10084 20082 39671 40270 57007 60021 75055;
0234763930999992012021221004+25733-100300FM-12+051599999V0201201N003010006019N0010001N1+00921+00881102371ADDAA103000021AY151031AY251031GA1081+000601071GF108991081071000251999999IA1119MA1999999096401MD1710311-0211MW1511REMSYN112AAXX  12211 76393 21010 81203 10092 20088 39640 40237 57031 75155 887// 92050 333 32/// 563// 59021 69907 88702;
0172763930999992012021300004+25733-100300FM-12+051599999V0200601N004019999999N0000001N1+00841+00801102181ADDAA106001091AY151061AY251061GF108991999999000251999999MA1999999096221MD1710181+9999MW1511REMSYN072AAXX  13001 76393 01000 80604 10084 20080 39622 40218 57018 60011 75155;
0234763930999992012021303004+25733-100300FM-12+051599999V0200601N002010006019N0003001N1+00821+00781102151ADDAA103001091AY151031AY251031GA1081+000601071GF108991081071000251999999IA1099MA1999999096191MD1710031-0561MW1501REMSYN112AAXX  13031 76393 21003 80602 10082 20078 39619 40215 57003 75055 887// 90252 333 31/// 563// 59056 60017 88702;
0172763930999992012021306004+25733-100300FM-12+051599999V0200601N001019999999N0003001N1+00801+00761101941ADDAA106001091AY151061AY251061GF108991999999000251999999MA1999999096001MD1710191+9999MW1501REMSYN072AAXX  13061 76393 01003 80601 10080 20076 39600 40194 57019 60011 75055;
0188763930999992012021315004+25733-100300FM-12+051599999V0202401N001012200019N0005001N1+01161+00951101681ADDAY101031AY201031GF101991001001999999001021MA1999999095761MD1210051+9999MW1051REMSYN099AAXX  13151 76393 31905 12401 10116 20095 39576 40168 52005 70500 80002 91455 333 31// 56005 59102;
0233763930999992012021318004+25733-100300FM-12+051599999V0201401N001012200019N0008001N1+01761+01161101571ADDAY101061AY201061GF101991001001999999001081IA1099KA1120M+01861KA2240N+00801MA1999999095691MD1710071-1021MW1051REMSYN112AAXX  13181 76393 31908 11401 10176 20116 39569 40157 57007 70500 80008 91745 333 10186 20080 31/// 56005 59102;
0195763930999992012021321004+25733-100300FM-12+051599999V0200401N003012200019N0020001N1+02361+01431101131ADDAY141031AY201031GF102991011001999999011041IA1019MA1999999095341MD1710351-1061MW1051REMSYN100AAXX  13211 76393 31920 20403 10236 20143 39534 40113 57035 70540 81014 92045 333 30/// 56035 59106;
0245763930999992012021400004+25733-100300FM-12+051599999V0200901N003012200019N0040001N1+02201+01341101051ADDAY101061AY201061GF102991011001999999011011IA1019KA1120M+02521KA2180N+00801MA1999999095341MD1410001-0881MW1041REMSYN124AAXX  14001 76393 31940 20903 10220 20134 39534 40105 54000 70400 81011 92345 333 10252 20080 30/// 50031 56057 59088 70013;
0195763930999992012021403004+25733-100300FM-12+051599999V0200601N001012200019N0020001N1+01601+01341101201ADDAY101031AY201031GF101991011001999999011001IA1019MA1999999095511MD1210171-0681MW1041REMSYN100AAXX  14031 76393 31920 10601 10160 20134 39551 40120 52017 70400 81010 90250 333 30/// 56030 59068;
0247763930999992012021406004+25733-100300FM-12+051599999V0200601N002012200019N0020001N1+01341+01201101191ADDAY101061AY201061GF102991021001999999011001GJ105889IA1019KA1240M+02521KA2240N+00801MA1999999095501MD1710011+9999MW1041REMSYN118AAXX  14061 76393 31920 20602 10134 20120 39550 40119 57001 70400 82010 90550 333 10252 20080 30/// 55098 56030 59050;
0217763930999992012021409004+25733-100300FM-12+051599999V0209999C000010330019N0010001N1+01281+01211101121ADDAY121031AY221031GA1061+033001041GF106991061001999999021001IA1019MA1999999095381MD1710121-0451MW1051REMSYN106AAXX  14091 76393 31910 60000 10128 20121 39538 40112 57012 70522 86020 90850 333 30/// 56050 59045 86461;
0272763930999992012021412004+25733-100300FM-12+051599999V0209999C000012200019N0010001N1+01241+01171101191ADDAA124000091AY101061AY201061GA1031+033001041GF103991031001999999011001IA1019KA1240M+02521KA2120N+01121MA1999999095401MD1210021-0311MW1051REMSYN124AAXX  14121 76393 31910 30000 10124 20117 39540 40119 52002 70500 83010 91150 333 10252 20112 30108 56050 59031 70000 83461;
0217763930999992012021415004+25733-100300FM-12+051599999V0202501N001010900019N0020001N1+01561+01231101331ADDAY121031AY221031GA1071+090001021GF107991001001999999001061IA1019MA1999999095521MD1210121-0141MW1051REMSYN106AAXX  14151 76393 31920 72501 10156 20123 39552 40133 52012 70522 80006 91458 333 30/// 56005 59014 87280;
0255763930999992012021418004+25733-100300FM-12+051599999V0201101N001010900019N0050001N1+02321+01071101231ADDAY121061AY221061GA1071+090001021GF107991001001999999001061IA1019KA1120M+02411KA2240N+01121MA1999999095451MD1710071-0241MW1051REMSYN118AAXX  14181 76393 31950 71101 10232 20107 39545 40123 57007 70522 80006 91748 333 10241 20112 30/// 56005 59024 87280;
0223763930999992012021421004+25733-100300FM-12+051599999V0201401N002019999999N0050001N1+02741+01011100811ADDAY121031AY221031GA1031+030001041GF108991031001999999021051IA1019MA1999999095131MD1710331-0211MW1041REMSYN112AAXX  14211 76393 31950 81402 10274 20101 39513 40081 57033 70422 83025 92045 333 30/// 56035 59021 83460 85280;
0269763930999992012021500004+25733-100300FM-12+051599999V0201201N005019999999N0040001N1+02461+01331100741ADDAA124000091GF108991999999999999999999KA1120M+02941KA2180N+01121MA1999999095131MD1710071-0211REMSYN130AAXX  15001 76393 31940 81205 10246 20133 39513 40074 50422 54000 86026 92345 333 10294 20112 30/// 50411 56055 59021 70000 86460;EQDQ01+000002APCTENQ02+004222APC3  
0195763930999992012021503004+25733-100300FM-12+051599999V0200601N003012200019N0030001N1+01941+01571100931ADDAY101031AY201031GF102991021001999999021001IA1019MA1999999095341MD1210211-0171MW1041REMSYN100AAXX  15031 76393 31930 20603 10194 20157 39534 40093 52021 70400 82020 90251 333 30/// 56050 59017;
0266763930999992012021506004+25733-100300FM-12+051599999V0209999C000012200019N0020001N1+01901+01561100971ADDAY101061AY201061GF102991001001999999001021GJ104569IA1019KA1240M+02941KA2240N+01121MA1999999095361MD1210021+9999MW1041REMSYN118AAXX  15061 76393 31920 20000 10190 20156 39536 40097 52002 70400 82002 90550 333 10294 20112 30/// 55076 56050 59014;EQDQ01+000022SCOTLC
0195763930999992012021509004+25733-100300FM-12+051599999V0203101N002012200019N0020001N1+01661+01531100941ADDAY101031AY201031GF101991011001999999021001IA1019MA1999999095281MD1710081-0101MW1051REMSYN100AAXX  15091 76393 31920 13102 10166 20153 39528 40094 57008 70500 81020 90850 333 30/// 56050 59010;
0269763930999992012021512004+25733-100300FM-12+051599999V0202401N001012200019N0020001N1+01601+01341101011ADDAA124000091AY101061AY201061GF101991011001999999011001IA1019KA1240M+02941KA2120N+01501MA1999999095311MD1210031-0091MW1051REMSYN118AAXX  15121 76393 31920 12401 10160 20134 39531 40101 52003 70500 81010 91151 333 10294 20150 30144 56030 59009 70000;EQDQ01  00002PRCP24
0217763930999992012021515004+25733-100300FM-12+051599999V0202501N001010750019N0030001N1+01921+01081101201ADDAY121031AY221031GA1071+075001021GF107991001001999999001061IA1019MA1999999095471MD1210161-0051MW1051REMSYN106AAXX  15151 76393 31930 72501 10192 20108 39547 40120 52016 70522 80006 91454 333 30/// 56005 59005 87275;
0255763930999992012021518004+25733-100300FM-12+051599999V0200901N001010900019N0050001N1+02701+00951101231ADDAY121061AY221061GA1071+090001021GF107991001001999999001061IA1019KA1120M+02821KA2240N+01501MA1999999095531MD1210061+0071MW1051REMSYN118AAXX  15181 76393 31950 70901 10270 20095 39553 40123 52006 70522 80006 91748 333 10282 20150 30/// 56005 58007 87280;
0217763930999992012021521004+25733-100300FM-12+051599999V0201201N005010360019N0030001N1+02921+01541100981ADDAY121031AY221031GA1081+036001041GF108991081001999999011999IA1019MA1999999095351MD1710181+0221MW1051REMSYN106AAXX  15211 76393 31930 81205 10292 20154 39535 40098 57018 70522 8801/ 92050 333 30/// 56050 58022 88462;
0262763930999992012021600004+25733-100300FM-12+051599999V0201201N005019999999N0030001N1+02381+01591101121ADDAA124000091AY121061AY221061GF108991081001999999021001IA1019KA1120M+03121KA2180N+01501MA1999999095531MD1210181+0401MW1041REMSYN130AAXX  16001 76393 31930 81205 10238 20159 39553 40112 52018 70422 88020 92345 333 10312 20150 30/// 50511 56050 58040 70000 88460;
0217763930999992012021603004+25733-100300FM-12+051599999V0201101N003012200019N0030001N1+02121+01461101351ADDAY101031AY201031GA1031+036001041GF103991031001999999021001IA1019MA1999999095761MD1210231+0421MW1041REMSYN106AAXX  16031 76393 31930 31103 10212 20146 39576 40135 52023 70400 83020 90250 333 30/// 56050 58042 83462;
0253763930999992012021606004+25733-100300FM-12+051599999V0201101N002019999999N0020001N1+02121+01461101461ADDAY121061AY221061GF108991081001999999021001GJ102289IA1019KA1240M+03121KA2240N+01501MA1999999095851MD1210091+0491MW1051REMSYN124AAXX  16061 76393 31920 81102 10212 20146 39585 40146 52009 70522 88020 90550 333 10312 20150 30/// 55038 56050 58049 88461;
0217763930999992012021609004+25733-100300FM-12+051599999V0200601N003010300019N0020001N1+01901+01531101501ADDAY121031AY221031GA1061+030001041GF106991061001999999021001IA1019MA1999999095841MD1710011+0561MW1051REMSYN106AAXX  16091 76393 31920 60603 10190 20153 39584 40150 57001 70522 86020 90850 333 30/// 56050 58056 86460;
0272763930999992012021612004+25733-100300FM-12+051599999V0200701N002010330019N0020001N1+01841+01621101541ADDAA124000091AY121061AY221061GA1071+033001041GF107991071001999999021001IA1019KA1240M+03121KA2120N+01761MA1999999095851MD1210011+0541MW1051REMSYN124AAXX  16121 76393 31920 70702 10184 20162 39585 40154 52001 70522 87020 91150 333 10312 20176 30170 56050 58054 70000 87461;
0242763930999992012021615004+25733-100300FM-12+051599999V0200601N001010039019N0020001N1+01921+01611101731ADDAY121031AY221031GA1051+003901061GF108991999051004501021999IA1019MA1999999096021MD1710171+0551MW1051REMSYN112AAXX  16151 76393 31420 80601 10192 20161 39602 40173 57017 70522 8852/ 91450 333 30/// 5635/ 58055 85613 83462;EQDQ01+000082SCOTLC
0255763930999992012021618004+25733-100300FM-12+051599999V0201201N001010060019N0020001N1+02141+01651101751ADDAY121061AY221061GA1081+006001061GF108991081051008001999999IA1019KA1120M+02161KA2240N+01761MA1999999096041MD1210021+0511MW1051REMSYN118AAXX  16181 76393 31520 81201 10214 20165 39604 40175 52002 70522 885// 91750 333 10216 20176 30/// 567// 58051 88620;
0223763930999992012021621004+25733-100300FM-12+051599999V0201101N00101036001CN0020001N1+02221+01681101421ADDAY141031AY221031GA1031+006601061GF108991031051008001021001IA1019MA1999999095731MD1710311+0381MW1051REMSYN112AAXX  16211 76393 31520 81101 10222 20168 39573 40142 57031 70542 83520 92045 333 30/// 56550 58038 83622 85460;
0172763930999992012021700004+25733-100300FM-12+051599999V0200501N001019999999N0010001N1+02001+01821101461ADDAA106003091AY151061AY251061GF108991999999002501999999MA1999999095781MD1210051+9999MW1501REMSYN072AAXX  17001 76393 01310 80501 10200 20182 39578 40146 52005 60031 75055;
0240763930999992012021703004+25733-100300FM-12+051599999V0202501N001010018019N0010001N1+01881+01731101501ADDAA103001091AY151031AY251031GA1051+001801061GF108991051051001501021001IA1119MA1999999095821MD1210041+0061MW1501REMSYN118AAXX  17031 76393 21210 82501 10188 20173 39582 40150 52004 75055 85520 90250 333 32/// 56550 58006 60017 85606 83460;
0172763930999992012021706004+25733-100300FM-12+051599999V0201101N001019999999N0010001N1+01841+01691101471ADDAA106001091AY121061AY221061GF106991999999001501999999MA1999999095791MD1710031+9999MW1051REMSYN072AAXX  17061 76393 11210 61101 10184 20169 39579 40147 57003 60011 70522;
0217763930999992012021709004+25733-100300FM-12+051599999V0201101N001010300019N0010001N1+01741+01681101291ADDAY121031AY221031GA1071+030001041GF107991071001999999021001IA1019MA1999999095591MD1710201-0251MW1051REMSYN106AAXX  17091 76393 31910 71101 10174 20168 39559 40129 57020 70522 87020 90851 333 30/// 56050 59025 87460;
0272763930999992012021712004+25733-100300FM-12+051599999V0201201N001010330019N0008001N1+01741+01681101261ADDAA124003191AY121061AY221061GA1081+033001041GF108991081999999999021999IA1019KA1240M+02341KA2120N+01661MA1999999095551MD1710041-0301MW1051REMSYN124AAXX  17121 76393 31908 81201 10174 20168 39555 40126 57004 70522 88/2/ 91151 333 10234 20166 30160 56/5/ 59030 70031 88461;
0259763930999992012021715004+25733-100300FM-12+051599999V0200401N00101036001CN0008001N1+01841+01691101411ADDAA103000091AY121031AY221031GA1041+002401071GF108991041071002501021999IA1099MA1999999095681MD1210131-0341MW1051REMSYN118AAXX  17151 76393 21308 80401 10184 20169 39568 40141 52013 70522 8472/ 91458 333 31/// 5635/ 59034 69907 84708 84465;EQDQ01  00002PRCP03
0191763930999992012021718004+25733-100300FM-12+051599999V0200201N001019999999N0008001N1+02001+01721101381ADDAA106000091AY121061AY221061GF108991999999004501999999MA1999999095651MD1710031+9999MW1051REMSYN072AAXX  17181 76393 01408 80201 10200 20172 39565 40138 57003 69901 70522;EQDQ01  00002PRCP06
0217763930999992012021721004+25733-100300FM-12+051599999V0201101N002010048019N0010001N1+02161+01771101041ADDAY121031AY221031GA1081+004801061GF108991081051004501999999IA1099MA1999999095351MD1710301-0381MW1051REMSYN106AAXX  17211 76393 31410 81102 10216 20177 39535 40104 57030 70522 885// 92050 333 31/// 563// 59038 88616;
0262763930999992012021800004+25733-100300FM-12+051599999V0201201N002010042019N0020001N1+02101+01801100901ADDAA124000691AY121061AY221061GF108991081051004501999999IA1019KA1120M+02261KA2180N+01661MA1999999095241MD1710111-0541MW1051REMSYN130AAXX  18001 76393 31420 81202 10210 20180 39524 40090 57011 70522 885// 92350 333 10226 20166 30/// 50181 563// 59054 70006 88612;
0240763930999992012021803004+25733-100300FM-12+051599999V0201101N001010018019N0010001N1+01961+01841101011ADDAA103000021AY151031AY251031GA1061+001801061GF108991061051001501021001IA1099MA1999999095351MD1210111-0471MW1501REMSYN118AAXX  18031 76393 21210 81101 10196 20184 39535 40101 52011 75055 86520 90250 333 31/// 56350 59047 69907 86606 82460;
0172763930999992012021806004+25733-100300FM-12+051599999V0200201N001019999999N0005001N1+01841+01781100881ADDAA106000021AY121061AY221061GF108991999999000751999999MA1999999095221MD1710131+9999MW1051REMSYN072AAXX  18061 76393 01105 80201 10184 20178 39522 40088 57013 69901 70522;
0217763930999992012021809004+25733-100300FM-12+051599999V0209999C000010003019N0008001N1+01821+01791100801ADDAY121031AY221031GA1081+000301071GF108991081061000251999999IA1019MA1999999095131MD1710091-0461MW1051REMSYN106AAXX  18091 76393 31008 80000 10182 20179 39513 40080 57009 70522 886// 90850 333 30/// 565// 59046 88701;
0191763930999992012021812004+25733-100300FM-12+051599999V0200301N002019999999N0001001N1+01781+01751100821ADDAA106000091AY141061AY241061GF108991999999000251999999MA1999999095141MD1210011+9999MW1051REMSYN072AAXX  18121 76393 01001 80302 10178 20175 39514 40082 52001 69921 70544;EQDQ01  00002PRCP06
0217763930999992012021815004+25733-100300FM-12+051599999V0201101N001012200019N0008001N1+01561+01301101141ADDAY111031AY211031GA1011+003301081GF102991011021004501001081IA1099MA1999999095421MD1210281-0261MW1051REMSYN106AAXX  18151 76393 31408 21101 10156 20130 39542 40114 52028 70511 81208 91454 333 31/// 56501 59026 81811;
0258763930999992012021818004+25733-100300FM-12+051599999V0202701N003012200019N0010001N1+02301+01251101141ADDAY131061AY231061GF102991011021022501001081IA1019KA1120M+02361KA2240N+01561MA1999999095431MD1210011-0221REMSYN124AAXX  18181 76393 31810 22703 10230 20125 39543 40114 52001 73733 81208 91755 333 10236 20156 30/// 54206 56501 59022 81858;EQDQ01+000372PRSWM1
0199763930999992012021903004+25733-100300FM-12+051599999V0201601N002012200019N0030001N1+02001+00851101431ADDAY101031AY201031GA1001+999999999GF100991001001999999001001IA1019MA1999999095781MD1210411+0431MW1041REMSYN088AAXX  19031 76393 31930 01602 10200 20085 39578 40143 52041 70400 90250 333 30/// 58043;
0257763930999992012021906004+25733-100300FM-12+051599999V0200301N003012200019N0030001N1+01601+00401101681ADDAY101061AY201061GA1001+999999999GF100991001001999999001001GJ106129IA1019KA1240M+02721KA2240N+01561MA1999999096001MD1210221+9999MW1041REMSYN112AAXX  19061 76393 31930 00303 10160 20040 39600 40168 52022 70400 90550 333 10272 20156 30/// 50651 55102 58078;
0171763930999992012021909004+25733-100300FM-12+051599999V0202501N001012200019N0020001N1+01381+00761101831ADDGA1001+999999999GF100991001001999999001001IA1019MA1999999096101MD1210101+0971REMSYN082AAXX  19091 76393 32920 02501 10138 20076 39610 40183 52010 90850 333 30/// 58097;
0245763930999992012021912004+25733-100300FM-12+051599999V0209999C000012200019N0020001N1+01221+00781101891ADDAA124000091GA1001+999999999GF100991001001999999001001IA1019KA1240M+02721KA2120N+01161MA1999999096101MD1410001+0961REMSYN100AAXX  19121 76393 32920 00000 10122 20078 39610 40189 54000 91150 333 10272 20116 30110 58096 70000;EQDQ01  00002PRCP24
0223763930999992012021915004+25733-100300FM-12+051599999V0203601N001019999999N0040001N1+01261+00661102071ADDAY121031AY221031GA1031+030001041GF108991031001999999011081IA1019MA1999999096231MD1210131+0811MW1041REMSYN112AAXX  19151 76393 31940 83601 10126 20066 39623 40207 52013 70422 83018 91445 333 30/// 56035 58081 83460 85270;
0255763930999992012021918004+25733-100300FM-12+051599999V0201201N006019999999N0040001N1+01781+00871101991ADDAY121061AY221061GA1031+030001041GF107991031001999999021081IA1019KA1120M+01881KA2240N+01141MA1999999096151MD1710081+0721MW1041REMSYN118AAXX  19181 76393 31940 71206 10178 20087 39615 40199 57008 70422 83028 91745 333 10188 20114 30/// 56035 58072 83460;
0217763930999992012021921004+25733-100300FM-12+051599999V0201201N002010360019N0040001N1+01941+00861101551ADDAY121031AY221031GA1031+010501061GF107991031041012501011061IA1019MA1999999095771MD1710381+9999MW1051REMSYN106AAXX  19211 76393 31640 71202 10194 20086 39577 40155 57038 70522 83416 92054 333 30/// 56315 58/// 83635;
0262763930999992012022000004+25733-100300FM-12+051599999V0201101N001010360019N0040001N1+01861+00761101421ADDAA124000091AY121061AY221061GF107991011051012501031061IA1019KA1120M+02031KA2180N+01141MA1999999095661MD1710111+0281MW1051REMSYN130AAXX  20001 76393 31640 71101 10186 20076 39566 40142 57011 70522 81536 92357 333 10203 20114 30/// 50611 56315 58028 70000 81645;
0199763930999992012022003004+25733-100300FM-12+051599999V0201101N002012200019N0030001N1+01541+00781101441ADDAY101031AY201031GA1001+999999999GF100991001001999999001001IA1019MA1999999095701MD1210031+0081MW1051REMSYN088AAXX  20031 76393 31930 01102 10154 20078 39570 40144 52003 70500 90250 333 30/// 58008;
0251763930999992012022006004+25733-100300FM-12+051599999V0201201N003012200019N0020001N1+01301+00871101451ADDAY101061AY201061GA1001+999999999GF100991001001999999001001GJ104389IA1019KA1240M+02031KA2240N+01141MA1999999095691MD1710011-0311MW1041REMSYN106AAXX  20061 76393 31920 01203 10130 20087 39569 40145 57001 70400 90550 333 10203 20114 30/// 55073 59031;
0211763930999992012022009004+25733-100300FM-12+051599999V0201101N001012200019N0010001N1+01161+99999101321ADDAY141031AY241031GA1031+033001041GF103991031001999999021001IA1019MA1999999095541MD1710151-0561MW1051REMSYN100AAXX  20091 76393 31910 31101 10116 39554 40132 57015 70544 83020 90850 333 30/// 56050 59056 83461;
0272763930999992012022012004+25733-100300FM-12+051599999V0209999C000010330019N0010001N1+01101+00951101311ADDAA124000091AY121061AY221061GA1061+033001041GF106991061001999999021001IA1019KA1240M+02031KA2120N+01021MA1999999095491MD1710051-0611MW1051REMSYN124AAXX  20121 76393 31910 60000 10110 20095 39549 40131 57005 70522 86020 91150 333 10203 20102 30096 56050 59061 70000 86461;
0217763930999992012022015004+25733-100300FM-12+051599999V0202701N001010900019N0010001N1+01281+00921101611ADDAY121031AY221031GA1061+090001021GF107991011001999999031051IA1019MA1999999095741MD1210251-0491MW1051REMSYN106AAXX  20151 76393 31910 72701 10128 20092 39574 40161 52025 70522 81035 91452 333 30/// 56055 59049 86280;
0255763930999992012022018004+25733-100300FM-12+051599999V0200101N001010750019N0030001N1+01921+00941101691ADDAY121061AY221061GA1061+075001021GF107991011001999999011051IA1019KA1120M+02071KA2240N+01021MA1999999095831MD1210091-0321MW1051REMSYN118AAXX  20181 76393 31930 70101 10192 20094 39583 40169 52009 70522 81015 91750 333 10207 20102 30/// 56055 59032 86275;
0217763930999992012022021004+25733-100300FM-12+051599999V0201201N002010300019N0040001N1+02441+01181101431ADDAY121031AY221031GA1051+030001041GF107991051001999999021081IA1019MA1999999095661MD1710171-0101MW1041REMSYN106AAXX  20211 76393 31940 71202 10244 20118 39566 40143 57017 70422 85028 92045 333 30/// 56055 59010 85460;
0262763930999992012022100004+25733-100300FM-12+051599999V0201101N004019999999N0040001N1+02221+01311101431ADDAA124000091AY121061AY221061GF106991041001999999021081IA1019KA1120M+02671KA2180N+01021MA1999999095721MD1210061+0051MW1041REMSYN130AAXX  21001 76393 31940 61104 10222 20131 39572 40143 52006 70422 84028 92345 333 10267 20102 30/// 50271 56055 58005 70000 84460;
0195763930999992012022103004+25733-100300FM-12+051599999V0201201N002012200019N0020001N1+01861+01201101661ADDAY101031AY201031GF101991011001999999021001IA1019MA1999999095971MD1210251+0271MW1041REMSYN100AAXX  21031 76393 31920 11202 10186 20120 39597 40166 52025 70400 81020 90250 333 30/// 56050 58027;
0253763930999992012022106004+25733-100300FM-12+051599999V0200501N001019999999N0020001N1+01661+01161101771ADDAY121061AY221061GF108991081001999999021001GJ104029IA1019KA1240M+02671KA2240N+01021MA1999999096081MD1210111+0391MW1041REMSYN124AAXX  21061 76393 31920 80501 10166 20116 39608 40177 52011 70422 88020 90550 333 10267 20102 30/// 55067 56050 58039 88460;
0217763930999992012022109004+25733-100300FM-12+051599999V0200601N001010300019N0020001N1+01621+01111101741ADDAY121031AY221031GA1071+030001041GF107991071001999999021001IA1019MA1999999096011MD1710071+0471MW1041REMSYN106AAXX  21091 76393 31920 70601 10162 20111 39601 40174 57007 70422 87020 90850 333 30/// 56050 58047 87460;
0269763930999992012022112004+25733-100300FM-12+051599999V0209999C000012200019N0020001N1+01401+01131101791ADDAA124000091AY101061AY201061GF101991011001999999011001IA1019KA1240M+02671KA2120N+01321MA1999999096021MD1210011+0531MW1041REMSYN118AAXX  21121 76393 31920 10000 10140 20113 39602 40179 52001 70400 81010 91150 333 10267 20132 30128 56050 58053 70000;EQDQ01  00002PRCP24
0217763930999992012022115004+25733-100300FM-12+051599999V0201801N001010750019N0020001N1+01661+01161101971ADDAY121031AY221031GA1061+075001021GF107991011001999999011051IA1019MA1999999096171MD1210151+0431MW1051REMSYN106AAXX  21151 76393 31920 71801 10166 20116 39617 40197 52015 70522 81015 91451 333 30/// 56055 58043 86275;
0261763930999992012022118004+25733-100300FM-12+051599999V0200701N00101036001CN0040001N1+02231+01331101911ADDAY121061AY221061GA1011+011101081GF107991011021012501011051IA1019KA1120M+02301KA2240N+01321MA1999999096131MD1710041+0301MW1051REMSYN124AAXX  21181 76393 31640 70701 10223 20133 39613 40191 57004 70522 81215 91755 333 10230 20132 30/// 56555 58030 81837 85075;
0150763930999992012022121004+25733-100300FM-12+051599999V0201201N005019999999N0040001N1+02441+01181999999ADDGF107991999999017501999999REMSYN112AAXX  21211 76393 31740 71205 10244 20118 2045 39579 40151 57034 7422 81217 9 333 30/// 56555 58013 81850 83460;
0284763930999992012022200004+25733-100300FM-12+051599999V0201101N006019999999N0040001N1+02361+01281101391ADDAA124000091AY121061AY221061GA1031+030001041GF108991031001999999021081IA1019KA1120M+02601KA2180N+01321MA1999999095721MD1710071+0001MW1041REMSYN136AAXX  22001 76393 31940 81106 10236 20128 39572 40139 57007 70422 83028 92345 333 10260 20132 30/// 50371 56055 58000 70000 83460 85270;
0189763930999992012022203004+25733-100300FM-12+051599999V0200701N001012200019N0020001N1+02101+01441101451ADDGA1031+033001041GF103991031001999999021001IA1019MA1999999095811MD1210091-0161REMSYN100AAXX  22031 76393 32920 30701 10210 20144 39581 40145 52009 83020 90250 333 30/// 56050 59016 83461;
0253763930999992012022206004+25733-100300FM-12+051599999V0201201N001019999999N0020001N1+02041+01481101511ADDAY121061AY221061GF106991061001999999021001GJ104209IA1019KA1240M+02601KA2240N+01321MA1999999095861MD1210051-0221MW1051REMSYN124AAXX  22061 76393 31920 61201 10204 20148 39586 40151 52005 70522 86020 90550 333 10260 20132 30/// 55070 56050 59022 86461;
0195763930999992012022209004+25733-100300FM-12+051599999V0203201N001012200019N0020001N1+01801+01421101321ADDAY101031AY201031GF102991021001999999031001IA1019MA1999999095661MD1710201-0351MW1051REMSYN100AAXX  22091 76393 31920 23201 10180 20142 39566 40132 57020 70500 82030 90850 333 30/// 56050 59035;
0272763930999992012022212004+25733-100300FM-12+051599999V0201801N001012200019N0020001N1+01721+01631101361ADDAA124000091AY101061AY201061GA1031+030001041GF103991031001999999021001IA1019KA1240M+02601KA2120N+01641MA1999999095671MD1210011-0351MW1051REMSYN124AAXX  22121 76393 31920 31801 10172 20163 39567 40136 52001 70500 83020 91150 333 10260 20164 30160 56050 59035 70000 83460;
0217763930999992012022215004+25733-100300FM-12+051599999V0202901N001010360019N0030001N1+01961+01421101431ADDAY121031AY221031GA1041+006601061GF107991041041008001031081IA1019MA1999999095721MD1210051-0451MW1051REMSYN106AAXX  22151 76393 31530 72901 10196 20142 39572 40143 52005 70522 84438 91454 333 30/// 56155 59045 84622;
0255763930999992012022218004+25733-100300FM-12+051599999V0201101N00101036001CN0030001N1+02771+01471101291ADDAY121061AY221061GA1011+015001061GF107991011041017501031091IA1019KA1120M+02891KA2240N+01641MA1999999095591MD1710131-0591MW1051REMSYN118AAXX  22181 76393 31730 71101 10277 20147 39559 40129 57013 70522 81439 91745 333 10289 20164 30/// 56155 59059 81650;
0223763930999992012022221004+25733-100300FM-12+051599999V0201001N00301036001CN0040001N1+03241+01131100861ADDAY121031AY221031GA1011+024001061GF107991011051022501011081IA1019MA1999999095261MD1710331-0531MW1041REMSYN112AAXX  22211 76393 31840 71003 10324 20113 39526 40086 57033 70422 81518 92045 333 30/// 57155 59053 81658 83465;
0284763930999992012022300004+25733-100300FM-12+051599999V0201201N002010360019N0050001N1+03001+01451100671ADDAA124000091AY121061AY221061GA1021+027001061GF107991021051017501011091IA1019KA1120M+03361KA2180N+01641MA1999999095141MD1710121-0581MW1041REMSYN136AAXX  23001 76393 31750 71202 10300 20145 39514 40067 57012 70422 82519 92345 333 10336 20164 30/// 50461 56555 59058 70000 82659 83465;
0199763930999992012022303004+25733-100300FM-12+051599999V0202201N002012200019N0030001N1+02481+01281100671ADDAY101031AY201031GA1001+999999999GF100991001001999999001001IA1019MA1999999095171MD1210031-0641MW1041REMSYN088AAXX  23031 76393 31930 02202 10248 20128 39517 40067 52003 70400 90250 333 30/// 59064;
0251763930999992012022306004+25733-100300FM-12+051599999V0202201N001012200019N0020001N1+02121+01471100661ADDAY101061AY201061GA1001+999999999GF100991001001999999001001GJ103669IA1019KA1240M+03361KA2240N+01641MA1999999095151MD1710021-0711MW1041REMSYN106AAXX  23061 76393 31920 02201 10212 20147 39515 40066 57002 70400 90550 333 10336 20164 30/// 55061 59071;
0171763930999992012022309004+25733-100300FM-12+051599999V0202901N001012200019N0020001N1+01901+01321100501ADDGA1001+999999999GF100991001001999999001001IA1019MA1999999094951MD1710201-0711REMSYN082AAXX  23091 76393 32920 02901 10190 20132 39495 40050 57020 90850 333 30/// 59071;
0245763930999992012022312004+25733-100300FM-12+051599999V0202301N001012200019N0020001N1+01861+01201100441ADDAA124000091GA1001+999999999GF100991001001999999001001IA1019KA1240M+03361KA2120N+01801MA1999999094841MD1710111-0831REMSYN100AAXX  23121 76393 32920 02301 10186 20120 39484 40044 57011 91151 333 10336 20180 30174 59083 70000;EQDQ01  00002PRCP24
0217763930999992012022315004+25733-100300FM-12+051599999V0202501N001019999999N0030001N1+02101+01031100631ADDAY121031AY221031GA1041+033001041GF106991041001999999021081IA1019MA1999999094991MD1210151-0731MW1041REMSYN106AAXX  23151 76393 31930 62501 10210 20103 39499 40063 52015 70422 84028 91450 333 30/// 56055 59073 84461;
0261763930999992012022318004+25733-100300FM-12+051599999V0202301N00101021001CN0030001N1+02981+01271100551ADDAY121061AY221061GA1021+021001061GF108991051051022501071071IA1019KA1120M+03021KA2240N+01801MA1999999094941MD1710051-0651MW1041REMSYN124AAXX  23181 76393 31830 82301 10298 20127 39494 40055 57005 70422 85577 91750 333 10302 20180 30/// 56555 59065 82657 83361;
0223763930999992012022321004+25733-100300FM-12+051599999V0201201N00301036001CN0040001N1+03161+01391100201ADDAY121031AY221031GA1011+021001061GF108991011051022501021071IA1019MA1999999094661MD1710281-0601MW1041REMSYN112AAXX  23211 76393 31840 81203 10316 20139 39466 40020 57028 70422 81527 92045 333 30/// 56555 59060 81657 84475;
0284763930999992012022400004+25733-100300FM-12+051599999V0201101N002010360019N0040001N1+03001+00941100181ADDAA124000091AY121061AY221061GA1011+024001061GF108991011051022501021001IA1019KA1120M+03341KA2180N+01801MA1999999094701MD1210041-0441MW1041REMSYN136AAXX  24001 76393 31840 81102 10300 20094 39470 40018 52004 70422 81520 92350 333 10334 20180 30/// 50491 56550 59044 70000 81658 86465;
0217763930999992012022403004+25733-100300FM-12+051599999V0201801N001010300019N0020001N1+02561+01421100271ADDAY121031AY221031GA1081+030001041GF108991081001999999021001IA1019MA1999999094811MD1210111-0361MW1041REMSYN106AAXX  24031 76393 31920 81801 10256 20142 39481 40027 52011 70422 88020 90250 333 30/// 56050 59036 88460;
0261763930999992012022418004+25733-100300FM-12+051599999V0203501N00101036001CN0030001N1+01601+00161102171ADDAY131061AY231061GA1031+018001061GF107991031051017501071001IA1019KA1120M+02361KA2240N+01591MA1999999096421MD1210481+1481MW1351REMSYN124AAXX  24181 76393 31730 73501 10160 20016 39642 40217 52048 73533 83570 91745 333 10236 20159 30/// 56850 58148 83656 84365;
0189763930999992012022421004+25733-100300FM-12+051599999V0200401N003010750019N0100001N1+01581-00081102191ADDGA1081+075001031GF108991081001999999071001IA1019MA1999999096421MD1710011+1761REMSYN100AAXX  24211 76393 32960 80403 10158 21008 39642 40219 57001 88070 92045 333 30/// 56050 58176 88375;
0172763930999992012022500004+25733-100300FM-12+051599999V0202701N001019999999N0040001N1+01201+00631102381ADDAA106000891AY151061AY251061GF108991999999999999999999MA1999999096561MD1210061+9999MW1501REMSYN072AAXX  25001 76393 01940 82701 10120 20063 39656 40238 52006 69971 75055;
0234763930999992012022503004+25733-100300FM-12+051599999V0202201N001010330019N0020001N1+01201+00711102671ADDAA103001091AY121031AY221031GA1081+033001041GF108991081001999999021001IA1099MA1999999096801MD1210241-1991MW1041REMSYN112AAXX  25031 76393 21920 82201 10120 20071 39680 40267 52024 70422 88020 90250 333 31/// 56010 59199 60017 88461;
0172763930999992012022506004+25733-100300FM-12+051599999V0201901N002019999999N0020001N1+01001+00531102911ADDAA106001091AY151061AY251061GF107991999999999999999999MA1999999097001MD1210201+9999MW1501REMSYN072AAXX  25061 76393 01920 71902 10100 20053 39700 40291 52020 60011 75055;
0234763930999992012022509004+25733-100300FM-12+051599999V0202201N001010009019N0020001N1+00801+00721102891ADDAA103003091AY121031AY221031GA1081+000901071GF108991081071000751999999IA1099MA1999999096951MD1710051+2061MW1041REMSYN112AAXX  25091 76393 21120 82201 10080 20072 39695 40289 57005 70422 887// 90852 333 31/// 563// 58206 60037 88703;
0284763930999992012022512004+25733-100300FM-12+051599999V0201201N003010300019N0020001N1+00601+00431102951ADDAA124004991AY121061AY221061GA1081+030001041GF108991081001999999021001IA1019IA2999+00409KA1240M+02361KA2120N+00461MA1999999096971MD1210021+1921MW1041REMSYN124AAXX  25121 76393 31920 81203 10060 20043 39697 40295 52002 70422 88020 91151 333 10236 20046 30040 56050 58192 70049 88460;
0195763930999992012022515004+25733-100300FM-12+051599999V0201201N00301036001CN0060001N1+00761+00351103141ADDGA1031+005101061GF108991031051004501051001IA1019MA1999999097121MD1210151+1171REMSYN106AAXX  25151 76393 32456 81203 10076 20035 39712 40314 52015 83550 91445 333 30/// 56330 58117 83617 85365;
0227763930999992012022518004+25733-100300FM-12+051599999V0201201N00201007501CN0060001N1+01181+00611103061ADDGA1041+007201061GF106991061041008001021001IA1019KA1120M+01321KA2240N+00461MA1999999097041MD1710081+0611REMSYN112AAXX  25181 76393 32556 61202 10118 20061 39704 40306 57008 86420 91750 333 10132 20046 30/// 56330 58061 84624;
0223763930999992012022521004+25733-100300FM-12+051599999V0201101N00101012001CN0100001N1+01401+00501102621ADDAY121031AY221031GA1031+010201061GF107991051041012501011021IA1019MA1999999096641MD1710401+0221MW1051REMSYN112AAXX  25211 76393 31660 71101 10140 20050 39664 40262 57040 70522 85412 92048 333 30/// 56355 58022 83634 82836;
0284763930999992012022600004+25733-100300FM-12+051599999V0201801N001010075019N0100001N1+01321+00601102391ADDAA124004391AY121061AY221061GA1031+009001061GF107991051041008001071081IA1019KA1120M+01481KA2180N+00461MA1999999096461MD1710181-0101MW1051REMSYN136AAXX  26001 76393 31560 71801 10132 20060 39646 40239 57018 70522 85478 92350 333 10148 20046 30/// 50361 56355 59010 70043 83630 82832;
0217763930999992012022603004+25733-100300FM-12+051599999V0200501N001012200019N0030001N1+01041+00441102381ADDAY101031AY201031GA1021+007201061GF102991021051008001001001IA1019MA1999999096481MD1210011-0321MW1041REMSYN106AAXX  26031 76393 31530 20501 10104 20044 39648 40238 52001 70400 82500 90250 333 30/// 56300 59032 82624;
0253763930999992012022606004+25733-100300FM-12+051599999V0200701N001012200019N0020001N1+00941+00461102331ADDAY101061AY201061GF101991011051004501001001GJ101329IA1019KA1240M+01481KA2240N+00461MA1999999096431MD1710051-0521MW1041REMSYN124AAXX  26061 76393 31420 10701 10094 20046 39643 40233 57005 70400 81500 90550 333 10148 20046 30/// 55022 56500 59052 81619;
0171763930999992012022609004+25733-100300FM-12+051599999V0209999C000012200019N0020001N1+00801+00561102141ADDGA1001+999999999GF100991001001999999001001IA1019MA1999999096231MD1710201-0721REMSYN082AAXX  26091 76393 32920 00000 10080 20056 39623 40214 57020 90850 333 30/// 59072;
0245763930999992012022612004+25733-100300FM-12+051599999V0209999C000012200019N0020001N1+00741+00541102111ADDAA124000091GA1001+999999999GF100991001001999999001001IA1019KA1240M+01481KA2120N+00641MA1999999096171MD1710061-0801REMSYN100AAXX  26121 76393 32920 00000 10074 20054 39617 40211 57006 91150 333 10148 20064 30060 59080 70000;EQDQ01  00002PRCP24
0195763930999992012022615004+25733-100300FM-12+051599999V0201801N001012200019N0030001N1+00961+00651102181ADDAY111031AY211031GF103991001001999999001021IA1019MA1999999096221MD1210051-0901MW1051REMSYN100AAXX  26151 76393 31930 31801 10096 20065 39622 40218 52005 70511 80002 91450 333 30/// 56005 59090;
0233763930999992012022618004+25733-100300FM-12+051599999V0200601N001012200019N0030001N1+01681+00831102021ADDAY111061AY211061GF102991001001999999001021IA1019KA1120M+01761KA2240N+00641MA1999999096101MD1710121-0941MW1051REMSYN112AAXX  26181 76393 31930 20601 10168 20083 39610 40202 57012 70511 80002 91752 333 10176 20064 30/// 56005 59094;
0167763930999992012022621004+25733-100300FM-12+051599999V0201201N004012200019N0040001N1+02181+01091101561ADDGF101991001001999999001021IA1019MA1999999095721MD1710381-0931REMSYN094AAXX  26211 76393 32940 11204 10218 20109 39572 40156 57038 80002 92045 333 30/// 56005 59093;
0217763930999992012022700004+25733-100300FM-12+051599999V0201201N004012200019N0050001N1+02181+01051101361ADDGF104991021001999999011011IA1019KA1120M+02421KA2180N+00641MA1999999095611MD1710111-0861REMSYN118AAXX  27001 76393 32950 41204 10218 20105 39561 40136 57011 82011 92345 333 10242 20064 30/// 50261 56055 59086 70000;
0217763930999992012022703004+25733-100300FM-12+051599999V0201101N005012200019N0020001N1+01881+01371101471ADDAY101031AY201031GA1031+006001061GF103991031051999999001001IA1019MA1999999095771MD1210161-0711MW1051REMSYN106AAXX  27031 76393 31920 31105 10188 20137 39577 40147 52016 70500 83500 90250 333 30/// 56300 59071 83620;
0253763930999992012022706004+25733-100300FM-12+051599999V0200901N003010021019N0020001N1+01661+01471101601ADDAY121061AY221061GF105991051051002501001001GJ106189IA1019KA1240M+02421KA2240N+00641MA1999999095901MD1210131-0531MW1051REMSYN124AAXX  27061 76393 31320 50903 10166 20147 39590 40160 52013 70522 85500 90550 333 10242 20064 30/// 55103 56300 59053 85607;
0217763930999992012022709004+25733-100300FM-12+051599999V0201201N001010012019N0010001N1+01621+01521101541ADDAY121031AY221031GA1081+001201071GF108991081061001501999999IA1019MA1999999095831MD1710161-0401MW1051REMSYN106AAXX  27091 76393 31210 81201 10162 20152 39583 40154 57016 70522 886// 90850 333 30/// 563// 59040 88704;
0272763930999992012022712004+25733-100300FM-12+051599999V0209999C000010015019N0010001N1+01661+01531101671ADDAA124000091AY121061AY221061GA1081+001501071GF108991081071001501999999IA1019KA1240M+02421KA2120N+01461MA1999999095921MD1210091-0251MW1051REMSYN124AAXX  27121 76393 31210 80000 10166 20153 39592 40167 52009 70522 887// 91150 333 10242 20146 30140 563// 59025 70000 88705;
0217763930999992012022715004+25733-100300FM-12+051599999V0201101N001010027019N0008001N1+01761+01541101921ADDAY121031AY221031GA1081+002701071GF108991081071002501999999IA1019MA1999999096131MD1210211-0091MW1051REMSYN106AAXX  27151 76393 31308 81101 10176 20154 39613 40192 52021 70522 887// 91452 333 30/// 56399 59009 88709;
0195763930999992012022721004+25733-100300FM-12+051599999V0201201N003019999999N0010001N1+02361+01571101681ADDAY141031AY221031GF105991021001999999011081IA1019MA1999999095961MD1710251-0241MW1051REMSYN100AAXX  27211 76393 31910 51203 10236 20157 39596 40168 57025 70542 82018 92045 333 30/// 56065 59024;
0284763930999992012022800004+25733-100300FM-12+051599999V0201201N004019999999N0020001N1+02381+01481101611ADDAA124000091AY121061AY221061GA1031+030001041GF108991031001999999011081IA1019KA1120M+02701KA2180N+01461MA1999999095931MD1710031+0321MW1041REMSYN136AAXX  28001 76393 31920 81204 10238 20148 39593 40161 57003 70422 83018 92350 333 10270 20146 30/// 50411 56055 58032 70000 83460 85270;
0223763930999992012022803004+25733-100300FM-12+051599999V0201101N00201090001CN0020001N1+02141+01591101611ADDAY121031AY221031GA1011+006601061GF106991011051008001001081IA1019MA1999999095961MD1210031+0191MW1041REMSYN112AAXX  28031 76393 31520 61102 10214 20159 39596 40161 52003 70422 81508 90250 333 30/// 56305 58019 81622 85270;
0253763930999992012022806004+25733-100300FM-12+051599999V0201101N002010042019N0020001N1+02001+01701101611ADDAY121061AY221061GF106991061051004501001001GJ102589IA1019KA1240M+02601KA2240N+01461MA1999999095961MD1410001+0061MW1051REMSYN124AAXX  28061 76393 31420 61102 10200 20170 39596 40161 54000 70522 86500 90550 333 10260 20146 30/// 55043 56300 58006 88612;
0217763930999992012022809004+25733-100300FM-12+051599999V0201001N002010300019N0010001N1+01801+01711101541ADDAY121031AY221031GA1071+030001041GF107991071001999999021001IA1019MA1999999095871MD1710091+0041MW1051REMSYN106AAXX  28091 76393 31910 71002 10180 20171 39587 40154 57009 70522 87020 90851 333 30/// 56050 58004 87460;
0272763930999992012022812004+25733-100300FM-12+051599999V0209999C000010300019N0010001N1+01781+01691101531ADDAA124000091AY121061AY221061GA1081+030001041GF108991081999999999021999IA1019KA1240M+02601KA2120N+01661MA1999999095831MD1710041-0091MW1051REMSYN124AAXX  28121 76393 31910 80000 10178 20169 39583 40153 57004 70522 88/2/ 91150 333 10260 20166 30160 56/5/ 59009 70000 88460;
0223763930999992012022815004+25733-100300FM-12+051599999V0200601N00101036001CN0008001N1+01801+01651101691ADDAY141031AY221031GA1041+001801061GF108991041051001501021999IA1019MA1999999095961MD1210131-0171MW1051REMSYN112AAXX  28151 76393 31208 80601 10180 20165 39596 40169 52013 70542 8452/ 91454 333 30/// 5635/ 59017 84606 84460;
0172763930999992012022818004+25733-100300FM-12+051599999V0201501N001019999999N0008001N1+02131+01741101691ADDAA106000021AY141061AY221061GF108991999999004501999999MA1999999095951MD1710011+9999MW1511REMSYN072AAXX  28181 76393 01408 81501 10213 20174 39595 40169 57001 69901 75142;
0223763930999992012022821004+25733-100300FM-12+051599999V0201301N00401036001CN0010001N1+02561+01731101281ADDAY141031AY221031GA1031+010201071GF107991031071012501011001IA1019MA1999999095591MD1710361-0371MW1051REMSYN112AAXX  28211 76393 31610 71304 10256 20173 39559 40128 57036 70542 83710 92045 333 30/// 56350 59037 83734 84460;
0262763930999992012022900004+25733-100300FM-12+051599999V0201301N004019999999N0020001N1+02611+01711101191ADDAA124999929AY141061AY241061GF108991081001999999021001IA1019KA1120M+02741KA2180N+01661MA1999999095551MD1710041-0381MW1051REMSYN130AAXX  29001 76393 31920 81304 10261 20171 39555 40119 57004 70544 88020 92345 333 10274 20166 30/// 50301 56050 59038 79999 88460;
0217763930999992012022903004+25733-100300FM-12+051599999V0203201N001010330019N0010001N1+02341+01681101241ADDAY121031AY221031GA1061+033001041GF106991061001999999021001IA1019MA1999999095621MD1210071-0341MW1051REMSYN106AAXX  29031 76393 31910 63201 10234 20168 39562 40124 52007 70522 86020 90250 333 30/// 56050 59034 86461;
0253763930999992012022906004+25733-100300FM-12+051599999V0201201N001019999999N0010001N1+02161+01711101201ADDAY121061AY221061GF107991071001999999021001GJ100129IA1019KA1240M+02741KA2240N+01661MA1999999095591MD1210031-0371MW1051REMSYN124AAXX  29061 76393 31910 71201 10216 20171 39559 40120 52003 70522 87020 90550 333 10274 20166 30/// 55002 56050 59037 87461;
0217763930999992012022909004+25733-100300FM-12+051599999V0209999C000010300019N0010001N1+01961+01661101191ADDAY121031AY221031GA1071+030001041GF107991071001999999021001IA1019MA1999999095501MD1710091-0371MW1051REMSYN106AAXX  29091 76393 31910 70000 10196 20166 39550 40119 57009 70522 87020 90851 333 30/// 56050 59037 87460;
0272763930999992012022912004+25733-100300FM-12+051599999V0203201N001010330019N0010001N1+01901+01661101191ADDAA124000021AY121061AY221061GA1061+033001041GF106991061001999999021001IA1019KA1240M+02741KA2120N+01801MA1999999095461MD1710041-0371MW1051REMSYN124AAXX  29121 76393 31910 63201 10190 20166 39546 40119 57004 70522 86020 91150 333 10274 20180 30170 56050 59037 79999 86461;
0217763930999992012022915004+25733-100300FM-12+051599999V0203301N001019999999N0010001N1+02181+01731101401ADDAY141031AY221031GA1041+030001041GF107991041001999999011021IA1019MA1999999095641MD1210181-0321MW1051REMSYN106AAXX  29151 76393 31910 73301 10218 20173 39564 40140 52018 70542 84012 91455 333 30/// 56055 59032 84460;
0261763930999992012022918004+25733-100300FM-12+051599999V0200101N00101036001CN0030001N1+02801+01511101431ADDAY141061AY221061GA1011+015001081GF107991011021017501041051IA1019KA1120M+02941KA2240N+01801MA1999999095751MD1210111-0201MW1051REMSYN124AAXX  29181 76393 31730 70101 10280 20151 39575 40143 52011 70542 81245 91748 333 10294 20180 30/// 56575 59020 81850 85275;
0223763930999992012022921004+25733-100300FM-12+051599999V0201201N002010360019N0030001N1+03181+01761101131ADDAY141031AY221031GA1011+018001081GF106991011021017501021081IA1019MA1999999095531MD1710231-0061MW1051REMSYN112AAXX  29211 76393 31730 61202 10318 20176 39553 40113 57023 70542 81228 92050 333 30/// 56555 59006 81856 83462;
0217763930999992012030103004+25733-100300FM-12+051599999V0201001N001010330019N0010001N1+02521+01721101211ADDAY121031AY221031GA1051+033001041GF105991051001999999011001IA1019MA1999999095671MD1210151+0051MW1051REMSYN106AAXX  01031 76393 31910 51001 10252 20172 39567 40121 52015 70522 85010 90250 333 30/// 56050 58005 85461;
0247763930999992012030106004+25733-100300FM-12+051599999V0201501N002012200019N0010001N1+02201+01751101211ADDAY101061AY201061GF102991021001999999011001GJ104689IA1019KA1240M+03281KA2240N+01801MA1999999095661MD1710011+9999MW1051REMSYN118AAXX  01061 76393 31910 21502 10220 20175 39566 40121 57001 70500 82010 90550 333 10328 20180 30/// 55078 56050 58007;
0195763930999992012030109004+25733-100300FM-12+051599999V0203101N002012200019N0010001N1+02101+01711101081ADDAY101031AY201031GF102991021001999999011001IA1019MA1999999095501MD1710161+0001MW1051REMSYN100AAXX  01091 76393 31910 23102 10210 20171 39550 40108 57016 70500 82010 90850 333 30/// 56050 58000;
0272763930999992012030112004+25733-100300FM-12+051599999V0209999C000010300019N0010001N1+02061+01731101151ADDAA124000091AY121061AY221061GA1061+030001041GF106991061001999999021001IA1019KA1240M+03281KA2120N+01941MA1999999095531MD1210031+0071MW1051REMSYN124AAXX  01121 76393 31910 60000 10206 20173 39553 40115 52003 70522 86020 91152 333 10328 20194 30180 56050 58007 70000 86460;
0195763930999992012030115004+25733-100300FM-12+051599999V0201601N001012200019N0020001N1+02241+01731101201ADDAY141031AY201031GF103991001001999999001081IA1019MA1999999095551MD1210021-0101MW1041REMSYN100AAXX  01151 76393 31920 31601 10224 20173 39555 40120 52002 70440 80008 91450 333 30/// 56007 59010;
0255763930999992012030118004+25733-100300FM-12+051599999V0201201N002010300019N0020001N1+02641+01861101061ADDAY141061AY221061GA1061+030001041GF106991061001999999011001IA1019KA1120M+02761KA2240N+01941MA1999999095421MD1710131-0341MW1051REMSYN118AAXX  01181 76393 31920 61202 10264 20186 39542 40106 57013 70542 86010 91745 333 10276 20194 30/// 56050 59034 86460;
0215763930999992012030121004+25733-100300FM-12+051599999V0201101N002019999999N0020001N1+02901+01861100651ADDAY141031AY221031GF107991999071999999001011MA1999999095071MD1210351-0461MW1051REMSYN107AAXX  01211 76393 32920 71102 10290 20186 39507 40065 52035 70542 88701/ 92045 333 30/// 5605/ 59046 87465;EQDQ01+000082SCOTLC
0262763930999992012030200004+25733-100300FM-12+051599999V0201201N004019999999N0030001N1+02861+01851100471ADDAA124000091AY141061AY221061GF107991051001999999011081IA1019KA1120M+03021KA2180N+01941MA1999999094941MD1710131-0581MW1041REMSYN130AAXX  02001 76393 31930 71204 10286 20185 39494 40047 57013 70442 85018 92345 333 10302 20194 30/// 50381 56055 59058 70000 85460;
0217763930999992012030203004+25733-100300FM-12+051599999V0200501N001010330019N0010001N1+02581+01791100511ADDAY121031AY221031GA1051+033001041GF105991051001999999011001IA1019MA1999999095001MD1210061-0671MW1051REMSYN106AAXX  02031 76393 31910 50501 10258 20179 39500 40051 52006 70522 85010 90250 333 30/// 56050 59067 85461;
0269763930999992012030212004+25733-100300FM-12+051599999V0202501N002012200019N0010001N1+01961+01721100341ADDAA124000091AY101061AY201061GF102991021001999999011001IA1019KA1240M+03021KA2120N+01881MA1999999094761MD1710111-0771MW1051REMSYN118AAXX  02121 76393 31910 22502 10196 20172 39476 40034 57011 70500 82010 91150 333 10302 20188 30180 56050 59077 70000;EQDQ01  00002PRCP24
0211763930999992012030215004+25733-100300FM-12+051599999V0202501N001010750019N0010001N1+99999+99999100471ADDAY141031AY221031GA1071+075001021GF107991001001999999001051IA1019MA1999999094881MD1210121-0671MW1051REMSYN100AAXX  02151 76393 31910 72501 20139 39488 40047 52012 70542 80005 91449 333 30/// 56005 59067 87275;
0255763930999992012030218004+25733-100300FM-12+051599999V0203401N001010900019N0020001N1+03541-00021100381ADDAY141061AY221061GA1071+090001001GF107991001001999999001021IA1019KA1120M+03621KA2240N+01881MA1999999094821MD1710061-0601MW1051REMSYN118AAXX  02181 76393 31920 73401 10354 21002 39482 40038 57006 70542 80002 91745 333 10362 20188 30/// 56005 59060 87080;
0217763930999992012030221004+25733-100300FM-12+051599999V0203001N006010900019N0040001N1+03701-00131099991ADDAY121031AY221031GA1051+090001001GF105991001001999999001021IA1019MA1999999094531MD1710301-0451MW1041REMSYN106AAXX  02211 76393 31940 53006 10370 21013 39453 49999 57030 70422 80002 92045 333 30/// 56007 59045 85080;
0253763930999992012030300004+25733-100300FM-12+051599999V0201201N005019999999N0050001N1+03141+01642100031ADDAA124000091GF105991031001999999021081IA1019KA1120M+03841KA2180N+01881MA1999999094621MD1210091-0721REMSYN124AAXX  03001 76393 32950 51205 10314 20164 39462 40003 52009 83028 92345 333 10384 20188 30/// 50901 56077 59072 70000 83460;EQDQ01+001643ATOD  
0199763930999992012030303004+25733-100300FM-12+051599999V0201201N004012200019N0020001N1+02741+01741100251ADDAY101031AY201031GA1001+999999999GF100991001001999999001001IA1019MA1999999094861MD1210041-0141MW1051REMSYN088AAXX  03031 76393 31920 01204 10274 20174 39486 40025 52004 70500 90250 333 30/// 59014;
0251763930999992012030306004+25733-100300FM-12+051599999V0202701N001012200019N0020001N1+02521+01721100281ADDAY101061AY201061GA1001+999999999GF100991001001999999001001GJ105529IA1019KA1240M+03841KA2240N+01881MA1999999094861MD1410001-0041MW1051REMSYN106AAXX  03061 76393 31920 02701 10252 20172 39486 40028 54000 70500 90550 333 10384 20188 30/// 55092 59004;
0171763930999992012030309004+25733-100300FM-12+051599999V0202201N001012200019N0020001N1+02261+01661100291ADDGA1001+999999999GF100991001001999999001001IA1019MA1999999094801MD1710061-0071REMSYN082AAXX  03091 76393 32920 02201 10226 20166 39480 40029 57006 90851 333 30/// 59007;
0245763930999992012030312004+25733-100300FM-12+051599999V0200301N001012200019N0010001N1+02141+01271100791ADDAA124000091GA1001+999999999GF100991001001999999001001IA1019KA1240M+03841KA2120N+02001MA1999999095221MD1210421+0461REMSYN100AAXX  03121 76393 32910 00301 10214 20127 39522 40079 52042 91152 333 10384 20200 30190 58046 70000;EQDQ01  00002PRCP24
0217763930999992012030315004+25733-100300FM-12+051599999V0203401N002012200019N0020001N1+02001+00431101361ADDAY111031AY211031GA1021+021001061GF102991021051017501001001IA1019MA1999999095731MD1210511+0851MW1051REMSYN106AAXX  03151 76393 31720 23402 10200 20043 39573 40136 52051 70511 82500 91448 333 30/// 56500 58085 82657;
0255763930999992012030318004+25733-100300FM-12+051599999V0203401N002012200019N0030001N1+02211+00241101591ADDAY111061AY211061GA1011+024001081GF102991011021022501041001IA1019KA1120M+02261KA2240N+01861MA1999999095931MD1210201+1101MW1051REMSYN118AAXX  03181 76393 31830 23402 10221 20024 39593 40159 52020 70511 81240 91748 333 10226 20186 30/// 56570 58110 81858;
0217763930999992012030321004+25733-100300FM-12+051599999V0203401N003019999999N0030001N1+02241+00201101511ADDAY121031AY221031GA1041+033001031GF106991041001999999041091IA1019MA1999999095841MD1710081+1311MW1051REMSYN106AAXX  03211 76393 31930 63403 10224 20020 39584 40151 57008 70522 84049 92050 333 30/// 56077 58131 84361;
0245763930999992012030400004+25733-100300FM-12+051599999V0200201N001012200019N0040001N1+02181+00091101691ADDAY101061AY201061GF104991021001999999041081IA1019KA1120M+02501KA2180N+01861MA1999999096021MD1710181+1401MW1051REMSYN124AAXX  04001 76393 31940 40201 10218 20009 39602 40169 57018 70500 82048 92350 333 10250 20186 30/// 50951 56077 58140 70000;
0199763930999992012030403004+25733-100300FM-12+051599999V0200301N002012200019N0020001N1+01841-00011102041ADDAY101031AY201031GA1001+999999999GF100991001001999999001001IA1019MA1999999096351MD1210331+1491MW1041REMSYN088AAXX  04031 76393 31920 00302 10184 21001 39635 40204 52033 70400 90250 333 30/// 58149;
0270763930999992012030406004+25733-100300FM-12+051599999V0203201N002012200019N0020001N1+01581+00121102321ADDAY101061AY201061GA1001+999999999GF100991001001999999001001GJ104449IA1019KA1240M+02501KA2240N+99999MA1999999096591MD1210241+1731MW1041REMSYN106AAXX  04061 76393 31920 03202 10158 20012 39659 40232 52024 70400 90550 333 10250 20186 30/// 55074 58173;EQDQ01 +01862ATMN  
0171763930999992012030409004+25733-100300FM-12+051599999V0203101N002012200019N0020001N1+01441-00181102351ADDGA1001+999999999GF100991001001999999001001IA1019MA1999999096581MD1710011+1781REMSYN082AAXX  04091 76393 32920 03102 10144 21018 39658 40235 57001 90852 333 30/// 58178;
0245763930999992012030412004+25733-100300FM-12+051599999V0203101N001012200019N0020001N1+01241+00161102381ADDAA124000091GA1001+999999999GF100991001001999999001001IA1019KA1240M+02501KA2120N+01181MA1999999096561MD1710021+1341REMSYN100AAXX  04121 76393 32920 03101 10124 20016 39656 40238 57002 91145 333 10250 20118 30110 58134 70000;EQDQ01  00002PRCP24
0183763930999992012030415004+25733-100300FM-12+051599999V0209999C000012200019N0060001N1+01481-00171102581ADDGA1001+999999999GF100991001001999999001001IA1019MA1999999096721MD1210161+0991REMSYN094AAXX  04151 76393 32956 00000 10148 21017 39672 40258 52016 80008 91445 333 30/// 56005 58099;
0205763930999992012030418004+25733-100300FM-12+051599999V0201201N005012200019N0080001N1+02081+00041102561ADDGF102991011001999999011011IA1019KA1120M+02241KA2240N+01161MA1999999096721MD1710011+0801REMSYN106AAXX  04181 76393 32958 21205 10208 20004 39672 40256 57001 81011 91750 333 10224 20116 30/// 56035 58080;
0171763930999992012030421004+25733-100300FM-12+051599999V0201201N002012200019N0080001N1+02401+00101102121ADDGA1001+999999999GF100991001001999999001001IA1019MA1999999096341MD1710381+0501REMSYN082AAXX  04211 76393 32958 01202 10240 20010 39634 40212 57038 92052 333 30/// 58050;
0251763930999992012030500004+25733-100300FM-12+051599999V0201201N002012200019N0080001N1+02281+00131101941ADDAA124000091GA1001+999999999GF100991001001999999001001IA1019KA1120M+02511KA2180N+01161MA1999999096221MD1710121+0201REMSYN106AAXX  05001 76393 32958 01202 10228 20013 39622 40194 57012 92348 333 10251 20116 30/// 50741 58020 70000;EQDQ01  00002PRCP24
0199763930999992012030503004+25733-100300FM-12+051599999V0201101N003012200019N0030001N1+02021+00121102031ADDAY101031AY201031GA1001+999999999GF100991001001999999001001IA1019MA1999999096341MD1210121-0011MW1041REMSYN088AAXX  05031 76393 31930 01103 10202 20012 39634 40203 52012 70400 90250 333 30/// 59001;
0251763930999992012030506004+25733-100300FM-12+051599999V0200701N001012200019N0020001N1+01561+00401102111ADDAY101061AY201061GA1001+999999999GF100991001001999999001001GJ106189IA1019KA1240M+02511KA2240N+01161MA1999999096401MD1210061-0191MW1041REMSYN106AAXX  05061 76393 31920 00701 10156 20040 39640 40211 52006 70400 90550 333 10251 20116 30/// 55103 59019;
0171763930999992012030509004+25733-100300FM-12+051599999V0200401N001012200019N0020001N1+01281+00461102121ADDGA1001+999999999GF100991001001999999001001IA1019MA1999999096361MD1710041-0221REMSYN082AAXX  05091 76393 32920 00401 10128 20046 39636 40212 57004 90850 333 30/// 59022;
0245763930999992012030512004+25733-100300FM-12+051599999V0209999C000012200019N0020001N1+01141+00691102211ADDAA124000091GA1001+999999999GF100991001001999999001001IA1019KA1240M+02511KA2120N+01101MA1999999096391MD1210031-0171REMSYN100AAXX  05121 76393 32920 00000 10114 20069 39639 40221 52003 91150 333 10251 20110 30100 59017 70000;EQDQ01  00002PRCP24
0171763930999992012030515004+25733-100300FM-12+051599999V0200601N001012200019N0050001N1+01461+00811102521ADDGA1001+999999999GF100991001001999999001001IA1019MA1999999096621MD1210221-0111REMSYN082AAXX  05151 76393 32950 00601 10146 20081 39662 40252 52022 91449 333 30/// 59011;
0209763930999992012030518004+25733-100300FM-12+051599999V0201101N001012200019N0050001N1+01971+00901102531ADDGA1001+999999999GF100991001001999999001001IA1019KA1120M+02061KA2240N+01101MA1999999096661MD1210041-0061REMSYN094AAXX  05181 76393 32950 01101 10197 20090 39666 40253 52004 91742 333 10206 20110 30/// 59006;
0171763930999992012030521004+25733-100300FM-12+051599999V0201201N006012200019N0060001N1+02481+01071102111ADDGA1001+999999999GF100991001001999999001001IA1019MA1999999096311MD1710351-0031REMSYN082AAXX  05211 76393 32956 01206 10248 20107 39631 40211 57035 92045 333 30/// 59003;
0217763930999992012030600004+25733-100300FM-12+051599999V0201201N007012200019N0060001N1+02481+00901101881ADDGF104991011001999999011091IA1019KA1120M+02721KA2180N+01101MA1999999096471MD1710141-0051REMSYN118AAXX  06001 76393 32956 41207 10248 20090 39647 40188 57014 81019 92345 333 10272 20110 30/// 50521 56055 59005 70000;
0199763930999992012030603004+25733-100300FM-12+051599999V0201101N003012200019N0020001N1+02021+01051102011ADDAY101031AY201031GA1001+999999999GF100991001001999999001001IA1019MA1999999096331MD1210161-0011MW1041REMSYN088AAXX  06031 76393 31920 01103 10202 20105 39633 40201 52016 70400 90250 333 30/// 59001;
0247763930999992012030606004+25733-100300FM-12+051599999V0201101N004012200019N0020001N1+01621+01191102001ADDAY101061AY201061GF103991021001999999011081GJ106069IA1019KA1240M+02721KA2240N+01101MA1999999096321MD1710011+9999MW1041REMSYN118AAXX  06061 76393 31920 31104 10162 20119 39632 40200 57001 70400 82018 90550 333 10272 20110 30/// 55101 56035 59008;
0217763930999992012030609004+25733-100300FM-12+051599999V0201101N003010300019N0020001N1+01501+01201101871ADDAY121031AY221031GA1071+030001041GF107991071001999999021001IA1019MA1999999096161MD1710161-0201MW1041REMSYN106AAXX  06091 76393 31920 71103 10150 20120 39616 40187 57016 70422 87020 90851 333 30/// 56050 59020 87460;
0272763930999992012030612004+25733-100300FM-12+051599999V0200601N001012200019N0020001N1+01381+01181101831ADDAA124000091AY111061AY211061GA1041+033001041GF104991041001999999021001IA1019KA1240M+02721KA2120N+01281MA1999999096071MD1710091-0321MW1041REMSYN124AAXX  06121 76393 31920 40601 10138 20118 39607 40183 57009 70411 84020 91150 333 10272 20128 30120 56050 59032 70000 84461;
0144763930999992012030615004+25733-100300FM-12+051599999V0200701N001019999999N0020001N1+01561+99999999999ADDGF107991999999008001999999REMSYN106AAXX  06151 76393 31520 70701 10156 2097 1448 39609 40190 52002 70542 875// 9 333 30/// 56399 59053 87624;
0255763930999992012030618004+25733-100300FM-12+051599999V0200601N001012200019N0020001N1+01911+01111101851ADDAY111061AY211061GA1031+009901061GF103991031051008001001001IA1019KA1120M+02091KA2240N+01281MA1999999096051MD1710041-0611MW1051REMSYN118AAXX  06181 76393 31520 30601 10191 20111 39605 40185 57004 70511 83500 91744 333 10209 20128 30/// 56300 59061 83633;
0189763930999992012030621004+25733-100300FM-12+051599999V0201101N006010900019N0040001N1+02561+01221101301ADDGA1051+090001001GF105991001001999999001011IA1019MA1999999095581MD1710471-0731REMSYN100AAXX  06211 76393 32940 51106 10256 20122 39558 40130 57047 80001 92045 333 30/// 56005 59073 85080;
0217763930999992012030700004+25733-100300FM-12+051599999V0201101N007019999999N0050001N1+02621+01101101101ADDGF105991011001999999011011IA1019KA1120M+02761KA2180N+01281MA1999999095441MD1710141-0731REMSYN118AAXX  07001 76393 32950 51107 10262 20110 39544 40110 57014 81011 92345 333 10276 20128 30/// 50651 56037 59073 70000;
0171763930999992012030703004+25733-100300FM-12+051599999V0201201N005012200019N0020001N1+02261+01271101161ADDGA1001+999999999GF100991001001999999001001IA1019MA1999999095541MD1210101-0791REMSYN082AAXX  07031 76393 32920 01205 10226 20127 39554 40116 52010 90250 333 30/// 59079;
0219763930999992012030706004+25733-100300FM-12+051599999V0201201N004012200019N0020001N1+01901+01391101231ADDGF102991021001999999041001GJ104149IA1019KA1240M+02761KA2240N+01281MA1999999095611MD1210071+9999REMSYN112AAXX  07061 76393 32920 21204 10190 20139 39561 40123 52007 82040 90550 333 10276 20128 30/// 55069 56070 59071;
0217763930999992012030709004+25733-100300FM-12+051599999V0201101N002010360019N0020001N1+01701+01441101141ADDAY121031AY221031GA1031+003301061GF105991031051004501021001IA1019MA1999999095501MD1710111-0661MW1041REMSYN106AAXX  07091 76393 31420 51102 10170 20144 39550 40114 57011 70422 83520 90850 333 30/// 56350 59066 83611;
0272763930999992012030712004+25733-100300FM-12+051599999V0201001N001010300019N0010001N1+01761+01471101231ADDAA124000091AY121061AY221061GA1081+030001041GF108991081001999999021001IA1019KA1240M+02761KA2120N+01681MA1999999095551MD1210051-0521MW1041REMSYN124AAXX  07121 76393 31910 81001 10176 20147 39555 40123 52005 70422 88020 91151 333 10276 20168 30160 56050 59052 70000 88460;
0217763930999992012030715004+25733-100300FM-12+051599999V0201101N001010054019N0010001N1+01901+01461101331ADDAY141031AY221031GA1071+005401061GF107991071051004501999999IA1019MA1999999095621MD1710071-0471MW1051REMSYN106AAXX  07151 76393 31410 71101 10190 20146 39562 40133 57007 70542 875// 91452 333 30/// 56399 59047 87618;
0255763930999992012030718004+25733-100300FM-12+051599999V0201101N001012200019N0010001N1+02411+01611101311ADDAY141061AY201061GA1011+009901081GF101991011021008001001001IA1019KA1120M+02511KA2240N+01681MA1999999095611MD1710011-0441MW1051REMSYN118AAXX  07181 76393 31510 11101 10241 20161 39561 40131 57001 70540 81200 91747 333 10251 20168 30/// 56500 59044 81833;
0217763930999992012030721004+25733-100300FM-12+051599999V0201201N005012200019N0030001N1+02901+01511100871ADDAY141031AY211031GA1011+018001091GF101991011031017501001001IA1019MA1999999095241MD1710371-0341MW1041REMSYN106AAXX  07211 76393 31730 11205 10290 20151 39524 40087 57037 70441 81300 92045 333 30/// 56500 59034 81956;
0234763930999992012030800004+25733-100300FM-12+051599999V0201101N006012200019N0100001N1+02881+01561100671ADDAA124000091GF102991011081017501001091IA1019KA1120M+03121KA2180N+01681MA1999999095111MD1710131-0331REMSYN124AAXX  08001 76393 32760 21106 10288 20156 39511 40067 57013 81809 92345 333 10312 20168 30/// 50481 56705 59033 70000 81653;
0217763930999992012030803004+25733-100300FM-12+051599999V0201101N001012200019N0020001N1+02461+01621100751ADDAY101031AY201031GA1011+010201061GF101991011081012501001001IA1019MA1999999095221MD1210111-0321MW1041REMSYN106AAXX  08031 76393 31620 11101 10246 20162 39522 40075 52011 70400 81800 90250 333 30/// 56500 59032 81634;
0171763930999992012030809004+25733-100300FM-12+051599999V0209999C000012200019N0020001N1+02001+01801100731ADDGA1001+999999999GF100991001001999999001001IA1019MA1999999095171MD1710021-0331REMSYN082AAXX  08091 76393 32920 00000 10200 20180 39517 40073 57002 90850 333 30/// 59033;
0250763930999992012030812004+25733-100300FM-12+051599999V0203101N001012200019N0010001N1+01841+01661100921ADDAA124000391AY101061AY201061GF101991011001999999041001IA1019KA1240M+03121KA2120N+01761MA1999999095301MD1210131-0251MW1051REMSYN118AAXX  08121 76393 31910 13101 10184 20166 39530 40092 52013 70500 81040 91150 333 10312 20176 30170 56050 59025 70002;
0199763930999992012030815004+25733-100300FM-12+051599999V0203401N001012200019N0020001N1+02041+01741101101ADDAY141031AY241031GA1001+999999999GF100991001001999999001001IA1019MA1999999095431MD1210131-0181MW1051REMSYN088AAXX  08151 76393 31920 03401 10204 20174 39543 40110 52013 70544 91450 333 30/// 59018;
0233763930999992012030818004+25733-100300FM-12+051599999V0200601N002012200019N0020001N1+02661+01851101071ADDAY141061AY241061GF101991011041008001001001IA1019KA1120M+02801KA2240N+01761MA1999999095421MD1710011-0191MW1051REMSYN112AAXX  08181 76393 31520 10602 10266 20185 39542 40107 57001 70544 81400 91750 333 10280 20176 30/// 56500 59019;
0217763930999992012030821004+25733-100300FM-12+051599999V0201201N006012200019N0030001N1+03341+01561100721ADDAY101031AY201031GA1021+021001081GF102991021041022501001001IA1019MA1999999095131MD1710291-0111MW1041REMSYN106AAXX  08211 76393 31830 21206 10334 20156 39513 40072 57029 70400 82400 92045 333 30/// 56500 59011 82857;
0244763930999992012030900004+25733-100300FM-12+051599999V0201201N005012200019N0050001N1+03191+01501100651ADDAA124000291GA1031+021001061GF104991031041022501031001IA1019KA1120M+03461KA2180N+01761MA1999999095131MD1410001+0021REMSYN118AAXX  09001 76393 32850 41205 10319 20150 39513 40065 54000 83430 92345 333 10346 20176 30/// 56570 58002 70002 83657;
0223763930999992012030903004+25733-100300FM-12+051599999V0203601N001012200019N0020001N1+02801+01601100871ADDAY111031AY211031GA1021+014701061GF104991041051012501031001IA1019MA1999999095381MD1210251+0161MW1041REMSYN112AAXX  09031 76393 31620 43601 10280 20160 39538 40087 52025 70411 84530 90250 333 30/// 56350 58016 82649 82360;
0253763930999992012030906004+25733-100300FM-12+051599999V0200501N002010075019N0010001N1+01881+01191101521ADDAY121061AY221061GF108991081061008001001001GJ105229IA1019KA1240M+03461KA2240N+01761MA1999999095991MD1210161+0801MW1041REMSYN124AAXX  09061 76393 31510 80502 10188 20119 39599 40152 52016 70422 88600 90550 333 10346 20176 30/// 55087 56300 58080 88728;
0217763930999992012030909004+25733-100300FM-12+051599999V0200301N001010087019N0010001N1+01381+00671101751ADDAY121031AY221031GA1081+008701071GF108991081061008001999999IA1019MA1999999096131MD1210141+0961MW1041REMSYN106AAXX  09091 76393 31510 80301 10138 20067 39613 40175 52014 70422 886// 90850 333 30/// 563// 58096 88729;
0172763930999992012030912004+25733-100300FM-12+051599999V0203601N003019999999N0008001N1+00941+00671102131ADDAA106000021AY151061AY251061GF108991999999004501999999MA1999999096391MD1210261+9999MW1501REMSYN072AAXX  09121 76393 01408 83603 10094 20067 39639 40213 52026 69901 75055;
0234763930999992012030915004+25733-100300FM-12+051599999V0200201N002010024019N0008001N1+00821+00631102571ADDAA103000021AY151031AY251031GA1081+002401071GF108991081071002501999999IA1099MA1999999096691MD1210391+1261MW1501REMSYN112AAXX  09151 76393 21308 80202 10082 20063 39669 40257 52039 75055 887// 91752 333 31/// 56899 58126 69907 88708;
0172763930999992012030918004+25733-100300FM-12+051599999V0203401N001019999999N0010001N1+00901+00561102741ADDAA106000021AY121061AY221061GF108991999999004501999999MA1999999096781MD1210091+9999MW1041REMSYN072AAXX  09181 76393 01410 83401 10090 20056 39678 40274 52009 69901 70422;
0217763930999992012030921004+25733-100300FM-12+051599999V0200201N002010090019N0030001N1+01301+00581102421ADDAY121031AY221031GA1081+009001061GF108991081051008001999999IA1019MA1999999096481MD1710311+1351MW1051REMSYN106AAXX  09211 76393 31530 80202 10130 20058 39648 40242 57031 70522 885// 92050 333 30/// 568// 58135 88630;
0262763930999992012031000004+25733-100300FM-12+051599999V0200601N002010075019N0030001N1+01141+00521102451ADDAA124999929AY121061AY221061GF108991081051008001999999IA1019KA1120M+01361KA2180N+00771MA1999999096511MD1210031-1381MW1051REMSYN130AAXX  10001 76393 31530 80602 10114 20052 39651 40245 52003 70522 885// 92350 333 10136 20077 30/// 50731 568// 59138 79999 88626;
0211763930999992012031003004+25733-100300FM-12+051599999V0200301N002010072019N0020001N1+01021+00421102641ADDAY121031AY221031GA1081+007201061GF108991081051008001001001IA1019MA1999999096701MD1210191+1321MW1041REMSYN100AAXX  10031 76393 31520 80302 10102 20042 39670 40264 52019 70422 88500 90250 333 30/// 58132 88624;
0253763930999992012031006004+25733-100300FM-12+051599999V0200401N001010042019N0020001N1+00841+00391102571ADDAY121061AY221061GF108991081051004501001001GJ100009IA1019KA1240M+01361KA2240N+00771MA1999999096631MD1710071+0641MW1041REMSYN124AAXX  10061 76393 31420 80401 10084 20039 39663 40257 57007 70422 88500 90550 333 10136 20077 30/// 55000 56800 58064 88618;
0217763930999992012031009004+25733-100300FM-12+051599999V0200501N001010063019N0020001N1+00841+00341102401ADDAY121031AY221031GA1081+006301061GF108991081051008001999999IA1019MA1999999096461MD1710171+0331MW1041REMSYN106AAXX  10091 76393 31520 80501 10084 20034 39646 40240 57017 70422 885// 90850 333 30/// 568// 58033 88621;
0272763930999992012031012004+25733-100300FM-12+051599999V0200401N002010057019N0020001N1+00821+00371102261ADDAA124000021AY121061AY221061GA1081+005701061GF108991081051004501999999IA1019KA1240M+01361KA2120N+00701MA1999999096311MD1710151-0081MW1041REMSYN124AAXX  10121 76393 31420 80402 10082 20037 39631 40226 57015 70422 885// 91150 333 10136 20070 30060 568// 59008 79999 88619;
0217763930999992012031015004+25733-100300FM-12+051599999V0200901N001010066019N0020001N1+00991+00451102461ADDAY121031AY221031GA1051+006601061GF108991051051008001021999IA1019MA1999999096391MD1210081-0301MW1051REMSYN106AAXX  10151 76393 31520 80901 10099 20045 39639 40246 52008 70522 8552/ 91448 333 30/// 56859 59030 85622;
0255763930999992012031018004+25733-100300FM-12+051599999V0201101N001010063019N0020001N1+01111+00591102261ADDAY121061AY221061GA1081+006301061GF108991081051008001999999IA1019KA1120M+01161KA2240N+00701MA1999999096311MD1710081-0471MW1041REMSYN118AAXX  10181 76393 31520 81101 10111 20059 39631 40226 57008 70422 885// 91747 333 10116 20070 30/// 56899 59047 88621;
0217763930999992012031021004+25733-100300FM-12+051599999V0201101N003010096019N0030001N1+01461+00691101931ADDAY141031AY221031GA1071+009601061GF107991071051008001999999IA1019MA1999999096031MD1710281-0451MW1051REMSYN106AAXX  10211 76393 31530 71103 10146 20069 39603 40193 57028 70542 875// 92045 333 30/// 568// 59045 87632;
0172763930999992012031100004+25733-100300FM-12+051599999V0201101N003019999999N0020001N1+01281+00731101671ADDAA106001091AY151061AY251061GF107991999999012501999999MA1999999095811MD1710221+9999MW1501REMSYN072AAXX  11001 76393 01620 71103 10128 20073 39581 40167 57022 69991 75055;
0217763930999992012031103004+25733-100300FM-12+051599999V0201301N002010300019N0020001N1+01101+00731101641ADDAY121031AY221031GA1051+030001041GF105991051001999999021001IA1019MA1999999095791MD1710021-0891MW1041REMSYN106AAXX  11031 76393 31920 51302 10110 20073 39579 40164 57002 70422 85020 90250 333 30/// 56070 59089 85460;
0217763930999992012031109004+25733-100300FM-12+051599999V0209999C000010027019N0010001N1+01001+00781101651ADDAY121031AY221031GA1071+002701061GF107991071051002501001001IA1019MA1999999095781MD1710071-0681MW1051REMSYN106AAXX  11091 76393 31310 70000 10100 20078 39578 40165 57007 70522 87500 90850 333 30/// 56800 59068 87609;
0226763930999992012031112004+25733-100300FM-12+051599999V0209999C000012200019N0010001N1+00921+00731101871ADDAA124000021GA1001+999999999GF100991001001999999001001IA1019KA1240M+01521KA2120N+00821MA1999999095971MD1210191-0341REMSYN100AAXX  11121 76393 32910 00000 10092 20073 39597 40187 52019 91152 333 10152 20082 30074 59034 79999;
0199763930999992012031115004+25733-100300FM-12+051599999V0200101N001012200019N0010001N1+01201+00671102131ADDAY141031AY221031GA1001+999999999GF100991001001999999001001IA1019MA1999999096211MD1210241-0181MW1051REMSYN088AAXX  11151 76393 31910 00101 10120 20067 39621 40213 52024 70542 91449 333 30/// 59018;
0237763930999992012031118004+25733-100300FM-12+051599999V0201501N001012200019N0010001N1+01981+00871101991ADDAY141061AY241061GA1001+999999999GF100991001001999999001001IA1019KA1120M+02041KA2240N+00821MA1999999096111MD1710101-0211MW1051REMSYN100AAXX  11181 76393 31910 01501 10198 20087 39611 40199 57010 70544 91745 333 10204 20082 30/// 59021;
0217763930999992012031121004+25733-100300FM-12+051599999V0201101N002012200019N0020001N1+02521+00961101571ADDAY141031AY201031GA1011+018001081GF101991011021017501001001IA1019MA1999999095781MD1710331-0251MW1051REMSYN106AAXX  11211 76393 31720 11102 10252 20096 39578 40157 57033 70540 81200 92045 333 30/// 56500 59025 81856;
0262763930999992012031200004+25733-100300FM-12+051599999V0201101N004012200019N0050001N1+02581+00861101381ADDAA124999929AY141061AY201061GF101991011041022501001001IA1019KA1120M+02721KA2180N+00821MA1999999095681MD1710101-0131MW1041REMSYN130AAXX  12001 76393 31850 11104 10258 20086 39568 40138 57010 70440 81400 92345 333 10272 20082 30/// 50231 56500 59013 79999 81857;
0199763930999992012031203004+25733-100300FM-12+051599999V0201101N001012200019N0020001N1+02141+01041101441ADDAY101031AY201031GA1001+999999999GF100991001001999999001001IA1019MA1999999095801MD1210121+0011MW1041REMSYN088AAXX  12031 76393 31920 01101 10214 20104 39580 40144 52012 70400 90250 333 30/// 58001;
0251763930999992012031206004+25733-100300FM-12+051599999V0200901N001012200019N0020001N1+01761+01271101501ADDAY101061AY201061GA1001+999999999GF100991001001999999001001GJ105889IA1019KA1240M+02721KA2240N+00821MA1999999095861MD1210061+0011MW1041REMSYN106AAXX  12061 76393 31920 00901 10176 20127 39586 40150 52006 70400 90550 333 10272 20082 30/// 55098 58001;
0171763930999992012031209004+25733-100300FM-12+051599999V0209999C000012200019N0010001N1+01481+01321101431ADDGA1001+999999999GF100991001001999999001001IA1019MA1999999095751MD1710111-0031REMSYN082AAXX  12091 76393 32910 00000 10148 20132 39575 40143 57011 90850 333 30/// 59003;
0245763930999992012031212004+25733-100300FM-12+051599999V0202201N001012200019N0010001N1+01461+01241101461ADDAA124000091GA1001+999999999GF100991001001999999001001IA1019KA1240M+02721KA2120N+01361MA1999999095721MD1710031-0251REMSYN100AAXX  12121 76393 32910 02201 10146 20124 39572 40146 57003 91150 333 10272 20136 30126 59025 70000;EQDQ01  00002PRCP24
0199763930999992012031215004+25733-100300FM-12+051599999V0201401N001012200019N0010001N1+02011+01001101751ADDAY141031AY201031GA1001+999999999GF100991001001999999001001IA1019MA1999999095971MD1210251-0241MW1041REMSYN088AAXX  12151 76393 31910 01401 10201 20100 39597 40175 52025 70440 91448 333 30/// 59024;
0237763930999992012031218004+25733-100300FM-12+051599999V0201101N001012200019N0010001N1+02641+01271101731ADDAY141061AY241061GA1001+999999999GF100991001001999999001001IA1019KA1120M+02741KA2240N+01361MA1999999095971MD1410001-0141MW1041REMSYN100AAXX  12181 76393 31910 01101 10264 20127 39597 40173 54000 70444 91746 333 10274 20136 30/// 59014;
0217763930999992012031221004+25733-100300FM-12+051599999V0201101N003012200019N0030001N1+02961+01221101361ADDAY141031AY211031GA1011+021001081GF102991011041022501001011IA1019MA1999999095701MD1710271-0081MW1051REMSYN106AAXX  12211 76393 31830 21103 10296 20122 39570 40136 57027 70541 81401 92045 333 30/// 56505 59008 81857;
0217763930999992012031300004+25733-100300FM-12+051599999V0201201N005012200019N0050001N1+02861+01421101261ADDGF104991021001999999011081IA1019KA1120M+03141KA2180N+01361MA1999999095601MD1710021+0001REMSYN118AAXX  13001 76393 32950 41205 10286 20142 39560 40126 57002 82018 92345 333 10314 20136 30/// 50661 56035 58000 70000;
0199763930999992012031303004+25733-100300FM-12+051599999V0201201N005012200019N0020001N1+02401+01751101401ADDAY101031AY201031GA1001+999999999GF100991001001999999001001IA1019MA1999999095841MD1210161+0041MW1041REMSYN088AAXX  13031 76393 31920 01205 10240 20175 39584 40140 52016 70400 90250 333 30/// 58004;
0253763930999992012031306004+25733-100300FM-12+051599999V0201201N005010042019N0010001N1+02161+01841101461ADDAY121061AY221061GF106991061051004501001001GJ106129IA1019KA1240M+03141KA2240N+01361MA1999999095891MD1210051+0031MW1041REMSYN124AAXX  13061 76393 31410 61205 10216 20184 39589 40146 52005 70422 86500 90550 333 10314 20136 30/// 55102 56300 58003 86613;
0217763930999992012031309004+25733-100300FM-12+051599999V0200601N002010018019N0010001N1+01981+01831101411ADDAY121031AY221031GA1071+001801061GF107991071051001501001001IA1019MA1999999095801MD1710091+0051MW1051REMSYN106AAXX  13091 76393 31210 70602 10198 20183 39580 40141 57009 70522 87500 90850 333 30/// 56300 58005 87606;
0272763930999992012031312004+25733-100300FM-12+051599999V0201101N001010015019N0008001N1+01921+01801101461ADDAA124000091AY121061AY221061GA1081+001501061GF108991081051001501999999IA1019KA1240M+03141KA2120N+01801MA1999999095801MD1410001+0081MW1051REMSYN124AAXX  13121 76393 31208 81101 10192 20180 39580 40146 54000 70522 885// 91150 333 10314 20180 30170 563// 58008 70000 88605;
0240763930999992012031315004+25733-100300FM-12+051599999V0200601N001010018019N0006001N1+01911+01761101691ADDAA103000021AY141031AY241031GA1051+001801061GF108991051051001501021999IA1019MA1999999095981MD1210181+0011MW1501REMSYN118AAXX  13151 76393 21206 80601 10191 20176 39598 40169 52018 75044 8552/ 91448 333 30/// 56359 58001 69907 85606 83460;
0255763930999992012031318004+25733-100300FM-12+051599999V0200601N001010057019N0008001N1+02261+01791101701ADDAY141061AY241061GA1081+005701071GF108991081071004501999999IA1019KA1120M+02371KA2240N+01801MA1999999095951MD1710031+9999MW1051REMSYN118AAXX  13181 76393 32408 80601 10226 20179 39595 40170 57003 70544 887// 91746 333 10237 20180 30/// 56399 50002 88719;
0217763930999992012031321004+25733-100300FM-12+051599999V0201401N003012200019N0040001N1+02741+01671101361ADDAY141031AY211031GA1041+013201081GF104991041041012501001001IA1019MA1999999095691MD1710301-0011MW1051REMSYN106AAXX  13211 76393 31640 41403 10274 20167 39569 40136 57030 70541 84400 92045 333 30/// 56300 59001 84844;
0284763930999992012031400004+25733-100300FM-12+051599999V0201201N006010360019N0040001N1+02801+01641101221ADDAA124999929AY121061AY221061GA1011+014401061GF107991011041012501011081IA1019KA1120M+02961KA2180N+01801MA1999999095611MD1710081-0071MW1041REMSYN136AAXX  14001 76393 31640 71206 10280 20164 39561 40122 57008 70422 81418 92345 333 10296 20180 30/// 50401 56557 59007 79999 81648 84460;
0223763930999992012031403004+25733-100300FM-12+051599999V0201601N00301012001CN0020001N1+02641+01721101241ADDAY121031AY221031GA1011+011401061GF106991061041012501021001IA1019MA1999999095671MD1210061-0171MW1051REMSYN112AAXX  14031 76393 31620 61603 10264 20172 39567 40124 52006 70522 86420 90250 333 30/// 56350 59017 81638 85461;
0223763930999992012031406004+25733-100300FM-12+051599999V0201201N003012200019N0020001N1+02161+01651101341ADDGA1001+999999999GF100991001001999999001001GJ102469IA1019KA1240M+02961KA2240N+01801MA1999999095771MD1210101-0121REMSYN100AAXX  14061 76393 32920 01203 10216 20165 39577 40134 52010 90550 333 10296 20180 30/// 55041 59012;
0217763930999992012031409004+25733-100300FM-12+051599999V0201001N002012200019N0020001N1+01881+01631101261ADDAY101031AY201031GA1031+003001061GF103991031051004501001001IA1019MA1999999095661MD1710111-0141MW1051REMSYN106AAXX  14091 76393 31420 31002 10188 20163 39566 40126 57011 70500 83500 90850 333 30/// 56300 59014 83610;
0272763930999992012031412004+25733-100300FM-12+051599999V0200901N001010021019N0010001N1+01901+01721101391ADDAA124000021AY121061AY221061GA1061+002101061GF108991061051002501021999IA1019KA1240M+02961KA2120N+01781MA1999999095741MD1210081-0061MW1051REMSYN124AAXX  14121 76393 31310 80901 10190 20172 39574 40139 52008 70522 8652/ 91150 333 10296 20178 30170 5635/ 59006 79999 86607;
0234763930999992012031415004+25733-100300FM-12+051599999V0200601N001010030019N0010001N1+01931+01691101651ADDAA103000021AY151031AY251031GA1081+003001071GF108991081071002501999999IA1019MA1999999095941MD1210201-0041MW1501REMSYN112AAXX  14151 76393 21310 80601 10193 20169 39594 40165 52020 75055 887// 91448 333 30/// 563// 59004 69907 88710;
0172763930999992012031418004+25733-100300FM-12+051599999V0200601N001019999999N0010001N1+02191+01731101691ADDAA106000021AY141061AY201061GF108991999999004501999999MA1999999095981MD1210041+9999MW1501REMSYN072AAXX  14181 76393 01410 80601 10219 20173 39598 40169 52004 69901 75040;
0217763930999992012031421004+25733-100300FM-12+051599999V0201101N002012200019N0020001N1+02801+01911101351ADDAY141031AY221031GA1021+013501061GF105991021041012501001081IA1019MA1999999095681MD1710301-0011MW1051REMSYN106AAXX  14211 76393 31620 51102 10280 20191 39568 40135 57030 70542 82408 92045 333 30/// 56307 59001 82645;
0284763930999992012031500004+25733-100300FM-12+051599999V0201201N003010360019N0030001N1+02881+01671101221ADDAA124999929AY141061AY221061GA1021+015001061GF108991021041012501011081IA1019KA1120M+03041KA2180N+01781MA1999999095611MD1710071+0001MW1051REMSYN136AAXX  15001 76393 31630 81203 10288 20167 39561 40122 57007 70542 82418 92345 333 10304 20178 30/// 50581 56337 58000 79999 82650 85275;
0217763930999992012031503004+25733-100300FM-12+051599999V0201201N005012200019N0020001N1+02481+01741101491ADDAY101031AY201031GA1011+009001061GF101991011051008001001001IA1019MA1999999095901MD1210291+0231MW1041REMSYN106AAXX  15031 76393 31520 11205 10248 20174 39590 40149 52029 70400 81500 90250 333 30/// 56300 58023 81630;
0253763930999992012031506004+25733-100300FM-12+051599999V0201301N002012200019N0010001N1+02181+01731101471ADDAY101061AY201061GF101991011051004501001001GJ102829IA1019KA1240M+03041KA2240N+01781MA1999999095881MD1710021+0111MW1041REMSYN124AAXX  15061 76393 31410 11302 10218 20173 39588 40147 57002 70400 81500 90550 333 10304 20178 30/// 55047 56300 58011 81618;
0217763930999992012031509004+25733-100300FM-12+051599999V0201101N003010036019N0020001N1+01981+01681101411ADDAY121031AY221031GA1051+003601061GF105991051051004501001001IA1019MA1999999095801MD1710081+0141MW1041REMSYN106AAXX  15091 76393 31420 51103 10198 20168 39580 40141 57008 70422 85500 90850 333 30/// 56300 58014 85612;
0278763930999992012031512004+25733-100300FM-12+051599999V0200401N001010030019N0010001N1+01921+01681101521ADDAA124000021AY121061AY221061GA1051+003001061GF108991051051002501021999IA1019KA1240M+03041KA2120N+01841MA1999999095861MD1210061+0121MW1051REMSYN130AAXX  15121 76393 31310 80401 10192 20168 39586 40152 52006 70522 8552/ 91150 333 10304 20184 30180 5635/ 58012 79999 85610 83460;
0189763930999992012031515004+25733-100300FM-12+051599999V0200601N001010030019N0010001N1+01941+01731101781ADDGA1081+003001071GF108991081061002501999999IA1019MA1999999096051MD1210091+0101REMSYN100AAXX  15151 76393 31310 80601 10194 20173 39605 40178 52009 886// 91455 333 30/// 563// 58010 88710;
0191763930999992012031518004+25733-100300FM-12+051599999V0200601N001019999999N0020001N1+02161+01801101831ADDAA106000091AY121061AY221061GF108991999999004501999999MA1999999096121MD1210071+9999MW1051REMSYN072AAXX  15181 76393 01420 80601 10216 20180 39612 40183 52007 69901 70522;EQDQ01  00002PRCP06
0223763930999992012031521004+25733-100300FM-12+051599999V0201201N00601036001CN0040001N1+02541+01771101491ADDAY121031AY221031GA1021+010801061GF108991021051012501021081IA1019MA1999999095821MD1710301+0141MW1041REMSYN112AAXX  15211 76393 31640 81206 10254 20177 39582 40149 57030 70422 82528 92045 333 30/// 56355 58014 82636 84460;
0303763930999992012031600004+25733-100300FM-12+051599999V0201201N003010360019N0040001N1+02601+01911101321ADDAA124999999AY121061AY221061GA1011+010801061GF108991011041012501021081IA1019KA1120M+02701KA2180N+01841MA1999999095691MD1710131+0091MW1041REMSYN136AAXX  16001 76393 31640 81203 10260 20191 39569 40132 57013 70422 81428 92345 333 10270 20184 30/// 50301 56555 58009 79999 81636 85460;EQDQ01  99992PRCP24
0217763930999992012031603004+25733-100300FM-12+051599999V0201201N005012200019N0020001N1+02401+01751101471ADDAY101031AY201031GA1021+007801061GF102991021051008001001001IA1019MA1999999095861MD1210171-0041MW1041REMSYN106AAXX  16031 76393 31520 21205 10240 20175 39586 40147 52017 70400 82500 90250 333 30/// 56500 59004 82626;
0253763930999992012031606004+25733-100300FM-12+051599999V0200301N001012200019N0010001N1+02121+01731101511ADDAY101061AY201061GF101991011051004501001001GJ100849IA1019KA1240M+02701KA2240N+01841MA1999999095901MD1210041+0021MW1041REMSYN124AAXX  16061 76393 31410 10301 10212 20173 39590 40151 52004 70400 81500 90550 333 10270 20184 30/// 55014 56500 58002 81516;
0217763930999992012031609004+25733-100300FM-12+051599999V0200601N003012200019N0010001N1+01901+01661101371ADDAY101031AY201031GA1031+003001061GF103991031051002501001001IA1019MA1999999095751MD1710151-0051MW1051REMSYN106AAXX  16091 76393 31310 30603 10190 20166 39575 40137 57015 70500 83500 90850 333 30/// 56500 59005 83610;
0291763930999992012031612004+25733-100300FM-12+051599999V0200401N001010018019N0010001N1+01861+01711101441ADDAA124000091AY121061AY221061GA1081+001801061GF108991081051001501999999IA1019KA1240M+02701KA2120N+01801MA1999999095771MD1210021-0091MW1051REMSYN124AAXX  16121 76393 31210 80401 10186 20171 39577 40144 52002 70522 885// 91150 333 10270 20180 30174 563// 59009 79999 88606;EQDQ01  00002PRCP24
0253763930999992012031615004+25733-100300FM-12+051599999V0200601N001010024019N0010001N1+01901+01691101641ADDAA103000091AY121031AY221031GA1081+002401071GF108991081061002501999999IA1019MA1999999095931MD1210161-0121MW1051REMSYN112AAXX  16151 76393 21310 80601 10190 20169 39593 40164 52016 70522 886// 91450 333 30/// 563// 59012 69907 88708;EQDQ01  00002PRCP03
0191763930999992012031618004+25733-100300FM-12+051599999V0201201N003019999999N0020001N1+02161+01741101691ADDAA106000091AY121061AY221061GF108991999999004501999999MA1999999095971MD1210041+9999MW1051REMSYN072AAXX  16181 76393 11420 81203 10216 20174 39597 40169 52004 69901 70522;EQDQ01  00002PRCP06
0217763930999992012031703004+25733-100300FM-12+051599999V0201101N003012200019N0020001N1+02541+01611101261ADDAY101031AY201031GA1021+011401061GF102991021051012501001001IA1019MA1999999095661MD1210181-0201MW1041REMSYN106AAXX  17031 76393 31620 21103 10254 20161 39566 40126 52018 70400 82500 90250 333 30/// 56300 59020 82638;
0259763930999992012031706004+25733-100300FM-12+051599999V0201201N003012200019N0020001N1+02161+01801101371ADDAY101061AY201061GF102991021051004501001001GJ101149IA1019KA1240M+03001KA2240N+01801MA1999999095771MD1210111-0131MW1041REMSYN130AAXX  17061 76393 31420 21203 10216 20180 39577 40137 52011 70400 82500 90550 333 10300 20180 30/// 50421 55019 56300 59013 82614;
0217763930999992012031709004+25733-100300FM-12+051599999V0200701N003010030019N0010001N1+01981+01741101191ADDAY121031AY221031GA1051+003001061GF105991051051002501001001IA1019MA1999999095581MD1710191-0171MW1051REMSYN106AAXX  17091 76393 31310 50703 10198 20174 39558 40119 57019 70522 85500 90850 333 30/// 56300 59017 85610;
0291763930999992012031712004+25733-100300FM-12+051599999V0200601N001010021019N0010001N1+01961+01751101221ADDAA124000091AY121061AY221061GA1081+002101061GF108991081051002501999999IA1019KA1240M+03001KA2120N+01861MA1999999095581MD1410001-0191MW1051REMSYN124AAXX  17121 76393 31310 80601 10196 20175 39558 40122 54000 70522 885// 91150 333 10300 20186 30180 563// 59019 79999 88607;EQDQ01  00002PRCP24
0217763930999992012031715004+25733-100300FM-12+051599999V0201201N003010030019N0010001N1+02001+01761101371ADDAY121031AY221031GA1081+003001071GF108991081061002501999999IA1019MA1999999095691MD1210111-0241MW1051REMSYN106AAXX  17151 76393 31310 81203 10200 20176 39569 40137 52011 70522 886// 91450 333 30/// 563// 59024 88710;
0280763930999992012031718004+25733-100300FM-12+051599999V0201101N00201004201CN0020001N1+02261+01791101401ADDAY121061AY221061GA1021+006001071GF108991999061004501021011IA1019KA1120M+02301KA2240N+01861MA1999999095721MD1210031-0251MW1051REMSYN124AAXX  17181 76393 31420 81102 10226 20179 39572 40140 52003 70522 88621 91750 333 10230 20186 30/// 5633/ 59025 82720 86462;EQDQ01+000082SCOTLC
0217763930999992012031721004+25733-100300FM-12+051599999V0201101N003010090019N0030001N1+02521+01781101181ADDAY141031AY221031GA1071+009001061GF107991071051008001999999IA1019MA1999999095531MD1710191+9999MW1041REMSYN106AAXX  17211 76393 31530 71103 10252 20178 39553 40118 57019 70442 875// 92045 333 30/// 563// 58/// 87630;
0284763930999992012031800004+25733-100300FM-12+051599999V0203201N003010360019N0040001N1+02421+01701100951ADDAA124000091AY141061AY221061GA1011+009001061GF108991011051008001021001IA1019KA1120M+02581KA2180N+01861MA1999999095331MD1710201-0151MW1051REMSYN136AAXX  18001 76393 31540 83203 10242 20170 39533 40095 57020 70542 81520 92345 333 10258 20186 30/// 50161 56330 59015 70000 81630 87460;
0231763930999992012031803004+25733-100300FM-12+051599999V0202901N001012200019N0010001N1+02301+01731100981ADDAA103000091AY101031AY201031GF101991011001999999041001IA1019MA1999999095381MD1210051-0281MW1041REMSYN106AAXX  18031 76393 21910 12901 10230 20173 39538 40098 52005 70400 81040 90250 333 30/// 56070 59028 69907;EQDQ01  00002PRCP03
0191763930999992012031806004+25733-100300FM-12+051599999V0201201N002012200019N0010001N1+02221+01701101141ADDAA106000091AY101061AY201061GF102991999999008001999999MA1999999095541MD1210161+9999MW1041REMSYN072AAXX  18061 76393 11510 21202 10222 20170 39554 40114 52016 69901 70400;EQDQ01  00002PRCP06
0217763930999992012031809004+25733-100300FM-12+051599999V0200601N001010036019N0010001N1+02061+01761101071ADDAY121031AY221031GA1061+003601061GF106991061051004501001001IA1019MA1999999095461MD1710081-0121MW1051REMSYN106AAXX  18091 76393 31410 60601 10206 20176 39546 40107 57008 70522 86500 90851 333 30/// 56300 59012 86612;
0291763930999992012031812004+25733-100300FM-12+051599999V0201201N002010033019N0010001N1+02021+01751101091ADDAA124000091AY121061AY221061GA1081+003301061GF108991081051004501999999IA1019KA1240M+02641KA2120N+01901MA1999999095461MD1410001-0121MW1051REMSYN124AAXX  18121 76393 31410 81202 10202 20175 39546 40109 54000 70522 885// 91150 333 10264 20190 30180 563// 59012 79999 88611;EQDQ01  00002PRCP24
0261763930999992012031818004+25733-100300FM-12+051599999V0200901N00201036001CN0010001N1+02421+01801101271ADDAY141061AY241061GA1011+007501061GF108991011041008001021081IA1019KA1120M+02541KA2240N+01901MA1999999095621MD1210101-0101MW1051REMSYN124AAXX  18181 76393 31510 80902 10242 20180 39562 40127 52010 70544 81428 91745 333 10254 20190 30/// 56355 59010 81625 85460;
0240763930999992012031821004+25733-100300FM-12+051599999V0201301N001010039019N0010001N1+02401+02091101051ADDAA103003091AY151031AY251031GA1051+003901061GF108991051051004501011001IA1099MA1999999095421MD1710201-0111MW1501REMSYN118AAXX  18211 76393 21410 81301 10240 20209 39542 40105 57020 75055 85510 92045 333 31/// 56350 59011 60037 85613 83460;
0172763930999992012031900004+25733-100300FM-12+051599999V0203201N002019999999N0020001N1+02461+01811100761ADDAA106006191AY141061AY221061GF108991999999008001999999MA1999999095171MD1710251+9999MW1051REMSYN072AAXX  19001 76393 01520 83202 10246 20181 39517 40076 57025 60061 70542;
0217763930999992012031903004+25733-100300FM-12+051599999V0209999C000010300019N0010001N1+02141+01721100911ADDAY121031AY221031GA1051+030001041GF105991051001999999011001IA1019MA1999999095321MD1210191-0061MW1041REMSYN106AAXX  19031 76393 31910 50000 10214 20172 39532 40091 52019 70422 85010 90250 333 30/// 56050 59006 85460;
0251763930999992012031906004+25733-100300FM-12+051599999V0203301N001012200019N0010001N1+02061+01821100901ADDAY101061AY201061GA1001+999999999GF100991001001999999001001GJ101149IA1019KA1240M+02741KA2240N+01901MA1999999095301MD1710021-0241MW1041REMSYN106AAXX  19061 76393 31910 03301 10206 20182 39530 40090 57002 70400 90550 333 10274 20190 30/// 55019 59024;
0199763930999992012031915004+25733-100300FM-12+051599999V0202701N002012200019N0010001N1+02161+01681100911ADDAY141031AY241031GA1001+999999999GF100991001001999999001001IA1019MA1999999095251MD1210101-0271MW1051REMSYN088AAXX  19151 76393 31910 02702 10216 20168 39525 40091 52010 70544 91445 333 30/// 59027;
0233763930999992012031918004+25733-100300FM-12+051599999V0201201N002012200019N0010001N1+02901+01801100651ADDAY141061AY221061GF102991011001999999011081IA1019KA1120M+03041KA2240N+01901MA1999999095031MD1710221-0591MW1051REMSYN112AAXX  19181 76393 31910 21202 10290 20180 39503 40065 57022 70542 81018 91745 333 10304 20190 30/// 56077 59059;
0217763930999992012031921004+25733-100300FM-12+051599999V0201201N005010390019N0030001N1+03221+01271100101ADDAY121031AY221031GA1051+039001041GF105991051001999999021001IA1019MA1999999094571MD1710461-0851MW1051REMSYN106AAXX  19211 76393 31930 51205 10322 20127 39457 40010 57046 70522 85020 92050 333 30/// 56070 59085 85463;
0284763930999992012032000004+25733-100300FM-12+051599999V0201201N003010150019N0040001N1+03121+01551099811ADDAA124000091AY121061AY221061GA1021+021001061GF106991061041017501041081IA1019KA1120M+03381KA2180N+01901MA1999999094341MD1710231-0831MW1051REMSYN136AAXX  20001 76393 31740 61203 10312 20155 39434 49981 57023 70522 86448 92350 333 10338 20190 30/// 50741 56577 59083 70000 82657 83362;
0217763930999992012032003004+25733-100300FM-12+051599999V0201101N001010300019N0020001N1+02721+01751099771ADDAY121031AY221031GA1061+030001041GF106991061001999999011001IA1019MA1999999094351MD1210011-0971MW1041REMSYN106AAXX  20031 76393 31920 61101 10272 20175 39435 49977 52001 70422 86010 90250 333 30/// 56050 59097 86460;
0171763930999992012032009004+25733-100300FM-12+051599999V0200401N002012200019N0020001N1+02161+01931099841ADDGA1001+999999999GF100991001001999999001001IA1019MA1999999094371MD1710061-0891REMSYN082AAXX  20091 76393 32920 00402 10216 20193 39437 49984 57006 90850 333 30/// 59089;
0245763930999992012032012004+25733-100300FM-12+051599999V0200501N003012200019N0020001N1+01861+00971100341ADDAA124000091GA1001+999999999GF100991001001999999001001IA1019KA1240M+03381KA2120N+01761MA1999999094791MD1210421-0361REMSYN100AAXX  20121 76393 32920 00503 10186 20097 39479 40034 52042 91150 333 10338 20176 30170 59036 70000;EQDQ01  00002PRCP24
0189763930999992012032015004+25733-100300FM-12+051599999V0201301N002012200019N0040001N1+01961+01021100841ADDAY101031AY201031GF103991999999999999999999IA1019MA1999999095211MD1210421-0041MW1041REMSYN094AAXX  20151 76393 31940 31302 10196 20102 39521 40084 52042 70400 91445 333 30/// 56055 59004;
0205763930999992012032018004+25733-100300FM-12+051599999V0200401N002012200019N0050001N1+02121+00711100751ADDGF103991011001999999011041IA1019KA1120M+02341KA2240N+01761MA1999999095101MD1710111+0071REMSYN106AAXX  20181 76393 32950 30402 10212 20071 39510 40075 57011 81014 91745 333 10234 20176 30/// 56057 58007;
0189763930999992012032021004+25733-100300FM-12+051599999V0203201N003012200019N0050001N1+02461+00731100411ADDGA1011+021001081GF103991011041022501011011IA1019MA1999999094791MD1710311+0221REMSYN100AAXX  20211 76393 32850 33203 10246 20073 39479 40041 57031 81411 92045 333 30/// 56537 58022 81857;
0256763930999992012032100004+25733-100300FM-12+051599999V0201201N006010360019N0050001N1+02441+00801100411ADDAA124000091GA1021+021001061GF108991021051022501071081IA1019KA1120M+02721KA2180N+01761MA1999999094821MD1210031+0481REMSYN130AAXX  21001 76393 32850 81206 10244 20080 39482 40041 52003 82578 92345 333 10272 20176 30/// 50701 56557 58048 70000 82657 85365;
0217763930999992012032103004+25733-100300FM-12+051599999V0201201N003010360019N0020001N1+02041+00781100851ADDAY121031AY221031GA1081+036001041GF108991081001999999021999IA1019MA1999999095241MD1210421+0891MW1051REMSYN106AAXX  21031 76393 31920 81203 10204 20078 39524 40085 52042 70522 8802/ 90250 333 30/// 5605/ 58089 88462;
0253763930999992012032106004+25733-100300FM-12+051599999V0201201N003019999999N0020001N1+01901+00901101151ADDAY121061AY221061GF108991081001999999021999GJ105529IA1019KA1240M+02721KA2240N+01761MA1999999095521MD1210281+1091MW1051REMSYN124AAXX  21061 76393 31920 81203 10190 20090 39552 40115 52028 70522 8802/ 90550 333 10272 20176 30/// 55092 5605/ 58109 88462;
0217763930999992012032109004+25733-100300FM-12+051599999V0201501N001010300019N0020001N1+01821+00841101151ADDAY121031AY221031GA1081+030001041GF108991081001999999021999IA1019MA1999999095491MD1710031+1121MW1051REMSYN106AAXX  21091 76393 31920 81501 10182 20084 39549 40115 57003 70522 8802/ 90850 333 30/// 5605/ 58112 88460;
0278763930999992012032112004+25733-100300FM-12+051599999V0201801N00101036001CN0020001N1+01721+00711101231ADDAA124000091AY121061AY221061GA1031+012601061GF107991031051012501021001IA1019KA1240M+02721KA2120N+01621MA1999999095531MD1210041+0741MW1041REMSYN130AAXX  21121 76393 31620 71801 10172 20071 39553 40123 52004 70422 83520 91150 333 10272 20162 30154 56350 58074 70000 83642 84461;
0223763930999992012032115004+25733-100300FM-12+051599999V0200101N00101036001CN0020001N1+01841+00731101511ADDAY141031AY221031GA1031+013801061GF107991031051012501041999IA1019MA1999999095781MD1210251+0571MW1051REMSYN112AAXX  21151 76393 31620 70101 10184 20073 39578 40151 52025 70542 8354/ 91455 333 30/// 5635/ 58057 83646 84360;
0261763930999992012032118004+25733-100300FM-12+051599999V0201801N00101036001CN0040001N1+02301+00661101421ADDAY141061AY241061GA1021+021001061GF105991021041022501051001IA1019KA1120M+02391KA2240N+01621MA1999999095711MD1710071+0611MW1051REMSYN124AAXX  21181 76393 31840 51801 10230 20066 39571 40142 57007 70544 82450 91745 333 10239 20162 30/// 56350 58061 82657 83365;
0189763930999992012032121004+25733-100300FM-12+051599999V0201101N004012200019N0050001N1+02561+00531101041ADDGA1011+024001081GF102991011041022501001081IA1019MA1999999095381MD1710331+0591REMSYN100AAXX  21211 76393 32850 21104 10256 20053 39538 40104 57033 81408 92045 333 30/// 56507 58059 81858;
0251763930999992012032200004+25733-100300FM-12+051599999V0201101N003012200019N0050001N1+02461+00821100901ADDAA124000091GA1001+999999999GF100991001001999999001001IA1019KA1120M+02741KA2180N+01621MA1999999095291MD1710091+0471REMSYN106AAXX  22001 76393 32950 01103 10246 20082 39529 40090 57009 92345 333 10274 20162 30/// 50791 58047 70000;EQDQ01  00002PRCP24
0199763930999992012032203004+25733-100300FM-12+051599999V0201901N002012200019N0020001N1+02101+00861101031ADDAY101031AY201031GA1001+999999999GF100991001001999999001001IA1019MA1999999095421MD1210131+0181MW1041REMSYN088AAXX  22031 76393 31920 01902 10210 20086 39542 40103 52013 70400 90250 333 30/// 58018;
0251763930999992012032206004+25733-100300FM-12+051599999V0201101N004012200019N0020001N1+01801+00851101201ADDAY101061AY201061GA1001+999999999GF100991001001999999001001GJ104989IA1019KA1240M+02741KA2240N+01621MA1999999095571MD1210151+0051MW1041REMSYN106AAXX  22061 76393 31920 01104 10180 20085 39557 40120 52015 70400 90550 333 10274 20162 30/// 55083 58005;
0171763930999992012032209004+25733-100300FM-12+051599999V0200401N001012200019N0020001N1+01461+00731101291ADDGA1001+999999999GF100991001001999999001001IA1019MA1999999095621MD1210051+0131REMSYN082AAXX  22091 76393 32920 00401 10146 20073 39562 40129 52005 90850 333 30/// 58013;
0245763930999992012032212004+25733-100300FM-12+051599999V0209999C000012200019N0020001N1+01401+00781101391ADDAA124000091GA1001+999999999GF100991001001999999001001IA1019KA1240M+02741KA2120N+01301MA1999999095651MD1210031+0121REMSYN100AAXX  22121 76393 32920 00000 10140 20078 39565 40139 52003 91150 333 10274 20130 30120 58012 70000;EQDQ01  00002PRCP24
0199763930999992012032215004+25733-100300FM-12+051599999V0203201N001012200019N0030001N1+01781+00741101521ADDAY141031AY241031GA1001+999999999GF100991001001999999001001IA1019MA1999999095761MD1210111-0021MW1051REMSYN088AAXX  22151 76393 31930 03201 10178 20074 39576 40152 52011 70544 91450 333 30/// 59002;
0237763930999992012032218004+25733-100300FM-12+051599999V0200601N001012200019N0030001N1+02421+01121101521ADDAY141061AY241061GA1001+999999999GF100991001001999999001001IA1019KA1120M+02601KA2240N+01301MA1999999095771MD1210011+0061MW1051REMSYN100AAXX  22181 76393 31930 00601 10242 20112 39577 40152 52001 70544 91745 333 10260 20130 30/// 58006;
0199763930999992012032221004+25733-100300FM-12+051599999V0201101N002012200019N0040001N1+02881+00641100991ADDAY141031AY241031GA1001+999999999GF100991001001999999001001IA1019MA1999999095331MD1710441-0051MW1041REMSYN088AAXX  22211 76393 31940 01102 10288 20064 39533 40099 57044 70444 92045 333 30/// 59005;
0251763930999992012032300004+25733-100300FM-12+051599999V0201101N002012200019N0050001N1+02901+00571100831ADDAA124000091GA1001+999999999GF100991001001999999001001IA1019KA1120M+03141KA2180N+01301MA1999999095251MD1710081-0041REMSYN106AAXX  23001 76393 32950 01102 10290 20057 39525 40083 57008 92345 333 10314 20130 30/// 50671 59004 70000;EQDQ01  00002PRCP24
0199763930999992012032303004+25733-100300FM-12+051599999V0202701N001012200019N0020001N1+02401+00881100951ADDAY101031AY201031GA1001+999999999GF100991001001999999001001IA1019MA1999999095401MD1210151-0021MW1041REMSYN088AAXX  23031 76393 31920 02701 10240 20088 39540 40095 52015 70400 90250 333 30/// 59002;
0251763930999992012032306004+25733-100300FM-12+051599999V0200601N003012200019N0020001N1+02001+00811101111ADDAY101061AY201061GA1001+999999999GF100991001001999999001001GJ106489IA1019KA1240M+03141KA2240N+01301MA1999999095561MD1210161-0011MW1041REMSYN106AAXX  23061 76393 31920 00603 10200 20081 39556 40111 52016 70400 90550 333 10314 20130 30/// 55108 59001;
0171763930999992012032309004+25733-100300FM-12+051599999V0201101N001012200019N0020001N1+01701+00811101151ADDGA1001+999999999GF100991001001999999001001IA1019MA1999999095551MD1710011-0071REMSYN082AAXX  23091 76393 32920 01101 10170 20081 39555 40115 57001 90850 333 30/// 59007;
0245763930999992012032312004+25733-100300FM-12+051599999V0203001N001012200019N0020001N1+01641+00781101331ADDAA124000091GA1001+999999999GF100991001001999999001001IA1019KA1240M+03141KA2120N+01541MA1999999095651MD1210101+0001REMSYN100AAXX  23121 76393 32920 03001 10164 20078 39565 40133 52010 91150 333 10314 20154 30148 58000 70000;EQDQ01  00002PRCP24
0199763930999992012032315004+25733-100300FM-12+051599999V0203101N001012200019N0040001N1+02161+01061101541ADDAY101031AY201031GA1001+999999999GF100991001001999999001001IA1019MA1999999095811MD1210161+0051MW1041REMSYN088AAXX  23151 76393 31940 03101 10216 20106 39581 40154 52016 70400 91442 333 30/// 58005;
0237763930999992012032318004+25733-100300FM-12+051599999V0200601N001012200019N0040001N1+02941+00991101461ADDAY141061AY241061GA1001+999999999GF100991001001999999001001IA1019KA1120M+03051KA2240N+01541MA1999999095761MD1710051-0011MW1041REMSYN100AAXX  23181 76393 31940 00601 10294 20099 39576 40146 57005 70444 91744 333 10305 20154 30/// 59001;
0199763930999992012032321004+25733-100300FM-12+051599999V0201101N003012200019N0050001N1+03241+00891101111ADDAY141031AY241031GA1001+999999999GF100991001001999999001001IA1019MA1999999095501MD1710271+0171MW1041REMSYN088AAXX  23211 76393 31950 01103 10324 20089 39550 40111 57027 70444 92050 333 30/// 58017;
0251763930999992012032400004+25733-100300FM-12+051599999V0201101N002012200019N0060001N1+03181+00681100911ADDAA124000091GA1001+999999999GF100991001001999999001001IA1019KA1120M+03421KA2180N+01541MA1999999095381MD1710111+0141REMSYN106AAXX  24001 76393 32956 01102 10318 20068 39538 40091 57011 92345 333 10342 20154 30/// 50901 58014 70000;EQDQ01  00002PRCP24
0199763930999992012032403004+25733-100300FM-12+051599999V0201201N003012200019N0030001N1+02681+00731101061ADDAY101031AY201031GA1001+999999999GF100991001001999999001001IA1019MA1999999095571MD1210181+0171MW1041REMSYN088AAXX  24031 76393 31930 01203 10268 20073 39557 40106 52018 70400 90250 333 30/// 58017;
0237763930999992012032406004+25733-100300FM-12+051599999V0201001N003012200019N0030001N1+02261+01591101161ADDAY101061AY201061GA1001+999999999GF100991001001999999001001IA1019KA1240M+03421KA2240N+01541MA1999999095651MD1210061+0091MW1041REMSYN100AAXX  24061 76393 31930 01003 10226 20159 39565 40116 52006 70400 90550 333 10342 20154 30/// 58009;
0171763930999992012032409004+25733-100300FM-12+051599999V0200601N001012200019N0020001N1+01981+01711101141ADDGA1001+999999999GF100991001001999999001001IA1019MA1999999095591MD1710061+0041REMSYN082AAXX  24091 76393 32920 00601 10198 20171 39559 40114 57006 90850 333 30/// 58004;
0272763930999992012032412004+25733-100300FM-12+051599999V0209999C000012200019N0010001N1+01921+01771101281ADDAA124000091AY101061AY201061GA1021+001801061GF102991021051001501001001IA1019KA1240M+03421KA2120N+01841MA1999999095651MD1210061+0001MW1051REMSYN124AAXX  24121 76393 31210 20000 10192 20177 39565 40128 52006 70500 82500 91152 333 10342 20184 30178 56300 58000 70000 82606;
0199763930999992012032415004+25733-100300FM-12+051599999V0202701N001012200019N0010001N1+02131+01771101471ADDAY141031AY241031GA1001+999999999GF100991001001999999001001IA1019MA1999999095801MD1210151-0011MW1051REMSYN088AAXX  24151 76393 31910 02701 10213 20177 39580 40147 52015 70544 91445 333 30/// 59001;
0237763930999992012032418004+25733-100300FM-12+051599999V0201101N001012200019N0010001N1+02901+01831101341ADDAY141061AY241061GA1001+999999999GF100991001001999999001001IA1019KA1120M+03011KA2240N+01841MA1999999095691MD1710111-0071MW1051REMSYN100AAXX  24181 76393 31910 01101 10290 20183 39569 40134 57011 70544 91750 333 10301 20184 30111 59007;
0199763930999992012032421004+25733-100300FM-12+051599999V0201201N005012200019N0040001N1+03301+01511101081ADDAY141031AY241031GA1001+999999999GF100991001001999999001001IA1019MA1999999095501MD1710191+0001MW1041REMSYN088AAXX  24211 76393 31940 01205 10330 20151 39550 40108 57019 70444 92050 333 30/// 58000;
0251763930999992012032500004+25733-100300FM-12+051599999V0201201N003012200019N0060001N1+03061+01531100981ADDAA124000091GA1001+999999999GF100991001001999999001001IA1019KA1120M+03421KA2180N+01841MA1999999095461MD1710041+0071REMSYN106AAXX  25001 76393 32956 01203 10306 20153 39546 40098 57004 92350 333 10342 20184 30/// 51031 58007 70000;EQDQ01  00002PRCP24
0199763930999992012032503004+25733-100300FM-12+051599999V0201101N003012200019N0020001N1+02741+01461101181ADDAY101031AY201031GA1001+999999999GF100991001001999999001001IA1019MA1999999095681MD1210221+0111MW1041REMSYN088AAXX  25031 76393 31920 01103 10274 20146 39568 40118 52022 70400 90250 333 30/// 58011;
0253763930999992012032506004+25733-100300FM-12+051599999V0201201N002012200019N0010001N1+02301+01981101281ADDAY101061AY201061GF103991011051004501011001GJ105949IA1019KA1240M+03421KA2240N+01841MA1999999095771MD1210091+0121MW1041REMSYN124AAXX  25061 76393 31410 31202 10230 20198 39577 40128 52009 70400 81510 90550 333 10342 20184 30/// 55099 56530 58012 81613;
0217763930999992012032509004+25733-100300FM-12+051599999V0201101N003010024019N0010001N1+02201+02001101261ADDAY121031AY221031GA1081+002401071GF108991081061002501999999IA1019MA1999999095701MD1710071+0111MW1051REMSYN106AAXX  25091 76393 31310 81103 10220 20200 39570 40126 57007 70522 886// 90850 333 30/// 563// 58011 88708;
0272763930999992012032512004+25733-100300FM-12+051599999V0201001N002010021019N0008001N1+02161+01991101331ADDAA124000091AY121061AY221061GA1081+002101071GF108991081061002501999999IA1019KA1240M+03421KA2120N+02041MA1999999095731MD1210031+0081MW1051REMSYN124AAXX  25121 76393 31308 81002 10216 20199 39573 40133 52003 70522 886// 91150 333 10342 20204 30198 563// 58008 70000 88707;
0217763930999992012032515004+25733-100300FM-12+051599999V0201101N003010027019N0005001N1+02241+02011101521ADDAY141031AY241031GA1081+002701071GF108991081061002501001001IA1019MA1999999095871MD1210141-0071MW1101REMSYN106AAXX  25151 76393 31305 81103 10224 20201 39587 40152 52014 71044 88600 91445 333 30/// 56300 59007 88709;
0261763930999992012032518004+25733-100300FM-12+051599999V0201201N003012200019N0008001N1+02681+02001101471ADDAY141061AY241061GA1021+008401071GF104991041041008001001001IA1019KA1120M+02781KA2240N+02041MA1999999095831MD1710041+0141MW1051REMSYN124AAXX  25181 76393 31508 41203 10268 20200 39583 40147 57004 70544 84400 91745 333 10278 20204 30/// 56300 58014 82728 82634;
0217763930999992012032521004+25733-100300FM-12+051599999V0201201N002012200019N0020001N1+03011+01671101171ADDAY101031AY201031GA1031+015001081GF103991031021017501001001IA1019MA1999999095581MD1710251+0081MW1051REMSYN106AAXX  25211 76393 31720 31202 10301 20167 39558 40117 57025 70500 83200 92048 333 30/// 56300 58008 83850;
0284763930999992012032600004+25733-100300FM-12+051599999V0201101N001010360019N0030001N1+02801+01621101071ADDAA124000091AY121061AY221061GA1031+015001061GF107991031051012501021091IA1019KA1120M+03111KA2180N+02041MA1999999095521MD1710061+0061MW1051REMSYN136AAXX  26001 76393 31630 71101 10280 20162 39552 40107 57006 70522 83529 92349 333 10311 20204 30/// 50711 56359 58006 70000 83650 84460;
0223763930999992012032603004+25733-100300FM-12+051599999V0201201N00501036001CN0010001N1+02581+01821101171ADDAY121031AY221031GA1021+009301061GF105991021051008001021001IA1019MA1999999095641MD1210121-0041MW1041REMSYN112AAXX  26031 76393 31510 51205 10258 20182 39564 40117 52012 70422 82520 90250 333 30/// 56350 59004 82631 83460;
0253763930999992012032606004+25733-100300FM-12+051599999V0201201N005010021019N0010001N1+02221+01981101281ADDAY121061AY221061GF105991051051002501001001GJ102649IA1019KA1240M+03111KA2240N+02041MA1999999095731MD1210091-0041MW1041REMSYN124AAXX  26061 76393 31310 51205 10222 20198 39573 40128 52009 70422 85500 90550 333 10311 20204 30/// 55044 56300 59004 85609;
0253763930999992012032609004+25733-100300FM-12+051599999V0201201N003010033019N0010001N1+02141+01871101261ADDAA103000091AY121031AY221031GA1081+003301061GF108991081051004501999999IA1019MA1999999095681MD1710051-0021MW1051REMSYN112AAXX  26091 76393 21410 81203 10214 20187 39568 40126 57005 70522 885// 90850 333 30/// 563// 59002 69907 88611;EQDQ01  00002PRCP03
0191763930999992012032612004+25733-100300FM-12+051599999V0201201N003019999999N0010001N1+02061+01791101341ADDAA106000091AY121061AY221061GF108991999999004501999999MA1999999095721MD1210041+9999MW1051REMSYN072AAXX  26121 76393 11410 81203 10206 20179 39572 40134 52004 69901 70522;EQDQ01  00002PRCP06
0217763930999992012032615004+25733-100300FM-12+051599999V0201101N001010060019N0020001N1+02341+01861101531ADDAY121031AY221031GA1051+006001061GF105991051041004501001001IA1019MA1999999095871MD1210151+0001MW1051REMSYN106AAXX  26151 76393 31420 51101 10234 20186 39587 40153 52015 70522 85400 91450 333 30/// 56300 58000 85620;
0255763930999992012032618004+25733-100300FM-12+051599999V0201201N002010360019N0030001N1+02701+01871101451ADDAY121061AY221061GA1041+010201061GF106991041041012501031021IA1019KA1120M+02761KA2240N+02001MA1999999095801MD1710071-0031MW1051REMSYN118AAXX  26181 76393 31630 61202 10270 20187 39580 40145 57007 70522 84432 91747 333 10276 20200 30/// 56355 59003 84634;
0223763930999992012032621004+25733-100300FM-12+051599999V0201101N00601036001CN0030001N1+02701+01761101111ADDAY141031AY221031GA1021+011401061GF108991021051012501021081IA1019MA1999999095511MD1710291-0061MW1041REMSYN112AAXX  26211 76393 31630 81106 10270 20176 39551 40111 57029 70442 82528 92045 333 30/// 56355 59006 82638 83460;
0303763930999992012032700004+25733-100300FM-12+051599999V0201201N006019999999N0020001N1+02661+01641100921ADDAA124999999AY141061AY221061GA1031+030001041GF108991081001999999071001IA1019KA1120M+02841KA2180N+02001MA1999999095361MD1710151-0161MW1151REMSYN136AAXX  27001 76393 31920 81206 10266 20164 39536 40092 57015 71542 88070 92345 333 10284 20200 30/// 50451 56050 59016 79999 83460 85365;EQDQ01  99992PRCP24
0217763930999992012032703004+25733-100300FM-12+051599999V0201201N003010300019N0010001N1+02441+01761101171ADDAY121031AY221031GA1081+030001041GF108991081001999999021001IA1019MA1999999095611MD1210251-0031MW1041REMSYN106AAXX  27031 76393 31910 81203 10244 20176 39561 40117 52025 70422 88020 90250 333 30/// 56050 59003 88460;
0253763930999992012032706004+25733-100300FM-12+051599999V0200601N002012200019N0010001N1+02181+01951101131ADDAY101061AY201061GF103991031051002501001001GJ102169IA1019KA1240M+02841KA2240N+02001MA1999999095561MD1710051-0171MW1041REMSYN124AAXX  27061 76393 31310 30602 10218 20195 39556 40113 57005 70400 83500 90550 333 10284 20200 30/// 55036 56300 59017 83609;
0217763930999992012032709004+25733-100300FM-12+051599999V0200501N001010012019N0010001N1+02061+01971101101ADDAY121031AY221031GA1081+001201071GF108991081061001501999999IA1019MA1999999095501MD1710061-0181MW1051REMSYN106AAXX  27091 76393 31210 80501 10206 20197 39550 40110 57006 70522 886// 90850 333 30/// 563// 59018 88704;
0272763930999992012032712004+25733-100300FM-12+051599999V0200701N001010018019N0010001N1+02081+01931101301ADDAA124000091AY121061AY221061GA1081+001801071GF108991081061001501999999IA1019KA1240M+02841KA2120N+01981MA1999999095661MD1210161-0061MW1051REMSYN124AAXX  27121 76393 31210 80701 10208 20193 39566 40130 52016 70522 886// 91150 333 10284 20198 30190 563// 59006 70000 88706;
0253763930999992012032715004+25733-100300FM-12+051599999V0200601N001010024019N0010001N1+02101+01891101491ADDAA103000091AY141031AY221031GA1081+002401071GF108991081071002501999999IA1019MA1999999095831MD1210171-0041MW1051REMSYN112AAXX  27151 76393 21310 80601 10210 20189 39583 40149 52017 70542 887// 91446 333 30/// 56399 59004 69907 88708;EQDQ01  00002PRCP03
0255763930999992012032718004+25733-100300FM-12+051599999V0201101N001010900019N0010001N1+02701+01861101371ADDAY141061AY221061GA1041+010201061GF106991041051012501001021IA1019KA1120M+02761KA2240N+01981MA1999999095731MD1710101-0071MW1051REMSYN118AAXX  27181 76393 31610 61101 10270 20186 39573 40137 57010 70542 84502 91744 333 10276 20198 30/// 57305 59007 84634;
0297763930999992012032800004+25733-100300FM-12+051599999V0203201N003019999999N0030001N1+02601+02001100981ADDAA124999999AY121061AY221061GF106991999001999999071001IA1019KA1120M+02861KA2180N+01981MA1999999095401MD1999999+0041MW1051REMSYN130AAXX  28001 76393 31930 63203 10260 20200 39540 40098 5//// 70522 88070 92355 333 10286 20198 30/// 50501 56050 58004 79999 86362;EQDQ01+000082SCOTLCQ02  99992PRCP24
0217763930999992012032803004+25733-100300FM-12+051599999V0202301N003010360019N0010001N1+02461+01581101161ADDAY121031AY221031GA1081+036001041GF108991081001999999021999IA1019MA1999999095591MD1210191-0021MW1051REMSYN106AAXX  28031 76393 31910 82303 10246 20158 39559 40116 52019 70522 8802/ 90250 333 30/// 5603/ 59002 88462;
0223763930999992012032806004+25733-100300FM-12+051599999V0203201N001012200019N0010001N1+02201+01341101091ADDGA1001+999999999GF100991001001999999001001GJ101689IA1019KA1240M+02861KA2240N+01981MA1999999095511MD1710081-0051REMSYN100AAXX  28061 76393 32910 03201 10220 20134 39551 40109 57008 90550 333 10286 20198 30/// 55028 59005;
0171763930999992012032809004+25733-100300FM-12+051599999V0203301N002012200019N0010001N1+01901+01391101151ADDGA1001+999999999GF100991001001999999001001IA1019MA1999999095541MD1210031+0041REMSYN082AAXX  28091 76393 32910 03302 10190 20139 39554 40115 52003 90850 333 30/// 58004;
0291763930999992012032812004+25733-100300FM-12+051599999V0201901N001012200019N0010001N1+01981+01581101431ADDAA124000091AY101061AY201061GA1021+004801061GF103991021051004501031001IA1019KA1240M+02861KA2120N+01881MA1999999095781MD1210241+0121MW1041REMSYN124AAXX  28121 76393 31410 31901 10198 20158 39578 40143 52024 70400 82530 91151 333 10286 20188 30180 56370 58012 79999 82616;EQDQ01  00002PRCP24
0217763930999992012032815004+25733-100300FM-12+051599999V0201401N001010360019N0040001N1+02351+01561101481ADDAY141031AY221031GA1041+009601061GF105991041051008001031001IA1019MA1999999095801MD1210021-0031MW1051REMSYN106AAXX  28151 76393 31540 51401 10235 20156 39580 40148 52002 70542 84530 91748 333 30/// 56350 59003 84632;
0255763930999992012032818004+25733-100300FM-12+051599999V0201201N001010360019N0050001N1+02741+01721101271ADDAY141061AY221061GA1031+013201061GF105991031051012501031091IA1019KA1120M+02811KA2240N+01881MA1999999095631MD1710171-0101MW1051REMSYN118AAXX  28181 76393 31650 51201 10274 20172 39563 40127 57017 70542 83539 91748 333 10281 20188 30/// 56355 59010 83644;
0223763930999992012032821004+25733-100300FM-12+051599999V0201101N00401036001CN0050001N1+02741+01671101011ADDAY141031AY221031GA1021+013201061GF106991021051012501051001IA1019MA1999999095411MD1710221-0291MW1041REMSYN112AAXX  28211 76393 31650 61104 10274 20167 39541 40101 57022 70442 82550 92045 333 30/// 56330 59029 82644 84460;
0284763930999992012032900004+25733-100300FM-12+051599999V0201201N003010360019N0050001N1+02661+01751100911ADDAA124000091AY141061AY221061GA1031+011401061GF107991031051012501021999IA1019KA1120M+02961KA2180N+01881MA1999999095351MD1710061-0051MW1041REMSYN136AAXX  29001 76393 31650 71203 10266 20175 39535 40091 57006 70442 8352/ 92345 333 10296 20188 30/// 50671 5633/ 59005 70000 83638 84460;
0223763930999992012032903004+25733-100300FM-12+051599999V0201701N00101036001CN0020001N1+02441+01791101031ADDAY121031AY221031GA1021+007801061GF105991021051008001021001IA1019MA1999999095481MD1210131-0111MW1041REMSYN112AAXX  29031 76393 31520 51701 10244 20179 39548 40103 52013 70422 82520 90250 333 30/// 56330 59011 82626 83461;
0253763930999992012032906004+25733-100300FM-12+051599999V0201001N003012200019N0020001N1+02261+01911101101ADDAY111061AY211061GF104991041001999999021001GJ101689IA1019KA1240M+02961KA2240N+01881MA1999999095541MD1210061+0031MW1041REMSYN124AAXX  29061 76393 31920 41003 10226 20191 39554 40110 52006 70411 84020 90550 333 10296 20188 30/// 55028 56030 58003 84460;
0217763930999992012032909004+25733-100300FM-12+051599999V0201101N002012200019N0010001N1+02121+01951100971ADDAY101031AY201031GA1021+002101061GF102991021051002501001001IA1019MA1999999095381MD1710161-0161MW1051REMSYN106AAXX  29091 76393 31310 21102 10212 20195 39538 40097 57016 70500 82500 90850 333 30/// 56300 59016 82607;
0272763930999992012032912004+25733-100300FM-12+051599999V0201101N001012200019N0010001N1+02061+01911100981ADDAA124000091AY101061AY201061GA1011+001801061GF102991011051001501031001IA1019KA1240M+02961KA2120N+02001MA1999999095361MD1710021-0421MW1051REMSYN124AAXX  29121 76393 31210 21101 10206 20191 39536 40098 57002 70500 81530 91150 333 10296 20200 30196 56350 59042 70000 81606;
0223763930999992012032915004+25733-100300FM-12+051599999V0200601N00101004201CN0020001N1+02301+01951101101ADDAY121031AY221031GA1041+004201061GF107991071051004501021001IA1019MA1999999095461MD1210101-0641MW1051REMSYN112AAXX  29151 76393 31420 70601 10230 20195 39546 40110 52010 70522 87520 91450 333 30/// 56770 59064 84614 83461;
0255763930999992012032918004+25733-100300FM-12+051599999V0201401N002012200019N0020001N1+02861+01781100991ADDAY141061AY241061GA1021+013201081GF102991021021012501001001IA1019KA1120M+02981KA2240N+02001MA1999999095371MD1710091-0261MW1051REMSYN118AAXX  29181 76393 31620 21402 10286 20178 39537 40099 57009 70544 82200 91750 333 10298 20200 30/// 56500 59026 82844;
0240763930999992012032921004+25733-100300FM-12+051599999V0201601N00101007501CN0010001N1+02681+02091100621ADDAA103000891AY151031AY251031GA1021+007201081GF108991081051008001001001IA1099MA1999999095061MD1710311-0351MW1501REMSYN118AAXX  29211 76393 21510 81601 10268 20209 39506 40062 57031 75055 88500 92045 333 31/// 56500 59035 69987 82824 82628;
0172763930999992012033000004+25733-100300FM-12+051599999V0200601N003019999999N0050001N1+02821+01731100481ADDAA106001091AY121061AY221061GF105991999999012501999999MA1999999094961MD1710101+9999MW1041REMSYN072AAXX  30001 76393 01650 50603 10282 20173 39496 40048 57010 69991 70422;
0234763930999992012033003004+25733-100300FM-12+051599999V0202201N001012200019N0020001N1+02421+01961100781ADDAA103001091AY101031AY201031GA1021+005401061GF103991021051004501011001IA1099MA1999999095261MD1210301-0221MW1041REMSYN112AAXX  30031 76393 21420 32201 10242 20196 39526 40078 52030 70400 82510 90250 333 31/// 56530 59022 60017 82618;
0268763930999992012033006004+25733-100300FM-12+051599999V0201201N004012200019N0010001N1+02041+01551101061ADDAA106001091AY101061AY201061GA1001+999999999GF100991001001999999001001GJ102769IA1019KA1240M+03181KA2240N+02001MA1999999095501MD1210241-0041MW1041REMSYN112AAXX  30061 76393 11910 01204 10204 20155 39550 40106 52024 60011 70400 90550 333 10318 20200 30/// 55046 59004;
0217763930999992012033009004+25733-100300FM-12+051599999V0202201N002012200019N0010001N1+02001+01541101021ADDAY101031AY201031GA1011+005701061GF101991011051004501001001IA1019MA1999999095421MD1710081+0041MW1041REMSYN106AAXX  30091 76393 31410 12202 10200 20154 39542 40102 57008 70400 81500 90850 333 30/// 56300 58004 81619;
0226763930999992012033012004+25733-100300FM-12+051599999V0202001N001012200019N0020001N1+01961+01561100931ADDAA124001891GA1001+999999999GF100991001001999999001001IA1019KA1240M+03181KA2120N+01901MA1999999095301MD1710121-0061REMSYN100AAXX  30121 76393 32920 02001 10196 20156 39530 40093 57012 91150 333 10318 20190 30184 59006 70019;
0199763930999992012033015004+25733-100300FM-12+051599999V0203201N001012200019N0020001N1+02261+01491101081ADDAY141031AY241031GA1001+999999999GF100991001001999999001001IA1019MA1999999095411MD1210111-0051MW1051REMSYN088AAXX  30151 76393 31920 03201 10226 20149 39541 40108 52011 70544 91448 333 30/// 59005;
0255763930999992012033018004+25733-100300FM-12+051599999V0200601N001012200019N0020001N1+03041+01511100951ADDAY141061AY201061GA1011+018001091GF101991011031017501001001IA1019KA1120M+03191KA2240N+01901MA1999999095321MD1710091-0051MW1051REMSYN118AAXX  30181 76393 31720 10601 10304 20151 39532 40095 57009 70540 81300 91746 333 10319 20190 30/// 56500 59005 81956;
0223763930999992012033021004+25733-100300FM-12+051599999V0201801N00601015001CN0030001N1+02881+01411100731ADDAY121031AY221031GA1011+015001091GF106991051021017501011001IA1019MA1999999095161MD1710161+0101MW1161REMSYN112AAXX  30211 76393 31730 61806 10288 20141 39516 40073 57016 71622 85210 92045 333 30/// 56550 58010 81950 84656;
0268763930999992012033100004+25733-100300FM-12+051599999V0202501N005010120019N0010001N1+02401+01211100891ADDAA124000091AY121061AY221061GF107991071051012501999999IA1019KA1120M+03341KA2180N+01901MA1999999095351MD1210191+0391MW1301REMSYN136AAXX  31001 76393 31610 72505 10240 20121 39535 40089 52019 73022 875// 92345 333 10334 20190 30/// 50391 54216 563// 58039 70000 87650;
0195763930999992012033103004+25733-100300FM-12+051599999V0201201N001012200019N0020001N1+02441+01301100991ADDAY101031AY201031GF102991021001999999031001IA1019MA1999999095451MD1210101+0191MW1041REMSYN100AAXX  31031 76393 31920 21201 10244 20130 39545 40099 52010 70400 82030 90550 333 30/// 56030 58019;
0251763930999992012033106004+25733-100300FM-12+051599999V0200501N001012200019N0010001N1+02001+01701101231ADDAY101061AY201061GA1001+999999999GF100991001001999999001001GJ103429IA1019KA1240M+03341KA2240N+01901MA1999999095651MD1210201+0151MW1041REMSYN106AAXX  31061 76393 31910 00501 10200 20170 39565 40123 52020 70400 90550 333 10334 20190 30/// 55057 58015;
0171763930999992012033109004+25733-100300FM-12+051599999V0202201N001012200019N0010001N1+02001+01631100971ADDGA1001+999999999GF100991001001999999001001IA1019MA1999999095361MD1710291-0061REMSYN082AAXX  31091 76393 32910 02201 10200 20163 39536 40097 57029 90850 333 30/// 59006;
0245763930999992012033112004+25733-100300FM-12+051599999V0202301N001012200019N0020001N1+01961+01491101001ADDAA124000091GA1001+999999999GF100991001001999999001001IA1019KA1240M+03341KA2120N+01861MA1999999095361MD1410001+0061REMSYN100AAXX  31121 76393 32920 02301 10196 20149 39536 40100 54000 91150 333 10334 20186 30178 58006 70000;EQDQ01  00002PRCP24
0195763930999992012033115004+25733-100300FM-12+051599999V0203001N001012200019N0030001N1+02561+01381101111ADDAY141031AY241031GF102991001001999999001021IA1019MA1999999095461MD1210101+0021MW1041REMSYN100AAXX  31151 76393 31930 23001 10256 20138 39546 40111 52010 70444 80002 91446 333 30/// 56005 58002;
0255763930999992012033118004+25733-100300FM-12+051599999V0200401N001012200019N0030001N1+03241+00991100951ADDAY141061AY241061GA1011+024001081GF102991011021999999031001IA1019KA1120M+03391KA2240N+01861MA1999999095351MD1710111+0031MW1041REMSYN118AAXX  31181 76393 31930 20401 10324 20099 39535 40095 57011 70444 81230 91748 333 10339 20186 30/// 56510 58003 81858;
0217763930999992012033121004+25733-100300FM-12+051599999V0203001N00201036001CN0050001N1+03441+00491100681ADDGA1011+021001061GA2011+024001081GF106991021021022501021081IA1019MA1999999095151MD1710201-0011REMSYN112AAXX  31211 76393 32850 63002 10344 20049 39515 40068 57020 82228 92045 333 30/// 56335 59001 81657 81858 83465;
0185763930999992012040103004+25733-100300FM-12+051599999V0201201N004012200019N0020001N1+02641+01951100761ADDGA1001+999999999GF100991001001999999001001GJ104749IA1019MA1999999095311MD1210211-0141REMSYN088AAXX  01031 76393 32920 01204 10264 20195 39531 40076 52021 90250 333 30/// 55079 59014;
0253763930999992012040106004+25733-100300FM-12+051599999V0200501N001012200019N0020001N1+02381+02041100801ADDAY101061AY201061GF102991021041004501001001GJ104749IA1019KA1240M+03661KA2240N+01861MA1999999095321MD1210011-0331MW1051REMSYN124AAXX  01061 76393 31420 20501 10238 20204 39532 40080 52001 70500 82400 90550 333 10366 20186 30/// 55079 56700 59033 82614;
0217763930999992012040109004+25733-100300FM-12+051599999V0200701N001012200019N0010001N1+02201+02031100711ADDAY101031AY201031GA1031+002101061GF103991031051002501001001IA1019MA1999999095191MD1710131-0171MW1051REMSYN106AAXX  01091 76393 31310 30701 10220 20203 39519 40071 57013 70500 83500 90850 333 30/// 56300 59017 83607;
0272763930999992012040112004+25733-100300FM-12+051599999V0203401N001010015019N0010001N1+02141+02001100701ADDAA124000091AY121061AY221061GA1051+001501061GF105991051051001501001001IA1019KA1240M+03661KA2120N+02041MA1999999095131MD1710061-0231MW1051REMSYN124AAXX  01121 76393 31210 53401 10214 20200 39513 40070 57006 70522 85500 91150 333 10366 20204 30198 56300 59023 70000 85605;
0195763930999992012040115004+25733-100300FM-12+051599999V0203601N001012200019N0005001N1+02381+01881100811ADDAY101031AY201031GF101991001001999999001011IA1019MA1999999095211MD1210081-0241MW1051REMSYN100AAXX  01151 76393 31905 13601 10238 20188 39521 40081 52008 70500 80001 91445 333 30/// 56005 59024;
0233763930999992012040118004+25733-100300FM-12+051599999V0200601N002012200019N0010001N1+03101+01801100651ADDAY141061AY241061GF102991021001999999021001IA1019KA1120M+03181KA2240N+02041MA1999999095071MD1710141-0281MW1051REMSYN112AAXX  01181 76393 31910 20602 10310 20180 39507 40065 57014 70544 82020 91750 333 10318 20204 30/// 56070 59028;
0217763930999992012040121004+25733-100300FM-12+051599999V0201801N003010300019N0020001N1+03301+01471100251ADDAY121031AY221031GA1081+030001041GF108991081001999999021001IA1019MA1999999094741MD1710331-0411MW1051REMSYN106AAXX  01211 76393 31920 81803 10330 20147 39474 40025 57033 70522 88020 92050 333 30/// 5605/ 59041 88460;
0284763930999992012040200004+25733-100300FM-12+051599999V0201101N001010360019N0060001N1+03111+01301100121ADDAA124000091AY121061AY221061GA1011+021001081GF107991011021022501011021IA1019KA1120M+03391KA2180N+02041MA1999999094671MD1710071-0271MW1051REMSYN136AAXX  02001 76393 31856 71101 10311 20130 39467 40012 57007 70522 81212 92348 333 10339 20204 30/// 50731 56355 59027 70000 81857 84465;
0217763930999992012040203004+25733-100300FM-12+051599999V0200601N001010240019N0040001N1+02751+00931100271ADDAY141031AY221031GA1051+024001061GF106991051051022501011001IA1019MA1999999094821MD1210151-0181MW1051REMSYN106AAXX  02031 76393 31840 60601 10275 20093 39482 40027 52015 70542 85510 90248 333 30/// 56350 59018 85658;
0253763930999992012040206004+25733-100300FM-12+051599999V0201801N005012200019N0010001N1+02481+00901100191ADDAY141061AY211061GF104991041051017501001001GJ102589IA1019KA1240M+03391KA2240N+02041MA1999999094741MD1710081-0171MW1041REMSYN124AAXX  02061 76393 31710 41805 10248 20090 39474 40019 57008 70441 84500 90545 333 10339 20204 30/// 55043 56300 59017 84656;
0217763930999992012040209004+25733-100300FM-12+051599999V0202501N003012200019N0010001N1+02021+01011100131ADDAY101031AY201031GA1011+012601061GF102991011051012501001011IA1019MA1999999094631MD1710111-0561MW1041REMSYN106AAXX  02091 76393 31610 22503 10202 20101 39463 40013 57011 70400 81501 90845 333 30/// 56305 59056 81642;
0273763930999992012040212004+25733-100300FM-12+051599999V0200401N002012200019N0010001N1+02001+00981100361ADDAA124000091AY101061AY201061GA1001+999999999GF100991001001999999001001IA1019KA1240M+03391KA2120N+01961MA1999999094801MD1210171-0331MW1041REMSYN106AAXX  02121 76393 31910 00402 10200 20098 39480 40036 52017 70400 91150 333 10339 20196 30184 59033 70000;EQDQ01  00002PRCP24
0199763930999992012040215004+25733-100300FM-12+051599999V0201201N001012200019N0020001N1+02341+01291100401ADDAY101031AY201031GA1001+999999999GF100991001001999999001001IA1019MA1999999094811MD1210011-0401MW1041REMSYN088AAXX  02151 76393 31920 01201 10234 20129 39481 40040 52001 70400 91450 333 30/// 59040;
0255763930999992012040218004+25733-100300FM-12+051599999V0200601N001012200019N0030001N1+02981+01231100271ADDAY141061AY241061GA1021+021001061GF104991021041022501001081IA1019KA1120M+03161KA2240N+01901MA1999999094701MD1710111-0371MW1051REMSYN118AAXX  02181 76393 31830 40601 10298 20123 39470 40027 57011 70544 82408 91750 333 10316 20190 30/// 56303 59037 82657;
0217763930999992012040221004+25733-100300FM-12+051599999V0201201N003012200019N0040001N1+03621+01401099861ADDAY101031AY201031GA1031+033001031GF103991031001999999071001IA1019MA1999999094371MD1710331-0371MW1051REMSYN106AAXX  02211 76393 31940 31203 10362 20140 39437 49986 57033 70500 83070 92050 333 30/// 56050 59037 83361;
0262763930999992012040300004+25733-100300FM-12+051599999V0201101N001012200019N0060001N1+03401+01061099721ADDAA124000091AY111061AY211061GF103991021021999999031001IA1019KA1120M+03701KA2180N+01901MA1999999094311MD1710061-0361MW1051REMSYN130AAXX  03001 76393 31956 31101 10340 20106 39431 49972 57006 70511 82230 92348 333 10370 20190 30/// 50871 56350 59036 70000 82858;
0199763930999992012040303004+25733-100300FM-12+051599999V0202801N001012200019N0030001N1+03011+01411099851ADDAY141031AY241031GA1001+999999999GF100991001001999999001001IA1019MA1999999094461MD1210151-0361MW1041REMSYN088AAXX  03031 76393 31930 02801 10301 20141 39446 49985 52015 70444 90248 333 30/// 59036;
0223763930999992012040306004+25733-100300FM-12+051599999V0209999C000012200019N0010001N1+02521+01581099921ADDGA1001+999999999GF100991001001999999001001GJ106309IA1019KA1240M+03701KA2240N+01901MA1999999094521MD1210061-0221REMSYN100AAXX  03061 76393 32910 00000 10252 20158 39452 49992 52006 90543 333 10370 20190 30/// 55105 59022;
0171763930999992012040309004+25733-100300FM-12+051599999V0209999C000012200019N0010001N1+02181+01831099931ADDGA1001+999999999GF100991001001999999001001IA1019MA1999999094481MD1710041-0151REMSYN082AAXX  03091 76393 32910 00000 10218 20183 39448 49993 57004 90845 333 30/// 59015;
0273763930999992012040312004+25733-100300FM-12+051599999V0200101N001012200019N0010001N1+02201+01621100171ADDAA124000091AY101061AY201061GA1001+999999999GF100991001001999999001001IA1019KA1240M+03701KA2120N+01901MA1999999094651MD1210171-0151MW1041REMSYN106AAXX  03121 76393 31910 00101 10220 20162 39465 40017 52017 70400 91150 333 10370 20190 30184 59015 70000;EQDQ01  00002PRCP24
0195763930999992012040315004+25733-100300FM-12+051599999V0203601N005012200019N0005001N1+03101+00162100431ADDAY101031AY201031GF103991001001999999001091IA1019MA1999999094881MD1210231+0071MW1051REMSYN100AAXX  03151 76393 31905 33605 10310 20016 39488 40043 52023 70500 80009 91450 333 30/// 56007 58007;
0274763930999992012040318004+25733-100300FM-12+051599999V0200401N004012200019N0020001N1+03181+00841100631ADDAY101061AY201061GA1031+033001041GF103991999001999999021001IA1019KA1120M+03251KA2240N+01901MA1999999095081MD1210201+0381MW1041REMSYN118AAXX  03181 76393 31920 30404 10318 20084 39508 40063 52020 70400 82020 91750 333 10325 20190 30/// 56030 58038 83461;EQDQ01+000022SCOTLC
0217763930999992012040321004+25733-100300FM-12+051599999V0200601N002012200019N0040001N1+03521+00701100371ADDAY101031AY201031GA1011+024001081GF104991011021022501001081IA1019MA1999999094891MD1710191+0521MW1041REMSYN106AAXX  03211 76393 31840 40602 10352 20070 39489 40037 57019 70400 81208 92050 333 30/// 56507 58052 81858;
0262763930999992012040400004+25733-100300FM-12+051599999V0201201N004012200019N0040001N1+03261+00871100261ADDAA124000091AY101061AY201061GF103991011041022501011001IA1019KA1120M+03621KA2180N+01901MA1999999094831MD1710061+0521MW1041REMSYN130AAXX  04001 76393 31840 31204 10326 20087 39483 40026 57006 70400 81410 92350 333 10362 20190 30/// 51011 56570 58052 70000 81658;
0171763930999992012040403004+25733-100300FM-12+051599999V0201301N003012200019N0020001N1+02801+00721100601ADDGA1001+999999999GF100991001001999999001001IA1019MA1999999095161MD1210331+0701REMSYN082AAXX  04031 76393 32920 01303 10280 20072 39516 40060 52033 90250 333 30/// 58070;
0223763930999992012040406004+25733-100300FM-12+051599999V0201101N002012200019N0010001N1+02721+01111100641ADDGA1001+999999999GF100991001001999999001001GJ106069IA1019KA1240M+03621KA2240N+01901MA1999999095191MD1210031+0671REMSYN100AAXX  04061 76393 32910 01102 10272 20111 39519 40064 52003 90545 333 10362 20190 30/// 55101 58067;
0217763930999992012040409004+25733-100300FM-12+051599999V0200301N002012200019N0010001N1+02321+00941100681ADDAY101031AY201031GA1031+018001061GF103991031051017501001001IA1019MA1999999095191MD1410001+0711MW1041REMSYN106AAXX  04091 76393 31710 30302 10232 20094 39519 40068 54000 70400 83500 90845 333 30/// 56700 58071 83656;
0272763930999992012040412004+25733-100300FM-12+051599999V0200201N001010117019N0010001N1+02241+01281100841ADDAA124000091AY121061AY221061GA1051+011701061GF105991051051012501001001IA1019KA1240M+03621KA2120N+02201MA1999999095291MD1210101+0641MW1041REMSYN124AAXX  04121 76393 31610 50201 10224 20128 39529 40084 52010 70422 85500 91150 333 10362 20220 30210 56700 58064 70000 85639;
0217763930999992012040415004+25733-100300FM-12+051599999V0200201N00101036001CN0010001N1+02481+00761101011ADDAY121031AY221031GA1031+021001061GF105991031051022501041001IA1019MA1999999095431MD1210141+0551MW1051REMSYN106AAXX  04151 76393 31810 50201 10248 20076 39543 40101 52014 70522 83540 91450 333 30/// 56350 58055 83657;
0255763930999992012040418004+25733-100300FM-12+051599999V0201101N002012200019N0020001N1+03081+01401100931ADDAY101061AY201061GA1021+021001061GF102991021041022501001001IA1019KA1120M+03201KA2240N+02101MA1999999095361MD1710071+0281MW1041REMSYN118AAXX  04181 76393 31820 21102 10308 20140 39536 40093 57007 70400 82400 91750 333 10320 20210 30/// 56500 58028 82657;
0217763930999992012040421004+25733-100300FM-12+051599999V0200601N001012200019N0030001N1+03301+01471100531ADDAY101031AY201031GA1031+024001061GF103991031041022501001001IA1019MA1999999095011MD1710351+0121MW1041REMSYN106AAXX  04211 76393 31830 30601 10330 20147 39501 40053 57035 70400 83400 92050 333 30/// 56500 58012 83658;
0251763930999992012040500004+25733-100300FM-12+051599999V0201201N003012200019N0040001N1+03101+01431100361ADDAA124000091GA1001+999999999GF100991001001999999001001IA1019KA1120M+03521KA2180N+02101MA1999999094901MD1710111+0071REMSYN106AAXX  05001 76393 32940 01203 10310 20143 39490 40036 57011 92350 333 10352 20210 30/// 51081 58007 70000;EQDQ01  00002PRCP24
0244763930999992012040512004+25733-100300FM-12+051599999V0201201N001012200019N0010001N1+02341+01681100821ADDAA124000091GA1041+008101061GF104991041051008001001001IA1019KA1240M+03521KA2120N+02301MA1999999095271MD1210071-0021REMSYN118AAXX  05121 76393 32510 41201 10234 20168 39527 40082 52007 84500 91150 333 10352 20230 30222 56300 59002 70000 84627;
0195763930999992012040515004+25733-100300FM-12+051599999V0201201N001012200019N0010001N1+02521+01911101001ADDAY101031AY201031GF103991001001999999001081IA1019MA1999999095421MD1210151-0011MW1041REMSYN100AAXX  05151 76393 31910 31201 10252 20191 39542 40100 52015 70400 80008 91450 333 30/// 56007 59001;
0255763930999992012040518004+25733-100300FM-12+051599999V0201101N003010360019N0020001N1+03021+01971100881ADDAY121061AY221061GA1031+012901061GF105991031041012501011001IA1019KA1120M+03201KA2240N+02281MA1999999095311MD1710111-0051MW1041REMSYN118AAXX  05181 76393 31620 51103 10302 20197 39531 40088 57011 70422 83410 91750 333 10320 20228 30/// 56350 59005 83643;
0223763930999992012040521004+25733-100300FM-12+051599999V0201001N00401036001CN0030001N1+03301+01811100551ADDAY121031AY221031GA1021+018001061GF106991021041017501011001IA1019MA1999999095041MD1710271+0031MW1041REMSYN112AAXX  05211 76393 31730 61004 10330 20181 39504 40055 57027 70422 82410 92050 333 30/// 56350 58003 82656 84461;
0253763930999992012040606004+25733-100300FM-12+051599999V0201101N006019999999N0010001N1+02621+01671100771ADDAY121061AY221061GF108991001001999999001071GJ103849IA1019KA1240M+03481KA2240N+02281MA1999999095301MD1210061+0091MW1041REMSYN124AAXX  06061 76393 31910 81106 10262 20167 39530 40077 52006 70422 80007 90545 333 10348 20228 30/// 55064 56005 58009 88270;
0217763930999992012040609004+25733-100300FM-12+051599999V0201201N004010600019N0010001N1+02361+01601100731ADDAY121031AY221031GA1081+060001021GF108991001001999999001071IA1019MA1999999095231MD1710071+0031MW1021REMSYN106AAXX  06091 76393 31910 81204 10236 20160 39523 40073 57007 70222 80007 90545 333 30/// 56005 58003 88270;
0272763930999992012040612004+25733-100300FM-12+051599999V0200601N001010600019N0010001N1+02201+01851100881ADDAA124000091AY121061AY221061GA1051+060001021GF105991001001999999001071IA1019KA1240M+03481KA2120N+02161MA1999999095321MD1210091+0051MW1041REMSYN124AAXX  06121 76393 31910 50601 10220 20185 39532 40088 52009 70422 80007 91150 333 10348 20216 30206 56005 58005 70000 85270;
0217763930999992012040615004+25733-100300FM-12+051599999V0200701N001010330019N0005001N1+02361+01991101091ADDAY121031AY221031GA1061+033001041GF106991061001999999011001IA1019MA1999999095491MD1210171+0071MW1051REMSYN106AAXX  06151 76393 31905 60701 10236 20199 39549 40109 52017 70522 86010 91450 333 30/// 56300 58007 86461;
0261763930999992012040618004+25733-100300FM-12+051599999V0200901N00101036001CN0020001N1+02701+02051101091ADDAY121061AY221061GA1021+008101061GF106991021051008001011001IA1019KA1120M+02821KA2240N+02161MA1999999095491MD1410001+0181MW1051REMSYN124AAXX  06181 76393 31520 60901 10270 20205 39549 40109 54000 70522 82510 91750 333 10282 20216 30/// 56350 58018 82627 84460;
0217763930999992012040621004+25733-100300FM-12+051599999V0201201N003010108019N0030001N1+02901+02031100921ADDAY121031AY221031GA1051+010801061GF106991051051012501011001IA1019MA1999999095351MD1710141+0311MW1051REMSYN106AAXX  06211 76393 31630 61203 10290 20203 39535 40092 57014 70522 85510 92050 333 30/// 56350 58031 85636;
0263763930999992012040712004+25733-100300FM-12+051599999V0202101N001012200019N0010001N1+01961+01621101351ADDAY101061AY201061GA1001+999999999GF100991001001999999001001GJ102289IA1019KA1240M+03101KA2120N+01961MA1999999095711MD1999999+0391MW1041REMSYN118AAXX  07121 76393 31910 02101 10196 20162 39571 40135 5//// 70400 91150 333 10310 20196 30188 50471 55038 58039 70000;
0217763930999992012040715004+25733-100300FM-12+051599999V0201101N002012200019N0005001N1+02161+01711101611ADDAY101031AY201031GA1021+005401061GF102991021051004501001001IA1019MA1999999095921MD1210211+0431MW1041REMSYN106AAXX  07151 76393 31405 21102 10216 20171 39592 40161 52021 70400 82500 91450 333 30/// 56300 58043 82618;
0255763930999992012040718004+25733-100300FM-12+051599999V0201101N006012200019N0030001N1+02741+01841101591ADDAY101061AY201061GA1041+011101061GF104991041041012501001001IA1019KA1120M+02821KA2240N+01961MA1999999095921MD1410001-0021MW1041REMSYN118AAXX  07181 76393 31630 41106 10274 20184 39592 40159 54000 70400 84400 91745 333 10282 20196 30/// 56300 59002 84637;
0223763930999992012040721004+25733-100300FM-12+051599999V0201201N00601036001CN0030001N1+02721+01911101391ADDAY111031AY211031GA1031+009901061GF106991031041008001011001IA1019MA1999999095771MD1710151+0421MW1041REMSYN112AAXX  07211 76393 31530 61206 10272 20191 39577 40139 57015 70411 83410 92043 333 30/// 56350 58042 83633 83460;
0262763930999992012040800004+25733-100300FM-12+051599999V0201201N002010075019N0040001N1+02541+01971101351ADDAA124000091AY121061AY221061GF107991071051008001999999IA1019KA1120M+03001KA2180N+01961MA1999999095761MD1710011+9999MW1041REMSYN130AAXX  08001 76393 31540 71202 10254 20197 39576 40135 57001 70422 875// 92348 333 10300 20196 30/// 50821 56399 58/// 70000 87623;
0253763930999992012040803004+25733-100300FM-12+051599999V0201101N001010096019N0030001N1+02311+01541101641ADDAA103000091AY121031AY221031GA1071+009601061GF107991071051008001999999IA1019MA1999999096041MD1210281+9999MW1051REMSYN112AAXX  08031 76393 21530 71101 10231 20154 39604 40164 52028 70522 875// 90248 333 30/// 56399 58/// 69907 87632;EQDQ01  00002PRCP03
0172763930999992012040806004+25733-100300FM-12+051599999V0200401N001019999999N0020001N1+02261+01721101741ADDAA106000021AY151061AY251061GF107991999999008001999999MA1999999096121MD1210081+9999MW1501REMSYN072AAXX  08061 76393 01520 70401 10226 20172 39612 40174 52008 69901 75055;
0223763930999992012040809004+25733-100300FM-12+051599999V0200701N00401036001CN0010001N1+02001+01701101811ADDAY121031AY221031GA1031+003601061GF106991031051004501011001IA1019MA1999999096161MD1210041+9999MW1041REMSYN112AAXX  08091 76393 31410 60704 10200 20170 39616 40181 52004 70422 83510 90845 333 30/// 56370 58/// 83612 83460;
0172763930999992012040812004+25733-100300FM-12+051599999V0200701N001019999999N0005001N1+02001+01941101941ADDAA106003091AY151061AY251061GF108991999999000751999999MA1999999096251MD1210091+9999MW1501REMSYN072AAXX  08121 76393 01105 80701 10200 20194 39625 40194 52009 60031 75055;
0194763930999992012040815004+25733-100300FM-12+051599999V0201101N004019999999N0005001N1+01981+01921102131ADDAA103008091GF108991999999000751999999MD1210161+0491REMSYN112AAXX  08151 76393 21105 81104 10198 20192 36941 40213 52016 55055 88600 91450 333 32/// 56300 58049 60087 88702;EQDQ01+069413APOSP 
0172763930999992012040818004+25733-100300FM-12+051599999V0201001N003019999999N0005001N1+02041+01951102231ADDAA106008991AY151061AY251061GF108991999999001501999999MA1999999096501MD1210091+9999MW1501REMSYN072AAXX  08181 76393 01205 81003 10204 20195 39650 40223 52009 60091 75055;
0234763930999992012040821004+25733-100300FM-12+051599999V0202101N001010027019N0010001N1+02281+02051102011ADDAA103004091AY121031AY221031GA1061+002701061GF106991061051002501001001IA1099MA1999999096301MD1710201+0531MW1041REMSYN112AAXX  08211 76393 21310 62101 10228 20205 39630 40201 57020 70422 86500 92050 333 31/// 56300 58053 60047 86609;
0262763930999992012040900004+25733-100300FM-12+051599999V0201201N002010042019N0040001N1+02351+01871101861ADDAA124015091AY121061AY221061GF107991071051004501999999IA1099KA1120M+02521KA2180N+01861MA1999999096161MD1710141+0401MW1051REMSYN130AAXX  09001 76393 31440 71202 10235 20187 39616 40186 57014 70522 875// 92348 333 10252 20186 31/// 50111 56399 58040 70150 87620;
0217763930999992012040903004+25733-100300FM-12+051599999V0201101N001010054019N0020001N1+02271+01831101901ADDAY121031AY221031GA1071+005401061GF107991071051004501999999IA1099MA1999999096271MD1210111+0231MW1051REMSYN106AAXX  09031 76393 31420 71101 10227 20183 39627 40190 52011 70522 875// 90246 333 31/// 56399 58023 87618;
0253763930999992012040906004+25733-100300FM-12+051599999V0201101N001010042019N0020001N1+02141+01851101961ADDAY121061AY221061GF107991071051004501999999GJ101089IA1099KA1240M+02521KA2240N+01861MA1999999096301MD1210031+0181MW1051REMSYN124AAXX  09061 76393 31420 71101 10214 20185 39630 40196 52003 70522 875// 90547 333 10252 20186 31/// 55018 56399 58018 87612;
0158763930999992012040912004+25733-100300FM-12+051599999V0201201N002019999999N0005001N1+02021+01961101911ADDAA106000021AY151061AY251061GF108991999999000751999999MA1999999096221MW1501REMSYN072AAXX  09121 76393 01105 81202 10202 20196 39622 40191 5//// 69901 75055;
0234763930999992012040915004+25733-100300FM-12+051599999V0201101N002010012019N0005001N1+02121+02001102061ADDAA103000021AY121031AY221031GA1061+001201061GF106991061051001501001001IA1099MA1999999096341MD1210121-0071MW1041REMSYN112AAXX  09151 76393 21205 61102 10212 20200 39634 40206 52012 70422 86500 91450 333 31/// 56300 59007 69907 86604;
0255763930999992012040918004+25733-100300FM-12+051599999V0201201N003010081019N0020001N1+02601+01941101911ADDAY121061AY221061GA1061+008101061GF106991061051008001001001IA1019KA1120M+02741KA2240N+01941MA1999999096221MD1710121-0281MW1041REMSYN118AAXX  09181 76393 31520 61203 10260 20194 39622 40191 57012 70422 86500 91750 333 10274 20194 30/// 56300 59028 86627;
0217763930999992012040921004+25733-100300FM-12+051599999V0201201N004010102019N0040001N1+02781+01951101581ADDAY121031AY221031GA1051+010201061GF105991051051012501001001IA1019MA1999999095951MD1710271-0351MW1041REMSYN106AAXX  09211 76393 31640 51204 10278 20195 39595 40158 57027 70422 85500 92050 333 30/// 56300 59035 85634;
0262763930999992012041000004+25733-100300FM-12+051599999V0201201N002010120019N0050001N1+02711+01841101451ADDAA124999929AY141061AY241061GF105991051051012501001001IA1019KA1120M+03001KA2180N+01941MA1999999095851MD1710101-0291MW1041REMSYN130AAXX  10001 76393 31650 51202 10271 20184 39585 40145 57010 70444 85500 92352 333 10300 20194 30/// 50701 56300 59029 79999 85636;
0217763930999992012041003004+25733-100300FM-12+051599999V0201201N002010090019N0030001N1+02481+01741101541ADDAY121031AY221031GA1071+009001061GF107991071051008001999999IA1019MA1999999095961MD1210111-0311MW1051REMSYN106AAXX  10031 76393 31530 71202 10248 20174 39596 40154 52011 70522 875// 90250 333 30/// 563// 59031 87630;
0172763930999992012041006004+25733-100300FM-12+051599999V0201101N006019999999N0010001N1+02001+01881101601ADDAA106000021AY151061AY251061GF108991999999001501999999MA1999999096001MD1210041+9999MW1501REMSYN072AAXX  10061 76393 01210 81106 10200 20188 39600 40160 52004 69921 75055;
0234763930999992012041009004+25733-100300FM-12+051599999V0201101N003010012019N0005001N1+01941+01851101521ADDAA103000291AY151031AY251031GA1081+001201071GF108991081071001501001001IA1099MA1999999095891MD1710111-0361MW1501REMSYN112AAXX  10091 76393 21205 81103 10194 20185 39589 40152 57011 75055 88700 90848 333 31/// 56300 59036 69927 88704;
0180763930999992012041012004+25733-100300FM-12+051599999V0201101N001019999999N0005001N1+01941+01831101621ADDAY121061AY221061GF108991999999001501999999MA1999999095941MD1210051+9999MW1041REMSYN072AAXX  10121 76393 11205 81101 10194 20183 39594 40162 52005 69921 70422;EQDQ01  00002PRCP06
0217763930999992012041015004+25733-100300FM-12+051599999V0201201N002010018019N0005001N1+02061+01891101841ADDAY121031AY221031GA1081+001801071GF108991081071002501001001IA1019MA1999999096131MD1210191-0211MW1041REMSYN106AAXX  10151 76393 31305 81202 10206 20189 39613 40184 52019 70422 88700 91450 333 30/// 56300 59021 88706;
0255763930999992012041018004+25733-100300FM-12+051599999V0201101N003010060019N0010001N1+02461+01971101831ADDAY121061AY221061GA1061+006001061GF106991061051008001001001IA1019KA1120M+02561KA2240N+01921MA1999999096131MD1410001-0091MW1051REMSYN118AAXX  10181 76393 31510 61103 10246 20197 39613 40183 54000 70522 86500 91752 333 10256 20192 30/// 56300 59009 86620;
0217763930999992012041021004+25733-100300FM-12+051599999V0201201N004012200019N0040001N1+02621+01901101481ADDAY111031AY211031GA1041+009001061GF104991041051008001001001IA1019MA1999999095831MD1710301-0121MW1041REMSYN106AAXX  10211 76393 31540 41204 10262 20190 39583 40148 57030 70411 84500 92050 333 30/// 56300 59012 84630;
0284763930999992012041100004+25733-100300FM-12+051599999V0201101N001012200019N0100001N1+02681+01851101301ADDAA124000291AY111061AY211061GA1021+010201081GF104991041011012501001001IA1019KA1120M+02791KA2180N+01921MA1999999095701MD1710131-0151MW1041REMSYN136AAXX  11001 76393 31660 41101 10268 20185 39570 40130 57013 70411 84100 92352 333 10279 20192 30/// 50361 56300 59015 70002 82834 82635;
0217763930999992012041103004+25733-100300FM-12+051599999V0201201N002012200019N0040001N1+02491+01821101411ADDAY111031AY211031GA1041+008101061GF104991041051008001001001IA1019MA1999999095821MD1210121-0181MW1041REMSYN106AAXX  11031 76393 31540 41202 10249 20182 39582 40141 52012 70411 84500 90250 333 30/// 56300 59018 84627;
0253763930999992012041106004+25733-100300FM-12+051599999V0201201N003010042019N0020001N1+02171+01861101481ADDAY121061AY221061GF106991061051004501001001GJ103429IA1019KA1240M+02791KA2240N+01921MA1999999095871MD1210051-0131MW1051REMSYN124AAXX  11061 76393 31420 61203 10217 20186 39587 40148 52005 70522 86500 90545 333 10279 20192 30/// 55057 56300 59013 86613;
0223763930999992012041109004+25733-100300FM-12+051599999V0201101N004010018019N0005001N1+02041+01891101371ADDAY141031AY221031GA1051+001801071GF108991081061001501001001IA1019MA1999999095751MD1710121-0141MW1051REMSYN112AAXX  11091 76393 31205 81104 10204 20189 39575 40137 57012 70542 88600 90843 333 30/// 56300 59014 85706 83610;
0272763930999992012041112004+25733-100300FM-12+051599999V0201201N002010018019N0005001N1+02041+01891101481ADDAA124000091AY121061AY221061GA1081+001801071GF108991081061001501001001IA1019KA1240M+02791KA2120N+01921MA1999999095821MD1210071-0121MW1041REMSYN124AAXX  11121 76393 31205 81202 10204 20189 39582 40148 52007 70422 88600 91150 333 10279 20192 30184 56300 59012 70000 88706;
0217763930999992012041115004+25733-100300FM-12+051599999V0200601N001010024019N0005001N1+02201+02001101631ADDAY121031AY221031GA1081+002401061GF108991081051002501001001IA1019MA1999999095951MD1210131-0181MW1041REMSYN106AAXX  11151 76393 31305 80601 10220 20200 39595 40163 52013 70422 88500 91450 333 30/// 56300 59018 88608;
0255763930999992012041118004+25733-100300FM-12+051599999V0201101N002010048019N0010001N1+02381+01981101581ADDAY121061AY221061GA1081+004801061GF108991081051004501001001IA1019KA1120M+02461KA2240N+01921MA1999999095901MD1710051-0231MW1041REMSYN118AAXX  11181 76393 31410 81102 10238 20198 39590 40158 57005 70422 88500 91750 333 10246 20192 30/// 56300 59023 88616;
0217763930999992012041121004+25733-100300FM-12+051599999V0201201N004010072019N0030001N1+02521+01941101341ADDAY121031AY221031GA1071+007201061GF107991071051008001001001IA1019MA1999999095701MD1710201-0131MW1041REMSYN106AAXX  11211 76393 31530 71204 10252 20194 39570 40134 57020 70422 87500 92050 333 30/// 56300 59013 87624;
0284763930999992012041200004+25733-100300FM-12+051599999V0201101N001010075019N0040001N1+02521+01941101131ADDAA124000091AY121061AY221061GA1041+007201061GF107991061051008001031001IA1019KA1120M+02621KA2180N+01921MA1999999095521MD1710181-0181MW1041REMSYN136AAXX  12001 76393 31540 71101 10252 20194 39552 40113 57018 70422 86530 92348 333 10262 20192 30/// 50481 56350 59018 70000 84624 82825;
0217763930999992012041203004+25733-100300FM-12+051599999V0201101N001010060019N0030001N1+02401+01921101131ADDAY121031AY221031GA1051+006001061GF105991051051004501001001IA1019MA1999999095541MD1210021-0281MW1041REMSYN106AAXX  12031 76393 31430 51101 10240 20192 39554 40113 52002 70422 85500 90249 333 30/// 56300 59028 85620;
0253763930999992012041206004+25733-100300FM-12+051599999V0201101N006010042019N0020001N1+02161+01841101251ADDAY141061AY221061GF107991071051004501001001GJ100189IA1019KA1240M+02621KA2240N+01921MA1999999095651MD1210111-0221MW1041REMSYN124AAXX  12061 76393 31420 71106 10216 20184 39565 40125 52011 70442 87500 90545 333 10262 20192 30/// 55003 56300 59022 87613;
0234763930999992012041209004+25733-100300FM-12+051599999V0201101N004010012019N0005001N1+02021+01931101371ADDAA103000591AY151031AY251031GA1081+001201071GF108991081061001501999999IA1099MA1999999095741MD1210091-0011MW1501REMSYN112AAXX  12091 76393 21205 81104 10202 20193 39574 40137 52009 75055 886// 90845 333 31/// 56300 59001 69957 88704;
0172763930999992012041212004+25733-100300FM-12+051599999V0200701N002019999999N0010001N1+01981+01861101261ADDAA106003091AY121061AY221061GF106991999999001501999999MA1999999095611MD1710131+9999MW1041REMSYN072AAXX  12121 76393 01210 60702 10198 20186 39561 40126 57013 60031 70422;
0217763930999992012041215004+25733-100300FM-12+051599999V0202101N001010360019N0030001N1+02241+01921101281ADDAY121031AY221031GA1011+003901061GF106991011051004501011011IA1019MA1999999095621MD1210011-0331MW1041REMSYN106AAXX  12151 76393 31430 62101 10224 20192 39562 40128 52001 70422 81511 91450 333 30/// 56355 59033 81613;
0249763930999992012041218004+25733-100300FM-12+051599999V0201101N001010102019N0030001N1+02741+01911101271ADDAY141061AY241061GA1051+010201061GF105991051051012501001001IA1019KA1120M+02821KA2240N+01881MA1999999095621MD1410001-0281MW1041REMSYN112AAXX  12181 76393 31630 51101 10274 20191 39562 40127 54000 70444 85500 91752 333 10282 20188 30/// 59028 85634;
0217763930999992012041221004+25733-100300FM-12+051599999V0201201N002010093019N0030001N1+02701+01941101001ADDAY141031AY241031GA1051+009301061GF107991051051008001021001IA1019MA1999999095401MD1710221-0301MW1041REMSYN106AAXX  12211 76393 31530 71202 10270 20194 39540 40100 57022 70444 85520 92049 333 30/// 56350 59030 85631;
0172763930999992012041300004+25733-100300FM-12+051599999V0201101N001019999999N0040001N1+02421+02111100861ADDAA103003091AY141061AY221061GF108991999999004501999999MA1999999095291MD1710111+9999MW1551REMSYN072AAXX  13001 76393 11440 81101 10242 20211 39529 40086 57011 60037 75542;
0253763930999992012041306004+25733-100300FM-12+051599999V0201101N004010021019N0010001N1+02221+01991101011ADDAY141061AY221061GF108991081071002501001001GJ102529IA1019KA1240M+02921KA2240N+01921MA1999999095431MD1210081-0221MW1051REMSYN124AAXX  13061 76393 31310 81104 10222 20199 39543 40101 52008 70542 88700 90545 333 10292 20192 30/// 55042 56300 59022 88709;
0234763930999992012041309004+25733-100300FM-12+051599999V0201201N005010018019N0005001N1+02121+01971100921ADDAA103000021AY151031AY251031GA1081+001801071GF108991081071001501001001IA1099MA1999999095321MD1710111-0421MW1501REMSYN112AAXX  13091 76393 21205 81205 10212 20197 39532 40092 57011 75055 88700 90845 333 31/// 56300 59042 69907 88706;
0172763930999992012041312004+25733-100300FM-12+051599999V0201101N001019999999N0005001N1+02141+01971100991ADDAA106000021AY121061AY221061GF108991999999002501999999MA1999999095371MD1210051+9999MW1041REMSYN072AAXX  13121 76393 01305 81101 10214 20197 39537 40099 52005 69901 70422;
0217763930999992012041315004+25733-100300FM-12+051599999V0201001N002012200019N0005001N1+02381+02011101111ADDAY101031AY201031GA1031+004501061GF103991031051004501001001IA1019MA1999999095471MD1210101-0151MW1051REMSYN106AAXX  13151 76393 31405 31002 10238 20201 39547 40111 52010 70500 83500 91450 333 30/// 56300 59015 83615;
0255763930999992012041318004+25733-100300FM-12+051599999V0201101N003012200019N0020001N1+02661+02001101061ADDAY101061AY201061GA1031+008101061GF103991031051008001001001IA1019KA1120M+02841KA2240N+01961MA1999999095441MD1710031-0181MW1051REMSYN118AAXX  13181 76393 31520 31103 10266 20200 39544 40106 57003 70500 83500 91750 333 10284 20196 30/// 56300 59018 83627;
0217763930999992012041321004+25733-100300FM-12+051599999V0201201N003012200019N0040001N1+02961+01901100781ADDAY111031AY211031GA1021+013201061GF104991021041012501011001IA1019MA1999999095221MD1710221-0181MW1051REMSYN106AAXX  13211 76393 31640 41203 10296 20190 39522 40078 57022 70511 82410 92050 333 30/// 56350 59018 82644;
0262763930999992012041400004+25733-100300FM-12+051599999V0201201N002012200019N0060001N1+02881+01821100591ADDAA124002791AY111061AY211061GF102991011021012501031001IA1019KA1120M+03161KA2180N+01961MA1999999095071MD1710151-0221MW1051REMSYN130AAXX  14001 76393 31656 21202 10288 20182 39507 40059 57015 70511 81230 92352 333 10316 20196 30/// 50181 56350 59022 70027 81844;
0217763930999992012041403004+25733-100300FM-12+051599999V0201101N001012200019N0030001N1+02731+01861100691ADDAY111031AY211031GA1021+010801061GF103991021051012501041001IA1019MA1999999095191MD1210121-0151MW1051REMSYN106AAXX  14031 76393 31630 31101 10273 20186 39519 40069 52012 70511 82540 90244 333 30/// 56350 59015 82636;
0253763930999992012041406004+25733-100300FM-12+051599999V0201101N006010042019N0020001N1+02441+01981100691ADDAY141061AY221061GF106991061051004501001001GJ107149IA1019KA1240M+03161KA2240N+01961MA1999999095181MD1710011-0251MW1051REMSYN124AAXX  14061 76393 31420 61106 10244 20198 39518 40069 57001 70542 86500 90545 333 10316 20196 30/// 55119 56300 59025 86619;
0217763930999992012041409004+25733-100300FM-12+051599999V0201201N004010027019N0010001N1+02261+02031100631ADDAY141031AY221031GA1081+002701061GF108991081051002501001001IA1019MA1999999095101MD1710081-0221MW1051REMSYN106AAXX  14091 76393 31310 81204 10226 20203 39510 40063 57008 70542 88500 90845 333 30/// 56300 59022 88609;
0272763930999992012041412004+25733-100300FM-12+051599999V0201101N003010015019N0005001N1+02141+02001100681ADDAA124000091AY121061AY221061GA1081+001501061GF108991081051001501001001IA1019KA1240M+03161KA2120N+02141MA1999999095111MD1210011-0261MW1041REMSYN124AAXX  14121 76393 31205 81103 10214 20200 39511 40068 52001 70422 88500 91150 333 10316 20214 30208 56300 59026 70000 88605;
0217763930999992012041415004+25733-100300FM-12+051599999V0201201N002010033019N0005001N1+02321+02031100911ADDAY121031AY221031GA1071+003301061GF107991071051004501001001IA1019MA1999999095301MD1210191-0171MW1041REMSYN106AAXX  14151 76393 31405 71202 10232 20203 39530 40091 52019 70422 87500 91450 333 30/// 56300 59017 87611;
0237763930999992012041418004+25733-100300FM-12+051599999V0201201N002012200019N0010001N1+02801+01941100811ADDAY141061AY241061GA1001+999999999GF100991001001999999001001IA1019KA1120M+02961KA2240N+02141MA1999999095221MD1710081-0221MW1051REMSYN100AAXX  14181 76393 31910 01202 10280 20194 39522 40081 57008 70544 91750 333 10296 20214 30/// 59022;
0217763930999992012041421004+25733-100300FM-12+051599999V0201201N005012200019N0030001N1+03201+01991100381ADDAY101031AY201031GA1021+015001061GF102991021041012501001001IA1019MA1999999094851MD1710371-0371MW1041REMSYN106AAXX  14211 76393 31630 21205 10320 20199 39485 40038 57037 70400 82400 92050 333 30/// 56300 59037 82650;
0253763930999992012041506004+25733-100300FM-12+051599999V0201101N005012200019N0020001N1+02581+02121100321ADDAY121061AY221061GF104991041051004501001001GJ104209IA1019KA1240M+03361KA2240N+02141MA1999999094871MD1210061-0311MW1051REMSYN124AAXX  15061 76393 31420 41105 10258 20212 39487 40032 52006 70522 84500 90545 333 10336 20214 30/// 55070 56300 59031 84619;
0217763930999992012041509004+25733-100300FM-12+051599999V0201101N002010036019N0010001N1+02381+02101100311ADDAY141031AY221031GA1061+003601061GF106991061051004501001001IA1019MA1999999094841MD1710041-0261MW1051REMSYN106AAXX  15091 76393 31410 61102 10238 20210 39484 40031 57004 70542 86500 90843 333 30/// 56300 59026 86612;
0273763930999992012041512004+25733-100300FM-12+051599999V0209999C000012200019N0010001N1+02181+02091100411ADDAA124000091AY121061AY221061GA1001+999999999GF100991001001999999001001IA1019KA1240M+03361KA2120N+02141MA1999999094881MD1210041-0231MW1051REMSYN106AAXX  15121 76393 31910 00000 10218 20209 39488 40041 52004 70522 91150 333 10336 20214 30206 59023 70000;EQDQ01  00002PRCP24
0199763930999992012041515004+25733-100300FM-12+051599999V0201101N001012200019N0005001N1+02601+02031100601ADDAY101031AY201031GA1001+999999999GF100991001001999999001001IA1019MA1999999095041MD1210161-0261MW1051REMSYN088AAXX  15151 76393 31905 01101 10260 20203 39504 40060 52016 70500 91450 333 30/// 59026;
0237763930999992012041518004+25733-100300FM-12+051599999V0201201N003012200019N0020001N1+03301+01471100551ADDAY141061AY241061GA1001+999999999GF100991001001999999001001IA1019KA1120M+03481KA2240N+02141MA1999999095011MD1710031-0211MW1051REMSYN100AAXX  15181 76393 31920 01203 10330 20147 39501 40055 57003 70544 91750 333 10348 20214 30/// 59021;
0217763930999992012041521004+25733-100300FM-12+051599999V0201301N003012200019N0040001N1+03721+00911100231ADDAY101031AY201031GA1011+024001061GF101991011041022501001001IA1019MA1999999094761MD1710251-0091MW1041REMSYN106AAXX  15211 76393 31840 11303 10372 20091 39476 40023 57025 70400 81400 92050 333 30/// 56500 59009 81658;
0262763930999992012041600004+25733-100300FM-12+051599999V0201101N001012200019N0060001N1+03491+00671100241ADDAA124000091AY111061AY211061GF102991021021999999001001IA1019KA1120M+03901KA2180N+02141MA1999999094831MD1210071+0121MW1041REMSYN130AAXX  16001 76393 31956 21101 10349 20067 39483 40024 52007 70411 82200 92347 333 10390 20214 30/// 51071 56700 58012 70000 82858;
0259763930999992012041606004+25733-100300FM-12+051599999V0202501N001012200019N0010001N1+02481+01421100861ADDAY191061AY291061GF101991011031012501001001GJ106309IA1019KA1240M+03901KA2240N+02141MA1999999095421MD1210261+0551MW1131REMSYN130AAXX  16061 76393 31610 12501 10248 20142 39542 40086 52026 71399 81300 90550 333 10390 20214 30/// 54216 55105 56300 58055 81944;
0217763930999992012041609004+25733-100300FM-12+051599999V0209999C000012200019N0010001N1+02301+01531101001ADDAY101031AY201031GA1021+009601061GF102991021051008001001001IA1019MA1999999095491MD1210071+0651MW1041REMSYN106AAXX  16091 76393 31510 20000 10230 20153 39549 40100 52007 70400 82500 90850 333 30/// 56300 58065 82632;
0273763930999992012041612004+25733-100300FM-12+051599999V0203301N001012200019N0020001N1+02261+01441101041ADDAA124000091AY101061AY201061GA1001+999999999GF100991001001999999001001IA1019KA1240M+03901KA2120N+02161MA1999999095481MD1710011+0601MW1041REMSYN106AAXX  16121 76393 31920 03301 10226 20144 39548 40104 57001 70400 91150 333 10390 20216 30210 58060 70000;EQDQ01  00002PRCP24
0217763930999992012041615004+25733-100300FM-12+051599999V0200401N002012200019N0020001N1+02301+01361101411ADDAY101031AY201031GA1031+011401061GF103991031051012501001001IA1019MA1999999095791MD1210311+0751MW1041REMSYN106AAXX  16151 76393 31620 30402 10230 20136 39579 40141 52031 70400 83500 91450 333 30/// 56100 58075 83638;
0237763930999992012041618004+25733-100300FM-12+051599999V0200601N003012200019N0030001N1+03001+01291101281ADDAY141061AY241061GA1001+999999999GF100991001001999999001001IA1019KA1120M+03081KA2240N+02161MA1999999095671MD1710121+0661MW1051REMSYN100AAXX  16181 76393 31930 00603 10300 20129 39567 40128 57012 70544 91750 333 10308 20216 30/// 58066;
0217763930999992012041621004+25733-100300FM-12+051599999V0200601N002010210019N0030001N1+03121+01421101021ADDAY121031AY221031GA1051+021001061GF105991051051022501001001IA1019MA1999999095471MD1710201-0711MW1041REMSYN106AAXX  16211 76393 31830 50602 10312 20142 39547 40102 57020 70422 85500 92050 333 30/// 56500 59071 85657;
0172763930999992012041700004+25733-100300FM-12+051599999V0200701N001019999999N0050001N1+02541+01741101131ADDAA106000891AY141061AY221061GF108991999999008001999999MA1999999095601MD1210131+9999MW1501REMSYN072AAXX  17001 76393 11550 80701 10254 20174 39560 40113 52013 69971 75042;
0223763930999992012041703004+25733-100300FM-12+051599999V0200201N001010105019N0030001N1+02461+01541101451ADDAY141031AY241031GA1051+010501061GF108991051051012501021999IA1019MA1999999095911MD1210311+0751MW1041REMSYN112AAXX  17031 76393 31630 80201 10246 20154 39591 40145 52031 70444 8552/ 90243 333 30/// 5635/ 58075 85635 83462;
0253763930999992012041706004+25733-100300FM-12+051599999V0200401N003012200019N0020001N1+02161+01221101601ADDAY111061AY211061GF104991041051012501001001GJ104569IA1019KA1240M+03301KA2240N+02161MA1999999096031MD1210121+0611MW1041REMSYN124AAXX  17061 76393 31620 40403 10216 20122 39603 40160 52012 70411 84500 90545 333 10330 20216 30/// 55076 56300 58061 84639;
0217763930999992012041709004+25733-100300FM-12+051599999V0202901N001010105019N0010001N1+02061+01221101701ADDAY141031AY221031GA1081+010501061GF108991081051012501001001IA1019MA1999999096071MD1210071+0581MW1051REMSYN106AAXX  17091 76393 31610 82901 10206 20122 39607 40170 52007 70542 88500 90845 333 30/// 56300 58058 88635;
0291763930999992012041712004+25733-100300FM-12+051599999V0200401N001010069019N0020001N1+01901+01321101941ADDAA124000791AY121061AY221061GA1081+006901061GF199999061051008001001001IA1019KA1240M+03301KA2120N+01861MA1999999096261MD1210191+0781MW1041REMSYN124AAXX  17121 76393 31520 60401 10190 20132 39626 40194 52019 70422 86500 91150 333 10330 20186 30180 56300 58078 70007 88623;EQDQ01+000062SCOTCV
0217763930999992012041715004+25733-100300FM-12+051599999V0200501N001012200019N0010001N1+02241+01241102131ADDAY101031AY201031GA1021+012301061GF102991021051012501001001IA1019MA1999999096421MD1210161+0631MW1041REMSYN106AAXX  17151 76393 31610 20501 10224 20124 39642 40213 52016 70400 82500 91450 333 30/// 56300 58063 82641;
0255763930999992012041718004+25733-100300FM-12+051599999V0200601N003012200019N0030001N1+02661+01351102101ADDAY101061AY201061GA1031+015001061GF103991031041017501001001IA1019KA1120M+02881KA2240N+01861MA1999999096401MD1710021+0731MW1041REMSYN118AAXX  17181 76393 31730 30603 10266 20135 39640 40210 57002 70400 83400 91750 333 10288 20186 30/// 56300 58073 83650;
0217763930999992012041721004+25733-100300FM-12+051599999V0201101N003012200019N0040001N1+03021+01361101741ADDAY101031AY201031GA1031+021001061GF103991031041022501001001IA1019MA1999999096101MD1710301+0631MW1041REMSYN106AAXX  17211 76393 31840 31103 10302 20136 39610 40174 57030 70400 83400 92050 333 30/// 56300 58063 83657;
0262763930999992012041800004+25733-100300FM-12+051599999V0201201N003012200019N0060001N1+02761+01371101571ADDAA124000091AY101061AY201061GF102991011041017501011001IA1019KA1120M+03121KA2180N+01861MA1999999095981MD1710121+0381MW1041REMSYN130AAXX  18001 76393 31756 21203 10276 20137 39598 40157 57012 70400 81410 92350 333 10312 20186 30/// 51061 56350 58038 70000 81656;
0217763930999992012041803004+25733-100300FM-12+051599999V0201101N001012200019N0040001N1+02501+01471101741ADDAY101031AY201031GA1011+012601061GF101991011051012501001001IA1019MA1999999096171MD1210191+0261MW1041REMSYN106AAXX  18031 76393 31640 11101 10250 20147 39617 40174 52019 70400 81500 90247 333 30/// 56500 58026 81642;
0253763930999992012041806004+25733-100300FM-12+051599999V0201101N005012200019N0020001N1+02241+01531101831ADDAY101061AY201061GF103991031051008001001001GJ106549IA1019KA1240M+03121KA2240N+01861MA1999999096241MD1210071+0211MW1051REMSYN124AAXX  18061 76393 31520 31105 10224 20153 39624 40183 52007 70500 83500 90545 333 10312 20186 30/// 55109 56700 58021 83629;
0223763930999992012041809004+25733-100300FM-12+051599999V0201101N00501036001CN0010001N1+02061+01431101751ADDAY121031AY221031GA1041+007801061GF107991041051008001011001IA1019MA1999999096131MD1710111+0061MW1051REMSYN112AAXX  18091 76393 31510 71105 10206 20143 39613 40175 57011 70522 84510 90845 333 30/// 56570 58006 84626 83460;
0272763930999992012041812004+25733-100300FM-12+051599999V0200501N002010048019N0010001N1+02001+01601101861ADDAA124000091AY121061AY221061GA1061+004801061GF106991061051004501001001IA1019KA1240M+03121KA2120N+01961MA1999999096191MD1210061-0071MW1041REMSYN124AAXX  18121 76393 31410 60502 10200 20160 39619 40186 52006 70422 86500 91150 333 10312 20196 30188 56500 59007 70000 86616;
0217763930999992012041815004+25733-100300FM-12+051599999V0201101N020010360019N0020001N1+02181+01671102001ADDAY121031AY221031GA1031+006301061GF105991031051008001021001IA1019MA1999999096301MD1210171-0121MW1051REMSYN106AAXX  18151 76393 31520 51120 10218 20167 39630 40200 52017 70522 83520 91450 333 30/// 56350 59012 83621;
0255763930999992012041818004+25733-100300FM-12+051599999V0201201N003012200019N0030001N1+02741+01261101911ADDAY101061AY201061GA1021+018001061GF102991021041017501001001IA1019KA1120M+02861KA2240N+01961MA1999999096231MD1710071-0171MW1041REMSYN118AAXX  18181 76393 31730 21203 10274 20126 39623 40191 57007 70400 82400 91750 333 10286 20196 30/// 56300 59017 82656;
0189763930999992012041821004+25733-100300FM-12+051599999V0201201N004012200019N0050001N1+03021+01481101501ADDGA1031+018001061GF103991031041017501001001IA1019MA1999999095881MD1710351-0221REMSYN100AAXX  18211 76393 32750 31204 10302 20148 39588 40150 57035 83400 92050 333 30/// 56300 59022 83656;
0262763930999992012041900004+25733-100300FM-12+051599999V0201201N002012200019N0060001N1+02671+01321101291ADDAA124000091AY111061AY211061GF104991021011017501001061IA1019KA1120M+03091KA2180N+01961MA1999999095711MD1710171-0271MW1041REMSYN130AAXX  19001 76393 31756 41202 10267 20132 39571 40129 57017 70411 82106 92347 333 10309 20196 30/// 50681 56305 59027 70000 82856;
0217763930999992012041903004+25733-100300FM-12+051599999V0200601N001012200019N0040001N1+02561+01401101321ADDAY111031AY211031GA1031+014401061GF104991031051012501011001IA1019MA1999999095781MD1210071-0391MW1041REMSYN106AAXX  19031 76393 31640 40601 10256 20140 39578 40132 52007 70411 83510 90246 333 30/// 56550 59039 83648;
0225763930999992012041906004+25733-100300FM-12+051599999V0201201N006012200019N0030001N1+02161+01711101321ADDGF103991031051004501001001GJ105709IA1019KA1240M+03091KA2240N+01961MA1999999095771MD1710011-0471REMSYN118AAXX  19061 76393 32430 31206 10216 20171 39577 40132 57001 83500 90545 333 10309 20196 30/// 55095 56500 59047 83618;
0217763930999992012041909004+25733-100300FM-12+051599999V0201201N005010030019N0010001N1+01961+01721101291ADDAY121031AY221031GA1071+003001061GF107991071051002501001001IA1019MA1999999095691MD1710081-0441MW1051REMSYN106AAXX  19091 76393 31310 71205 10196 20172 39569 40129 57008 70522 87500 90845 333 30/// 56300 59044 87610;
0272763930999992012041912004+25733-100300FM-12+051599999V0201001N002010033019N0010001N1+01981+01711101321ADDAA124000091AY121061AY221061GA1061+003301061GF106991061051004501001001IA1019KA1240M+03091KA2120N+01901MA1999999095681MD1710011-0511MW1051REMSYN124AAXX  19121 76393 31410 61002 10198 20171 39568 40132 57001 70522 86500 91150 333 10309 20190 30182 56300 59051 70000 86611;
0217763930999992012041915004+25733-100300FM-12+051599999V0201001N001010063019N0020001N1+02221+01711101421ADDAY121031AY221031GA1081+006301061GF108991081051008001001001IA1019MA1999999095751MD1210071-0551MW1051REMSYN106AAXX  19151 76393 31520 81001 10222 20171 39575 40142 52007 70522 88500 91450 333 30/// 56300 59055 88621;
0255763930999992012041918004+25733-100300FM-12+051599999V0201201N002012200019N0020001N1+02681+01741101281ADDAY141061AY201061GA1011+011701061GF101991011041012501001001IA1019KA1120M+02781KA2240N+01901MA1999999095631MD1710121-0601MW1051REMSYN118AAXX  19181 76393 31620 11202 10268 20174 39563 40128 57012 70540 81400 91750 333 10278 20190 30/// 56500 59060 81639;
0217763930999992012041921004+25733-100300FM-12+051599999V0200601N003012200019N0040001N1+03161+01701100821ADDAY101031AY201031GA1021+018001081GF104991041021017501021001IA1019MA1999999095231MD1710401-0651MW1041REMSYN106AAXX  19211 76393 31740 40603 10316 20170 39523 40082 57040 70400 84220 92050 333 30/// 56550 59065 82856;
0256763930999992012042000004+25733-100300FM-12+051599999V0201101N001012200019N0050001N1+02961+01691100561ADDAA124000091AY141061AY241061GF102991999999012501999999IA1019KA1120M+03321KA2180N+01901MA1999999095041MD1710191-0671MW1041REMSYN124AAXX  20001 76393 31650 21101 10296 20169 39504 40056 57019 70444 92355 333 10332 20190 30/// 51281 56550 59067 70000 81850;
0199763930999992012042003004+25733-100300FM-12+051599999V0200201N001012200019N0040001N1+02611+01741100631ADDAY141031AY221031GA1001+999999999GF100991001001999999001001IA1019MA1999999095141MD1210101-0641MW1041REMSYN088AAXX  20031 76393 31940 00201 10261 20174 39514 40063 52010 70442 90249 333 30/// 59064;
0223763930999992012042006004+25733-100300FM-12+051599999V0209999C000012200019N0030001N1+02361+01771100661ADDGA1001+999999999GF100991001001999999001001GJ105229IA1019KA1240M+03321KA2240N+01901MA1999999095161MD1210021-0611REMSYN100AAXX  20061 76393 32930 00000 10236 20177 39516 40066 52002 90545 333 10332 20190 30/// 55087 59061;
0217763930999992012042009004+25733-100300FM-12+051599999V0201201N001010048019N0010001N1+02061+01681100671ADDAY111031AY211031GA1051+004801061GF105991051051004501001001IA1019MA1999999095131MD1710031-0561MW1051REMSYN106AAXX  20091 76393 31410 51201 10206 20168 39513 40067 57003 70511 85500 90845 333 30/// 56600 59056 85616;
0273763930999992012042012004+25733-100300FM-12+051599999V0201201N001012200019N0020001N1+02081+01521100571ADDAA124000091AY101061AY201061GA1001+999999999GF100991001001999999001001IA1019KA1240M+03321KA2120N+01901MA1999999094991MD1710141-0691MW1041REMSYN106AAXX  20121 76393 31920 01201 10208 20152 39499 40057 57014 70400 91150 333 10332 20190 30180 59069 70000;EQDQ01  00002PRCP24
0199763930999992012042015004+25733-100300FM-12+051599999V0203101N001012200019N0010001N1+02541+01711100711ADDAY101031AY201031GA1001+999999999GF100991001001999999001001IA1019MA1999999095101MD1710111-0651MW1041REMSYN088AAXX  20151 76393 31910 03101 10254 20171 39510 40071 57011 70400 91450 333 30/// 59065;
0255763930999992012042018004+25733-100300FM-12+051599999V0200601N002012200019N0030001N1+03161+01591100741ADDAY101061AY201061GA1021+018001061GF102991021041017501001001IA1019KA1120M+03341KA2240N+01901MA1999999095151MD1210051-0481MW1041REMSYN118AAXX  20181 76393 31730 20602 10316 20159 39515 40074 52005 70400 82400 91750 333 10334 20190 30/// 56500 59048 82656;
0217763930999992012042021004+25733-100300FM-12+051599999V0200301N006012200019N0050001N1+03201+01371100631ADDAY111031AY211031GA1041+024001061GF104991041051022501001001IA1019MA1999999095101MD1710051-0131MW1041REMSYN106AAXX  20211 76393 31850 40306 10320 20137 39510 40063 57005 70411 84500 92050 333 30/// 56500 59013 84658;
0262763930999992012042100004+25733-100300FM-12+051599999V0200201N002010210019N0060001N1+03121+01121100551ADDAA124000091AY121061AY221061GF105991051051022501001001IA1019KA1120M+03761KA2180N+01901MA1999999095141MD1210041+0101MW1041REMSYN130AAXX  21001 76393 31856 50202 10312 20112 39514 40055 52004 70422 85500 92347 333 10376 20190 30/// 50901 56300 58010 70000 85658;
0236763930999992012042103004+25733-100300FM-12+051599999V0200201N002010210019N0030001N1+02801+01181101131ADDAY121031AY221031GA1071+021001061GF107991071051017501999999IA1019MA1999999095651MD1210512+0511MW1041REMSYN106AAXX  21031 76393 31730 70202 10280 20118 39565 40113 52051 70422 875// 90250 333 30/// 568// 58051 87657;EQDQ01+000512APC3  
0273763930999992012042112004+25733-100300FM-12+051599999V0201801N001012200019N0020001N1+02081+01591101561ADDAA124000091AY101061AY201061GA1001+999999999GF100991001001999999001001IA1019KA1240M+03761KA2120N+01921MA1999999095941MD1210061+0951MW1041REMSYN106AAXX  21121 76393 31920 01801 10208 20159 39594 40156 52006 70400 91150 333 10376 20192 30186 58095 70000;EQDQ01  00002PRCP24
0199763930999992012042115004+25733-100300FM-12+051599999V0203401N001012200019N0020001N1+02261+01551101641ADDAY101031AY201031GA1001+999999999GF100991001001999999001001IA1019MA1999999095981MD1210041+0881MW1041REMSYN088AAXX  21151 76393 31920 03401 10226 20155 39598 40164 52004 70400 91450 333 30/// 58088;
0237763930999992012042118004+25733-100300FM-12+051599999V0200601N002012200019N0020001N1+02941+01531101611ADDAY141061AY241061GA1001+999999999GF100991001001999999001001IA1019KA1120M+03021KA2240N+01921MA1999999095961MD1710021+0911MW1051REMSYN100AAXX  21181 76393 31920 00602 10294 20153 39596 40161 57002 70544 91750 333 10302 20192 30/// 58091;
0217763930999992012042121004+25733-100300FM-12+051599999V0200601N003012200019N0050001N1+03201+00931101281ADDAY101031AY201031GA1011+024001081GF101991011011999999001001IA1019MA1999999095701MD1710261+0601MW1041REMSYN106AAXX  21211 76393 31950 10603 10320 20093 39570 40128 57026 70400 81100 92050 333 30/// 56500 58060 81858;
0251763930999992012042200004+25733-100300FM-12+051599999V0200601N001012200019N0060001N1+03141+00561101201ADDAA124000091GA1001+999999999GF100991001001999999001001IA1019KA1120M+03381KA2180N+01921MA1999999095671MD1710031+0531REMSYN106AAXX  22001 76393 32956 00601 10314 20056 39567 40120 57003 92346 333 10338 20192 30/// 50961 58053 70000;EQDQ01  00002PRCP24
0171763930999992012042203004+25733-100300FM-12+051599999V0201101N001012200019N0050001N1+02801+00531101441ADDGA1001+999999999GF100991001001999999001001IA1019MA1999999095921MD1210251+0271REMSYN082AAXX  22031 76393 32950 01101 10280 20053 39592 40144 52025 90246 333 30/// 58027;
0223763930999992012042206004+25733-100300FM-12+051599999V0209999C000012200019N0020001N1+02361+00951101541ADDGA1001+999999999GF100991001001999999001001GJ107149IA1019KA1240M+03381KA2240N+01921MA1999999096011MD1210091+0061REMSYN100AAXX  22061 76393 32920 00000 10236 20095 39601 40154 52009 90550 333 10338 20192 30/// 55119 58006;
0171763930999992012042209004+25733-100300FM-12+051599999V0209999C000012200019N0020001N1+02061+00761101481ADDGA1001+999999999GF100991001001999999001001IA1019MA1999999095921MD1710091+0041REMSYN082AAXX  22091 76393 32920 00000 10206 20076 39592 40148 57009 90850 333 30/// 58004;
0273763930999992012042212004+25733-100300FM-12+051599999V0200701N001012200019N0020001N1+01901+00901101611ADDAA124000091AY101061AY201061GA1001+999999999GF100991001001999999001001IA1019KA1240M+03381KA2120N+01901MA1999999095981MD1210061+0041MW1041REMSYN106AAXX  22121 76393 31920 00701 10190 20090 39598 40161 52006 70400 91150 333 10338 20190 30180 58004 70000;EQDQ01  00002PRCP24
0199763930999992012042215004+25733-100300FM-12+051599999V0201201N001012200019N0050001N1+02441+00931101831ADDAY101031AY201031GA1001+999999999GF100991001001999999001001IA1019MA1999999096161MD1210181+0181MW1041REMSYN088AAXX  22151 76393 31950 01201 10244 20093 39616 40183 52018 70400 91450 333 30/// 58018;
0209763930999992012042218004+25733-100300FM-12+051599999V0201201N004012200019N0060001N1+03081+00611101751ADDGA1001+999999999GF100991001001999999001001IA1019KA1120M+03201KA2240N+01901MA1999999096101MD1710061+0141REMSYN094AAXX  22181 76393 32956 01204 10308 20061 39610 40175 57006 91750 333 10320 20190 30/// 58014;
0171763930999992012042221004+25733-100300FM-12+051599999V0201201N004012200019N0060001N1+03341+00651101471ADDGA1001+999999999GF100991001001999999001001IA1019MA1999999095881MD1710221+0181REMSYN082AAXX  22211 76393 32956 01204 10334 20065 39588 40147 57022 92050 333 30/// 58018;
0251763930999992012042300004+25733-100300FM-12+051599999V0201201N002012200019N0060001N1+03161+00761101361ADDAA124000091GA1001+999999999GF100991001001999999001001IA1019KA1120M+03451KA2180N+01901MA1999999095841MD1710041+0171REMSYN106AAXX  23001 76393 32956 01202 10316 20076 39584 40136 57004 92349 333 10345 20190 30/// 50981 58017 70000;EQDQ01  00002PRCP24
0171763930999992012042303004+25733-100300FM-12+051599999V0201301N002012200019N0040001N1+02801+00771101531ADDGA1001+999999999GF100991001001999999001001IA1019MA1999999096041MD1210201+0121REMSYN082AAXX  23031 76393 32940 01302 10280 20077 39604 40153 52020 90247 333 30/// 58012;
0217763930999992012042306004+25733-100300FM-12+051599999V0200501N001012200019N0030001N1+02281+00891101681ADDGA1001+999999999GF100991001001999999001001GJ107209IA1019KA1240M+03451KA2240N+01901MA1999999096151MD1210121+0141REMSYN094AAXX  23061 76393 32930 00501 10228 20089 39615 40168 52012 333 10345 20190 30/// 55120 58014;
0171763930999992012042309004+25733-100300FM-12+051599999V0200501N001012200019N0010001N1+01961+01011101681ADDGA1001+999999999GF100991001001999999001001IA1019MA1999999096091MD1710061+0171REMSYN082AAXX  23091 76393 32910 00501 10196 20101 39609 40168 57006 90845 333 30/// 58017;
0273763930999992012042312004+25733-100300FM-12+051599999V0202701N001012200019N0020001N1+01841+01061101761ADDAA124000091AY101061AY201061GA1001+999999999GF100991001001999999001001IA1019KA1240M+03451KA2120N+01801MA1999999096111MD1210021+0131MW1041REMSYN106AAXX  23121 76393 31920 02701 10184 20106 39611 40176 52002 70400 91150 333 10345 20180 30170 58013 70000;EQDQ01  00002PRCP24
0199763930999992012042315004+25733-100300FM-12+051599999V0200501N001012200019N0020001N1+02101+01111101921ADDAY101031AY201031GA1001+999999999GF100991001001999999001001IA1019MA1999999096221MD1210111+0061MW1041REMSYN088AAXX  23151 76393 31920 00501 10210 20111 39622 40192 52011 70400 91450 333 30/// 58006;
0209763930999992012042318004+25733-100300FM-12+051599999V0201201N003012200019N0040001N1+03121+00941101781ADDGA1001+999999999GF100991001001999999001001IA1019KA1120M+03221KA2240N+01801MA1999999096101MD1710121+0001REMSYN094AAXX  23181 76393 32940 01203 10312 20094 39610 40178 57012 91750 333 10322 20180 30/// 58000;
0171763930999992012042321004+25733-100300FM-12+051599999V0201201N005012200019N0040001N1+03341+00911101471ADDGA1001+999999999GF100991001001999999001001IA1019MA1999999095871MD1710231-0011REMSYN082AAXX  23211 76393 32940 01205 10334 20091 39587 40147 57023 92050 333 30/// 59001;
0251763930999992012042400004+25733-100300FM-12+051599999V0201101N004012200019N0060001N1+03121+01041101271ADDAA124000091GA1001+999999999GF100991001001999999001001IA1019KA1120M+03461KA2180N+01801MA1999999095741MD1710131-0101REMSYN106AAXX  24001 76393 32956 01104 10312 20104 39574 40127 57013 92350 333 10346 20180 30/// 51201 59010 70000;EQDQ01  00002PRCP24
0171763930999992012042403004+25733-100300FM-12+051599999V0201201N006012200019N0020001N1+02601+00891101381ADDGA1001+999999999GF100991001001999999001001IA1019MA1999999095881MD1210141-0161REMSYN082AAXX  24031 76393 32920 01206 10260 20089 39588 40138 52014 90250 333 30/// 59016;
0272763930999992012042412004+25733-100300FM-12+051599999V0200201N001012200019N0020001N1+01801+01621101441ADDAA124000091AY101061AY201061GA1021+002101061GF102991021051002501001001IA1019KA1240M+03461KA2120N+01701MA1999999095791MD1710041-0321MW1041REMSYN124AAXX  24121 76393 31320 20201 10180 20162 39579 40144 57004 70400 82500 91150 333 10346 20170 30164 56300 59032 70000 82607;
0217763930999992012042415004+25733-100300FM-12+051599999V0200701N001012200019N0005001N1+02241+01631101591ADDAY101031AY201031GA1011+007501061GF101991011051008001001001IA1019MA1999999095901MD1210111-0321MW1041REMSYN106AAXX  24151 76393 31505 10701 10224 20163 39590 40159 52011 70400 81500 91450 333 30/// 56100 59032 81625;
0255763930999992012042418004+25733-100300FM-12+051599999V0200601N002012200019N0010001N1+02761+01631101491ADDAY101061AY201061GA1011+013801061GF101991011051012501001001IA1019KA1120M+02901KA2240N+01701MA1999999095811MD1710091-0291MW1041REMSYN118AAXX  24181 76393 31610 10602 10276 20163 39581 40149 57009 70400 81500 91750 333 10290 20170 30/// 56500 59029 81646;
0217763930999992012042421004+25733-100300FM-12+051599999V0201201N003012200019N0040001N1+03341+01401101111ADDAY101031AY201031GA1021+024001061GF102991021041022501001001IA1019MA1999999095511MD1710301-0361MW1041REMSYN106AAXX  24211 76393 31840 21203 10334 20140 39551 40111 57030 70400 82400 92050 333 30/// 56500 59036 82658;
0262763930999992012042500004+25733-100300FM-12+051599999V0201101N003010900019N0050001N1+03161+01471100921ADDAA124000091AY121061AY221061GF105991021051022501031061IA1019KA1120M+03481KA2180N+01701MA1999999095401MD1710111-0341MW1041REMSYN130AAXX  25001 76393 31850 51103 10316 20147 39540 40092 57011 70422 82536 92350 333 10348 20170 30/// 50921 56577 59034 70000 82657;
0273763930999992012042512004+25733-100300FM-12+051599999V0203101N001012200019N0020001N1+01981+01641101091ADDAA124000091AY101061AY201061GA1001+999999999GF100991001001999999001001IA1019KA1240M+03481KA2120N+01801MA1999999095481MD1210011-0311MW1041REMSYN106AAXX  25121 76393 31920 03101 10198 20164 39548 40109 52001 70400 91150 333 10348 20180 30170 59031 70000;EQDQ01  00002PRCP24
0199763930999992012042515004+25733-100300FM-12+051599999V0200901N001012200019N0010001N1+02461+01721101221ADDAY101031AY201031GA1001+999999999GF100991001001999999001001IA1019MA1999999095571MD1210091-0331MW1051REMSYN088AAXX  25151 76393 31910 00901 10246 20172 39557 40122 52009 70500 91450 333 30/// 59033;
0255763930999992012042518004+25733-100300FM-12+051599999V0200601N002012200019N0020001N1+03141+01521101151ADDAY101061AY201061GA1011+013201061GF101991011041012501001001IA1019KA1120M+03241KA2240N+01801MA1999999095531MD1710041-0281MW1041REMSYN118AAXX  25181 76393 31620 10602 10314 20152 39553 40115 57004 70400 81400 91750 333 10324 20180 30/// 56500 59028 81644;
0217763930999992012042521004+25733-100300FM-12+051599999V0201201N003012200019N0030001N1+03701+01351100841ADDAY101031AY201031GA1011+024001081GF101991011011022501001001IA1019MA1999999095311MD1710221-0201MW1041REMSYN106AAXX  25211 76393 31830 11203 10370 20135 39531 40084 57022 70400 81100 92050 333 30/// 56500 59020 81858;
0251763930999992012042600004+25733-100300FM-12+051599999V0201201N002012200019N0060001N1+03581+01211100671ADDAA124000091GA1001+999999999GF100991001001999999001001IA1019KA1120M+03841KA2180N+01801MA1999999095211MD1710101-0191REMSYN106AAXX  26001 76393 32956 01202 10358 20121 39521 40067 57010 92349 333 10384 20180 30/// 51021 59019 70000;EQDQ01  00002PRCP24
0241763930999992012042612004+25733-100300FM-12+051599999V0200501N001012200019N0020001N1+02141+01571100931ADDAA124000091GF103991011001999999011011IA1019KA1240M+03841KA2120N+02081MA1999999095381MD1710021-0101REMSYN112AAXX  26121 76393 32920 30501 10214 20157 39538 40093 57002 81011 91145 333 10384 20208 30190 56055 59010 70000;EQDQ01  00002PRCP24
0223763930999992012042615004+25733-100300FM-12+051599999V0202901N001019999999N0010001N1+02541+01781101031ADDAY121031AY221031GA1031+030001041GF108991031001999999011041IA1019MA1999999095441MD1210061-0131MW1041REMSYN112AAXX  26151 76393 31910 82901 10254 20178 39544 40103 52006 70422 83014 91450 333 30/// 56055 59013 83460 85070;
0255763930999992012042618004+25733-100300FM-12+051599999V0200601N002010570019N0020001N1+03241+01461100991ADDAY141061AY221061GA1051+057001021GF105991001001999999001081IA1019KA1120M+03381KA2240N+02081MA1999999095411MD1710031-0121MW1051REMSYN118AAXX  26181 76393 31920 50602 10324 20146 39541 40099 57003 70542 80008 91750 333 10338 20208 30/// 56005 59012 85269;
0236763930999992012042621004+25733-100300FM-12+051599999V0201101N004010300019N0040001N1+03721+00911100671ADDAY121031AY221031GA1051+030001041GF105991999001999999021001IA1019MA1999999095181MD1710231-0131MW1041REMSYN106AAXX  26211 76393 31940 51104 10372 20091 39518 40067 57023 70422 82020 92050 333 30/// 56070 59013 85460;EQDQ01+000022SCOTLC
0262763930999992012042700004+25733-100300FM-12+051599999V0201201N002019999999N0060001N1+03571+01211100551ADDAA124000091AY121061AY221061GF107991001001999999001061IA1019KA1120M+03811KA2180N+02081MA1999999095131MD1710051-0081MW1041REMSYN130AAXX  27001 76393 31956 71202 10357 20121 39513 40055 57005 70422 80006 92346 333 10381 20208 30/// 50731 56005 59008 70000 87280;
0269763930999992012042712004+25733-100300FM-12+051599999V0200601N001012200019N0010001N1+02021+01691100721ADDAA124000091AY111061AY211061GF104991021001999999031021IA1019KA1240M+03811KA2120N+01901MA1999999095161MD1710011-0221MW1041REMSYN118AAXX  27121 76393 31910 40601 10202 20169 39516 40072 57001 70411 82032 91150 333 10381 20190 30180 56011 59022 70000;EQDQ01  00002PRCP24
0195763930999992012042715004+25733-100300FM-12+051599999V0200601N001012200019N0010001N1+02261+01791100911ADDAY111031AY211031GF104991021001999999031091IA1019MA1999999095301MD1210141-0141MW1051REMSYN100AAXX  27151 76393 31910 40601 10226 20179 39530 40091 52014 70511 82039 91450 333 30/// 56071 59014;
0195763930999992012042721004+25733-100300FM-12+051599999V0201101N005012200019N0030001N1+03521+01461100521ADDAY101031AY201031GF103991001001999999001081IA1019MA1999999094991MD1710211-0191MW1041REMSYN100AAXX  27211 76393 31930 31105 10352 20146 39499 40052 57021 70400 80008 92045 333 30/// 56005 59019;
0245763930999992012042800004+25733-100300FM-12+051599999V0201201N002019999999N0060001N1+03361+01351100341ADDAY121061AY221061GF105991011001999999051061IA1019KA1120M+03681KA2180N+01901MA1999999094881MD1710111-0241MW1041REMSYN124AAXX  28001 76393 31956 51202 10336 20135 39488 40034 57011 70422 81056 92349 333 10368 20190 30/// 51021 56055 59024 70000;
0195763930999992012042803004+25733-100300FM-12+051599999V0201501N001012200019N0040001N1+02931+01401100411ADDAY141031AY241031GF102991001001999999001011IA1019MA1999999095001MD1210121-0301MW1041REMSYN100AAXX  28031 76393 31940 21501 10293 20140 39500 40041 52012 70444 80001 90248 333 30/// 56005 59030;
0272763930999992012042812004+25733-100300FM-12+051599999V0200601N002010036019N0010001N1+01981+01681100551ADDAA124000091AY121061AY221061GA1061+003601061GF106991061051004501001001IA1019KA1240M+03681KA2120N+01981MA1999999095001MD1210071-0161MW1041REMSYN124AAXX  28121 76393 31410 60602 10198 20168 39500 40055 52007 70422 86500 91150 333 10368 20198 30186 56300 59016 70000 86612;
0217763930999992012042815004+25733-100300FM-12+051599999V0200701N001010042019N0010001N1+02161+01741100731ADDAY121031AY221031GA1081+004201061GF108991081051004501001001IA1019MA1999999095131MD1210131-0171MW1051REMSYN106AAXX  28151 76393 31410 80701 10216 20174 39513 40073 52013 70522 88500 91450 333 30/// 56300 59017 88614;
0261763930999992012042818004+25733-100300FM-12+051599999V0200601N00201036001CN0010001N1+02781+01851100731ADDAY121061AY221061GA1021+011401061GF106991021041012501011001IA1019KA1120M+02861KA2240N+01981MA1999999095121MD1710011-0081MW1041REMSYN124AAXX  28181 76393 31610 60602 10278 20185 39512 40073 57001 70422 82410 92050 333 10286 20198 30/// 56350 59008 82638 84460;
0217763930999992012042821004+25733-100300FM-12+051599999V0201201N005012200019N0030001N1+03241+01761100401ADDAY101031AY201031GA1011+018001061GF101991011041017501001001IA1019MA1999999094851MD1710271-0141MW1041REMSYN106AAXX  28211 76393 31730 11205 10324 20176 39485 40040 57027 70400 81400 92050 333 30/// 56500 59014 81656;
0262763930999992012042900004+25733-100300FM-12+051599999V0201101N001010360019N0050001N1+03181+01651100291ADDAA124000091AY121061AY221061GF107991011051017501071091IA1019KA1120M+03381KA2180N+01981MA1999999094791MD1710331-0091MW1041REMSYN130AAXX  29001 76393 31750 71101 10318 20165 39479 40029 57033 70422 81579 92352 333 10338 20198 30/// 50691 56555 59009 70000 81556;
0217763930999992012042903004+25733-100300FM-12+051599999V0201401N003010300019N0030001N1+02971+01531100361ADDAY121031AY221031GA1071+030001041GF107991071001999999021999IA1019MA1999999094901MD1210111-0101MW1041REMSYN106AAXX  29031 76393 31930 71403 10297 20153 39490 40036 52011 70422 8702/ 90248 333 30/// 5605/ 59010 87460;
0275763930999992012042906004+25733-100300FM-12+051599999V0201201N006010360019N0010001N1+02621+01871100841ADDAY121061AY221061GA1041+009301061GF107991041051008001021001GJ103909IA1019KA1240M+03381KA2240N+01981MA1999999095031MD1210131-0031MW1041REMSYN130AAXX  29061 76393 31510 71206 10262 20187 39503 40084 52013 70422 84520 90550 333 10338 20198 30/// 55065 56350 59003 84631 83460;
0217763930999992012042909004+25733-100300FM-12+051599999V0201101N004010360019N0010001N1+02361+01891100421ADDAY121031AY221031GA1031+005701061GF105991031051004501021001IA1019MA1999999094941MD1710091+0011MW1041REMSYN106AAXX  29091 76393 31410 51104 10236 20189 39494 40042 57009 70422 83520 90850 333 30/// 56350 58001 83619;
0272763930999992012042912004+25733-100300FM-12+051599999V0201101N003010045019N0010001N1+02281+01901100601ADDAA124000091AY121061AY221061GA1081+004501061GF108991081051004501001001IA1019KA1240M+03381KA2120N+02001MA1999999095071MD1210131+0071MW1041REMSYN124AAXX  29121 76393 31410 81103 10228 20190 39507 40060 52013 70422 88500 91150 333 10338 20200 30190 56300 58007 70000 88615;
0217763930999992012042915004+25733-100300FM-12+051599999V0201201N003010042019N0010001N1+02281+01931100861ADDAY121031AY221031GA1081+004201061GF108991081051004501001001IA1019MA1999999095281MD1210211-0151MW1051REMSYN106AAXX  29151 76393 31410 81203 10228 20193 39528 40086 52021 70522 88500 91450 333 30/// 56300 59015 88614;
0255763930999992012042918004+25733-100300FM-12+051599999V0201201N003010048019N0010001N1+02561+01991100911ADDAY121061AY221061GA1081+004801061GF108991081051004501999999IA1019KA1120M+02611KA2240N+02001MA1999999095321MD1210041+0201MW1051REMSYN118AAXX  29181 76393 31410 81203 10256 20199 39532 40091 52004 70522 885// 91750 333 10261 20200 30/// 563// 58020 88616;
0217763930999992012042921004+25733-100300FM-12+051599999V0201201N002010105019N0010001N1+02761+01901100751ADDAY121031AY221031GA1081+010501061GF108991081051012501999999IA1019MA1999999095181MD1710141+0331MW1051REMSYN106AAXX  29211 76393 31610 81202 10276 20190 39518 40075 57014 70522 885// 92050 333 30/// 563// 58033 88635;
0284763930999992012043000004+25733-100300FM-12+051599999V0201401N001010360019N0030001N1+02741+01971100721ADDAA124000091AY121061AY221061GA1021+009601061GF108991021051008001021999IA1019KA1120M+02901KA2180N+02001MA1999999095201MD1210021+0411MW1041REMSYN136AAXX  30001 76393 31530 81401 10274 20197 39520 40072 52002 70422 8252/ 92350 333 10290 20200 30/// 50641 5635/ 58041 70000 82632 86460;
0217763930999992012043003004+25733-100300FM-12+051599999V0201101N001010090019N0030001N1+02701+01961100911ADDAY121031AY221031GA1071+009001061GF107991071051008001999999IA1019MA1999999095381MD1210181+0481MW1041REMSYN106AAXX  30031 76393 31530 71101 10270 20196 39538 40091 52018 70422 875// 90249 333 30/// 565// 58048 87630;
0272763930999992012043012004+25733-100300FM-12+051599999V0201201N003010030019N0010001N1+02261+02001100931ADDAA124000091AY121061AY221061GA1051+003001061GF105991051051004501001001IA1019KA1240M+02901KA2120N+02201MA1999999095361MD1410001+0291MW1041REMSYN124AAXX  30121 76393 31410 51203 10226 20200 39536 40093 54000 70422 85500 91450 333 10290 20220 30210 56300 58029 70000 85610;
0217763930999992012043015004+25733-100300FM-12+051599999V0200601N002010033019N0010001N1+02341+02061101171ADDAY121031AY221031GA1081+003301061GF108991081051004501001001IA1019MA1999999095561MD1210201+0281MW1051REMSYN106AAXX  30151 76393 31410 80602 10234 20206 39556 40117 52020 70522 88500 91450 333 30/// 56300 58028 88611;
0255763930999992012043018004+25733-100300FM-12+051599999V0201201N003010069019N0010001N1+02681+02121101141ADDAY121061AY221061GA1081+006901061GF108991081051008001999999IA1019KA1120M+02761KA2240N+02201MA1999999095531MD1710031+0211MW1041REMSYN118AAXX  30181 76393 31510 81203 10268 20212 39553 40114 57003 70422 885// 91750 333 10276 20220 30/// 563// 58021 88623;
0217763930999992012043021004+25733-100300FM-12+051599999V0201201N003010144019N0020001N1+02961+02031100971ADDAY121031AY221031GA1051+014401061GF105991051051012501001001IA1019MA1999999095401MD1710131+0221MW1041REMSYN106AAXX  30211 76393 31620 51203 10296 20203 39540 40097 57013 70422 85500 92050 333 30/// 56300 58022 85648;
0262763930999992012050100004+25733-100300FM-12+051599999V0201101N001010075019N0030001N1+02761+02061100791ADDAA124000091AY121061AY221061GF107991061051008001031001IA1019KA1120M+03021KA2180N+02201MA1999999095261MD1710141+0061MW1041REMSYN130AAXX  01001 76393 31530 71101 10276 20206 39526 40079 57014 70422 86530 92349 333 10302 20220 30/// 50421 56310 58006 70000 86629;
0217763930999992012050103004+25733-100300FM-12+051599999V0201201N002012200019N0030001N1+02701+01941100771ADDAY121031AY221031GA1041+009301061GF104991041051008001001001IA1019MA1999999095261MD1410001-0121MW1041REMSYN106AAXX  01031 76393 31530 41202 10270 20194 39526 40077 54000 70422 84500 90245 333 30/// 56300 59012 84631;
0172763930999992012050106004+25733-100300FM-12+051599999V0200601N002019999999N0005001N1+02301+02131101151ADDAA106000021AY151061AY251061GF108991999999002501999999MA1999999095601MD1210341+9999MW1501REMSYN072AAXX  01061 76393 01305 80602 10230 20213 39560 40115 52034 69921 75055;
0240763930999992012050109004+25733-100300FM-12+051599999V0200901N00201002101CN0010001N1+02241+02071100971ADDAA103001091AY151031AY221031GA1041+002101071GF107991071061002501999999IA1099MA1999999095411MD1710191+0051MW1501REMSYN118AAXX  01091 76393 21310 70902 10224 20207 39541 40097 57019 75052 876// 90850 333 31/// 56300 58005 60017 84707 83615;
0172763930999992012050112004+25733-100300FM-12+051599999V0201101N001019999999N0005001N1+02161+02071100951ADDAA106001091AY121061AY221061GF108991999999001501999999MA1999999095351MD1710061+9999MW1041REMSYN072AAXX  01121 76393 01205 81101 10216 20207 39535 40095 57006 60011 70422;
0253763930999992012050115004+25733-100300FM-12+051599999V0201201N002010027019N0005001N1+02301+02071101061ADDAA103000091AY121031AY221031GA1081+002701071GF108991081061002501001001IA1019MA1999999095441MD1210091-0121MW1041REMSYN112AAXX  01151 76393 21305 81202 10230 20207 39544 40106 52009 70422 88600 91450 333 30/// 56300 59012 69907 88709;EQDQ01  00002PRCP03
0255763930999992012050118004+25733-100300FM-12+051599999V0201201N003010045019N0020001N1+02461+02091101061ADDAY121061AY221061GA1081+004501061GF108991081051004501999999IA1019KA1120M+02511KA2240N+02101MA1999999095441MD1410001-0091MW1051REMSYN118AAXX  01181 76393 31420 81203 10246 20209 39544 40106 54000 70522 885// 91750 333 10251 20210 30/// 563// 59009 88615;
0223763930999992012050121004+25733-100300FM-12+051599999V0201601N001010081019N0030001N1+02821+02151100841ADDAY121031AY221031GA1051+008101061GF108991051051008001021999IA1019MA1999999095261MD1710181-0141MW1041REMSYN112AAXX  01211 76393 31530 81601 10282 20215 39526 40084 57018 70422 8552/ 92050 333 30/// 5633/ 59014 85627 83460;
0262763930999992012050200004+25733-100300FM-12+051599999V0201201N003010075019N0030001N1+02821+02091100671ADDAA124001491AY121061AY221061GF106991061051008001001001IA1019KA1120M+03021KA2180N+02101MA1999999095131MD1710131-0131MW1051REMSYN130AAXX  02001 76393 31530 61203 10282 20209 39513 40067 57013 70522 86500 92350 333 10302 20210 30/// 50281 56300 59013 70014 86630;
0217763930999992012050203004+25733-100300FM-12+051599999V0201101N004010084019N0010001N1+02721+02041100731ADDAY111031AY211031GA1051+008401061GF105991051051008001001001IA1019MA1999999095201MD1210071-0051MW1051REMSYN106AAXX  02031 76393 31510 51104 10272 20204 39520 40073 52007 70511 85500 90845 333 30/// 56300 59005 85628;
0253763930999992012050206004+25733-100300FM-12+051599999V0201201N005010042019N0010001N1+02421+02081100851ADDAY141061AY221061GF107991071051004501999999GJ100969IA1019KA1240M+03021KA2240N+02101MA1999999095321MD1210121-0281MW1051REMSYN124AAXX  02061 76393 31410 71205 10242 20208 39532 40085 52012 70542 875// 90545 333 10302 20210 30/// 55016 563// 59028 87614;
0191763930999992012050212004+25733-100300FM-12+051599999V0201101N001019999999N0005001N1+02221+01961100841ADDAA106000091AY121061AY221061GF108991999999004501999999MA1999999095261MD1210091+9999MW1041REMSYN072AAXX  02121 76393 01405 81101 10222 20196 39526 40084 52009 69901 70422;EQDQ01  00002PRCP06
0217763930999992012050215004+25733-100300FM-12+051599999V0201101N002010021019N0005001N1+02321+02151101011ADDAY121031AY221031GA1081+002101071GF108991081061002501001001IA1019MA1999999095411MD1210151-0031MW1041REMSYN106AAXX  02151 76393 31305 81102 10232 20215 39541 40101 52015 70422 88600 91450 333 30/// 56300 59003 88707;
0255763930999992012050218004+25733-100300FM-12+051599999V0201201N002010051019N0020001N1+02601+02181101081ADDAY141061AY221061GA1081+005101061GF108991081051004501999999IA1019KA1120M+02641KA2240N+02101MA1999999095471MD1210061+0031MW1051REMSYN118AAXX  02181 76393 31420 81202 10260 20218 39547 40108 52006 70542 885// 91750 333 10264 20210 30/// 563// 58003 88617;
0217763930999992012050221004+25733-100300FM-12+051599999V0201201N002010072019N0020001N1+02721+02131100861ADDAY141031AY221031GA1051+007201061GF105991051051008001001001IA1019MA1999999095291MD1710181+0031MW1041REMSYN106AAXX  02211 76393 31520 51202 10272 20213 39529 40086 57018 70442 85500 92050 333 30/// 56300 58003 85624;
0303763930999992012050300004+25733-100300FM-12+051599999V0203101N001010360019N0030001N1+02711+02071100711ADDAA124999999AY121061AY221061GA1021+007801081GF107991021021008001011081IA1019KA1120M+02901KA2180N+02101MA1999999095171MD1710121+0041MW1041REMSYN136AAXX  03001 76393 31530 73101 10271 20207 39517 40071 57012 70422 82218 92349 333 10290 20210 30/// 50391 56355 58004 79999 82826 84460;EQDQ01  99992PRCP24
0259763930999992012050303004+25733-100300FM-12+051599999V0203201N00101007501CN0020001N1+02601+02091100991ADDAA103000091AY121031AY221031GA1011+006001091GF106991061051008001001001IA1019MA1999999095441MD1210271+0241MW1041REMSYN118AAXX  03031 76393 21520 63201 10260 20209 39544 40099 52027 70422 86500 90249 333 30/// 56300 58024 69907 81920 85621;EQDQ01  00002PRCP03
0297763930999992012050312004+25733-100300FM-12+051599999V0201101N001010021019N0005001N1+02281+02111100991ADDAA124000091AY141061AY241061GA1051+002101071GF108991081061002501999999IA1019KA1240M+02901KA2120N+02201MA1999999095411MD1210111+0151MW1051REMSYN130AAXX  03121 76393 31305 81101 10228 20211 39541 40099 52011 70544 886// 91150 333 10290 20220 30210 563// 58015 79999 85707 83608;EQDQ01  00002PRCP24
0217763930999992012050315004+25733-100300FM-12+051599999V0201101N002010027019N0005001N1+02361+02131101151ADDAY141031AY241031GA1081+002701071GF108991081061002501999999IA1019MA1999999095541MD1210131+0131MW1051REMSYN106AAXX  03151 76393 31305 81102 10236 20213 39554 40115 52013 70544 886// 91450 333 30/// 563// 58013 88709;
0255763930999992012050318004+25733-100300FM-12+051599999V0200601N002010066019N0020001N1+02721+02191101191ADDAY141061AY221061GA1051+006601061GF105991051051008001001001IA1019KA1120M+02841KA2240N+02201MA1999999095591MD1210051+0121MW1041REMSYN118AAXX  03181 76393 31520 50602 10272 20219 39559 40119 52005 70442 85500 91750 333 10284 20220 30/// 56300 58012 85622;
0253763930999992012050321004+25733-100300FM-12+051599999V0200601N001010087019N0020001N1+02721+02011100941ADDAA103000091AY121031AY221031GA1061+008701061GF106991061051008001001001IA1019MA1999999095371MD1710221+0081MW1051REMSYN112AAXX  03211 76393 21520 60601 10272 20201 39537 40094 57022 70522 86500 92050 333 30/// 56300 58008 69907 86629;EQDQ01  00002PRCP03
0298763930999992012050400004+25733-100300FM-12+051599999V0201501N001019999999N0020001N1+02611+02291100891ADDAA103999999AA206001091AY151061AY251061GF107991999999004501999999KA1120M+02921KA2180N+02201MA1999999095331MD1710041+0161MW1131REMSYN142AAXX  04001 76393 01420 71501 10261 20229 39533 40089 57004 69991 713558 74//92348 333 10292 20220 31/// 50241 56500 58016 69907 70 009 87613;EQDQ01  99992PRCP03
0259763930999992012050403004+25733-100300FM-12+051599999V0203401N00101036001CN0010001N1+02531+02001100971ADDAA103000091AY121031AY221031GA1031+006601061GF107991031051008001021999IA1099MA1999999095411MD1210081-0021MW1041REMSYN118AAXX  04031 76393 21510 73401 10253 20200 39541 40097 52008 70422 8352/ 90247 333 31/// 5655/ 59002 69907 83622 84460;EQDQ01  00002PRCP03
0191763930999992012050412004+25733-100300FM-12+051599999V0200601N001019999999N0005001N1+02261+02121101291ADDAA106000091AY121061AY221061GF108991999999001501999999MA1999999095681MD1210161+9999MW1041REMSYN072AAXX  04121 76393 01205 80601 10226 20212 39568 40129 52016 69901 70422;EQDQ01  00002PRCP06
0223763930999992012050415004+25733-100300FM-12+051599999V0200901N002010039019N0005001N1+02501+02161101421ADDAY121031AY221031GA1061+003901061GF108991061051004501011001IA1019MA1999999095801MD1210121+0261MW1041REMSYN112AAXX  04151 76393 31405 80902 10250 20216 39580 40142 52012 70422 86510 91450 333 30/// 56350 58026 86613 82460;
0261763930999992012050418004+25733-100300FM-12+051599999V0201201N00101036001CN0020001N1+03001+02171101281ADDAY121061AY221061GA1021+010201061GF105991021051012501011001IA1019KA1120M+03121KA2240N+02201MA1999999095691MD1710111+0101MW1051REMSYN124AAXX  04181 76393 31620 51201 10300 20217 39569 40128 57011 70522 82510 91750 333 10312 20220 30/// 56350 58010 82634 83460;
0223763930999992012050421004+25733-100300FM-12+051599999V0201101N00301036001CN0040001N1+03021+02071101001ADDAY121031AY221031GA1011+011701061GF107991011051012501021001IA1019MA1999999095451MD1710241+0081MW1051REMSYN112AAXX  04211 76393 31640 71103 10302 20207 39545 40100 57024 70522 81520 92050 333 30/// 56350 58008 81639 86461;
0262763930999992012050500004+25733-100300FM-12+051599999V0200601N001019999999N0030001N1+03011+02011100871ADDAA124000291AY121061AY221061GF108991081001999999031001IA1019KA1120M+03421KA2180N+02201MA1999999095371MD1710081+0041MW1041REMSYN130AAXX  05001 76393 31930 80601 10301 20201 39537 40087 57008 70422 88030 92352 333 10342 20220 30/// 50571 56050 58004 70002 88360;
0217763930999992012050503004+25733-100300FM-12+051599999V0201801N001010105019N0020001N1+02911+02071100941ADDAY121031AY221031GA1071+010501061GF107991071051012501999999IA1019MA1999999095471MD1210101+0061MW1041REMSYN106AAXX  05031 76393 31620 71801 10291 20207 39547 40094 52010 70422 875// 90247 333 30/// 56399 58006 87635;
0191763930999992012050506004+25733-100300FM-12+051599999V0200101N006019999999N0020001N1+02741+02061100861ADDAA106000091AY141061AY221061GF108991999999008001999999MA1999999095381MD1710091+9999MW1051REMSYN072AAXX  05061 76393 01520 80106 10274 20206 39538 40086 57009 69901 70542;EQDQ01  00002PRCP06
0217763930999992012050509004+25733-100300FM-12+051599999V0202901N006010300019N0010001N1+02621+02171100961ADDAY141031AY221031GA1071+030001041GF107991071001999999021999IA1019MA1999999095451MD1210071-0071MW1051REMSYN106AAXX  05091 76393 31910 72906 10262 20217 39545 40096 52007 70542 8702/ 90845 333 30/// 5605/ 59007 87460;
0291763930999992012050512004+25733-100300FM-12+051599999V0200401N001010096019N0010001N1+02581+01791100931ADDAA124000091AY121061AY221061GA1051+009601061GF105991051051008001001001IA1019KA1240M+03421KA2120N+02241MA1999999095411MD1710041-0271MW1041REMSYN124AAXX  05121 76393 31510 50401 10258 20179 39541 40093 57004 70422 85500 91150 333 10342 20224 30212 56300 59027 79999 85632;EQDQ01  00002PRCP24
0217763930999992012050515004+25733-100300FM-12+051599999V0201101N003010300019N0020001N1+02801+01911100951ADDAY121031AY221031GA1051+030001031GF105991051001999999041001IA1019MA1999999095411MD1410001-0391MW1041REMSYN106AAXX  05151 76393 31920 51103 10280 20191 39541 40095 54000 70422 85040 91450 333 30/// 56010 59039 85360;
0255763930999992012050518004+25733-100300FM-12+051599999V0200601N001010093019N0030001N1+03301+01621100881ADDAY141061AY221061GA1061+009301041GF106991061001999999021001IA1019KA1120M+03461KA2240N+02241MA1999999095371MD1710041-0321MW1041REMSYN118AAXX  05181 76393 31930 60601 10330 20162 39537 40088 57004 70442 86020 91750 333 10346 20224 30/// 56010 59032 86431;
0217763930999992012050521004+25733-100300FM-12+051599999V0201201N002010330019N0030001N1+03621+01651100671ADDAY141031AY221031GA1071+033001041GF107991071001999999021001IA1019MA1999999095211MD1710161-0241MW1041REMSYN106AAXX  05211 76393 31930 71202 10362 20165 39521 40067 57016 70442 87020 92050 333 30/// 56050 59024 87461;
0245763930999992012050600004+25733-100300FM-12+051599999V0201101N001019999999N0040001N1+03521+01501100501ADDAY121061AY221061GF106991021001999999031081IA1019KA1120M+03751KA2180N+02241MA1999999095081MD1710131-0291MW1041REMSYN124AAXX  06001 76393 31940 61101 10352 20150 39508 40050 57013 70422 82038 92346 333 10375 20224 30/// 50661 56055 59029 79999;
0191763930999992012050612004+25733-100300FM-12+051599999V0202801N001012200019N0020001N1+02341+01581100701ADDAA106000091AY101061AY201061GF101991999999999999999999MA1999999095811MD1710161+9999MW1041REMSYN072AAXX  06121 76393 11920 12801 10234 20158 39581 40070 57016 69901 70400;EQDQ01  00002PRCP06
0195763930999992012050615004+25733-100300FM-12+051599999V0201101N001012200019N0020001N1+02761+01631100951ADDAY101031AY201031GF101991011001999999031001IA1019MA1999999095391MD1210211-0021MW1051REMSYN100AAXX  06151 76393 31920 11101 10276 20163 39539 40095 52021 70500 81030 91450 333 30/// 56010 59002;
0255763930999992012050618004+25733-100300FM-12+051599999V0200601N001012200019N0030001N1+03441+01421100901ADDAY141061AY201061GA1021+024001061GF102991021041022501001001IA1019KA1120M+03601KA2240N+02241MA1999999095361MD1710031-0011MW1041REMSYN118AAXX  06181 76393 31830 20601 10344 20142 39536 40090 57003 70440 82400 91750 333 10360 20224 30/// 56500 59001 82658;
0217763930999992012050621004+25733-100300FM-12+051599999V0200601N002012200019N0040001N1+03801+01541100621ADDAY141031AY201031GA1031+024001061GF103991031041022501001001IA1019MA1999999095151MD1710211-0061MW1041REMSYN106AAXX  06211 76393 31840 30602 10380 20154 39515 40062 57021 70440 83400 92050 333 30/// 56500 59006 83658;
0262763930999992012050700004+25733-100300FM-12+051599999V0201201N001012200019N0040001N1+03641+01391100471ADDAA124000391AY111061AY211061GF102991021051999999001001IA1019KA1120M+03921KA2180N+02241MA1999999095071MD1710081-0011MW1041REMSYN130AAXX  07001 76393 31940 21201 10364 20139 39507 40047 57008 70411 82500 92349 333 10392 20224 30/// 51021 56500 59001 70003 82658;
0217763930999992012050703004+25733-100300FM-12+051599999V0201201N002012200019N0030001N1+02801+01421100841ADDAY191031AY291031GA1021+018001091GF102991021031017501001001IA1019MA1999999095431MD1210361+0241MW1131REMSYN106AAXX  07031 76393 31730 21202 10280 20142 39543 40084 52036 71399 82300 90248 333 30/// 56200 58024 82956;
0272763930999992012050712004+25733-100300FM-12+051599999V0201101N001010030019N0010001N1+02401+02151100801ADDAA124000091AY121061AY221061GA1081+003001061GF108991081051004501001001IA1019KA1240M+03921KA2120N+02201MA1999999095271MD1210061+0091MW1041REMSYN124AAXX  07121 76393 31410 81101 10240 20215 39527 40080 52006 70422 88500 91150 333 10392 20220 30212 56300 58009 70000 88610;
0195763930999992012050715004+25733-100300FM-12+051599999V0203301N001012200019N0005001N1+02721+02101100881ADDAY101031AY201031GF101991011001999999041001IA1019MA1999999095321MD1210051-0071MW1051REMSYN100AAXX  07151 76393 31905 13301 10272 20210 39532 40088 52005 70500 81040 91450 333 30/// 56010 59007;
0217763930999992012050721004+25733-100300FM-12+051599999V0201201N005012200019N0020001N1+03361+02121100511ADDAY141031AY201031GA1021+015001061GF102991021051017501001001IA1019MA1999999095021MD1710231-0131MW1041REMSYN106AAXX  07211 76393 31720 21205 10336 20212 39502 40051 57023 70440 82500 92050 333 30/// 56500 59013 82650;
0284763930999992012050800004+25733-100300FM-12+051599999V0201201N002010210019N0030001N1+03411+01661100321ADDAA124000091AY121061AY221061GA1011+021001091GF107991061051022501071001IA1019KA1120M+03661KA2180N+02201MA1999999094891MD1710131-0181MW1041REMSYN136AAXX  08001 76393 31830 71202 10341 20166 39489 40032 57013 70422 86570 92349 333 10366 20220 30/// 50671 56350 59018 70000 81957 85656;
0199763930999992012050803004+25733-100300FM-12+051599999V0200501N001012200019N0020001N1+02761+01401100461ADDAY141031AY241031GA1001+999999999GF100991001001999999001001IA1019MA1999999095041MD1210151-0391MW1041REMSYN088AAXX  08031 76393 31920 00501 10276 20140 39504 40046 52015 70444 90249 333 30/// 59039;
0172763930999992012050812004+25733-100300FM-12+051599999V0201101N002019999999N0005001N1+02301+02191100791ADDAA106000891AY151061AY251061GF108991999999001501999999MA1999999095241MD1210091+9999MW1501REMSYN072AAXX  08121 76393 01205 81102 10230 20219 39524 40079 52009 69971 75055;
0234763930999992012050815004+25733-100300FM-12+051599999V0201101N003010006019N0005001N1+02321+02261100931ADDAA103004091AY151031AY251031GA1071+000601071GF107991071061000751001001IA1119MA1999999095341MD1210101+0021MW1501REMSYN112AAXX  08151 76393 21105 71103 10232 20226 39534 40093 52010 75055 87600 91450 333 32/// 56300 58002 60047 87702;
0172763930999992012050818004+25733-100300FM-12+051599999V0201101N003012200019N0010001N1+02941+02201100861ADDAA106004191AY141061AY201061GF103991999999008001999999MA1999999095281MD1710061+9999MW1041REMSYN072AAXX  08181 76393 11510 31103 10294 20220 39528 40086 57006 60041 70440;
0217763930999992012050821004+25733-100300FM-12+051599999V0201201N004010141019N0020001N1+03241+02101100611ADDAY141031AY221031GA1061+014101061GF106991061051012501001001IA1019MA1999999095081MD1710201+0061MW1041REMSYN106AAXX  08211 76393 31620 61204 10324 20210 39508 40061 57020 70442 86500 92050 333 30/// 56500 58006 86647;
0268763930999992012050900004+25733-100300FM-12+051599999V0200601N003010042019N0040001N1+02301+01861100901ADDAA124005091AY121061AY221061GF108991081051004501999999IA1019KA1120M+03341KA2180N+02201MA1999999095371MD1210291+0481MW1041REMSYN136AAXX  09001 76393 31440 80603 10230 20186 39537 40090 52029 70422 885// 92350 333 10334 20220 30/// 50861 54219 565// 58048 70050 88618;
0217763930999992012050903004+25733-100300FM-12+051599999V0203601N002010051019N0020001N1+02201+01781101171ADDAY121031AY221031GA1081+005101061GF108991081051004501999999IA1019MA1999999095631MD1210261+0591MW1041REMSYN106AAXX  09031 76393 31420 83602 10220 20178 39563 40117 52026 70422 885// 90250 333 30/// 561// 58059 88617;
0172763930999992012050912004+25733-100300FM-12+051599999V0203501N003019999999N0005001N1+01801+01741101361ADDAA106007991AY151061AY251061GF108991999999000751999999MA1999999095681MD1210011+9999MW1501REMSYN072AAXX  09121 76393 01105 83503 10180 20174 39568 40136 52001 60081 75055;
0234763930999992012050915004+25733-100300FM-12+051599999V0200101N001010009019N0005001N1+01881+01791101641ADDAA103001091AY151031AY251031GA1081+000901071GF108991081061001501001001IA1119MA1999999095931MD1210251+0591MW1501REMSYN112AAXX  09151 76393 21205 80101 10188 20179 39593 40164 52025 75055 88600 91450 333 32/// 56300 58059 60017 88703;
0172763930999992012050918004+25733-100300FM-12+051599999V0200301N002019999999N0005001N1+01881+01821101581ADDAA106004191AY151061AY251061GF108991999999000751999999MA1999999095861MD1710071+9999MW1501REMSYN072AAXX  09181 76393 01105 80302 10188 20182 39586 40158 57007 60041 75055;
0234763930999992012050921004+25733-100300FM-12+051599999V0200501N001010015019N0008001N1+02001+01881101331ADDAA103000491AY121031AY221031GA1081+001501071GF108991081061001501999999IA1099MA1999999095631MD1710231+0551MW1051REMSYN112AAXX  09211 76393 21208 80501 10200 20188 39563 40133 57023 70522 886// 92050 333 31/// 563// 58055 69947 88705;
0172763930999992012051000004+25733-100300FM-12+051599999V0200601N001019999999N0005001N1+02001+01941101191ADDAA106002091AY151061AY251061GF108991999999000751999999MA1999999095501MD1710131+9999MW1501REMSYN072AAXX  10001 76393 01105 80601 10200 20194 39550 40119 57013 60021 75055;
0234763930999992012051003004+25733-100300FM-12+051599999V0200701N001010009019N0004001N1+01991+01921101151ADDAA103000391AY151031AY251031GA1081+000901061GF108991081051000751999999IA1099MA1999999095481MD1710021-0151MW1501REMSYN112AAXX  10031 76393 21104 80701 10199 20192 39548 40115 57002 75055 885// 90247 333 31/// 563// 59015 69937 88603;
0172763930999992012051006004+25733-100300FM-12+051599999V0200601N006019999999N0002001N1+01991+01921101151ADDAA106000391AY151061AY251061GF108991999999000751999999MA1999999095481MD1410001+9999MW1501REMSYN072AAXX  10061 76393 01102 80606 10199 20192 39548 40115 54000 69931 75055;
0234763930999992012051009004+25733-100300FM-12+051599999V0201201N005010006019N0002001N1+01961+01901100951ADDAA103000291AY151031AY251031GA1081+000601071GF108991081061000751999999IA1099MA1999999095291MD1710191-0401MW1501REMSYN112AAXX  10091 76393 21102 81205 10196 20190 39529 40095 57019 75055 886// 90850 333 31/// 563// 59040 69927 88702;
0172763930999992012051012004+25733-100300FM-12+051599999V0200801N001019999999N0002001N1+02001+01941100961ADDAA106000591AY151061AY251061GF108991999999000751999999MA1999999095291MD1410001+9999MW1501REMSYN072AAXX  10121 76393 01102 80801 10200 20194 39529 40096 54000 69941 75055;
0234763930999992012051015004+25733-100300FM-12+051599999V0201201N002010012019N0005001N1+02121+02031101011ADDAA103000491AY151031AY251031GA1081+001201071GF108991081061001501999999IA1099MA1999999095351MD1210061-0581MW1501REMSYN112AAXX  10151 76393 21205 81202 10212 20203 39535 40101 52006 75055 886// 91450 333 31/// 563// 59058 69947 88704;
0172763930999992012051018004+25733-100300FM-12+051599999V0201201N003019999999N0010001N1+02541+02091100811ADDAA106000591AY121061AY221061GF106991999999004501999999MA1999999095181MD1710171+9999MW1051REMSYN072AAXX  10181 76393 11410 61203 10254 20209 39518 40081 57017 69941 70522;
0217763930999992012051021004+25733-100300FM-12+051599999V0201201N005012200019N0030001N1+03001+02081100441ADDAY141031AY201031GA1011+011401061GF101991011051012501001001IA1019MA1999999094871MD1710311-0761MW1041REMSYN106AAXX  10211 76393 31630 11205 10300 20208 39487 40044 57031 70440 81500 92050 333 30/// 56300 59076 81638;
0262763930999992012051100004+25733-100300FM-12+051599999V0201201N002012200019N0040001N1+02941+02041100201ADDAA124001391AY141061AY241061GF102991011021012501031001IA1019KA1120M+03111KA2180N+01881MA1999999094681MD1710191-0821MW1041REMSYN130AAXX  11001 76393 31640 21202 10294 20204 39468 40020 57019 70444 81230 92348 333 10311 20188 30/// 50431 56250 59082 70013 81834;
0217763930999992012051103004+25733-100300FM-12+051599999V0200401N001012200019N0030001N1+02701+02021100341ADDAY141031AY241031GA1011+008401061GF101991011051008001001001IA1019MA1999999094851MD1210171-0621MW1041REMSYN106AAXX  11031 76393 31530 10401 10270 20202 39485 40034 52017 70444 81500 90252 333 30/// 56300 59062 81628;
0254763930999992012051112004+25733-100300FM-12+051599999V0202701N001012200019N0020001N1+02181+01761100751ADDAA124000591AY101061AY201061GA1001+999999999GF100991001001999999001001IA1019KA1240M+03111KA2120N+01901MA1999999095171MD1410001-0121MW1041REMSYN106AAXX  11121 76393 31920 02701 10218 20176 39517 40075 54000 70400 91150 333 10311 20190 30180 59012 70004;
0199763930999992012051115004+25733-100300FM-12+051599999V0200301N001012200019N0020001N1+02581+01851100971ADDAY101031AY201031GA1001+999999999GF100991001001999999001001IA1019MA1999999095371MD1210201+0021MW1051REMSYN088AAXX  11151 76393 31920 00301 10258 20185 39537 40097 52020 70500 91450 333 30/// 58002;
0255763930999992012051118004+25733-100300FM-12+051599999V0201201N002012200019N0030001N1+03081+01911100921ADDAY101061AY201061GA1021+014401061GF102991021041012501001001IA1019KA1120M+03281KA2240N+01901MA1999999095341MD1710031+0161MW1051REMSYN118AAXX  11181 76393 31630 21202 10308 20191 39534 40092 57003 70500 82400 91750 333 10328 20190 30/// 56500 58016 82648;
0217763930999992012051121004+25733-100300FM-12+051599999V0201201N003012200019N0040001N1+03361+01781100741ADDAY111031AY211031GA1041+018001061GF104991041041017501001001IA1019MA1999999095221MD1710121+0351MW1051REMSYN106AAXX  11211 76393 31740 41203 10336 20178 39522 40074 57012 70511 84400 92050 333 30/// 56500 58035 84656;
0262763930999992012051200004+25733-100300FM-12+051599999V0201201N002012200019N0050001N1+03111+01631100761ADDAA124000091AY111061AY211061GF103991021021017501031001IA1019KA1120M+03521KA2180N+01901MA1999999095291MD1210071+0611MW1041REMSYN130AAXX  12001 76393 31750 31202 10311 20163 39529 40076 52007 70411 82230 92350 333 10352 20190 30/// 50731 56550 58061 70000 82856;
0171763930999992012051203004+25733-100300FM-12+051599999V0201101N001012200019N0030001N1+02861+01711100941ADDGA1001+999999999GF100991001001999999001001IA1019MA1999999095471MD1210181+0621REMSYN082AAXX  12031 76393 32930 01101 10286 20171 39547 40094 52018 90252 333 30/// 58062;
0253763930999992012051206004+25733-100300FM-12+051599999V0201301N003012200019N0020001N1+02621+01991101151ADDAY111061AY211061GF104991041051008001001001GJ106789IA1019KA1240M+03521KA2240N+01901MA1999999095661MD1210191+0551MW1041REMSYN124AAXX  12061 76393 31520 41303 10262 20199 39566 40115 52019 70411 84500 90545 333 10352 20190 30/// 55113 56500 58055 84626;
0199763930999992012051209004+25733-100300FM-12+051599999V0201101N003012200019N0010001N1+02401+02151101231ADDAY141031AY241031GA1001+999999999GF100991001001999999001001IA1019MA1999999095701MD1210041+0531MW1051REMSYN088AAXX  12091 76393 31910 01103 10240 20215 39570 40123 52004 70544 90845 333 30/// 58053;
0272763930999992012051212004+25733-100300FM-12+051599999V0200401N003010072019N0030001N1+02341+01751101581ADDAA124000091AY121061AY221061GA1071+007201061GF107991071051008001001001IA1019KA1240M+03521KA2120N+02201MA1999999095991MD1210291+0821MW1041REMSYN124AAXX  12121 76393 31530 70403 10234 20175 39599 40158 52029 70422 87500 91150 333 10352 20220 30210 56300 58082 70000 87624;
0199763930999992012051215004+25733-100300FM-12+051599999V0201901N001012200019N0050001N1+02601+01781101751ADDAY101031AY201031GA1001+999999999GF100991001001999999001001IA1019MA1999999096131MD1210141+0761MW1041REMSYN088AAXX  12151 76393 31950 01901 10260 20178 39613 40175 52014 70400 91450 333 30/// 58076;
0255763930999992012051218004+25733-100300FM-12+051599999V0200601N001012200019N0040001N1+03161+01801101581ADDAY101061AY201061GA1021+018001061GF102991021041017501001001IA1019KA1120M+03281KA2240N+02201MA1999999095981MD1710151+0641MW1041REMSYN118AAXX  12181 76393 31740 20601 10316 20180 39598 40158 57015 70400 82400 91750 333 10328 20220 30/// 56500 58064 82656;
0189763930999992012051221004+25733-100300FM-12+051599999V0201201N003010210019N0060001N1+03501+01701101291ADDGA1061+021001061GF106991061051022501001001IA1019MA1999999095751MD1710231+0531REMSYN100AAXX  12211 76393 32856 61203 10350 20170 39575 40129 57023 86500 92050 333 30/// 56300 58053 86657;
0262763930999992012051300004+25733-100300FM-12+051599999V0201601N001010150019N0040001N1+03171+01661101271ADDAA124000091AY121061AY221061GF107991061021017501021001IA1019KA1120M+03541KA2180N+02201MA1999999095781MD1210031+0491MW1041REMSYN130AAXX  13001 76393 31740 71601 10317 20166 39578 40127 52003 70422 86220 92352 333 10354 20220 30/// 50991 56350 58049 70000 86856;
0272763930999992012051312004+25733-100300FM-12+051599999V0202301N001010048019N0020001N1+02081+01691101951ADDAA124008491AY121061AY221061GA1051+004801061GF105991051051004501001001IA1019KA1240M+03541KA2120N+01901MA1999999096271MD1210151+0281MW1041REMSYN124AAXX  13121 76393 31420 52301 10208 20169 39627 40195 52015 70422 85500 91150 333 10354 20190 30182 56300 58028 70084 85616;
0217763930999992012051315004+25733-100300FM-12+051599999V0200501N001010042019N0020001N1+02161+01801102131ADDAY121031AY221031GA1071+004201061GF107991071051004501001001IA1019MA1999999096411MD1210141+0281MW1041REMSYN106AAXX  13151 76393 31420 70501 10216 20180 39641 40213 52014 70422 87500 91450 333 30/// 56100 58028 87614;
0255763930999992012051318004+25733-100300FM-12+051599999V0201201N003012200019N0030001N1+02701+01861102031ADDAY101061AY201061GA1041+010501061GF104991041041012501001001IA1019KA1120M+02781KA2240N+01901MA1999999096341MD1710071+0361MW1041REMSYN118AAXX  13181 76393 31630 41203 10270 20186 39634 40203 57007 70400 84400 91750 333 10278 20190 30/// 56300 58036 84635;
0189763930999992012051321004+25733-100300FM-12+051599999V0201201N005012200019N0050001N1+02901+01831101681ADDGA1031+013201081GF103991031021012501001001IA1019MA1999999096051MD1710291+0301REMSYN100AAXX  13211 76393 32650 31205 10290 20183 39605 40168 57029 83200 92050 333 30/// 56300 58030 83844;
0262763930999992012051400004+25733-100300FM-12+051599999V0201201N001012200019N0050001N1+02841+01761101511ADDAA124008491AY101061AY201061GF103991031021012501001001IA1019KA1120M+03091KA2180N+01901MA1999999095931MD1710121+0151MW1041REMSYN130AAXX  14001 76393 31650 31201 10284 20176 39593 40151 57012 70400 83200 92352 333 10309 20190 30/// 50861 56300 58015 70084 83835;
0217763930999992012051403004+25733-100300FM-12+051599999V0201201N001012200019N0030001N1+02641+01691101531ADDAY141031AY241031GA1021+010801061GF102991021051012501001001IA1019MA1999999095981MD1210051-0271MW1041REMSYN106AAXX  14031 76393 31630 21201 10264 20169 39598 40153 52005 70444 82500 90249 333 30/// 56300 59027 82636;
0272763930999992012051412004+25733-100300FM-12+051599999V0200601N002010018019N0010001N1+02121+01981101651ADDAA124000091AY121061AY221061GA1081+001801071GF108991081061001501999999IA1019KA1240M+03091KA2120N+02101MA1999999096031MD1210121-0241MW1051REMSYN124AAXX  14121 76393 31210 80602 10212 20198 39603 40165 52012 70522 886// 91150 333 10309 20210 30204 563// 59024 70000 88706;
0234763930999992012051415004+25733-100300FM-12+051599999V0200601N001010027019N0020001N1+02241+02011101801ADDAA103000021AY151031AY221031GA1081+002701071GF108991081061002501999999IA1099MA1999999096141MD1210111-0271MW1501REMSYN112AAXX  14151 76393 21320 80601 10224 20201 39614 40180 52011 75052 886// 91450 333 31/// 563// 59027 69907 88709;
0172763930999992012051418004+25733-100300FM-12+051599999V0201201N005012200019N0050001N1+02521+01881101681ADDAA106000021AY101061AY201061GF103991999999008001999999MA1999999096021MD1710121+9999MW1041REMSYN072AAXX  14181 76393 01550 31205 10252 20188 39602 40168 57012 69911 70400;
0217763930999992012051421004+25733-100300FM-12+051599999V0201101N005010105019N0050001N1+02701+01831101261ADDAY121031AY221031GA1051+010501061GF105991051051012501001001IA1019MA1999999095641MD1710381-0411MW1041REMSYN106AAXX  14211 76393 31650 51105 10270 20183 39564 40126 57038 70422 85500 92050 333 30/// 56300 59041 85635;
0262763930999992012051500004+25733-100300FM-12+051599999V0201601N002010120019N0050001N1+02781+01821101041ADDAA124000191AY121061AY221061GF105991051041012501001001IA1019KA1120M+02981KA2180N+02101MA1999999095471MD1710171-0461MW1041REMSYN130AAXX  15001 76393 31650 51602 10278 20182 39547 40104 57017 70422 85400 92352 333 10298 20210 30/// 50561 56300 59046 70001 85636;
0172763930999992012051512004+25733-100300FM-12+051599999V0200201N002019999999N0010001N1+01801+01621101611ADDAA106000591AY151061AY221061GF108991999999002501999999MA1999999095951MD1210121+9999MW1511REMSYN072AAXX  15121 76393 01310 80202 10180 20162 39595 40161 52012 69951 75152;
0234763930999992012051515004+25733-100300FM-12+051599999V0200401N001010045019N0030001N1+02021+01651101711ADDAA103002091AY121031AY221031GA1071+004501061GF107991071051004501001001IA1099MA1999999096011MD1210061-0131MW1051REMSYN112AAXX  15151 76393 21430 70401 10202 20165 39601 40171 52006 70522 87500 91450 333 31/// 56300 59013 60027 87615;
0172763930999992012051518004+25733-100300FM-12+051599999V0202901N001019999999N0001001N1+02361+01701101701ADDAA106002091AY121061AY221061GF105991999999008001999999MA1999999096001MD1710011+9999MW1051REMSYN072AAXX  15181 76393 11501 52901 10236 20170 39600 40170 57001 60021 70522;
0217763930999992012051521004+25733-100300FM-12+051599999V0201101N001010105019N0050001N1+02361+01501101551ADDAY121031AY221031GA1081+010501061GF108991081051012501001001IA1019MA1999999095871MD1710131+0231MW1041REMSYN106AAXX  15211 76393 31650 81101 10236 20150 39587 40155 57013 70422 88500 92050 333 30/// 56300 58023 88635;
0262763930999992012051600004+25733-100300FM-12+051599999V0202301N001010075019N0040001N1+02461+01721101471ADDAA124004391AY121061AY221061GF108991081051008001999999IA1019KA1120M+02621KA2180N+01761MA1999999095821MD1710051+0351MW1041REMSYN130AAXX  16001 76393 31540 82301 10246 20172 39582 40147 57005 70422 885// 92350 333 10262 20176 30/// 50291 563// 58035 70043 88630;
0226763930999992012051612004+25733-100300FM-12+051599999V0202701N001012200019N0020001N1+02001+01571101731ADDAA124001891GA1001+999999999GF100991001001999999001001IA1019KA1240M+02621KA2120N+01801MA1999999096061MD1410001+0111REMSYN100AAXX  16121 76393 32920 02701 10200 20157 39606 40173 54000 91150 333 10262 20180 30170 58011 70017;
0217763930999992012051615004+25733-100300FM-12+051599999V0203401N001012200019N0030001N1+02461+01441101861ADDAY101031AY201031GA1011+014101061GF101991011041012501001001IA1019MA1999999096181MD1210121+0171MW1041REMSYN106AAXX  16151 76393 31630 13401 10246 20144 39618 40186 52012 70400 81400 91450 333 30/// 56500 58017 81647;
0234763930999992012051700004+25733-100300FM-12+051599999V0201101N001012200019N0050001N1+03021+01281101241ADDAA124000091GF103991031051022501001001IA1019KA1120M+03371KA2180N+01801MA1999999095691MD1710081-0131REMSYN124AAXX  17001 76393 32850 31101 10302 20128 39569 40124 57008 83500 92350 333 10337 20180 30/// 50611 56300 59013 70000 83657;
0217763930999992012051703004+25733-100300FM-12+051599999V0201301N001012200019N0040001N1+02641+01061101411ADDAY141031AY241031GA1021+021001061GF102991021051017501001001IA1019MA1999999095881MD1210191-0141MW1041REMSYN106AAXX  17031 76393 31740 21301 10264 20106 39588 40141 52019 70444 82500 90250 333 30/// 56300 59014 82657;
0245763930999992012051712004+25733-100300FM-12+051599999V0209999C000012200019N0020001N1+02001+01571101541ADDAA124000091GA1001+999999999GF100991001001999999001001IA1019KA1240M+03371KA2120N+01901MA1999999095911MD1210011-0151REMSYN100AAXX  17121 76393 32920 00000 10200 20157 39591 40154 52001 91150 333 10337 20190 30180 59015 70000;EQDQ01  00002PRCP24
0217763930999992012051715004+25733-100300FM-12+051599999V0200501N001012200019N0030001N1+02421+01671101661ADDAY101031AY201031GA1011+009301061GF101991011041008001001001IA1019MA1999999096001MD1210091-0181MW1041REMSYN106AAXX  17151 76393 31530 10501 10242 20167 39600 40166 52009 70400 81400 91450 333 30/// 56500 59018 81631;
0255763930999992012051718004+25733-100300FM-12+051599999V0200901N003012200019N0050001N1+02801+01301101491ADDAY101061AY201061GA1011+018001061GF101991011041017501001001IA1019KA1120M+03061KA2240N+01901MA1999999095861MD1710141-0151MW1051REMSYN118AAXX  17181 76393 31750 10903 10280 20130 39586 40149 57014 70500 81400 91750 333 10306 20190 30/// 56500 59015 81656;
0217763930999992012051721004+25733-100300FM-12+051599999V0201101N002012200019N0050001N1+03121+01421101161ADDAY101031AY201031GA1011+018001061GF101991011041022501001001IA1019MA1999999095591MD1710271-0181MW1051REMSYN106AAXX  17211 76393 31850 11102 10312 20142 39559 40116 57027 70500 81400 92050 333 30/// 56500 59018 81656;
0245763930999992012051800004+25733-100300FM-12+051599999V0201201N002012200019N0040001N1+03171+01331100901ADDAY141061AY241061GF102991011001999999021021IA1019KA1120M+03351KA2180N+01901MA1999999095461MD1710131-0231MW1041REMSYN124AAXX  18001 76393 31940 21202 10317 20133 39546 40090 57013 70444 81022 92352 333 10335 20190 30/// 51161 56055 59023 70000;
0273763930999992012051812004+25733-100300FM-12+051599999V0209999C000012200019N0020001N1+01981+01681101131ADDAA124000091AY141061AY241061GA1001+999999999GF100991001001999999001001IA1019KA1240M+03351KA2120N+01921MA1999999095521MD1710031-0391MW1041REMSYN106AAXX  18121 76393 31920 00000 10198 20168 39552 40113 57003 70444 91150 333 10335 20192 30180 59039 70000;EQDQ01  00002PRCP24
0199763930999992012051815004+25733-100300FM-12+051599999V0201201N001012200019N0020001N1+02441+01791101281ADDAY141031AY241031GA1001+999999999GF100991001001999999001001IA1019MA1999999095641MD1210121-0361MW1041REMSYN088AAXX  18151 76393 31920 01201 10244 20179 39564 40128 52012 70444 91450 333 30/// 59036;
0209763930999992012051818004+25733-100300FM-12+051599999V0201101N001012200019N0040001N1+02961+01691101191ADDGA1001+999999999GF100991001001999999001001IA1019KA1120M+03101KA2240N+01921MA1999999095571MD1710071-0291REMSYN094AAXX  18181 76393 32940 01101 10296 20169 39557 40119 57007 91750 333 10310 20192 30/// 59029;
0171763930999992012051821004+25733-100300FM-12+051599999V0201201N006012200019N0050001N1+03241+01761100881ADDGA1001+999999999GF100991001001999999001001IA1019MA1999999095321MD1710251-0271REMSYN082AAXX  18211 76393 32950 01206 10324 20176 39532 40088 57025 92050 333 30/// 59027;
0251763930999992012051900004+25733-100300FM-12+051599999V0201201N002012200019N0050001N1+03211+01581100671ADDAA124000091GA1001+999999999GF100991001001999999001001IA1019KA1120M+03391KA2180N+01921MA1999999095181MD1710141-0281REMSYN106AAXX  19001 76393 32950 01202 10321 20158 39518 40067 57014 92350 333 10339 20192 30/// 50701 59028 70000;EQDQ01  00002PRCP24
0171763930999992012051903004+25733-100300FM-12+051599999V0201201N003012200019N0040001N1+02821+01591100791ADDGA1001+999999999GF100991001001999999001001IA1019MA1999999095321MD1210141-0251REMSYN082AAXX  19031 76393 32940 01203 10282 20159 39532 40079 52014 90252 333 30/// 59025;
0223763930999992012051906004+25733-100300FM-12+051599999V0201201N005012200019N0030001N1+02381+01731100911ADDGA1001+999999999GF100991001001999999001001GJ106969IA1019KA1240M+03391KA2240N+01921MA1999999095421MD1210101-0211REMSYN100AAXX  19061 76393 32930 01205 10238 20173 39542 40091 52010 90545 333 10339 20192 30/// 55116 59021;
0217763930999992012051909004+25733-100300FM-12+051599999V0201101N003012200019N0010001N1+02141+01781100861ADDAY101031AY201031GA1031+004501061GF103991031051004501001001IA1019MA1999999095331MD1710091-0221MW1031REMSYN106AAXX  19091 76393 31410 31103 10214 20178 39533 40086 57009 70300 83500 90843 333 30/// 56300 59022 83615;
0272763930999992012051912004+25733-100300FM-12+051599999V0201101N001010039019N0020001N1+02181+01861100951ADDAA124000091AY121061AY221061GA1081+003901061GF108991081051004501001001IA1019KA1240M+03391KA2120N+02001MA1999999095371MD1210041-0151MW1051REMSYN124AAXX  19121 76393 31420 81101 10218 20186 39537 40095 52004 70522 88500 91150 333 10339 20200 30194 56300 59015 70000 88613;
0217763930999992012051915004+25733-100300FM-12+051599999V0201101N001010057019N0010001N1+02341+01871101171ADDAY121031AY221031GA1051+005701061GF105991051051004501001001IA1019MA1999999095551MD1210181-0091MW1051REMSYN106AAXX  19151 76393 31410 51101 10234 20187 39555 40117 52018 70522 85500 91450 333 30/// 56300 59009 85619;
0255763930999992012051918004+25733-100300FM-12+051599999V0201201N005012200019N0030001N1+02901+01961101101ADDAY141061AY241061GA1011+011701061GF101991011041012501001001IA1019KA1120M+03061KA2240N+02001MA1999999095491MD1710061-0081MW1041REMSYN118AAXX  19181 76393 31630 11205 10290 20196 39549 40110 57006 70444 81400 91750 333 10306 20200 30/// 56300 59008 81639;
0199763930999992012051921004+25733-100300FM-12+051599999V0201201N005012200019N0030001N1+03201+01851100841ADDAY141031AY241031GA1001+999999999GF100991001001999999001001IA1019MA1999999095291MD1710201-0031MW1041REMSYN088AAXX  19211 76393 31930 01205 10320 20185 39529 40084 57020 70444 92050 333 30/// 59003;
0251763930999992012052000004+25733-100300FM-12+051599999V0201201N002012200019N0050001N1+03201+01571100741ADDAA124000091GA1001+999999999GF100991001001999999001001IA1019KA1120M+03381KA2180N+02001MA1999999095231MD1710061+0051REMSYN106AAXX  20001 76393 32950 01202 10320 20157 39523 40074 57006 92349 333 10338 20200 30/// 51051 58005 70000;EQDQ01  00002PRCP24
0272763930999992012052012004+25733-100300FM-12+051599999V0201201N003010042019N0010001N1+02141+01811101181ADDAA124000091AY121061AY221061GA1071+004201061GF107991071051004501001001IA1019KA1240M+03381KA2120N+02101MA1999999095591MD1210051+0221MW1051REMSYN124AAXX  20121 76393 31410 71203 10214 20181 39559 40118 52005 70522 87500 91150 333 10338 20210 30206 56300 58022 70000 87614;
0217763930999992012052015004+25733-100300FM-12+051599999V0200601N002010060019N0020001N1+02341+01841101451ADDAY121031AY221031GA1071+006001061GF107991071051008001001001IA1019MA1999999095821MD1210231+0271MW1051REMSYN106AAXX  20151 76393 31520 70602 10234 20184 39582 40145 52023 70522 87500 91450 333 30/// 56300 58027 87620;
0237763930999992012052018004+25733-100300FM-12+051599999V0201101N003012200019N0020001N1+02901+01661101451ADDAY101061AY201061GA1001+999999999GF100991001001999999001001IA1019KA1120M+03041KA2240N+02101MA1999999095821MD1410001+0331MW1051REMSYN100AAXX  20181 76393 31920 01103 10290 20166 39582 40145 54000 70500 91750 333 10304 20210 30/// 58033;
0217763930999992012052021004+25733-100300FM-12+051599999V0201201N003012200019N0020001N1+03141+01671101301ADDAY101031AY201031GA1021+018001061GF102991021051017501001001IA1019MA1999999095721MD1710101+0431MW1051REMSYN106AAXX  20211 76393 31720 21203 10314 20167 39572 40130 57010 70500 82500 92050 333 30/// 56300 58043 82656;
0262763930999992012052100004+25733-100300FM-12+051599999V0201301N001012200019N0040001N1+03171+01331101221ADDAA124000091AY141061AY241061GF102991021051022501001001IA1019KA1120M+03361KA2180N+02101MA1999999095701MD1710021+0471MW1041REMSYN130AAXX  21001 76393 31840 21301 10317 20133 39570 40122 57002 70444 82500 92350 333 10336 20210 30/// 51151 56300 58047 70000 82658;
0199763930999992012052103004+25733-100300FM-12+051599999V0201201N002012200019N0030001N1+02801+01361101391ADDAY141031AY241031GA1001+999999999GF100991001001999999001001IA1019MA1999999095871MD1210171+0421MW1041REMSYN088AAXX  21031 76393 31930 01202 10280 20136 39587 40139 52017 70444 90248 333 30/// 58042;
0272763930999992012052112004+25733-100300FM-12+051599999V0200601N001012200019N0020001N1+02161+01931101691ADDAA124000091AY101061AY201061GA1031+003001061GF103991031051002501001001IA1019KA1240M+03361KA2120N+02101MA1999999096071MD1210041+0481MW1041REMSYN124AAXX  21121 76393 31320 30601 10216 20193 39607 40169 52004 70400 83500 91150 333 10336 20210 30206 56300 58048 70000 83610;
0217763930999992012052115004+25733-100300FM-12+051599999V0200601N001010036019N0030001N1+02361+01931101891ADDAY121031AY221031GA1061+003601061GF106991061051004501001001IA1019MA1999999096231MD1210161+0411MW1041REMSYN106AAXX  21151 76393 31430 60601 10236 20193 39623 40189 52016 70422 86500 91450 333 30/// 56300 58041 86612;
0255763930999992012052118004+25733-100300FM-12+051599999V0201101N004012200019N0050001N1+02881+01841101821ADDAY101061AY201061GA1031+012601061GF103991031041012501001001IA1019KA1120M+03021KA2240N+02101MA1999999096181MD1710051+0361MW1041REMSYN118AAXX  21181 76393 31650 31104 10288 20184 39618 40182 57005 70400 83400 91750 333 10302 20210 30/// 56300 58036 83642;
0217763930999992012052121004+25733-100300FM-12+051599999V0201201N005012200019N0050001N1+03201+01681101601ADDAY101031AY201031GA1021+018001061GF102991021041017501001001IA1019MA1999999096011MD1710171+0291MW1041REMSYN106AAXX  21211 76393 31750 21205 10320 20168 39601 40160 57017 70400 82400 92050 333 30/// 56300 58029 82656;
0234763930999992012052200004+25733-100300FM-12+051599999V0201301N001012200019N0050001N1+03241+01541101411ADDAA124000091GF101991011051022501001001IA1019KA1120M+03381KA2180N+02101MA1999999095871MD1710141+0171REMSYN124AAXX  22001 76393 32850 11301 10324 20154 39587 40141 57014 81500 92352 333 10338 20210 30/// 50971 56500 58017 70000 81658;
0199763930999992012052203004+25733-100300FM-12+051599999V0201301N002012200019N0040001N1+02861+01481101491ADDAY141031AY241031GA1001+999999999GF100991001001999999001001IA1019MA1999999095981MD1210111+0111MW1041REMSYN088AAXX  22031 76393 31940 01302 10286 20148 39598 40149 52011 70444 90249 333 30/// 58011;
0273763930999992012052212004+25733-100300FM-12+051599999V0209999C000012200019N0020001N1+02141+01811101531ADDAA124000091AY141061AY241061GA1001+999999999GF100991001001999999001001IA1019KA1240M+03381KA2120N+02101MA1999999095931MD1410001-0141MW1041REMSYN106AAXX  22121 76393 31920 00000 10214 20181 39593 40153 54000 70444 91150 333 10338 20210 30206 59014 70000;EQDQ01  00002PRCP24
0217763930999992012052215004+25733-100300FM-12+051599999V0203401N002012200019N0020001N1+02581+01921101571ADDAY141031AY201031GA1011+007801081GF101991011011008001001001IA1019MA1999999095951MD1210021-0281MW1041REMSYN106AAXX  22151 76393 31520 13402 10258 20192 39595 40157 52002 70440 81100 91450 333 30/// 56300 59028 81826;
0237763930999992012052218004+25733-100300FM-12+051599999V0201101N003012200019N0030001N1+03121+01791101381ADDAY101061AY201061GA1001+999999999GF100991001001999999001001IA1019KA1120M+03281KA2240N+02101MA1999999095781MD1210171-0401MW1051REMSYN100AAXX  22181 76393 31930 01103 10312 20179 39578 40138 52017 70500 91750 333 10328 20210 30/// 59040;
0211763930999992012052221004+25733-100300FM-12+051599999V0201101N003012200019N0040001N1+03401+01791100991ADDAY101031AY201031GA1011+018001081GF101991011011017501001001IA1019MA1999999095451MD1710331-0561MW1041REMSYN100AAXX  22211 76393 31740 11103 10340 20179 39545 40099 57033 70400 81100 333 30/// 56500 59056 81856;
0251763930999992012052300004+25733-100300FM-12+051599999V0201201N004012200019N0050001N1+03401+01651100751ADDAA124000091GA1001+999999999GF100991001001999999001001IA1019KA1120M+03611KA2180N+02101MA1999999095281MD1710171-0591REMSYN106AAXX  23001 76393 32950 01204 10340 20165 39528 40075 57017 92350 333 10361 20210 30/// 50861 59059 70000;EQDQ01  00002PRCP24
0171763930999992012052303004+25733-100300FM-12+051599999V0201201N003012200019N0020001N1+03081+01401100721ADDGA1001+999999999GF100991001001999999001001IA1019MA1999999095291MD1210011-0691REMSYN082AAXX  23031 76393 32920 01203 10308 20140 39529 40072 52001 90250 333 30/// 59069;
0245763930999992012052312004+25733-100300FM-12+051599999V0203501N001012200019N0020001N1+02201+01591100671ADDAA124000091GA1001+999999999GF100991001001999999001001IA1019KA1240M+03611KA2120N+02141MA1999999095141MD1710021-0791REMSYN100AAXX  23121 76393 32920 03501 10220 20159 39514 40067 57002 91150 333 10361 20214 30210 59079 70000;EQDQ01  00002PRCP24
0199763930999992012052315004+25733-100300FM-12+051599999V0201501N001012200019N0030001N1+02721+01821100671ADDAY141031AY241031GA1001+999999999GF100991001001999999001001IA1019MA1999999095111MD1710031-0841MW1041REMSYN088AAXX  23151 76393 31930 01501 10272 20182 39511 40067 57003 70444 91450 333 30/// 59084;
0255763930999992012052318004+25733-100300FM-12+051599999V0201201N002012200019N0030001N1+03421+01851100451ADDAY101061AY201061GA1011+018001061GF101991011041017501001001IA1019KA1120M+03661KA2240N+02141MA1999999094931MD1710181-0851MW1051REMSYN118AAXX  23181 76393 31730 11202 10342 20185 39493 40045 57018 70500 81400 91750 333 10366 20214 30/// 56500 59085 81656;
0217763930999992012052321004+25733-100300FM-12+051599999V0201201N003012200019N0030001N1+03721+01541100081ADDAY101031AY201031GA1011+024001041GF102991011041022501011001IA1019MA1999999094641MD1710291-0811MW1051REMSYN106AAXX  23211 76393 31830 21203 10372 20154 39464 40008 57029 70500 81410 92050 333 30/// 56550 59081 81458;
0262763930999992012052400004+25733-100300FM-12+051599999V0201401N002012200019N0040001N1+03801+01351099931ADDAA124000091AY141061AY241061GF103991011041999999031021IA1019KA1120M+04001KA2180N+02141MA1999999094561MD1710081-0721MW1041REMSYN130AAXX  24001 76393 31940 31402 10380 20135 39456 49993 57008 70444 81432 92350 333 10400 20214 30/// 51141 56555 59072 70000 81658;
0211763930999992012052403004+25733-100300FM-12+051599999V0202901N001012200019N0030001N1+03361+01451099931ADDAY141031AY241031GA1001+999999999GF100991001001999999001001IA1019MA1999999094601MD1210041-0691MW1041REMSYN100AAXX  24031 76393 32930 02901 10336 20145 39460 49993 52004 70444 80002 90248 333 30/// 56007 59069;
0245763930999992012052412004+25733-100300FM-12+051599999V0209999C000012200019N0020001N1+02381+01821100091ADDAA124000091GA1001+999999999GF100991001001999999001001IA1019KA1240M+04001KA2120N+02301MA1999999094631MD1210041-0511REMSYN100AAXX  24121 76393 32920 00000 10238 20182 39463 40009 52004 91150 333 10400 20230 30224 59051 70000;EQDQ01  00002PRCP24
0199763930999992012052415004+25733-100300FM-12+051599999V0201601N001012200019N0030001N1+03081+01631100201ADDAY141031AY241031GA1001+999999999GF100991001001999999001001IA1019MA1999999094701MD1210071-0411MW1041REMSYN088AAXX  24151 76393 31930 01601 10308 20163 39470 40020 52007 70444 91450 333 30/// 59041;
0255763930999992012052418004+25733-100300FM-12+051599999V0201201N003012200019N0040001N1+03921+01641100091ADDAY101061AY201061GA1011+024001061GF101991011041022501001001IA1019KA1120M+04141KA2240N+02301MA1999999094631MD1710071-0301MW1051REMSYN118AAXX  24181 76393 31840 11203 10392 20164 39463 40009 57007 70500 81400 91750 333 10414 20230 30/// 56500 59030 81658;
0223763930999992012052421004+25733-100300FM-12+051599999V0201101N004012200019N0040001N1+04121+01261099841ADDAY101031AY201031GA1011+024001091GF102991011091022501011001IA1019MA1999999094461MD1710171-0181MW1051REMSYN112AAXX  24211 76393 31840 21104 10412 20126 39446 49984 57017 70500 81910 92050 333 30/// 56150 59018 81958 94941;
0262763930999992012052500004+25733-100300FM-12+051599999V0201101N001012200019N0040001N1+04021+01281099631ADDAA124000091AY141061AY241061GF102991021041999999001001IA1019KA1120M+04401KA2180N+02301MA1999999094421MD1710041-0141MW1041REMSYN130AAXX  25001 76393 31940 21101 10402 20128 39442 49963 57004 70444 82400 92348 333 10440 20230 30/// 51081 56500 59014 70000 82658;
0291763930999992012052512004+25733-100300FM-12+051599999V0201201N001012200019N0020001N1+02421+02051100531ADDAA124000091AY101061AY201061GA1031+033001041GF103991031021999999999001IA1019KA1240M+04401KA2120N+02361MA1999999095051MD1210161+0421MW1041REMSYN124AAXX  25121 76393 31920 31201 10242 20205 39505 40053 52016 70400 83200 91150 333 10440 20236 30230 56300 58042 70000 83461;EQDQ01+000002SCOMCG
0236763930999992012052515004+25733-100300FM-12+051599999V0200601N001012200019N0020001N1+02641+02111100791ADDAY101031AY201031GA1041+036001041GF104991041021999999999001IA1019MA1999999095261MD1210211+0561MW1041REMSYN106AAXX  25151 76393 31920 40601 10264 20211 39526 40079 52021 70400 84200 91450 333 30/// 56500 58056 84462;EQDQ01+000002SCOMCG
0255763930999992012052518004+25733-100300FM-12+051599999V0201101N001010330019N0020001N1+03181+02191100781ADDAY121061AY221061GA1061+033001041GF106991061001999999021001IA1019KA1120M+03281KA2240N+02361MA1999999095251MD1710011+0621MW1051REMSYN118AAXX  25181 76393 31920 61101 10318 20219 39525 40078 57001 70522 86020 91750 333 10328 20236 30/// 56050 58062 86461;
0223763930999992012052521004+25733-100300FM-12+051599999V0201101N00401036001CN0030001N1+03601+01981100551ADDAY121031AY221031GA1011+021001061GF105991011051022501011001IA1019MA1999999095071MD1710181+0611MW1051REMSYN112AAXX  25211 76393 31830 51104 10360 20198 39507 40055 57018 70522 81510 92050 333 30/// 56350 58061 81657 84461;
0284763930999992012052600004+25733-100300FM-12+051599999V0201301N001019999999N0040001N1+03681+01301100421ADDAA124000091AY121061AY221061GA1021+024001061GF107991021051999999031061IA1019KA1120M+03911KA2180N+02361MA1999999095001MD1710071+0581MW1051REMSYN136AAXX  26001 76393 31940 71301 10368 20130 39500 40042 57007 70522 82536 92350 333 10391 20236 30/// 51251 56355 58058 70000 82658 83360;
0217763930999992012052603004+25733-100300FM-12+051599999V0201301N002012200019N0030001N1+03431+01101100551ADDAY141031AY241031GA1011+024001061GF102991011051999999031001IA1019MA1999999095161MD1210161+0481MW1041REMSYN106AAXX  26031 76393 31930 21302 10343 20110 39516 40055 52016 70444 81530 90248 333 30/// 56350 58048 81658;
0217763930999992012052609004+25733-100300FM-12+051599999V0201201N004010042019N0010001N1+02481+02141100921ADDAY121031AY221031GA1071+004201061GF107991071051004501999999IA1019MA1999999095471MD1210031+0581MW1051REMSYN106AAXX  26091 76393 31410 71204 10248 20214 39547 40092 52003 70522 875// 90845 333 30/// 563// 58058 87614;
0217763930999992012052615004+25733-100300FM-12+051599999V0201101N002012200019N0010001N1+02641+02171101401ADDAY101031AY201031GA1021+005701061GF102991021051004501001001IA1019MA1999999095671MD1210091+0411MW1051REMSYN106AAXX  26151 76393 31410 21102 10264 20217 39567 40140 52009 70500 82500 91450 333 30/// 56300 58041 82619;
0255763930999992012052618004+25733-100300FM-12+051599999V0201201N003012200019N0020001N1+03161+02041101151ADDAY101061AY201061GA1031+013801061GF103991031041012501001001IA1019KA1120M+03241KA2240N+02361MA1999999095571MD1710101+0321MW1041REMSYN118AAXX  26181 76393 31620 31203 10316 20204 39557 40115 57010 70400 83400 91750 333 10324 20236 30/// 56300 58032 83646;
0217763930999992012052621004+25733-100300FM-12+051599999V0201201N005012200019N0030001N1+03381+01871100911ADDAY101031AY201031GA1021+018001061GF102991021041017501001001IA1019MA1999999095331MD1710241+0261MW1041REMSYN106AAXX  26211 76393 31730 21205 10338 20187 39533 40091 57024 70400 82400 92050 333 30/// 56300 58026 82656;
0262763930999992012052700004+25733-100300FM-12+051599999V0201201N002012200019N0040001N1+03401+01721100761ADDAA124000091AY111061AY211061GF102991021051022501001001IA1019KA1120M+03631KA2180N+02361MA1999999095191MD1710141+0191MW1051REMSYN130AAXX  27001 76393 31840 21202 10340 20172 39519 40076 57014 70511 82500 92348 333 10363 20236 30/// 50891 56300 58019 70000 82657;
0217763930999992012052703004+25733-100300FM-12+051599999V0201201N002010102019N0030001N1+02871+02041100681ADDAY121031AY221031GA1051+010201061GF105991051051012501001001IA1019MA1999999095351MD1210161+0191MW1051REMSYN106AAXX  27031 76393 31630 51202 10287 20204 39535 40068 52016 70522 85500 90249 333 30/// 56300 58019 85634;
0172763930999992012052712004+25733-100300FM-12+051599999V0201201N002019999999N0010001N1+02381+02181100951ADDAA103000021AY121061AY221061GF108991999999002501999999MA1999999095401MD1210071+9999MW1501REMSYN072AAXX  27121 76393 01310 81202 10238 20218 39540 40095 52007 69907 75022;
0234763930999992012052715004+25733-100300FM-12+051599999V0201201N003010036019N0010001N1+02541+02241101091ADDAA103000021AY121031AY221031GA1081+003601061GF108991081051004501999999IA1019MA1999999095511MD1210111-0161MW1051REMSYN112AAXX  27151 76393 21410 81203 10254 20224 39551 40109 52011 70522 885// 91450 333 30/// 563// 59016 69907 88612;
0172763930999992012052718004+25733-100300FM-12+051599999V0201101N003019999999N0020001N1+02821+02181101031ADDAA106000021AY121061AY221061GF107991999999008001999999MA1999999095461MD1710051+9999MW1051REMSYN072AAXX  27181 76393 01520 71103 10282 20218 39546 40103 57005 69901 70522;
0217763930999992012052721004+25733-100300FM-12+051599999V0201201N004010117019N0010001N1+03101+02131100931ADDAY121031AY221031GA1051+011701061GF105991051051012501001001IA1019MA1999999095391MD1710071+0061MW1051REMSYN106AAXX  27211 76393 31610 51204 10310 20213 39539 40093 57007 70522 85500 92050 333 30/// 56300 58006 85639;
0262763930999992012052800004+25733-100300FM-12+051599999V0201301N002012200019N0020001N1+03281+02091100621ADDAA124999929AY111061AY211061GF103991031051012501001001IA1019KA1120M+03421KA2180N+02301MA1999999095141MD1710251-0051MW1041REMSYN130AAXX  28001 76393 31620 31302 10328 20209 39514 40062 57025 70411 83500 92347 333 10342 20230 30/// 50871 56300 59005 79999 83649;
0217763930999992012052803004+25733-100300FM-12+051599999V0201101N001012200019N0010001N1+02901+02061100701ADDAY141031AY241031GA1021+010201061GF102991021051012501001001IA1019MA1999999095241MD1210101-0111MW1041REMSYN106AAXX  28031 76393 31610 21101 10290 20206 39524 40070 52010 70444 82500 90249 333 30/// 56300 59011 82634;
0272763930999992012052812004+25733-100300FM-12+051599999V0200601N001010036019N0020001N1+02301+02011100911ADDAA124000021AY121061AY221061GA1061+003601061GF106991061051004501001001IA1019KA1240M+03421KA2120N+02261MA1999999095371MD1210101-0031MW1051REMSYN124AAXX  28121 76393 31420 60601 10230 20201 39537 40091 52010 70522 86500 91150 333 10342 20226 30220 56300 59003 79999 86612;
0217763930999992012052815004+25733-100300FM-12+051599999V0201201N002010060019N0020001N1+02541+02061101031ADDAY121031AY221031GA1081+006001061GF108991081051004501999999IA1019MA1999999095461MD1210091-0051MW1051REMSYN106AAXX  28151 76393 31420 81202 10254 20206 39546 40103 52009 70522 885// 91450 333 30/// 563// 59005 88620;
0255763930999992012052818004+25733-100300FM-12+051599999V0201201N002012200019N0010001N1+02921+02231101031ADDAY101061AY201061GA1031+008401061GF103991031051008001001001IA1019KA1120M+03141KA2240N+02261MA1999999095461MD1410001+0001MW1051REMSYN118AAXX  28181 76393 31510 31202 10292 20223 39546 40103 54000 70500 83500 91750 333 10314 20226 30/// 56300 58000 83628;
0217763930999992012052821004+25733-100300FM-12+051599999V0201201N004012200019N0010001N1+03401+02171100731ADDAY101031AY201031GA1011+015001061GF101991011051017501001001IA1019MA1999999095211MD1710201-0181MW1051REMSYN106AAXX  28211 76393 31710 11204 10340 20217 39521 40073 57020 70500 81500 92050 333 30/// 56300 59018 81650;
0262763930999992012052900004+25733-100300FM-12+051599999V0201201N002012200019N0030001N1+03501+01871100571ADDAA124000091AY141061AY221061GF103991011051022501001041IA1019KA1120M+03691KA2180N+02261MA1999999095101MD1710111-0041MW1051REMSYN130AAXX  29001 76393 31830 31202 10350 20187 39510 40057 57011 70542 81504 92348 333 10369 20226 30/// 50811 56305 59004 70000 81657;
0217763930999992012052903004+25733-100300FM-12+051599999V0201201N002012200019N0020001N1+03101+01871100741ADDAY111031AY211031GA1021+015001061GF103991021051017501001011IA1019MA1999999095301MD1210201+0061MW1041REMSYN106AAXX  29031 76393 31720 31202 10310 20187 39530 40074 52020 70411 82501 90248 333 30/// 56305 58006 82650;
0273763930999992012052912004+25733-100300FM-12+051599999V0200601N001012200019N0020001N1+02321+02001100921ADDAA124000091AY141061AY241061GA1001+999999999GF100991001001999999001001IA1019KA1240M+03691KA2120N+02281MA1999999095391MD1210091+0021MW1041REMSYN106AAXX  29121 76393 31920 00601 10232 20200 39539 40092 52009 70444 91150 333 10369 20228 30222 58002 70000;EQDQ01  00002PRCP24
0199763930999992012052915004+25733-100300FM-12+051599999V0200501N001012200019N0030001N1+02641+02111101161ADDAY141031AY241031GA1001+999999999GF100991001001999999001001IA1019MA1999999095581MD1210191+0121MW1041REMSYN088AAXX  29151 76393 31930 00501 10264 20211 39558 40116 52019 70444 91450 333 30/// 58012;
0237763930999992012052918004+25733-100300FM-12+051599999V0201101N003012200019N0030001N1+03161+02171101091ADDAY101061AY201061GA1001+999999999GF100991001001999999001001IA1019KA1120M+03421KA2240N+02281MA1999999095531MD1710051+0071MW1051REMSYN100AAXX  29181 76393 31930 01103 10316 20217 39553 40109 57005 70500 91750 333 10342 20228 30/// 58007;
0217763930999992012052921004+25733-100300FM-12+051599999V0201101N003012200019N0030001N1+03601+01951100751ADDAY101031AY201031GA1011+018001061GF101991011051022501001001IA1019MA1999999095261MD1710271+0051MW1051REMSYN106AAXX  29211 76393 31830 11103 10360 20195 39526 40075 57027 70500 81500 92050 333 30/// 56500 58005 81656;
0251763930999992012053000004+25733-100300FM-12+051599999V0201201N004012200019N0050001N1+03741+01771100551ADDAA124000091GA1001+999999999GF100991001001999999001001IA1019KA1120M+03921KA2180N+02281MA1999999095121MD1710141+0021REMSYN106AAXX  30001 76393 32950 01204 10374 20177 39512 40055 57014 92350 333 10392 20228 30/// 51061 58002 70000;EQDQ01  00002PRCP24
0171763930999992012053003004+25733-100300FM-12+051599999V0201201N003012200019N0020001N1+03421+01711100631ADDGA1001+999999999GF100991001001999999001001IA1019MA1999999095241MD1210121-0061REMSYN082AAXX  30031 76393 32920 01203 10342 20171 39524 40063 52012 90250 333 30/// 59006;
0273763930999992012053012004+25733-100300FM-12+051599999V0201101N001012200019N0020001N1+02401+02091100751ADDAA124000091AY141061AY241061GA1001+999999999GF100991001001999999001001IA1019KA1240M+03921KA2120N+02341MA1999999095261MD1210081-0111MW1041REMSYN106AAXX  30121 76393 31920 01101 10240 20209 39526 40075 52008 70444 91150 333 10392 20234 30230 59011 70000;EQDQ01  00002PRCP24
0199763930999992012053015004+25733-100300FM-12+051599999V0203201N001012200019N0020001N1+02781+02201100891ADDAY141031AY241031GA1001+999999999GF100991001001999999001001IA1019MA1999999095351MD1210091-0231MW1041REMSYN088AAXX  30151 76393 31920 03201 10278 20220 39535 40089 52009 70444 91450 333 30/// 59023;
0255763930999992012053018004+25733-100300FM-12+051599999V0201201N004012200019N0010001N1+03341+02221100801ADDAY101061AY201061GA1011+013801061GF101991011051012501001001IA1019KA1120M+03521KA2240N+02341MA1999999095271MD1710081-0261MW1051REMSYN118AAXX  30181 76393 31610 11204 10334 20222 39527 40080 57008 70500 81500 91750 333 10352 20234 30/// 56500 59026 81646;
0217763930999992012053021004+25733-100300FM-12+051599999V0201101N003012200019N0020001N1+03741+01881100431ADDAY101031AY201031GA1021+021001061GF102991021051022501001001IA1019MA1999999094971MD1710301-0291MW1051REMSYN106AAXX  30211 76393 31820 21103 10374 20188 39497 40043 57030 70500 82500 92050 333 30/// 56500 59029 82657;
0284763930999992012053100004+25733-100300FM-12+051599999V0201201N003019999999N0030001N1+03861+01461100141ADDAA124000091AY121061AY221061GA1011+024001081GF107991011011999999021041IA1019KA1120M+04041KA2180N+02341MA1999999094761MD1710211-0361MW1041REMSYN136AAXX  31001 76393 31930 71203 10386 20146 39476 40014 57021 70422 81124 92350 333 10404 20234 30/// 51241 56555 59036 70000 81858 85080;
0259763930999992012053103004+25733-100300FM-12+051599999V0201201N00201036001CN0020001N1+03381+02111100341ADDAA103000091AY121031AY221031GA1021+015001061GF107991021051017501021001IA1019MA1999999094991MD1210221-0251MW1131REMSYN118AAXX  31031 76393 21720 71202 10338 20211 39499 40034 52022 71322 82520 90248 333 30/// 56370 59025 69907 82650 85465;EQDQ01  00002PRCP03
0273763930999992012053112004+25733-100300FM-12+051599999V0201101N001012200019N0020001N1+02461+02121100321ADDAA124000091AY141061AY241061GA1001+999999999GF100991001001999999001001IA1019KA1240M+04041KA2120N+02401MA1999999094861MD1210131-0401MW1041REMSYN106AAXX  31121 76393 31920 01101 10246 20212 39486 40032 52013 70444 91150 333 10404 20240 30234 59040 79999;EQDQ01  00002PRCP24
0199763930999992012053115004+25733-100300FM-12+051599999V0200601N001012200019N0020001N1+02781+02141100431ADDAY141031AY241031GA1001+999999999GF100991001001999999001001IA1019MA1999999094921MD1210061-0431MW1041REMSYN088AAXX  31151 76393 31920 00601 10278 20214 39492 40043 52006 70444 91450 333 30/// 59043;
0255763930999992012053118004+25733-100300FM-12+051599999V0200601N003012200019N0010001N1+03061+02211100351ADDAY101061AY201061GA1011+007501061GF101991011051008001001001IA1019KA1120M+03421KA2240N+02401MA1999999094851MD1710071-0421MW1051REMSYN118AAXX  31181 76393 31510 10603 10306 20221 39485 40035 57007 70500 81500 91750 333 10342 20240 30/// 56500 59042 81625;
0217763930999992012053121004+25733-100300FM-12+051599999V0201201N005012200019N0020001N1+03681+01941100081ADDAY101031AY201031GA1021+021001061GF102991021051022501001001IA1019MA1999999094621MD1710231-0351MW1051REMSYN106AAXX  31211 76393 31820 21205 10368 20194 39462 40008 57023 70500 82500 92050 333 30/// 56500 59035 82657;
0161763930999992012060100004+25733-100300FM-12+051599999V0201301N001010360019N0030001N1+03611+01741100041ADDAY141061AY221061GF107991011031022501011061MA1999999094641MD1210021+9999MW1051REMSYN072AAXX  01001 76393 31830 71301 10361 20174 39464 40004 52002 70542 81316;
0306763930999992012060112004+25733-100300FM-12+051599999V0201201N002010030019N0010001N1+02401+02181100911ADDAA103000591AA206000591AA324000591AY161061AY221061GA1081+003001061GF108991081051002501999999IA1019KA1240M+03921KA2120N+02361MA1999999095391MD1210191+0531MW1611REMSYN136AAXX  01121 76393 01310 81202 10240 20218 39539 40091 52019 69951 76162 885// 91150 333 0/3// 10392 20236 30230 58053 69957 70005 88610;
0234763930999992012060115004+25733-100300FM-12+051599999V0200601N003010051019N0030001N1+02521+02101101001ADDAA103000021AY121031AY221031GA1051+005101061GF105991051051004501001001IA1099MA1999999095441MD1210051+0521MW1041REMSYN112AAXX  01151 76393 21430 50603 10252 20210 39544 40100 52005 70422 85500 91450 333 0/300 31/// 58052 69907 85617;
0161763930999992012060118004+25733-100300FM-12+051599999V0201201N003010075019N0030001N1+02741+02091101191ADDAY121061AY221061GF108991081051008001999999MA1999999095621MD1210181+9999MW1041REMSYN072AAXX  01181 76393 31530 81203 10274 20209 39562 40119 52018 70422 885//;
0217763930999992012060121004+25733-100300FM-12+051599999V0201201N002010147019N0040001N1+03101+01901101021ADDAY121031AY221031GA1081+014701061GF108991081051012501999999IA1019MA1999999095491MD1710131+0871MW1041REMSYN106AAXX  01211 76393 31640 81202 10310 20190 39549 40102 57013 70422 885// 92050 333 0/3// 30/// 58087 88649;
0347763930999992012060200004+25733-100300FM-12+051599999V0203101N001010090019N0030001N1+02811+02081100941ADDAA103999999AA206000091AA324000591AY121061AY221061GA1081+009001061GF108991081041008001999999IA1019KA1120M+03261KA2180N+02361MA1999999095431MD1710061+0791MW1131REMSYN142AAXX  02001 76393 01530 83101 10281 20208 39543 40094 57006 69901 71322 884// 92355 333 0/3// 10326 20236 30/// 50881 58079 69907 70005 88630;EQDQ01  00002PRCP06Q02  99992PRCP03
0161763930999992012060212004+25733-100300FM-12+051599999V0201401N003012200019N0020001N1+02181+01831101161ADDAY101061AY201061GF102991021051004501001001MA1999999095551MD1210081+9999MW1041REMSYN072AAXX  02121 76393 31420 21403 10218 20183 39555 40116 52008 70400 82500;
0217763930999992012060215004+25733-100300FM-12+051599999V0201201N001012200019N0020001N1+02481+01871101271ADDAY101031AY201031GA1021+007501061GF103991021051008001041001IA1019MA1999999095661MD1210111+0221MW1051REMSYN106AAXX  02151 76393 31520 31201 10248 20187 39566 40127 52011 70500 82540 91450 333 0/370 30/// 58022 82625;
0161763930999992012060218004+25733-100300FM-12+051599999V0201201N002012200019N0030001N1+03001+02041101151ADDAY141061AY201061GF102991021051012501001001MA1999999095561MD1710101+9999MW1041REMSYN072AAXX  02181 76393 31630 21202 10300 20204 39556 40115 57010 70440 82500;
0223763930999992012060221004+25733-100300FM-12+051599999V0201201N002010138019N0030001N1+03121+01991100821ADDAY121031AY221031GA1051+013801061GF107991071051012501021001IA1019MA1999999095281MD1710281-0211MW1041REMSYN112AAXX  02211 76393 31630 71202 10312 20199 39528 40082 57028 70422 87520 92050 333 0/330 30/// 59021 85646 82461;
0318763930999992012060300004+25733-100300FM-12+051599999V0202001N002010057019N0020001N1+02431+01961101131ADDAA103003091AA206003091AA324008191AY151061AY251061GA1061+005701061GF108991061051004501021999IA1119KA1120M+03301KA2180N+02101MA1999999095581MD1210301+0131MW1131REMSYN148AAXX  03001 76393 01420 82002 10243 20196 39558 40113 52030 60031 71355 8652/ 92350 333 0/35/ 10330 20210 32/// 50571 58013 60037 70081 86619 82460;
0234763930999992012060303004+25733-100300FM-12+051599999V0201101N001010081019N0010001N1+02341+01681100981ADDAA103002091AY121031AY221031GA1071+008101061GF107991071051008001999999IA1099MA1999999095441MD1710141+0101MW1041REMSYN112AAXX  03031 76393 21510 71101 10234 20168 39544 40098 57014 70422 875// 90248 333 0/399 31/// 58010 60027 87627;
0257763930999992012060306004+25733-100300FM-12+051599999V0200601N001012200019N0010001N1+02241+01631101091ADDAY111061AY211061GA1001+999999999GF100991001001999999001001GJ104389IA1099KA1240M+03301KA2240N+02101MA1999999095541MD1210101+0011MW1041REMSYN112AAXX  03061 76393 31910 00601 10224 20163 39554 40109 52010 70411 84500 90540 333 10330 20210 31/// 55073 58001;
0199763930999992012060315004+25733-100300FM-12+051599999V0203001N001012200019N0020001N1+02421+01771101651ADDAY141031AY241031GA1001+999999999GF100991001001999999001001IA1019MA1999999095551MD1210161-0111MW1041REMSYN088AAXX  03151 76393 31920 03001 10242 20177 39555 40165 52016 70444 91450 333 30/// 59011;
0161763930999992012060318004+25733-100300FM-12+051599999V0200601N001012200019N0010001N1+02941+01981101111ADDAY101061AY201061GF102991021051012501001001MA1999999095491MD1710061+9999MW1051REMSYN072AAXX  03181 76393 31610 20601 10294 20198 39549 40111 57006 70500 82500;
0217763930999992012060321004+25733-100300FM-12+051599999V0200601N003012200019N0010001N1+03201+01681100831ADDAY121031AY221031GA1021+018001061GF104991021051017501011001IA1019MA1999999095281MD1710211+0001MW1051REMSYN106AAXX  03211 76393 31710 40603 10320 20168 39528 40083 57021 70522 82510 92050 333 0/550 30/// 58000 82656;
0312763930999992012060400004+25733-100300FM-12+051599999V0202301N003010075019N0030001N1+02901+02301100711ADDAA103000591AA206000591AA324002391AY151061AY251061GA1071+007501061GF107991071051008001001001IA1099KA1120M+03401KA2180N+01941MA1999999095211MD1710071-0371MW1501REMSYN142AAXX  04001 76393 01530 72303 10290 20230 39521 40071 57007 69951 75055 87500 92355 333 0/300 10340 20194 31/// 50741 59037 69957 70023 87625;
0180763930999992012060412004+25733-100300FM-12+051599999V0202301N001010042019N0010001N1+02321+01941999999ADDAY121061AY221061GF106991061051004501021001MA1999999095231MD1710061+9999MW1051REMSYN072AAXX  04121 76393 31410 62301 10232 20194 39523 49656 57006 70522 86520;EQDQ01 096563APOSLP
0236763930999992012060415004+25733-100300FM-12+051599999V0203401N00101007501CN0010001N1+02481+02141101312ADDAY121031AY221031GA1041+004201061GF106991061051008001021001IA1019MA1999999095341MD1210111-0211MW1051REMSYN106AAXX  04151 76393 31510 63401 10248 20214 39534 40131 52011 70522 86520 91450 333 30/// 59021 84614 82461;EQDQ01+101313APOSLP
0161763930999992012060418004+25733-100300FM-12+051599999V0201001N001012200019N0010001N1+03021+02191100851ADDAY101061AY201061GF102991021041012501001001MA1999999095281MD1710061+9999MW1051REMSYN072AAXX  04181 76393 31610 21001 10302 20219 39528 40085 57006 70500 82400;
0223763930999992012060421004+25733-100300FM-12+051599999V0201501N00301036001CN0020001N1+03241+02041100631ADDAY121031AY221031GA1011+014701061GF106991011051012501021001IA1019MA1999999095121MD1710161-0161MW1051REMSYN112AAXX  04211 76393 31620 61503 10324 20204 39512 40063 57016 70522 81520 92050 333 0/550 30/// 59016 81649 85460;
0161763930999992012060500004+25733-100300FM-12+051599999V0203101N001010120019N0020001N1+02961+01771100511ADDAY121061AY221061GF108991051051012501021999MA1999999095041MD1710081+9999MW1041REMSYN072AAXX  05001 76393 31620 83101 10296 20177 39504 40051 57008 70422 8552/;
0161763930999992012060512004+25733-100300FM-12+051599999V0201201N001012200019N0020001N1+02421+01931101241ADDAY101061AY201061GF104991041051008001001001MA1999999095161MD1710011+9999MW1041REMSYN072AAXX  05121 76393 31520 41201 10242 20193 39516 40124 57001 70400 84500;
0217763930999992012060515004+25733-100300FM-12+051599999V0200601N001010051019N0020001N1+02561+02141101381ADDAY121031AY221031GA1061+005101061GF106991061051004501001001IA1019MA1999999095291MD1210131-0051MW1041REMSYN106AAXX  05151 76393 31420 60601 10256 20214 39529 40138 52013 70422 86500 91450 333 0/300 30/// 59005 86617;
0161763930999992012060518004+25733-100300FM-12+051599999V0200501N002010120019N0020001N1+02681+01871100901ADDAY121061AY221061GF107991071051012501001001MA1999999095321MD1210031+9999MW1041REMSYN072AAXX  05181 76393 31620 70502 10268 20187 39532 40090 52003 70422 87500;
0217763930999992012060521004+25733-100300FM-12+051599999V0200701N003012200019N0050001N1+03061+01711100781ADDAY101031AY201031GA1021+015001061GF103991021051017501011001IA1019MA1999999095241MD1710081+0121MW1041REMSYN106AAXX  05211 76393 31750 30703 10306 20171 39524 40078 57008 70400 82510 92050 333 0/310 30/// 58012 82650;
0269763930999992012060600004+25733-100300FM-12+051599999V0201201N002012200019N0050001N1+03031+01601100601ADDAA124000091GA1011+018001081GF103991011011017501031001IA1019KA1120M+03221KA2180N+02321MA1999999095101MD1710141+0061REMSYN124AAXX  06001 76393 32750 31202 10303 20160 39510 40060 57014 81130 92350 333 00530 10322 20232 30/// 50651 58006 79999 81856;EQDQ01  00002PRCP24
0199763930999992012060603004+25733-100300FM-12+051599999V0200601N001012200019N0030001N1+02571+01681100741ADDAY141031AY241031GA1001+999999999GF100991001001999999001001IA1019MA1999999095241MD1210141+0121MW1041REMSYN088AAXX  06031 76393 31930 00601 10257 20168 39524 40074 52014 70444 90249 333 30/// 58012;
0223763930999992012060606004+25733-100300FM-12+051599999V0201101N001012200019N0020001N1+02401+01751100811ADDGA1001+999999999GF100991001001999999001001GJ104209IA1019KA1240M+03221KA2240N+02321MA1999999095301MD1210061+0081REMSYN100AAXX  06061 76393 32920 01101 10240 20175 39530 40081 52006 90545 333 10322 20232 30/// 55070 58008;
0244763930999992012060612004+25733-100300FM-12+051599999V0201501N001012200019N0030001N1+02261+01661100711ADDAA124000091GA1021+033001041GF102991021001999999021001IA1019KA1240M+03221KA2120N+02141MA1999999095141MD1710061-0021REMSYN118AAXX  06121 76393 32930 21501 10226 20166 39514 40071 57006 82020 91150 333 0/030 10322 20214 30206 59002 70000 82461;
0199763930999992012060615004+25733-100300FM-12+051599999V0203201N001012200019N0020001N1+02621+01871100851ADDAY141031AY241031GA1001+999999999GF100991001001999999001001IA1019MA1999999095261MD1210121-0031MW1041REMSYN088AAXX  06151 76393 31920 03201 10262 20187 39526 40085 52012 70444 91450 333 30/// 59003;
0237763930999992012060618004+25733-100300FM-12+051599999V0201201N002012200019N0030001N1+03301+01621100781ADDAY101061AY201061GA1001+999999999GF100991001001999999001001IA1019KA1120M+03461KA2240N+02141MA1999999095221MD1710041-0101MW1041REMSYN100AAXX  06181 76393 31930 01202 10330 20162 39522 40078 57004 70400 91750 333 10346 20214 30/// 59010;
0217763930999992012060621004+25733-100300FM-12+051599999V0201101N002012200019N0050001N1+03521+01541100541ADDAY101031AY201031GA1021+024001061GF102991021041022501001001IA1019MA1999999095041MD1710181-0201MW1041REMSYN106AAXX  06211 76393 31850 21102 10352 20154 39504 40054 57018 70400 82400 92050 333 0/500 30/// 59020 82658;
0250763930999992012060700004+25733-100300FM-12+051599999V0201101N001012200019N0050001N1+03501+01391100421ADDAA124000091GA1021+024001091GF102991021031999999001001IA1019KA1120M+03681KA2180N+02141MA1999999095001MD1710041-0101REMSYN124AAXX  07001 76393 32950 21101 10350 20139 39500 40042 57004 82300 92350 333 02200 10368 20214 30/// 50741 59010 70000 82958;
0217763930999992012060703004+25733-100300FM-12+051599999V0201201N002012200019N0030001N1+02901+02011100581ADDAY141031AY241031GA1011+010801061GF101991011051012501001001IA1019MA1999999095171MD1210171-0071MW1041REMSYN106AAXX  07031 76393 31630 11202 10290 20201 39517 40058 52017 70444 81500 90252 333 0/400 30/// 59007 81636;
0245763930999992012060712004+25733-100300FM-12+051599999V0201101N001012200019N0020001N1+02321+02001100811ADDAA124000091GA1001+999999999GF100991001001999999001001IA1019KA1240M+03681KA2120N+02261MA1999999095271MD1210031+0131REMSYN100AAXX  07121 76393 32920 01101 10232 20200 39527 40081 52003 91150 333 10368 20226 30220 58013 70000;EQDQ01  00002PRCP24
0199763930999992012060715004+25733-100300FM-12+051599999V0200501N001012200019N0020001N1+02721+02131100931ADDAY141031AY241031GA1001+999999999GF100991001001999999001001IA1019MA1999999095361MD1210091+0101MW1041REMSYN088AAXX  07151 76393 31920 00501 10272 20213 39536 40093 52009 70444 91450 333 30/// 58010;
0161763930999992012060718004+25733-100300FM-12+051599999V0201201N001012200019N0020001N1+03141+02021100981ADDAY101061AY201061GF103991031041012501001001MA1999999095421MD1210061+9999MW1051REMSYN072AAXX  07181 76393 31620 31201 10314 20202 39542 40098 52006 70500 83400;
0217763930999992012060721004+25733-100300FM-12+051599999V0201201N004012200019N0020001N1+03361+02021100831ADDAY101031AY201031GA1031+015001061GF103991031041017501001001IA1019MA1999999095321MD1710101+0281MW1051REMSYN106AAXX  07211 76393 31720 31204 10336 20202 39532 40083 57010 70500 83400 92050 333 0/300 30/// 58028 83650;
0245763930999992012060812004+25733-100300FM-12+051599999V0209999C000012200019N0030001N1+02401+02091100961ADDAA124000091GA1001+999999999GF100991001001999999001001IA1019KA1240M+03641KA2120N+02321MA1999999095431MD1210061+0161REMSYN100AAXX  08121 76393 32930 00000 10240 20209 39543 40096 52006 91150 333 10364 20232 30226 58016 70000;EQDQ01  00002PRCP24
0217763930999992012060815004+25733-100300FM-12+051599999V0200601N001012200019N0030001N1+02741+02161101091ADDAY101031AY201031GA1011+007201081GF101991011021008001001001IA1019MA1999999095531MD1210101+0171MW1041REMSYN106AAXX  08151 76393 31530 10601 10274 20216 39553 40109 52010 70400 81200 91450 333 00500 30/// 58017 81824;
0161763930999992012060818004+25733-100300FM-12+051599999V0200601N003012200019N0030001N1+03201+02021101001ADDAY101061AY201061GF103991031041012501001001MA1999999095461MD1710071+9999MW1041REMSYN072AAXX  08181 76393 31630 30603 10320 20202 39546 40100 57007 70400 83400;
0217763930999992012060821004+25733-100300FM-12+051599999V0201201N004012200019N0040001N1+03561+01891100791ADDAY101031AY201031GA1031+021001061GF103991031041022501001001IA1019MA1999999095301MD1710161-0021MW1041REMSYN106AAXX  08211 76393 31840 31204 10356 20189 39530 40079 57016 70400 83400 92050 333 0/300 30/// 59002 83657;
0161763930999992012060900004+25733-100300FM-12+051599999V0201401N002012200019N0050001N1+03521+02251100581ADDAY121061AY221061GF104991041011017501001001MA1999999095151MD1710151+9999MW1041REMSYN072AAXX  09001 76393 31750 41402 10352 20225 39515 40058 57015 70422 84100;
0217763930999992012060903004+25733-100300FM-12+051599999V0201201N002012200019N0030001N1+03151+01851100661ADDAY141031AY241031GA1011+015001061GF101991011051017501001001IA1019MA1999999095261MD1210161-0141MW1041REMSYN106AAXX  09031 76393 31730 11202 10315 20185 39526 40066 52016 70444 81500 90246 333 0/500 30/// 59014 81650;
0161763930999992012060906004+25733-100300FM-12+051599999V0201201N006012200019N0020001N1+02661+02221100831ADDAY101061AY201061GF102991021051004501001001MA1999999095401MD1210141+9999MW1051REMSYN072AAXX  09061 76393 31420 21206 10266 20222 39540 40083 52014 70500 82500;
0217763930999992012060909004+25733-100300FM-12+051599999V0201101N004010045019N0010001N1+02501+02131100671ADDAY101031AY211031GA1051+004501061GF105991051051004501001001IA1019MA1999999095201MD1710201-0171MW1051REMSYN106AAXX  09091 76393 31410 51104 10250 20213 39520 40067 57020 70501 85500 90850 333 0/300 30/// 59017 85615;
0273763930999992012060912004+25733-100300FM-12+051599999V0200601N001012200019N0010001N1+02441+02131100791ADDAA124000091AY101061AY201061GA1001+999999999GF100991001001999999001001IA1019KA1240M+03741KA2120N+02421MA1999999095271MD1210071-0161MW1041REMSYN106AAXX  09121 76393 31910 00601 10244 20213 39527 40079 52007 70400 91150 333 10374 20242 30236 59016 70000;EQDQ01  00002PRCP24
0199763930999992012060915004+25733-100300FM-12+051599999V0201001N001012200019N0020001N1+02861+02231100841ADDAY101031AY201031GA1001+999999999GF100991001001999999001001IA1019MA1999999095291MD1210021-0241MW1051REMSYN088AAXX  09151 76393 31920 01001 10286 20223 39529 40084 52002 70500 91450 333 30/// 59024;
0217763930999992012060921004+25733-100300FM-12+051599999V0200601N004012200019N0040001N1+03781+02001100421ADDAY101031AY201031GA1021+021001061GF102991021041022501001001IA1019MA1999999094961MD1710271-0341MW1041REMSYN106AAXX  09211 76393 31840 20604 10378 20200 39496 40042 57027 70400 82400 92050 333 0/500 30/// 59034 82657;
0161763930999992012061000004+25733-100300FM-12+051599999V0201401N001010360019N0050001N1+03581+01851100281ADDAY121061AY221061GF107991011021022501031061MA1999999094871MD1710091+9999MW1041REMSYN072AAXX  10001 76393 31850 71401 10358 20185 39487 40028 57009 70422 81236;
0195763930999992012061003004+25733-100300FM-12+051599999V0201101N001012200019N0040001N1+03261+01791100351ADDAY141031AY241031GF103991001001999999001021IA1019MA1999999094981MD1210111-0281MW1041REMSYN100AAXX  10031 76393 31940 31101 10326 20179 39498 40035 52011 70444 80002 90249 333 0/005 30/// 59028;
0223763930999992012061006004+25733-100300FM-12+051599999V0201101N001012200019N0020001N1+03041+01861100381ADDGA1001+999999999GF100991001001999999001001GJ105529IA1019KA1240M+03861KA2240N+02421MA1999999095011MD1210031-0391REMSYN100AAXX  10061 76393 32920 01101 10304 20186 39501 40038 52003 90550 333 10386 20242 30/// 55092 59039;
0171763930999992012061009004+25733-100300FM-12+051599999V0200601N001012200019N0010001N1+02661+02101100381ADDGA1001+999999999GF100991001001999999001001IA1019MA1999999094981MD1710031-0221REMSYN082AAXX  10091 76393 32910 00601 10266 20210 39498 40038 57003 90850 333 30/// 59022;
0273763930999992012061012004+25733-100300FM-12+051599999V0201201N001012200019N0020001N1+02521+02241100531ADDAA124000091AY141061AY241061GA1001+999999999GF100991001001999999001001IA1019KA1240M+03861KA2120N+02481MA1999999095071MD1210091-0201MW1041REMSYN106AAXX  10121 76393 31920 01201 10252 20224 39507 40053 52009 70444 91150 333 10386 20248 30242 59020 70000;EQDQ01  00002PRCP24
0199763930999992012061015004+25733-100300FM-12+051599999V0200601N001012200019N0020001N1+02881+02281100681ADDAY141031AY241031GA1001+999999999GF100991001001999999001001IA1019MA1999999095171MD1210101-0121MW1041REMSYN088AAXX  10151 76393 31920 00601 10288 20228 39517 40068 52010 70444 91450 333 30/// 59012;
0237763930999992012061018004+25733-100300FM-12+051599999V0200601N002012200019N0010001N1+03501+01811100621ADDAY101061AY201061GA1001+999999999GF100991001001999999001001IA1019KA1120M+03681KA2240N+02481MA1999999095131MD1710041-0101MW1051REMSYN100AAXX  10181 76393 31910 00602 10350 20181 39513 40062 57004 70500 91750 333 10368 20248 30/// 59010;
0199763930999992012061021004+25733-100300FM-12+051599999V0201201N004012200019N0010001N1+03881+01661100391ADDAY101031AY201031GA1001+999999999GF100991001001999999001001IA1019MA1999999094961MD1710171+0001MW1051REMSYN088AAXX  10211 76393 31910 01204 10388 20166 39496 40039 57017 70500 92050 333 30/// 58000;
0279763930999992012061100004+25733-100300FM-12+051599999V0201601N001012200019N0050001N1+03921+01411100361ADDAA124000091AY141061AY241061GA1001+999999999GF100991001001999999001001IA1019KA1120M+04141KA2180N+02481MA1999999094991MD1210031+0121MW1041REMSYN112AAXX  11001 76393 31950 01601 10392 20141 39499 40036 52003 70444 92348 333 10414 20248 30/// 50971 58012 70000;EQDQ01  00002PRCP24
0199763930999992012061103004+25733-100300FM-12+051599999V0201301N002012200019N0030001N1+03581+01661100471ADDAY141031AY241031GA1001+999999999GF100991001001999999001001IA1019MA1999999095131MD1210141+0151MW1041REMSYN088AAXX  11031 76393 31930 01302 10358 20166 39513 40047 52014 70444 90250 333 30/// 58015;
0223763930999992012061106004+25733-100300FM-12+051599999V0201201N006012200019N0020001N1+02921+02261100631ADDGA1001+999999999GF100991001001999999001001GJ106909IA1019KA1240M+04141KA2240N+02481MA1999999095281MD1210151+0271REMSYN100AAXX  11061 76393 32920 01206 10292 20226 39528 40063 52015 90545 333 10414 20248 30/// 55115 58027;
0171763930999992012061109004+25733-100300FM-12+051599999V0201101N001012200019N0010001N1+02601+02271100651ADDGA1001+999999999GF100991001001999999001001IA1019MA1999999095251MD1710031+0271REMSYN082AAXX  11091 76393 32910 01101 10260 20227 39525 40065 57003 90850 333 30/// 58027;
0161763930999992012061112004+25733-100300FM-12+051599999V0200601N001012200019N0010001N1+02521+02271100791ADDAY101061AY201061GF102991021051004501001001MA1999999095321MD1210071+9999MW1051REMSYN072AAXX  11121 76393 31410 20601 10252 20227 39532 40079 52007 70500 82500;
0199763930999992012061115004+25733-100300FM-12+051599999V0201201N001012200019N0020001N1+02821+02361100971ADDAY141031AY241031GA1001+999999999GF100991001001999999001001IA1019MA1999999095451MD1210131+0281MW1041REMSYN088AAXX  11151 76393 31920 01201 10282 20236 39545 40097 52013 70444 91450 333 30/// 58028;
0237763930999992012061118004+25733-100300FM-12+051599999V0201101N004012200019N0010001N1+03461+02141100991ADDAY101061AY201061GA1001+999999999GF100991001001999999001001IA1019KA1120M+03681KA2240N+02481MA1999999095471MD1210021+0341MW1051REMSYN100AAXX  11181 76393 31910 01104 10346 20214 39547 40099 52002 70500 91750 333 10368 20248 30/// 58034;
0199763930999992012061121004+25733-100300FM-12+051599999V0201201N003012200019N0020001N1+03901+01651100771ADDAY101031AY201031GA1001+999999999GF100991001001999999001001IA1019MA1999999095311MD1710161+0351MW1051REMSYN088AAXX  11211 76393 31920 01203 10390 20165 39531 40077 57016 70500 92050 333 30/// 58035;
0279763930999992012061200004+25733-100300FM-12+051599999V0201201N003012200019N0030001N1+03981+01481100641ADDAA124000091AY141061AY241061GA1001+999999999GF100991001001999999001001IA1019KA1120M+04141KA2180N+02481MA1999999095241MD1710071+0251MW1051REMSYN112AAXX  12001 76393 31930 01203 10398 20148 39524 40064 57007 70544 92349 333 10414 20248 30/// 51371 58025 70000;EQDQ01  00002PRCP24
0199763930999992012061203004+25733-100300FM-12+051599999V0201201N002012200019N0030001N1+03341+01981100801ADDAY141031AY241031GA1001+999999999GF100991001001999999001001IA1019MA1999999095431MD1210191+0301MW1041REMSYN088AAXX  12031 76393 31930 01202 10334 20198 39543 40080 52019 70444 90248 333 30/// 58030;
0161763930999992012061206004+25733-100300FM-12+051599999V0201201N006012200019N0020001N1+02821+02321101011ADDAY111061AY201061GF104991041051008001001001MA1999999095621MD1210191+9999MW1051REMSYN072AAXX  12061 76393 31520 41206 10282 20232 39562 40101 52019 70510 84500;
0217763930999992012061209004+25733-100300FM-12+051599999V0201101N004012200019N0010001N1+02641+02311100981ADDAY111031AY211031GA1041+004201061GF104991041051004501001001IA1019MA1999999095541MD1710081+0291MW1051REMSYN106AAXX  12091 76393 31410 41104 10264 20231 39554 40098 57008 70511 84500 90845 333 0/300 30/// 58029 84614;
0161763930999992012061212004+25733-100300FM-12+051599999V0201201N003010042019N0020001N1+02681+02301101201ADDAY121061AY221061GF106991061051004501001001MA1999999095691MD1210151+9999MW1051REMSYN072AAXX  12121 76393 31420 61203 10268 20230 39569 40120 52015 70522 86500;
0217763930999992012061215004+25733-100300FM-12+051599999V0201101N003012200019N0020001N1+02921+02321101211ADDAY101031AY201031GA1041+007501061GF104991041051008001001001IA1019MA1999999095671MD1710021+0221MW1041REMSYN106AAXX  12151 76393 31520 41103 10292 20232 39567 40121 57002 70400 84500 91450 333 0/300 30/// 58022 84625;
0161763930999992012061218004+25733-100300FM-12+051599999V0201101N004012200019N0020001N1+03281+02131101211ADDAY101061AY201061GF103991031051012501001001MA1999999095681MD1710011+9999MW1051REMSYN072AAXX  12181 76393 31620 31104 10328 20213 39568 40121 57001 70500 83500;
0217763930999992012061221004+25733-100300FM-12+051599999V0201101N003012200019N0030001N1+03661+01881100901ADDAY101031AY201031GA1031+021001061GF103991031041022501001001IA1019MA1999999095431MD1710251+0121MW1051REMSYN106AAXX  12211 76393 31830 31103 10366 20188 39543 40090 57025 70500 83400 92050 333 0/300 30/// 58012 83657;
0161763930999992012061300004+25733-100300FM-12+051599999V0201101N006012200019N0040001N1+03581+01851100751ADDAY101061AY201061GF103991031041022501001001MA1999999095331MD1710101+9999MW1051REMSYN072AAXX  13001 76393 31840 31106 10358 20185 39533 40075 57010 70500 83400;
0253763930999992012061303004+25733-100300FM-12+051599999V0201201N006012200019N0020001N1+03041+01931101031ADDAA103000091AY111031AY211031GA1041+013801061GF104991041051012501001001IA1019MA1999999095611MD1210281+0181MW1041REMSYN112AAXX  13031 76393 21620 41206 10304 20193 39561 40103 52028 70411 84500 90250 333 0/300 30/// 58018 69907 84646;EQDQ01  00002PRCP03
0338763930999992012061306004+25733-100300FM-12+051599999V0201201N005012200019N0010001N1+02721+02191101181ADDAA103999999AA206000091AY111061AY211061GA1021+006601061GF104991021051008001011001GJ106129IA1019KA1240M+03841KA2240N+02541MA1999999095731MD1210121+0111MW1051REMSYN136AAXX  13061 76393 01510 41205 10272 20219 39573 40118 52012 69901 70511 82510 90545 333 0/330 10384 20254 30/// 55102 58011 69907 82622;EQDQ01  00002PRCP06Q02  99992PRCP03
0217763930999992012061309004+25733-100300FM-12+051599999V0201201N005010045019N0010001N1+02581+02221101001ADDAY121031AY221031GA1061+004501061GF106991061051004501001001IA1019MA1999999095521MD1710211-0021MW1051REMSYN106AAXX  13091 76393 31410 61205 10258 20222 39552 40100 57021 70522 86500 90845 333 0/300 30/// 59002 86615;
0161763930999992012061312004+25733-100300FM-12+051599999V0201201N002010042019N0010001N1+02561+02201101031ADDAY121061AY221061GF106991061051004501001001MA1999999095511MD1710011+9999MW1051REMSYN072AAXX  13121 76393 31410 61202 10256 20220 39551 40103 57001 70522 86500;
0217763930999992012061315004+25733-100300FM-12+051599999V0201201N002012200019N0020001N1+02761+02241101181ADDAY101031AY201031GA1031+006301061GF103991031051008001001001IA1019MA1999999095621MD1210111-0051MW1041REMSYN106AAXX  13151 76393 31520 31202 10276 20224 39562 40118 52011 70400 83500 91450 333 0/300 30/// 59005 83621;
0161763930999992012061318004+25733-100300FM-12+051599999V0201101N003012200019N0010001N1+03161+02041101121ADDAY101061AY201061GF102991021041012501001001MA1999999095581MD1710041+9999MW1051REMSYN072AAXX  13181 76393 31610 21103 10316 20204 39558 40112 57004 70500 82400;
0217763930999992012061321004+25733-100300FM-12+051599999V0201201N004012200019N0020001N1+03601+01691100801ADDAY101031AY201031GA1031+021001061GF103991031041022501001001IA1019MA1999999095321MD1710261-0111MW1051REMSYN106AAXX  13211 76393 31820 31204 10360 20169 39532 40080 57026 70500 83400 92050 333 0/300 30/// 59011 83657;
0161763930999992012061400004+25733-100300FM-12+051599999V0201201N002012200019N0030001N1+03651+01531100601ADDAY111061AY211061GF104991041041022501001001MA1999999095181MD1710141+9999MW1041REMSYN072AAXX  14001 76393 31830 41202 10365 20153 39518 40060 57014 70411 84400;
0199763930999992012061403004+25733-100300FM-12+051599999V0201301N002012200019N0020001N1+03121+02051100671ADDAY141031AY241031GA1001+999999999GF100991001001999999001001IA1019MA1999999095281MD1210101-0331MW1041REMSYN088AAXX  14031 76393 31920 01302 10312 20205 39528 40067 52010 70444 90249 333 30/// 59033;
0223763930999992012061406004+25733-100300FM-12+051599999V0201101N004012200019N0020001N1+02801+02131100781ADDGA1001+999999999GF100991001001999999001001GJ105949IA1019KA1240M+03841KA2240N+02501MA1999999095361MD1210081-0371REMSYN100AAXX  14061 76393 32920 01104 10280 20213 39536 40078 52008 90545 333 10384 20250 30/// 55099 59037;
0171763930999992012061409004+25733-100300FM-12+051599999V0201101N002012200019N0010001N1+02501+02021100791ADDGA1001+999999999GF100991001001999999001001IA1019MA1999999095341MD1710021-0181REMSYN082AAXX  14091 76393 32910 01102 10250 20202 39534 40079 57002 90855 333 30/// 59018;
0245763930999992012061412004+25733-100300FM-12+051599999V0200601N001012200019N0020001N1+02361+01991100891ADDAA124000091GA1001+999999999GF100991001001999999001001IA1019KA1240M+03841KA2120N+02301MA1999999095381MD1210041-0131REMSYN100AAXX  14121 76393 32920 00601 10236 20199 39538 40089 52004 91150 333 10384 20230 30224 59013 70000;EQDQ01  00002PRCP24
0217763930999992012061415004+25733-100300FM-12+051599999V0200701N001012200019N0020001N1+02781+02081101031ADDAY111031AY211031GA1011+008701061GF104991011041008001001011IA1019MA1999999095471MD1210091-0151MW1051REMSYN106AAXX  14151 76393 31520 40701 10278 20208 39547 40103 52009 70511 81401 91450 333 0/305 30/// 59015 81629;
0161763930999992012061418004+25733-100300FM-12+051599999V0201101N003012200019N0010001N1+03141+02111101001ADDAY101061AY201061GF101991011041012501001001MA1999999095461MD1710011+9999MW1051REMSYN072AAXX  14181 76393 31610 11103 10314 20211 39546 40100 57001 70500 81400;
0217763930999992012061421004+25733-100300FM-12+051599999V0201101N004012200019N0020001N1+03521+01981100721ADDAY101031AY201031GA1011+018001061GF101991011041017501001001IA1019MA1999999095231MD1710231-0091MW1051REMSYN106AAXX  14211 76393 31720 11104 10352 20198 39523 40072 57023 70500 81400 92050 333 0/500 30/// 59009 81656;
0161763930999992012061500004+25733-100300FM-12+051599999V0201401N002012200019N0030001N1+03601+01761100861ADDAY141061AY241061GF104991011041022501001061MA1999999095121MD1710111+9999MW1041REMSYN072AAXX  15001 76393 31830 41402 10360 20176 39512 40086 57011 70444 81406;
0199763930999992012061503004+25733-100300FM-12+051599999V0201101N001012200019N0020001N1+03271+01661100671ADDAY141031AY241031GA1001+999999999GF100991001001999999001001IA1019MA1999999095201MD1210081-0081MW1041REMSYN088AAXX  15031 76393 31920 01101 10327 20166 39520 40067 52008 70444 90249 333 30/// 59008;
0223763930999992012061506004+25733-100300FM-12+051599999V0201301N006012200019N0020001N1+02801+01941100771ADDGA1001+999999999GF100991001001999999001001GJ106429IA1019KA1240M+03801KA2240N+02301MA1999999095361MD1210161+0001REMSYN100AAXX  15061 76393 32920 01306 10280 20194 39536 40077 52016 90548 333 10380 20230 30/// 55107 58000;
0171763930999992012061509004+25733-100300FM-12+051599999V0201201N005012200019N0010001N1+02521+01941100691ADDGA1001+999999999GF100991001001999999001001IA1019MA1999999095241MD1710121-0101REMSYN082AAXX  15091 76393 32910 01205 10252 20194 39524 40069 57012 90845 333 30/// 59010;
0244763930999992012061512004+25733-100300FM-12+051599999V0200601N001012200019N0020001N1+02381+01981100941ADDAA124000091GA1041+004801061GF104991041051004501001001IA1019KA1240M+03801KA2120N+02301MA1999999095431MD1210191+0051REMSYN118AAXX  15121 76393 32420 40601 10238 20198 39543 40094 52019 84500 91150 333 0/300 10380 20230 30226 58005 70000 84616;
0217763930999992012061515004+25733-100300FM-12+051599999V0200601N002012200019N0030001N1+02601+02001101151ADDAY101031AY201031GA1041+007501061GF104991041051008001001001IA1019MA1999999095591MD1210161+0121MW1041REMSYN106AAXX  15151 76393 31530 40602 10260 20200 39559 40115 52016 70400 84500 91450 333 0/300 30/// 58012 84625;
0161763930999992012061518004+25733-100300FM-12+051599999V0200701N003012200019N0030001N1+03201+02061101061ADDAY101061AY201061GF103991011041012501001011MA1999999095511MD1710081+9999MW1051REMSYN072AAXX  15181 76393 31630 30703 10320 20206 39551 40106 57008 70500 81401;
0217763930999992012061521004+25733-100300FM-12+051599999V0201301N002012200019N0040001N1+03441+01881100801ADDAY121031AY221031GA1031+018001061GF106991031051017501001061IA1019MA1999999095301MD1710211+0071MW1051REMSYN106AAXX  15211 76393 31740 61302 10344 20188 39530 40080 57021 70522 83506 92050 333 0/505 30/// 58007 83656;
0161763930999992012061600004+25733-100300FM-12+051599999V0201201N002010360019N0030001N1+03541+01651100561ADDAY121061AY221061GF107991011041022501011061MA1999999095121MD1710181+9999MW1041REMSYN072AAXX  16001 76393 31830 71202 10354 20165 39512 40056 57018 70422 81416;
0217763930999992012061603004+25733-100300FM-12+051599999V0201301N003012200019N0030001N1+02971+01911100871ADDAY111031AY211031GA1021+013201061GF102991021051012501001001IA1019MA1999999095451MD1210331+0251MW1041REMSYN106AAXX  16031 76393 31630 21303 10297 20191 39545 40087 52033 70411 82500 90250 333 0/500 30/// 58025 82644;
0161763930999992012061606004+25733-100300FM-12+051599999V0201201N005012200019N0020001N1+02681+01771101011ADDAY101061AY201061GF101991011051012501001001MA1999999095561MD1210111+9999MW1051REMSYN072AAXX  16061 76393 31620 11205 10268 20177 39556 40101 52011 70500 81500;
0217763930999992012061609004+25733-100300FM-12+051599999V0201201N006010051019N0010001N1+02501+02081100941ADDAY121031AY221031GA1061+005101061GF106991061051004501001001IA1019MA1999999095451MD1710111+0021MW1051REMSYN106AAXX  16091 76393 31410 61206 10250 20208 39545 40094 57011 70522 86500 90845 333 0/300 30/// 58002 86617;
0180763930999992012061612004+25733-100300FM-12+051599999V0201201N003012200019N0010001N1+02461+02121101101ADDAY121061AY221061GF103991999051004501001001MA1999999095561MD1210111+9999MW1041REMSYN072AAXX  16121 76393 31410 31203 10246 20212 39556 40110 52011 70422 86500;EQDQ01+000062SCOTLC
0217763930999992012061615004+25733-100300FM-12+051599999V0201201N001012200019N0010001N1+02601+02121101311ADDAY101031AY201031GA1021+005701061GF102991021051004501001001IA1019MA1999999095731MD1210171+0141MW1041REMSYN106AAXX  16151 76393 31410 21201 10260 20212 39573 40131 52017 70400 82500 91450 333 0/300 30/// 58014 82619;
0161763930999992012061618004+25733-100300FM-12+051599999V0201201N003012200019N0030001N1+03201+02021101251ADDAY101061AY201061GF103991031041012501001001MA1999999095691MD1710041+9999MW1041REMSYN072AAXX  16181 76393 31630 31203 10320 20202 39569 40125 57004 70400 83400;
0189763930999992012061621004+25733-100300FM-12+051599999V0201201N004010210019N0050001N1+03601+01801100971ADDGA1051+021001061GF105991051041022501001001IA1019MA1999999095471MD1710221+0171REMSYN100AAXX  16211 76393 32850 51204 10360 20180 39547 40097 57022 85400 92050 333 0/300 30/// 58017 85657;
0363763930999992012061700004+25733-100300FM-12+051599999V0201301N003010210019N0100001N1+03421+01671100801ADDAA103999999AA206000091AA324000091AY121061AY221061GA1051+021001061GF105991051051022501001001IA1019KA1120M+03721KA2180N+02301MA1999999095361MD1710111+0241MW1041REMSYN142AAXX  17001 76393 01860 51303 10342 20167 39536 40080 57011 69901 70422 85500 92347 333 0/300 10372 20230 30/// 51361 58024 69907 79999 85657;EQDQ01  00002PRCP06Q02  00002PRCP24Q03  99992PRCP03
0217763930999992012061703004+25733-100300FM-12+051599999V0201201N002012200019N0040001N1+02851+01821101101ADDAY141031AY241031GA1011+012601061GF101991011051012501001001IA1019MA1999999095671MD1210311+0221MW1041REMSYN106AAXX  17031 76393 31640 11202 10285 20182 39567 40110 52031 70444 81500 90246 333 0/400 30/// 58022 81642;
0161763930999992012061706004+25733-100300FM-12+051599999V0201201N004012200019N0020001N1+02641+02011101231ADDAY101061AY201061GF101991011051008001001001MA1999999095771MD1210101+9999MW1041REMSYN072AAXX  17061 76393 31520 11204 10264 20201 39577 40123 52010 70400 81500;
0217763930999992012061709004+25733-100300FM-12+051599999V0201201N003012200019N0010001N1+02401+02061101201ADDAY101031AY201031GA1021+004201061GF102991021051004501001001IA1019MA1999999095691MD1710081+0241MW1041REMSYN106AAXX  17091 76393 31410 21203 10240 20206 39569 40120 57008 70400 82500 90850 333 0/300 30/// 58024 82614;
0161763930999992012061712004+25733-100300FM-12+051599999V0200601N002010021019N0010001N1+02321+02161101331ADDAY121061AY221061GF107991071061002501001001MA1999999095761MD1210071+9999MW1051REMSYN072AAXX  17121 76393 31310 70602 10232 20216 39576 40133 52007 70522 87600;
0217763930999992012061715004+25733-100300FM-12+051599999V0200601N001010072019N0030001N1+02661+02071101511ADDAY121031AY221031GA1051+007201061GF105991051051008001001001IA1019MA1999999095911MD1210151+0181MW1041REMSYN106AAXX  17151 76393 31530 50601 10266 20207 39591 40151 52015 70422 85500 91450 333 0/300 30/// 58018 85624;
0180763930999992012061718004+25733-100300FM-12+051599999V0201201N004012200019N0050001N1+03101+02001101361ADDAY101061AY201061GF102991999041012501001001MA1999999095781MD1710131+9999MW1041REMSYN072AAXX  17181 76393 31650 21204 10310 20200 39578 40136 57013 70400 83400;EQDQ01+000032SCOTLC
0217763930999992012061721004+25733-100300FM-12+051599999V0201101N002012200019N0050001N1+03461+01801100961ADDAY101031AY201031GA1031+018001061GF103991031041022501001001IA1019MA1999999095441MD1710341-0031MW1041REMSYN106AAXX  17211 76393 31850 31102 10346 20180 39544 40096 57034 70400 83400 92050 333 0/300 30/// 59003 83656;
0161763930999992012061800004+25733-100300FM-12+051599999V0201501N001012200019N0050001N1+03541+01571100681ADDAY121061AY221061GF104991031041022501031001MA1999999095231MD1710211+9999MW1041REMSYN072AAXX  18001 76393 31850 41501 10354 20157 39523 40068 57021 70422 83430;
0217763930999992012061803004+25733-100300FM-12+051599999V0201201N002012200019N0030001N1+03131+01771100751ADDAY121031AY221031GA1041+018001061GF104991041051017501001001IA1019MA1999999095321MD1210091-0351MW1041REMSYN106AAXX  18031 76393 31730 41202 10313 20177 39532 40075 52009 70422 84500 90249 333 0/300 30/// 59035 84656;
0241763930999992012061806004+25733-100300FM-12+051599999V0201201N006012200019N0020001N1+02761+01931100901ADDGA1021+010201061GF102991021051012501001001GJ106609IA1019KA1240M+03361KA2240N+02281MA1999999095461MD1210141-0311REMSYN118AAXX  18061 76393 32620 21206 10276 20193 39546 40090 52014 82500 90547 333 0/300 10336 20228 30/// 55110 59031 82634;
0171763930999992012061809004+25733-100300FM-12+051599999V0201201N003012200019N0010001N1+02501+02021100761ADDGA1001+999999999GF100991001001999999001001IA1019MA1999999095301MD1710161-0391REMSYN082AAXX  18091 76393 32910 01203 10250 20202 39530 40076 57016 90845 333 30/// 59039;
0161763930999992012061812004+25733-100300FM-12+051599999V0209999C000012200019N0020001N1+02401+02091100661ADDAY101061AY201061GF101991011051004501001001MA1999999095151MD1710151+9999MW1041REMSYN072AAXX  18121 76393 31420 10000 10240 20209 39515 40066 57015 70400 81500;
0217763930999992012061815004+25733-100300FM-12+051599999V0200601N002012200019N0030001N1+02761+02181100841ADDAY101031AY201031GA1011+007201061GF101991011041008001001001IA1019MA1999999095291MD1210141-0621MW1041REMSYN106AAXX  18151 76393 31530 10602 10276 20218 39529 40084 52014 70400 81400 91450 333 0/300 30/// 59062 81624;
0161763930999992012061818004+25733-100300FM-12+051599999V0200401N003012200019N0030001N1+03341+02061100711ADDAY101061AY201061GF101991011041017501001001MA1999999095181MD1710111+9999MW1051REMSYN072AAXX  18181 76393 31730 10403 10334 20206 39518 40071 57011 70500 81400;
0217763930999992012061821004+25733-100300FM-12+051599999V0201101N002012200019N0030001N1+03661+01811100401ADDAY101031AY201031GA1021+021001061GF103991021041022501011001IA1019MA1999999094941MD1710241-0501MW1051REMSYN106AAXX  18211 76393 31830 31102 10366 20181 39494 40040 57024 70500 82410 92050 333 0/310 30/// 59050 82657;
0180763930999992012061900004+25733-100300FM-12+051599999V0201101N001019999999N0040001N1+03661+01621100211ADDAY121061AY221061GF106991031051999999011071MA1999999094821MD1710191+9999MW1041REMSYN072AAXX  19001 76393 31940 61101 10366 20162 39482 40021 57062 70422 83517;EQDQ01+000622APC3  
0217763930999992012061903004+25733-100300FM-12+051599999V0201201N003012200019N0030001N1+03191+01681100311ADDAY111031AY211031GA1031+018001091GF103991031031017501001001IA1019MA1999999094941MD1210121-0381MW1041REMSYN106AAXX  19031 76393 31730 31203 10319 20168 39494 40031 52012 70411 83300 90248 333 00100 30/// 59038 83956;
0161763930999992012061906004+25733-100300FM-12+051599999V0201201N006010075019N0020001N1+02641+01891100521ADDAY121061AY221061GF105991051051008001001001MA1999999095121MD1210181+9999MW1051REMSYN072AAXX  19061 76393 31520 51206 10264 20189 39512 40052 52018 70522 85500;
0171763930999992012061909004+25733-100300FM-12+051599999V0201201N003012200019N0020001N1+02521+02011100471ADDGA1001+999999999GF100991001001999999001001IA1019MA1999999095021MD1710101-0281REMSYN082AAXX  19091 76393 32920 01203 10252 20201 39502 40047 57010 90842 333 30/// 59028;
0161763930999992012061912004+25733-100300FM-12+051599999V0201101N001010042019N0020001N1+02461+02001100641ADDAY121061AY221061GF105991051051004501001001MA1999999095141MD1210121+9999MW1041REMSYN072AAXX  19121 76393 31420 51101 10246 20200 39514 40064 52012 70422 85500;
0217763930999992012061915004+25733-100300FM-12+051599999V0201201N002012200019N0030001N1+02681+02061100821ADDAY101031AY201031GA1031+007501061GF103991031051008001001001IA1019MA1999999095271MD1210131-0021MW1041REMSYN106AAXX  19151 76393 31530 31202 10268 20206 39527 40082 52013 70400 83500 91450 333 0/300 30/// 59002 83625;
0161763930999992012061918004+25733-100300FM-12+051599999V0201201N005012200019N0030001N1+03141+02021100741ADDAY101061AY201061GF103991031051012501001001MA1999999095211MD1710061+9999MW1041REMSYN072AAXX  19181 76393 31630 31205 10314 20202 39521 40074 57006 70400 83500;
0217763930999992012061921004+25733-100300FM-12+051599999V0201201N005012200019N0030001N1+03481+01931100441ADDAY101031AY201031GA1031+018001061GF103991031041017501001001IA1019MA1999999094961MD1710251+0021MW1051REMSYN106AAXX  19211 76393 31730 31205 10348 20193 39496 40044 57025 70500 83400 92050 333 0/300 30/// 58002 83656;
0336763930999992012062000004+25733-100300FM-12+051599999V0201301N002010144019N0040001N1+03081+01911100521ADDAA103000191AA224000191AY121061AY221061GA1071+014401061GF107991071051012501001001IA1019KA1120M+03681KA2180N+02421MA1999999095071MD1210111+0251MW1041REMSYN142AAXX  20001 76393 01640 71302 10308 20191 39507 40052 52011 69911 70422 87500 92350 333 0/300 10368 20242 30/// 51211 58025 69917 70001 87648;EQDQ01  00002PRCP06Q02  00002PRCP06
0223763930999992012062003004+25733-100300FM-12+051599999V0201201N002012200019N0020001N1+02641+01821100601ADDAY101031AY201031GA1031+010201061GF103991031051012501001001IA1019MA1999999095151MD1210081+0211MW1041REMSYN112AAXX  20031 76393 31620 31202 10264 20182 39515 40060 52008 70400 83500 90250 333 0/300 30/// 54116 58021 83634;
0223763930999992012062006004+25733-100300FM-12+051599999V0201101N001012200019N0010001N1+02501+01921100761ADDGA1001+999999999GF100991001001999999001001GJ104869IA1019KA1240M+03681KA2240N+02421MA1999999095281MD1210131+0161REMSYN100AAXX  20061 76393 32910 01101 10250 20192 39528 40076 52013 90545 333 10368 20242 30/// 55081 58016;
0217763930999992012062009004+25733-100300FM-12+051599999V0201101N005012200019N0010001N1+02241+01861100711ADDAY101031AY201031GA1031+004801061GF103991031051004501001001IA1019MA1999999095181MD1710101+0161MW1051REMSYN106AAXX  20091 76393 31410 31105 10224 20186 39518 40071 57010 70500 83500 90845 333 0/300 30/// 58016 83616;
0161763930999992012062012004+25733-100300FM-12+051599999V0201201N002010042019N0020001N1+02221+01901100851ADDAY121061AY221061GF108991081051004501999999MA1999999095261MD1210081+9999MW1051REMSYN072AAXX  20121 76393 31420 81202 10222 20190 39526 40085 52008 70522 885//;
0217763930999992012062015004+25733-100300FM-12+051599999V0201201N003012200019N0030001N1+02541+01931100971ADDAY101031AY201031GA1031+007501061GF103991031051008001001001IA1019MA1999999095371MD1210111+0101MW1041REMSYN106AAXX  20151 76393 31530 31203 10254 20193 39537 40097 52011 70400 83500 91450 333 0/300 30/// 58010 83625;
0161763930999992012062018004+25733-100300FM-12+051599999V0201101N002012200019N0030001N1+03021+01901100931ADDAY101061AY201061GF102991021041012501001001MA1999999095351MD1710021+9999MW1041REMSYN072AAXX  20181 76393 31630 21102 10302 20190 39535 40093 57002 70400 82400;
0217763930999992012062021004+25733-100300FM-12+051599999V0201201N004010180019N0050001N1+03401+01901100681ADDAY121031AY221031GA1051+018001061GF105991051051017501001001IA1019MA1999999095161MD1710191+0201MW1041REMSYN106AAXX  20211 76393 31750 51204 10340 20190 39516 40068 57019 70422 85500 92050 333 0/300 30/// 58020 85656;
0161763930999992012062100004+25733-100300FM-12+051599999V0201301N003010210019N0040001N1+03321+01651100561ADDAY121061AY221061GF105991051051022501001001MA1999999095101MD1710061+9999MW1041REMSYN072AAXX  21001 76393 31840 51303 10332 20165 39510 40056 57006 70422 85500;
0217763930999992012062103004+25733-100300FM-12+051599999V0201201N002012200019N0030001N1+02811+01821100791ADDAY141031AY241031GA1011+012301061GF101991011051012501001001IA1019MA1999999095341MD1210241+0191MW1041REMSYN106AAXX  21031 76393 31630 11202 10281 20182 39534 40079 52024 70444 81500 90248 333 0/500 30/// 58019 81641;
0161763930999992012062106004+25733-100300FM-12+051599999V0201101N006012200019N0030001N1+02561+01971100931ADDAY101061AY201061GF101991011051008001001001MA1999999095461MD1210121+9999MW1051REMSYN072AAXX  21061 76393 31530 11106 10256 20197 39546 40093 52012 70500 81500;
0217763930999992012062109004+25733-100300FM-12+051599999V0201201N004010048019N0010001N1+02381+01981100911ADDAY121031AY221031GA1071+004801061GF107991071051004501999999IA1019MA1999999095401MD1710061+0221MW1051REMSYN106AAXX  21091 76393 31410 71204 10238 20198 39540 40091 57006 70522 875// 90845 333 0/3// 30/// 58022 87616;
0161763930999992012062112004+25733-100300FM-12+051599999V0201101N003010042019N0020001N1+02341+01901101121ADDAY121061AY221061GF107991071051004501001001MA1999999095551MD1210151+9999MW1051REMSYN072AAXX  21121 76393 31420 71103 10234 20190 39555 40112 52015 70522 87500;
0217763930999992012062115004+25733-100300FM-12+051599999V0201201N001012200019N0030001N1+02681+02001101221ADDAY101031AY201031GA1021+008401061GF102991021051008001001001IA1019MA1999999095631MD1210081+0261MW1041REMSYN106AAXX  21151 76393 31530 21201 10268 20200 39563 40122 52008 70400 82500 91450 333 0/300 30/// 58026 82628;
0161763930999992012062118004+25733-100300FM-12+051599999V0200501N003010120019N0050001N1+03041+01931101211ADDAY121061AY221061GF105991051051012501001001MA1999999095641MD1210011+9999MW1041REMSYN072AAXX  21181 76393 31650 50503 10304 20193 39564 40121 52001 70422 85500;
0234763930999992012062121004+25733-100300FM-12+051599999V0201201N002010054019N0020001N1+02641+02201101061ADDAA103004091AY151031AY251031GA1051+005401061GF105991051051004501001001IA1119MA1999999095511MD1710131+0351MW1501REMSYN112AAXX  21211 76393 21420 51202 10264 20220 39551 40106 57013 75055 85500 92050 333 0/300 32/// 58035 60047 85618;
0312763930999992012062200004+25733-100300FM-12+051599999V0202101N003010066019N0040001N1+02451+01911101051ADDAA103003091AA206005192AA324004892AY151061AY251061GA1071+006601061GF107991071051008001999999IA1099KA1120M+03341KA2180N+02261MA1999999095521MD1210011+0421MW1501REMSYN142AAXX  22001 76393 01540 72103 10245 20191 39552 40105 52001 60051 75055 875// 92348 333 0/399 10334 20226 31/// 50631 58042 60037 70048 87622;
0234763930999992012062203004+25733-100300FM-12+051599999V0202101N001010018019N0020001N1+02281+02141101371ADDAA103004091AY151031AY251031GA1071+001801061GF107991071051001501999999IA1119MA1999999095811MD1210291+0421MW1501REMSYN112AAXX  22031 76393 21220 72101 10228 20214 39581 40137 52029 75055 875// 90249 333 0/399 32/// 58042 60047 87606;
0303763930999992012062206004+25733-100300FM-12+051599999V0202001N001010021019N0020001N1+02261+02091101361ADDAA103999929AA206004191AY121061AY221061GA1051+002101061GF105991051051002501001001GJ104809IA1099KA1240M+03341KA2240N+02241MA1999999095771MD1710041+0311MW1051REMSYN136AAXX  22061 76393 01320 52001 10226 20209 39577 40136 57004 60041 70522 85500 90545 333 0/300 10334 20224 31/// 55080 58031 69907 85607;
0217763930999992012062209004+25733-100300FM-12+051599999V0202501N001012200019N0010001N1+02181+01951101211ADDAY141031AY201031GA1031+002701061GF103991031051002501001001IA1099MA1999999095601MD1710171+0201MW1051REMSYN106AAXX  22091 76393 31310 32501 10218 20195 39560 40121 57017 70540 83500 90850 333 0/300 31/// 58020 83609;
0161763930999992012062212004+25733-100300FM-12+051599999V0209999C000010012019N0010001N1+02181+02041101251ADDAY121061AY221061GF105991051061001501001001MA1999999095611MD1210011+9999MW1051REMSYN072AAXX  22121 76393 31210 50000 10218 20204 39561 40125 52001 70522 85600;
0217763930999992012062215004+25733-100300FM-12+051599999V0200601N001010066019N0030001N1+02581+02041101411ADDAY121031AY221031GA1051+006601061GF105991051051008001001001IA1019MA1999999095771MD1210161+0141MW1041REMSYN106AAXX  22151 76393 31530 50601 10258 20204 39577 40141 52016 70422 85500 91450 333 0/300 30/// 58014 85622;
0161763930999992012062218004+25733-100300FM-12+051599999V0201101N001010075019N0030001N1+02741+01941101381ADDAY121061AY221061GF108991081051008001999999MA1999999095761MD1710011+9999MW1041REMSYN072AAXX  22181 76393 31530 81101 10274 20194 39576 40138 57001 70422 885//;
0217763930999992012062221004+25733-100300FM-12+051599999V0201601N001010114019N0040001N1+02941+02011101171ADDAY121031AY221031GA1071+011401061GF107991071051012501001001IA1019MA1999999095601MD1710161+0091MW1041REMSYN106AAXX  22211 76393 31640 71601 10294 20201 39560 40117 57016 70422 87500 92050 333 0/300 30/// 58009 87638;
0161763930999992012062300004+25733-100300FM-12+051599999V0202701N001010360019N0050001N1+03041+01851100901ADDAY121061AY221061GF106991031051012501031081MA1999999095391MD1710211+9999MW1041REMSYN072AAXX  23001 76393 31650 62701 10304 20185 39539 40090 57021 70422 83538;
0217763930999992012062303004+25733-100300FM-12+051599999V0202001N001012200019N0030001N1+02801+01911100921ADDAY111031AY211031GA1021+010801061GF103991021051012501001011IA1019MA1999999095421MD1210031-0391MW1041REMSYN106AAXX  23031 76393 31630 32001 10280 20191 39542 40092 52003 70411 82501 90248 333 0/305 30/// 59039 82636;
0223763930999992012062306004+25733-100300FM-12+051599999V0201201N006012200019N0030001N1+02501+01791100991ADDGA1001+999999999GF100991001001999999001001GJ103009IA1019KA1240M+03241KA2240N+02101MA1999999095481MD1210061-0291REMSYN100AAXX  23061 76393 32930 01206 10250 20179 39548 40099 52006 90545 333 10324 20210 30/// 55050 59029;
0171763930999992012062309004+25733-100300FM-12+051599999V0202801N001012200019N0010001N1+02401+01841100911ADDGA1001+999999999GF100991001001999999001001IA1019MA1999999095391MD1710091-0211REMSYN082AAXX  23091 76393 32910 02801 10240 20184 39539 40091 57009 90843 333 30/// 59021;
0161763930999992012062318004+25733-100300FM-12+051599999V0200601N001012200019N0030001N1+03121+01611101081ADDAY101061AY201061GF103991031051017501001001MA1999999095521MD1210071+9999MW1041REMSYN072AAXX  23181 76393 31730 30601 10312 20161 39552 40108 52007 70400 83500;
0217763930999992012062321004+25733-100300FM-12+051599999V0200601N001012200019N0030001N1+03441+01511100871ADDAY101031AY201031GA1021+024001061GF102991021041022501001001IA1019MA1999999095361MD1710161-0241MW1041REMSYN106AAXX  23211 76393 31830 20601 10344 20151 39536 40087 57016 70400 82400 92050 333 0/300 30/// 59024 82658;
0161763930999992012062400004+25733-100300FM-12+051599999V0201301N001012200019N0040001N1+03371+01641100751ADDAY141061AY241061GF102991021051022501001001MA1999999095291MD1710071+9999MW1041REMSYN072AAXX  24001 76393 31840 21301 10337 20164 39529 40075 57007 70444 82500;
0217763930999992012062403004+25733-100300FM-12+051599999V0201301N002012200019N0030001N1+03001+01491100891ADDAY141031AY241031GA1011+018001061GF101991011051017501001001IA1019MA1999999095451MD1210161+0031MW1041REMSYN106AAXX  24031 76393 31730 11302 10300 20149 39545 40089 52016 70444 81500 90248 333 0/500 30/// 58003 81656;
0223763930999992012062406004+25733-100300FM-12+051599999V0201201N006012200019N0020001N1+02901+01471100991ADDGA1001+999999999GF100991001001999999001001GJ106609IA1019KA1240M+03601KA2240N+02201MA1999999095541MD1210091+0061REMSYN100AAXX  24061 76393 32920 01206 10290 20147 39554 40099 52009 90550 333 10360 20220 30/// 55110 58006;
0171763930999992012062409004+25733-100300FM-12+051599999V0201101N002012200019N0010001N1+02521+02131101041ADDGA1001+999999999GF100991001001999999001001IA1019MA1999999095551MD1210011+0161REMSYN082AAXX  24091 76393 32910 01102 10252 20213 39555 40104 52001 90845 333 30/// 58016;
0245763930999992012062412004+25733-100300FM-12+051599999V0209999C000012200019N0020001N1+02421+02171101151ADDAA124000091GA1001+999999999GF100991001001999999001001IA1019KA1240M+03601KA2120N+02361MA1999999095611MD1210061+0251REMSYN100AAXX  24121 76393 32920 00000 10242 20217 39561 40115 52006 91150 333 10360 20236 30230 58025 70000;EQDQ01  00002PRCP24
0217763930999992012062415004+25733-100300FM-12+051599999V0200501N001012200019N0030001N1+02801+02221101281ADDAY101031AY201031GA1011+007201061GF101991011041008001001001IA1019MA1999999095711MD1210101+0261MW1041REMSYN106AAXX  24151 76393 31530 10501 10280 20222 39571 40128 52010 70400 81400 91450 333 0/300 30/// 58026 81624;
0161763930999992012062418004+25733-100300FM-12+051599999V0201201N003012200019N0030001N1+03301+01881101191ADDAY101061AY201061GF102991011041017501041001MA1999999095641MD1710071+9999MW1041REMSYN072AAXX  24181 76393 31730 21203 10330 20188 39564 40119 57007 70400 81440;
0217763930999992012062421004+25733-100300FM-12+051599999V0201201N003012200019N0040001N1+03501+01851100971ADDAY101031AY201031GA1031+018001061GF103991031041022501001001IA1019MA1999999095481MD1710161+0121MW1041REMSYN106AAXX  24211 76393 31840 31203 10350 20185 39548 40097 57016 70400 83400 92050 333 0/300 30/// 58012 83656;
0161763930999992012062500004+25733-100300FM-12+051599999V0201101N001010150019N0050001N1+03401+01831100851ADDAY121061AY221061GF105991051041017501001001MA1999999095411MD1710071+9999MW1041REMSYN072AAXX  25001 76393 31750 51101 10340 20183 39541 40085 57007 70422 85400;
0199763930999992012062503004+25733-100300FM-12+051599999V0201301N001012200019N0030001N1+03201+01681100941ADDAY141031AY241031GA1001+999999999GF100991001001999999001001IA1019MA1999999095511MD1210101+0061MW1041REMSYN088AAXX  25031 76393 31930 01301 10320 20168 39551 40094 52010 70444 90247 333 30/// 58006;
0161763930999992012062506004+25733-100300FM-12+051599999V0201101N004012200019N0020001N1+02841+02141101061ADDAY101061AY201061GF103991031051008001001001MA1999999095631MD1210121+9999MW1041REMSYN072AAXX  25061 76393 31520 31104 10284 20214 39563 40106 52012 70400 83500;
0171763930999992012062509004+25733-100300FM-12+051599999V0201501N001012200019N0010001N1+02641+02171101021ADDGA1001+999999999GF100991001001999999001001IA1019MA1999999095551MD1710081+0001REMSYN082AAXX  25091 76393 32910 01501 10264 20217 39555 40102 57008 90850 333 30/// 58000;
0161763930999992012062512004+25733-100300FM-12+051599999V0200601N001012200019N0030001N1+02541+02151101091ADDAY101061AY201061GF101991011041004501001001MA1999999095581MD1210031+9999MW1041REMSYN072AAXX  25121 76393 31430 10601 10254 20215 39558 40109 52003 70400 81400;
0217763930999992012062515004+25733-100300FM-12+051599999V0203101N001012200019N0030001N1+02921+02141101211ADDAY101031AY201031GA1021+009601061GF102991021041012501001001IA1019MA1999999095671MD1210091-0041MW1041REMSYN106AAXX  25151 76393 31630 23101 10292 20214 39567 40121 52009 70400 82400 91450 333 0/300 30/// 59004 82632;
0161763930999992012062518004+25733-100300FM-12+051599999V0201201N002012200019N0050001N1+03421+01921100881ADDAY101061AY201061GF103991031041017501001001MA1999999095371MD1710301+9999MW1041REMSYN072AAXX  25181 76393 31750 31202 10342 20192 39537 40088 57030 70400 83400;
0217763930999992012062521004+25733-100300FM-12+051599999V0201201N003012200019N0050001N1+03621+01641100881ADDAY101031AY201031GA1011+024001061GF101991011041022501001001IA1019MA1999999095391MD1210021-0091MW1041REMSYN106AAXX  25211 76393 31850 11203 10362 20164 39539 40088 52002 70400 81400 92050 333 0/300 30/// 59009 81658;
0161763930999992012062600004+25733-100300FM-12+051599999V0201101N001012200019N0050001N1+03641+01431100701ADDAY141061AY241061GF101991011011999999001001MA1999999095281MD1710111+9999MW1041REMSYN072AAXX  26001 76393 31950 11101 10364 20143 39528 40070 57011 70444 81100;
0199763930999992012062603004+25733-100300FM-12+051599999V0201601N001012200019N0030001N1+03271+01361100721ADDAY141031AY241031GA1001+999999999GF100991001001999999001001IA1019MA1999999095321MD1210041-0201MW1041REMSYN088AAXX  26031 76393 31930 01601 10327 20136 39532 40072 52004 70444 90249 333 30/// 59020;
0223763930999992012062606004+25733-100300FM-12+051599999V0202401N001012200019N0020001N1+02961+01401100721ADDGA1001+999999999GF100991001001999999001001GJ106969IA1019KA1240M+03921KA2240N+02461MA1999999095321MD1410001-0311REMSYN100AAXX  26061 76393 32920 02401 10296 20140 39532 40072 54000 90545 333 10392 20246 30/// 55116 59031;
0171763930999992012062609004+25733-100300FM-12+051599999V0203401N001012200019N0010001N1+02681+01671100721ADDGA1001+999999999GF100991001001999999001001IA1019MA1999999095291MD1710031-0261REMSYN082AAXX  26091 76393 32910 03401 10268 20167 39529 40072 57003 90845 333 30/// 59026;
0245763930999992012062612004+25733-100300FM-12+051599999V0202501N001012200019N0030001N1+02681+01631100771ADDAA124000091GA1001+999999999GF100991001001999999001001IA1019KA1240M+03921KA2120N+02441MA1999999095291MD1410001-0291REMSYN100AAXX  26121 76393 32930 02501 10268 20163 39529 40077 54000 91150 333 10392 20244 30240 59029 70000;EQDQ01  00002PRCP24
0171763930999992012062615004+25733-100300FM-12+051599999V0201601N001012200019N0030001N1+03241+01621100931ADDGA1001+999999999GF100991001001999999001001IA1019MA1999999095431MD1210141-0241REMSYN082AAXX  26151 76393 32930 01601 10324 20162 39543 40093 52014 91450 333 30/// 59024;
0161763930999992012062618004+25733-100300FM-12+051599999V0201101N003012200019N0030001N1+03661+01581100831ADDAY101061AY201061GF102991021041022501001001MA1999999095351MD1710081+9999MW1041REMSYN072AAXX  26181 76393 31830 21103 10366 20158 39535 40083 57008 70400 82400;
0217763930999992012062621004+25733-100300FM-12+051599999V0200601N003012200019N0030001N1+03761+01571100591ADDAY101031AY201031GA1021+024001061GF102991021041022501001001IA1019MA1999999095171MD1710181-0221MW1041REMSYN106AAXX  26211 76393 31830 20603 10376 20157 39517 40059 57018 70400 82400 92050 333 0/500 30/// 59022 82658;
0161763930999992012062700004+25733-100300FM-12+051599999V0201201N003012200019N0050001N1+03661+01581100421ADDAY101061AY201061GF102991021041022501001001MA1999999095061MD1710111+9999MW1041REMSYN072AAXX  27001 76393 31850 21203 10366 20158 39506 40042 57011 70400 82400;
0171763930999992012062703004+25733-100300FM-12+051599999V0201301N002012200019N0020001N1+03341+01521100501ADDGA1001+999999999GF100991001001999999001001IA1019MA1999999095151MD1210091-0171REMSYN082AAXX  27031 76393 32920 01302 10334 20152 39515 40050 52009 90248 333 30/// 59017;
0223763930999992012062706004+25733-100300FM-12+051599999V0209999C000012200019N0020001N1+03061+01571100651ADDGA1001+999999999GF100991001001999999001001GJ106909IA1019KA1240M+04021KA2240N+02441MA1999999095271MD1210121-0051REMSYN100AAXX  27061 76393 32920 00000 10306 20157 39527 40065 52012 90545 333 10402 20244 30/// 55115 59005;
0171763930999992012062709004+25733-100300FM-12+051599999V0200601N001012200019N0010001N1+02701+01661100641ADDGA1001+999999999GF100991001001999999001001IA1019MA1999999095231MD1710041-0061REMSYN082AAXX  27091 76393 32910 00601 10270 20166 39523 40064 57004 90850 333 30/// 59006;
0245763930999992012062712004+25733-100300FM-12+051599999V0209999C000012200019N0030001N1+02701+01831100841ADDAA124000091GA1001+999999999GF100991001001999999001001IA1019KA1240M+04021KA2120N+02561MA1999999095371MD1210141+0081REMSYN100AAXX  27121 76393 32930 00000 10270 20183 39537 40084 52014 91150 333 10402 20256 30246 58008 70000;EQDQ01  00002PRCP24
0171763930999992012062715004+25733-100300FM-12+051599999V0200501N001012200019N0030001N1+03081+01881101001ADDGA1001+999999999GF100991001001999999001001IA1019MA1999999095501MD1210131+0071REMSYN082AAXX  27151 76393 32930 00501 10308 20188 39550 40100 52013 91450 333 30/// 58007;
0237763930999992012062718004+25733-100300FM-12+051599999V0201101N004012200019N0020001N1+03501+01391101001ADDAY101061AY201061GA1001+999999999GF100991001001999999001001IA1019KA1120M+03761KA2240N+02561MA1999999095511MD1210011+0161MW1051REMSYN100AAXX  27181 76393 31920 01104 10350 20139 39551 40100 52001 70500 91750 333 10376 20256 30/// 58016;
0217763930999992012062721004+25733-100300FM-12+051599999V0201101N003012200019N0030001N1+03701+01391100861ADDAY101031AY201031GA1011+024001081GF101991011011022501001001IA1019MA1999999095411MD1710101+0241MW1041REMSYN106AAXX  27211 76393 31830 11103 10370 20139 39541 40086 57010 70400 81100 92050 333 0/500 30/// 58024 81858;
0161763930999992012062800004+25733-100300FM-12+051599999V0201201N002012200019N0040001N1+03731+01391100711ADDAY141061AY241061GF101991011011999999001001MA1999999095311MD1710091+9999MW1041REMSYN072AAXX  28001 76393 31940 11202 10373 20139 39531 40071 57009 70444 81100;
0199763930999992012062803004+25733-100300FM-12+051599999V0201101N001012200019N0030001N1+03341+01501100811ADDAY141031AY241031GA1001+999999999GF100991001001999999001001IA1019MA1999999095431MD1210121+0281MW1041REMSYN088AAXX  28031 76393 31930 01101 10334 20150 39543 40081 52012 70444 90249 333 30/// 58028;
0223763930999992012062806004+25733-100300FM-12+051599999V0201301N001012200019N0020001N1+02841+01791101061ADDGA1001+999999999GF100991001001999999001001GJ106969IA1019KA1240M+04001KA2240N+02561MA1999999095651MD1210221+0381REMSYN100AAXX  28061 76393 32920 01301 10284 20179 39565 40106 52022 90545 333 10400 20256 30/// 55116 58038;
0171763930999992012062809004+25733-100300FM-12+051599999V0200401N002012200019N0010001N1+02661+01851101041ADDGA1001+999999999GF100991001001999999001001IA1019MA1999999095581MD1710071+0351REMSYN082AAXX  28091 76393 32910 00402 10266 20185 39558 40104 57007 90845 333 30/// 58035;
0245763930999992012062812004+25733-100300FM-12+051599999V0200601N002012200019N0020001N1+02441+01921101191ADDAA124000091GA1001+999999999GF100991001001999999001001IA1019KA1240M+04001KA2120N+02401MA1999999095681MD1210101+0311REMSYN100AAXX  28121 76393 32920 00602 10244 20192 39568 40119 52010 91150 333 10400 20240 30230 58031 70000;EQDQ01  00002PRCP24
0171763930999992012062815004+25733-100300FM-12+051599999V0200401N002012200019N0030001N1+02781+02051101421ADDGA1001+999999999GF100991001001999999001001IA1019MA1999999095851MD1210171+0351REMSYN082AAXX  28151 76393 32930 00402 10278 20205 39585 40142 52017 91450 333 30/// 58035;
0161763930999992012062818004+25733-100300FM-12+051599999V0201301N004012200019N0010001N1+03321+02101101401ADDAY101061AY201061GF101991011041017501001001MA1999999095841MD1710011+9999MW1051REMSYN072AAXX  28181 76393 31710 11304 10332 20210 39584 40140 57001 70500 81400;
0217763930999992012062821004+25733-100300FM-12+051599999V0200701N003012200019N0010001N1+03621+01971101131ADDAY101031AY201031GA1031+018001061GF103991031041022501001001IA1019MA1999999095631MD1710211+0221MW1051REMSYN106AAXX  28211 76393 31810 30703 10362 20197 39563 40113 57021 70500 83400 92050 333 0/300 30/// 58022 83656;
0161763930999992012062900004+25733-100300FM-12+051599999V0201201N002012200019N0030001N1+03641+01821100941ADDAY111061AY211061GF103991031051022501001001MA1999999095501MD1710131+9999MW1041REMSYN072AAXX  29001 76393 31830 31202 10364 20182 39550 40094 57013 70411 83500;
0217763930999992012062903004+25733-100300FM-12+051599999V0201201N002012200019N0020001N1+03221+01781101071ADDAY141031AY241031GA1011+018001061GF101991011051017501001001IA1019MA1999999095651MD1210151+0221MW1041REMSYN106AAXX  29031 76393 31720 11202 10322 20178 39565 40107 52015 70444 81500 90249 333 0/500 30/// 58022 81656;
0161763930999992012062906004+25733-100300FM-12+051599999V0201201N006012200019N0020001N1+02761+02121101281ADDAY101061AY201061GF103991031051008001001001MA1999999095831MD1210181+9999MW1041REMSYN072AAXX  29061 76393 31520 31206 10276 20212 39583 40128 52018 70400 83500;
0223763930999992012062909004+25733-100300FM-12+051599999V0201201N00301036001CN0010001N1+02581+02101101191ADDAY111031AY211031GA1021+006001061GF105991021051004501031001IA1019MA1999999095721MD1710111+0141MW1051REMSYN112AAXX  29091 76393 31410 51203 10258 20210 39572 40119 57011 70511 82530 90845 333 0/360 30/// 58014 82620 83360;
0161763930999992012062912004+25733-100300FM-12+051599999V0201201N003012200019N0010001N1+02501+02261101201ADDAY101061AY201061GF102991021051004501001001MA1999999095681MD1710041+9999MW1051REMSYN072AAXX  29121 76393 31410 21203 10250 20226 39568 40120 57004 70500 82500;
0217763930999992012062915004+25733-100300FM-12+051599999V0201101N001010063019N0020001N1+02741+02241101291ADDAY121031AY221031GA1051+006301061GF105991051051008001001001IA1019MA1999999095731MD1210051-0121MW1041REMSYN106AAXX  29151 76393 31520 51101 10274 20224 39573 40129 52005 70422 85500 91450 333 0/300 30/// 59012 85621;
0161763930999992012062918004+25733-100300FM-12+051599999V0200701N003012200019N0020001N1+03321+02231101161ADDAY101061AY201061GF102991021041012501001001MA1999999095621MD1710111+9999MW1051REMSYN072AAXX  29181 76393 31620 20703 10332 20223 39562 40116 57011 70500 82400;
0217763930999992012062921004+25733-100300FM-12+051599999V0201101N002012200019N0030001N1+03681+02021100791ADDAY101031AY201031GA1031+021001061GF103991031041022501001001IA1019MA1999999095321MD1710301-0311MW1051REMSYN106AAXX  29211 76393 31830 31102 10368 20202 39532 40079 57030 70500 83400 92050 333 0/500 30/// 59031 83657;
0161763930999992012063000004+25733-100300FM-12+051599999V0201201N002010210019N0030001N1+03641+01821100591ADDAY121061AY221061GF105991051021022501001001MA1999999095181MD1710141+9999MW1041REMSYN072AAXX  30001 76393 31830 51202 10364 20182 39518 40059 57014 70422 85200;
0217763930999992012063003004+25733-100300FM-12+051599999V0200601N001012200019N0020001N1+03011+01981100711ADDAY111031AY211031GA1021+012601091GF102991021021012501001001IA1019MA1999999095301MD1210121-0351MW1131REMSYN106AAXX  30031 76393 31620 20601 10301 20198 39530 40071 52012 71311 82200 90248 333 01200 30/// 59035 82942;
0223763930999992012063006004+25733-100300FM-12+051599999V0201801N001012200019N0020001N1+02761+01931100771ADDGA1001+999999999GF100991001001999999001001GJ106249IA1019KA1240M+03901KA2240N+02481MA1999999095351MD1210051-0481REMSYN100AAXX  30061 76393 32920 01801 10276 20193 39535 40077 52005 90545 333 10390 20248 30/// 55104 59048;
0211763930999992012063009004+25733-100300FM-12+051599999V0200901N001012200019N0010001N1+02521+02131100731ADDAY101031AY201031GA1031+004801061GF103991999999004501999999IA1019MA1999999095271MD1710081-0451MW1051REMSYN100AAXX  30091 76393 31410 30901 10252 20213 39527 40073 57008 70500 90845 333 0/300 30/// 59045 83616;
0161763930999992012063012004+25733-100300FM-12+051599999V0209999C000010042019N0010001N1+02521+02161100811ADDAY121061AY221061GF107991071051004501001001MA1999999095291MD1210021+9999MW1051REMSYN072AAXX  30121 76393 31410 70000 10252 20216 39529 40081 52002 70522 87500;
0217763930999992012063015004+25733-100300FM-12+051599999V0201301N001010075019N0010001N1+02901+02271100871ADDAY121031AY221031GA1051+007501061GF105991051051008001001001IA1019MA1999999095341MD1210051-0391MW1051REMSYN106AAXX  30151 76393 31510 51301 10290 20227 39534 40087 52005 70522 85500 91450 333 0/300 30/// 59039 85625;
0249763930999992012063018004+25733-100300FM-12+051599999V0201201N003012200019N0020001N1+03261+02101100791ADDAY101061AY201061GA1031+014401061GF103991031051012501001001IA1019KA1120M+03441KA2240N+02461MA1999999095271MD1710071-0351MW1041REMSYN112AAXX  30181 76393 31620 31203 10326 20210 39527 40079 57007 70400 83500 91755 333 10344 20246 30/// 59035 83648;
0240763930999992012063021004+25733-100300FM-12+051599999V0202301N005010240019N0030001N1+02341+02171100611ADDAA103003091AY161031AY221031GA1081+024001061GF108991081051022501999999IA1119MA1999999095111MD1710161-0211MW1601REMSYN118AAXX  30211 76393 21830 82305 10234 20217 39511 40061 57016 76062 885// 92055 333 0/5// 32/// 54118 59021 60037 88658;
0161763930999992012070100004+25733-100300FM-12+051599999V0200601N002010120019N0030001N1+02781+01871100681ADDAY121061AY221061GF107991071051012501999999MA1999999095401MD1210291+9999MW1041REMSYN072AAXX  01001 76393 31630 70602 10278 20187 39540 40068 52029 70422 875//;
0253763930999992012070103004+25733-100300FM-12+051599999V0201101N001012200019N0020001N1+02471+01631100621ADDAA103000091AY111031AY211031GA1021+010201061GF102991021051012501001001IA1019MA1999999095441MD1210041+0141MW1041REMSYN112AAXX  01031 76393 21620 21101 10247 20163 39544 40062 52004 70411 82500 90249 333 0/300 30/// 58014 69907 82634;EQDQ01  00002PRCP03
0321763930999992012070106004+25733-100300FM-12+051599999V0200601N001012200019N0020001N1+02121+01881100861ADDAA106000091AY101061AY201061GA1011+002701061GF102991011051002501001011GJ104209IA1019KA1240M+03631KA2240N+99999MA1999999095351MD1710091+0001MW1041REMSYN130AAXX  01061 76393 11320 20601 10212 20188 39535 40086 57009 69901 70400 81501 90550 333 0/305 10363 20234 30/// 55070 58000 81609;EQDQ01  00002PRCP06Q02 +02342ATMN  
0217763930999992012070109004+25733-100300FM-12+051599999V0200601N003010018019N0010001N1+02101+01951100971ADDAY121031AY221031GA1071+001801071GF107991071061001501001001IA1019MA1999999095401MD1210051+0131MW1041REMSYN106AAXX  01091 76393 31210 70603 10210 20195 39540 40097 52005 70422 87600 90850 333 0/300 30/// 58013 87706;
0161763930999992012070112004+25733-100300FM-12+051599999V0200701N001010021019N0010001N1+02121+01951100811ADDAY121061AY221061GF108991081061002501999999MA1999999095381MD1710021+9999MW1041REMSYN072AAXX  01121 76393 31310 80701 10212 20195 39538 40081 57002 70422 886//;
0217763930999992012070115004+25733-100300FM-12+051599999V0200601N002010033019N0010001N1+02221+01961101241ADDAY121031AY221031GA1081+003301061GF108991081051004501999999IA1019MA1999999095631MD1210251+0291MW1041REMSYN106AAXX  01151 76393 31410 80602 10222 20196 39563 40124 52025 70422 885// 91450 333 0/3// 30/// 58029 88611;
0161763930999992012070118004+25733-100300FM-12+051599999V0200601N001010075019N0010001N1+02581+01981101301ADDAY121061AY221061GF108991081051008001999999MA1999999095661MD1210031+9999MW1051REMSYN072AAXX  01181 76393 31510 80601 10258 20198 39566 40130 52003 70522 885//;
0217763930999992012070121004+25733-100300FM-12+051599999V0201101N001010102019N0020001N1+02831+01991101071ADDAY121031AY221031GA1081+010201061GF108991081051012501999999IA1019MA1999999095471MD1710191+0361MW1041REMSYN106AAXX  01211 76393 31620 81101 10283 20199 39547 40107 57019 70422 885// 92048 333 0/3// 30/// 58036 88634;
0363763930999992012070200004+25733-100300FM-12+051599999V0201201N003010081019N0030001N1+02661+02001100991ADDAA103999999AA206000091AA324000091AY121061AY221061GA1071+008101061GF107991071051008001001001IA1019KA1120M+02911KA2180N+02041MA1999999095431MD1710041+0031MW1041REMSYN142AAXX  02001 76393 01530 71203 10266 20200 39543 40099 57004 69901 70422 87500 92350 333 0/300 10291 20204 30/// 50521 58003 69907 79999 87627;EQDQ01  00002PRCP06Q02  00002PRCP24Q03  99992PRCP03
0189763930999992012070203004+25733-100300FM-12+051599999V0201101N005010063019N0010001N1+02581+02071101101ADDGA1071+006301061GF107991071051008001001001IA1019MA1999999095541MD1210111+0101REMSYN100AAXX  02031 76393 32510 71105 10258 20207 39554 40110 52011 87500 90250 333 0/300 30/// 58010 87621;
0161763930999992012070206004+25733-100300FM-12+051599999V0201201N006010042019N0010001N1+02461+02091101181ADDAY141061AY221061GF107991071051004501999999MA1999999095621MD1210081+9999MW1051REMSYN072AAXX  02061 76393 31410 71206 10246 20209 39562 40118 52008 70542 875//;
0223763930999992012070209004+25733-100300FM-12+051599999V0201201N006010033019N0010001N1+02361+02101101051ADDAY141031AY221031GA1051+003301071GF107991071061004501999999IA1019MA1999999095481MD1710141+0081MW1051REMSYN112AAXX  02091 76393 31410 71206 10236 20210 39548 40105 57014 70542 876// 90845 333 0/3// 30/// 58008 85711 82616;
0161763930999992012070212004+25733-100300FM-12+051599999V0200601N001010042019N0010001N1+02361+02081101231ADDAY121061AY221061GF105991051051004501001001MA1999999095631MD1210151+9999MW1041REMSYN072AAXX  02121 76393 31410 50601 10236 20208 39563 40123 52015 70422 85500;
0217763930999992012070215004+25733-100300FM-12+051599999V0201101N003012200019N0020001N1+02621+02141101401ADDAY111031AY211031GA1021+006001061GF104991021051004501001011IA1019MA1999999095801MD1210171+0171MW1051REMSYN106AAXX  02151 76393 31420 41103 10262 20214 39580 40140 52017 70511 82501 91452 333 0/305 30/// 58017 82620;
0161763930999992012070218004+25733-100300FM-12+051599999V0201201N002010120019N0030001N1+03041+02001101371ADDAY121061AY221061GF107991051051012501071001MA1999999095771MD1710031+9999MW1041REMSYN072AAXX  02181 76393 31630 71202 10304 20200 39577 40137 57003 70422 85570;
0217763930999992012070221004+25733-100300FM-12+051599999V0201201N002010150019N0030001N1+03281+01991101081ADDAY121031AY221031GA1061+015001061GF106991061041017501001001IA1019MA1999999095551MD1710221+0081MW1041REMSYN106AAXX  02211 76393 31730 61202 10328 20199 39555 40108 57022 70422 86400 92050 333 0/300 30/// 58008 86650;
0161763930999992012070300004+25733-100300FM-12+051599999V0201201N003010150019N0050001N1+03201+01851100931ADDAY121061AY221061GF105991051051017501001001MA1999999095441MD1710111+9999MW1041REMSYN072AAXX  03001 76393 31750 51203 10320 20185 39544 40093 57011 70422 85500;
0189763930999992012070303004+25733-100300FM-12+051599999V0201201N006012200019N0010001N1+02721+02011101091ADDGA1041+008701061GF104991041051008001001001IA1019MA1999999095611MD1210171+0071REMSYN100AAXX  03031 76393 32510 41206 10272 20201 39561 40109 52017 84500 90250 333 0/300 30/// 58007 84629;
0161763930999992012070306004+25733-100300FM-12+051599999V0201201N004012200019N0020001N1+02461+02061101241ADDAY101061AY201061GF101991011051004501001001MA1999999095741MD1210131+9999MW1041REMSYN072AAXX  03061 76393 31420 11204 10246 20206 39574 40124 52013 70400 81500;
0217763930999992012070309004+25733-100300FM-12+051599999V0201201N002012200019N0020001N1+02341+02031101191ADDAY101031AY201031GA1011+003601061GF102991011051004501001001IA1019MA1999999095651MD1710091+0171MW1041REMSYN106AAXX  03091 76393 31420 21202 10234 20203 39565 40119 57009 70400 81500 90850 333 0/300 30/// 58017 81612;
0161763930999992012070312004+25733-100300FM-12+051599999V0200701N001010042019N0020001N1+02281+02021101331ADDAY121061AY221061GF106991061051004501001001MA1999999095731MD1210081+9999MW1041REMSYN072AAXX  03121 76393 31420 60701 10228 20202 39573 40133 52008 70422 86500;
0217763930999992012070315004+25733-100300FM-12+051599999V0201101N002010060019N0020001N1+02601+02121101481ADDAY121031AY221031GA1061+006001061GF106991061051004501001001IA1019MA1999999095871MD1210141+0071MW1051REMSYN106AAXX  03151 76393 31420 61102 10260 20212 39587 40148 52014 70522 86500 91449 333 0/300 30/// 58007 86620;
0161763930999992012070318004+25733-100300FM-12+051599999V0200401N001010120019N0020001N1+02941+02041101381ADDAY121061AY221061GF107991071051012501999999MA1999999095781MD1710091+9999MW1041REMSYN072AAXX  03181 76393 31620 70401 10294 20204 39578 40138 57009 70422 875//;
0217763930999992012070321004+25733-100300FM-12+051599999V0201101N001012200019N0030001N1+03471+01971101071ADDAY121031AY221031GA1041+018001081GF104991041021017501001001IA1019MA1999999095531MD1710251-0021MW1041REMSYN106AAXX  03211 76393 31730 41101 10347 20197 39553 40107 57025 70422 84200 92050 333 01300 30/// 59002 84856;
0161763930999992012070400004+25733-100300FM-12+051599999V0201201N006012200019N0030001N1+03341+01781100741ADDAY111061AY211061GF104991031041012501001011MA1999999095281MD1710251+9999MW1041REMSYN072AAXX  04001 76393 31630 41206 10334 20178 39528 40074 57025 70411 83401;
0217763930999992012070403004+25733-100300FM-12+051599999V0201201N005012200019N0020001N1+03001+01741100851ADDAY101031AY201031GA1011+015001061GF101991011051012501001001IA1019MA1999999095401MD1210121-0211MW1041REMSYN106AAXX  04031 76393 31620 11205 10300 20174 39540 40085 52012 70400 81500 90248 333 0/300 30/// 59021 81650;
0161763930999992012070406004+25733-100300FM-12+051599999V0201201N005012200019N0010001N1+02621+02081101021ADDAY101061AY201061GF102991021051008001001001MA1999999095561MD1210161+9999MW1051REMSYN072AAXX  04061 76393 31510 21205 10262 20208 39556 40102 52016 70500 82500;
0217763930999992012070409004+25733-100300FM-12+051599999V0201201N005012200019N0010001N1+02401+02031101051ADDAY101031AY201031GA1021+004501061GF102991021051004501001001IA1019MA1999999095551MD1710011-0101MW1041REMSYN106AAXX  04091 76393 31410 21205 10240 20203 39555 40105 57001 70400 82500 90850 333 0/300 30/// 59010 82615;
0161763930999992012070412004+25733-100300FM-12+051599999V0200601N002010042019N0010001N1+02321+02001101191ADDAY121061AY221061GF107991071051004501001001MA1999999095631MD1210081+9999MW1041REMSYN072AAXX  04121 76393 31410 70602 10232 20200 39563 40119 52008 70422 87500;
0217763930999992012070415004+25733-100300FM-12+051599999V0201201N001012200019N0020001N1+02721+02131101321ADDAY111031AY211031GA1041+007201061GF104991041051008001001001IA1019MA1999999095731MD1210101-0141MW1051REMSYN106AAXX  04151 76393 31520 41201 10272 20213 39573 40132 52010 70511 84500 91451 333 0/300 30/// 59014 84624;
0161763930999992012070418004+25733-100300FM-12+051599999V0201301N003012200019N0030001N1+03161+02141101281ADDAY101061AY201061GF103991021011012501001081MA1999999095701MD1710031+9999MW1051REMSYN072AAXX  04181 76393 31630 31303 10316 20214 39570 40128 57003 70500 82108;
0195763930999992012070421004+25733-100300FM-12+051599999V0201201N005012200019N0050001N1+03561+01891100951ADDGA1011+021001091GF103991021031022501001091IA1019MA1999999095441MD1710261-0091REMSYN106AAXX  04211 76393 32850 31205 10356 20189 39544 40095 57026 82309 92045 333 06507 30/// 59009 81957 81858;
0161763930999992012070500004+25733-100300FM-12+051599999V0201201N006012200019N0060001N1+03401+01831100741ADDAY121061AY221061GF105991021051017501001081MA1999999095291MD1710151+9999MW1041REMSYN072AAXX  05001 76393 31756 51206 10340 20183 39529 40074 57015 70422 82508;
0171763930999992012070503004+25733-100300FM-12+051599999V0201201N002012200019N0020001N1+03021+01801100841ADDGA1001+999999999GF100991001001999999001001IA1019MA1999999095411MD1210121-0151REMSYN082AAXX  05031 76393 32920 01202 10302 20180 39541 40084 52012 90250 333 30/// 59015;
0161763930999992012070506004+25733-100300FM-12+051599999V0201201N003012200019N0010001N1+02621+01871101081ADDAY101061AY201061GF103991011051008001011001MA1999999095631MD1210221+9999MW1041REMSYN072AAXX  05061 76393 31510 31203 10262 20187 39563 40108 52022 70400 81510;
0217763930999992012070509004+25733-100300FM-12+051599999V0201101N004012200019N0010001N1+02421+02111101111ADDAY101031AY201031GA1021+003601061GF102991021051004501001001IA1019MA1999999095621MD1710011+0071MW1041REMSYN106AAXX  05091 76393 31410 21104 10242 20211 39562 40111 57001 70400 82500 90850 333 0/300 30/// 58007 82612;
0161763930999992012070512004+25733-100300FM-12+051599999V0201201N001010042019N0010001N1+02421+01991101201ADDAY121061AY221061GF108991081051004501999999MA1999999095651MD1210031+9999MW1051REMSYN072AAXX  05121 76393 31410 81201 10242 20199 39565 40120 52003 70522 885//;
0217763930999992012070515004+25733-100300FM-12+051599999V0200601N001010066019N0020001N1+02601+02061101331ADDAY121031AY221031GA1081+006601061GF108991081051008001999999IA1019MA1999999095751MD1210101+0021MW1051REMSYN106AAXX  05151 76393 31520 80601 10260 20206 39575 40133 52010 70522 885// 91448 333 0/3// 30/// 58002 88622;
0161763930999992012070518004+25733-100300FM-12+051599999V0201301N002010900019N0010001N1+03101+02101101371ADDAY141061AY221061GF108991031041012501001071MA1999999095791MD1210041+9999MW1051REMSYN072AAXX  05181 76393 31610 81302 10310 20210 39579 40137 52004 70542 83407;
0223763930999992012070521004+25733-100300FM-12+051599999V0201201N00301015001CN0020001N1+03421+02031101121ADDAY141031AY221031GA1021+018001081GF108991051041017501001071IA1019MA1999999095591MD1710201-0151MW1051REMSYN112AAXX  05211 76393 31720 81203 10342 20203 39559 40112 57020 70542 85407 92049 333 01305 30/// 59015 82856 83657;
0256763930999992012070600004+25733-100300FM-12+051599999V0201201N00501036001CN0050001N1+03321+01691100911ADDAA124000091GA1021+021001061GF105991021051022501011001IA1019KA1120M+03611KA2180N+02401MA1999999095441MD1710151+0151REMSYN130AAXX  06001 76393 32850 51205 10332 20169 39544 40091 57015 82510 92350 333 0/350 10361 20240 30/// 51041 58015 70000 82657 83461;
0189763930999992012070603004+25733-100300FM-12+051599999V0201401N003012200019N0020001N1+03121+01611101001ADDGA1021+018001061GF102991021051017501001001IA1019MA1999999095551MD1210111+0141REMSYN100AAXX  06031 76393 32720 21403 10312 20161 39555 40100 52011 82500 90250 333 0/300 30/// 58014 82656;
0161763930999992012070606004+25733-100300FM-12+051599999V0201101N006012200019N0010001N1+02661+01971101191ADDAY101061AY201061GF102991021001999999011001MA1999999095721MD1210171+9999MW1041REMSYN072AAXX  06061 76393 31910 21106 10266 20197 39572 40119 52017 70400 82010;
0195763930999992012070609004+25733-100300FM-12+051599999V0201201N003012200019N0010001N1+02441+02011101221ADDAY101031AY201031GF102991001001999999001071IA1019MA1999999095711MD1710011+0091MW1041REMSYN100AAXX  06091 76393 31910 21203 10244 20201 39571 40122 57001 70400 80007 90850 333 0/003 30/// 58009;
0161763930999992012070612004+25733-100300FM-12+051599999V0201201N002012200019N0020001N1+02401+02061101301ADDAY101061AY201061GF101991011051004501001001MA1999999095751MD1210041+9999MW1041REMSYN072AAXX  06121 76393 31420 11202 10240 20206 39575 40130 52004 70400 81500;
0217763930999992012070615004+25733-100300FM-12+051599999V0201201N001012200019N0020001N1+02661+02101101481ADDAY101031AY201031GA1021+006901061GF102991021041008001001001IA1019MA1999999095891MD1210141+0141MW1051REMSYN106AAXX  06151 76393 31520 21201 10266 20210 39589 40148 52014 70500 82400 91450 333 0/300 30/// 58014 82623;
0161763930999992012070618004+25733-100300FM-12+051599999V0200601N002012200019N0030001N1+03171+01941101401ADDAY141061AY201061GF101991011021012501001001MA1999999095821MD1710071+9999MW1051REMSYN072AAXX  06181 76393 31630 10602 10317 20194 39582 40140 57007 70540 81200;
0223763930999992012070621004+25733-100300FM-12+051599999V0201201N006012200019N0070001N1+03561+01561101131ADDAY101031AY201031GA1011+024001061GF102991021041022501001001IA1019MA1999999095611MD1710211+0021MW1041REMSYN112AAXX  06211 76393 31857 21206 10356 20156 39561 40113 57021 70400 82400 92045 333 00300 30/// 58002 81658 81858;
0161763930999992012070700004+25733-100300FM-12+051599999V0201201N005012200019N0050001N1+03621+02601100871ADDAY101061AY201061GF103991031041022501001001MA1999999095421MD1710191+9999MW1041REMSYN072AAXX  07001 76393 31850 31205 10362 20260 39542 40087 57019 70400 83400;
0189763930999992012070703004+25733-100300FM-12+051599999V0201201N005012200019N0010001N1+03021+01901101051ADDGA1021+013801061GF102991021051012501001001IA1019MA1999999095621MD1210201+0071REMSYN100AAXX  07031 76393 32610 21205 10302 20190 39562 40105 52020 82500 90250 333 0/300 30/// 58007 82646;
0161763930999992012070706004+25733-100300FM-12+051599999V0201201N005012200019N0010001N1+02681+02001101251ADDAY101061AY201061GF101991011051008001001001MA1999999095801MD1210181+9999MW1041REMSYN072AAXX  07061 76393 31510 11205 10268 20200 39580 40125 52018 70400 81500;
0161763930999992012070712004+25733-100300FM-12+051599999V0200701N001010042019N0020001N1+02401+02061101371ADDAY121061AY221061GF107991071051004501001001MA1999999095811MD1210071+9999MW1041REMSYN072AAXX  07121 76393 31420 70701 10240 20206 39581 40137 52007 70422 87500;
0217763930999992012070715004+25733-100300FM-12+051599999V0200601N001012200019N0020001N1+02641+02081101501ADDAY101031AY201031GA1031+006901061GF103991031051008001001001IA1019MA1999999095911MD1210101+0021MW1051REMSYN106AAXX  07151 76393 31520 30601 10264 20208 39591 40150 52010 70500 83500 91448 333 0/300 30/// 58002 83623;
0161763930999992012070718004+25733-100300FM-12+051599999V0200601N001012200019N0030001N1+03181+02011101431ADDAY111061AY211061GF102991021021012501001001MA1999999095861MD1710051+9999MW1041REMSYN072AAXX  07181 76393 31630 20601 10318 20201 39586 40143 57005 70411 82200;
0217763930999992012070721004+25733-100300FM-12+051599999V0201201N002012200019N0030001N1+03541+01801101121ADDAY111031AY211031GA1041+021001081GF104991041021022501001001IA1019MA1999999095611MD1710251+0001MW1041REMSYN106AAXX  07211 76393 31830 41202 10354 20180 39561 40112 57025 70411 84200 92050 333 01300 30/// 58000 84857;
0161763930999992012070800004+25733-100300FM-12+051599999V0201201N006012200019N0050001N1+03401+01611100951ADDAY111061AY211061GF105991021011022501001011MA1999999095491MD1710121+9999MW1051REMSYN072AAXX  08001 76393 31850 51206 10340 20161 39549 40095 57012 70511 82101;
0217763930999992012070803004+25733-100300FM-12+051599999V0201201N005012200019N0030001N1+03141+01781101061ADDAY101031AY201031GA1021+018001061GF102991021051017501001001IA1019MA1999999095631MD1210141+0011MW1041REMSYN106AAXX  08031 76393 31730 21205 10314 20178 39563 40106 52014 70400 82500 90238 333 0/300 30/// 58001 82656;
0161763930999992012070806004+25733-100300FM-12+051599999V0201101N006012200019N0020001N1+02681+02031101281ADDAY101061AY201061GF101991011051008001001001MA1999999095831MD1210201+9999MW1041REMSYN072AAXX  08061 76393 31520 11106 10268 20203 39583 40128 52020 70400 81500;
0199763930999992012070809004+25733-100300FM-12+051599999V0201101N002012200019N0020001N1+02501+02021101241ADDAY101031AY201031GA1001+999999999GF100991001001999999001001IA1019MA1999999095751MD1710081+0011MW1041REMSYN088AAXX  08091 76393 31920 01102 10250 20202 39575 40124 57008 70400 90850 333 30/// 58001;
0161763930999992012070812004+25733-100300FM-12+051599999V0200301N001012200019N0020001N1+02381+02101101341ADDAY101061AY201061GF101991011051004501001001MA1999999095791MD1210041+9999MW1041REMSYN072AAXX  08121 76393 31420 10301 10238 20210 39579 40134 52004 70400 81500;
0217763930999992012070815004+25733-100300FM-12+051599999V0201201N001012200019N0020001N1+02661+02161101481ADDAY111031AY211031GA1041+006301061GF104991041051008001001001IA1019MA1999999095891MD1210101-0021MW1051REMSYN106AAXX  08151 76393 31520 41201 10266 20216 39589 40148 52010 70511 84500 91448 333 0/300 30/// 59002 84621;
0161763930999992012070818004+25733-100300FM-12+051599999V0200901N001012200019N0030001N1+03241+02001101361ADDAY141061AY241061GF101991011021012501001001MA1999999095791MD1710101+9999MW1041REMSYN072AAXX  08181 76393 31630 10901 10324 20200 39579 40136 57010 70444 81200;
0217763930999992012070821004+25733-100300FM-12+051599999V0201201N002012200019N0030001N1+03571+01761101101ADDAY141031AY241031GA1021+024001081GF102991021011022501001001IA1019MA1999999095591MD1710201-0021MW1041REMSYN106AAXX  08211 76393 31830 21202 10357 20176 39559 40110 57020 70444 82100 92050 333 00500 30/// 59002 82858;
0161763930999992012070900004+25733-100300FM-12+051599999V0201101N001012200019N0040001N1+03591+01461100871ADDAY111061AY211061GF102991021051999999001001MA1999999095421MD1710171+9999MW1041REMSYN072AAXX  09001 76393 31940 21101 10359 20146 39542 40087 57017 70411 82500;
0161763930999992012070906004+25733-100300FM-12+051599999V0201201N004012200019N0020001N1+02841+01761101131ADDAY141061AY211061GF103991031051012501001001MA1999999095701MD1210131+9999MW1051REMSYN072AAXX  09061 76393 31620 31204 10284 20176 39570 40113 52013 70541 83500;
0217763930999992012070909004+25733-100300FM-12+051599999V0200601N002012200019N0010001N1+02501+01891101131ADDAY141031AY201031GA1011+007501061GF101991011051008001001001IA1019MA1999999095661MD1710041-0091MW1051REMSYN106AAXX  09091 76393 31510 10602 10250 20189 39566 40113 57004 70540 81500 90845 333 0/300 30/// 59009 81625;
0245763930999992012070912004+25733-100300FM-12+051599999V0200601N001012200019N0020001N1+02381+01951101231ADDAA124000091GA1001+999999999GF100991001001999999001001IA1019KA1240M+03771KA2120N+02321MA1999999095711MD1210051-0081REMSYN100AAXX  09121 76393 32920 00601 10238 20195 39571 40123 52005 91150 333 10377 20232 30224 59008 70000;EQDQ01  00002PRCP24
0171763930999992012070915004+25733-100300FM-12+051599999V0200701N001012200019N0030001N1+02661+02001101301ADDGA1001+999999999GF100991001001999999001001IA1019MA1999999095731MD1210021+0161REMSYN082AAXX  09151 76393 32930 00701 10266 20200 39573 40130 52002 91449 333 30/// 58016;
0161763930999992012070918004+25733-100300FM-12+051599999V0200601N001012200019N0030001N1+03261+01861101211ADDAY141061AY241061GF101991011021017501001001MA1999999095661MD1710071+9999MW1041REMSYN072AAXX  09181 76393 31730 10601 10326 20186 39566 40121 57007 70444 81200;
0217763930999992012070921004+25733-100300FM-12+051599999V0201101N001012200019N0030001N1+03671+01591100931ADDAY111031AY211031GA1021+024001081GF102991021021999999001001IA1019MA1999999095441MD1710221-0151MW1041REMSYN106AAXX  09211 76393 31930 21101 10367 20159 39544 40093 57022 70411 82200 92050 333 01500 30/// 59015 82858;
0161763930999992012071000004+25733-100300FM-12+051599999V0201201N002012200019N0030001N1+03621+01311100701ADDAY111061AY211061GF103991031021999999001001MA1999999095271MD1710171+9999MW1041REMSYN072AAXX  10001 76393 31930 31202 10362 20131 39527 40070 57017 70411 83200;
0251763930999992012071006004+25733-100300FM-12+051599999V0201101N004012200019N0020001N1+02801+02131100931ADDAY101061AY201061GA1001+999999999GF100991001001999999001001GJ106609IA1019KA1240M+03871KA2240N+02321MA1999999095521MD1210131-0181MW1041REMSYN106AAXX  10061 76393 31920 01104 10280 20213 39552 40093 52013 70400 90550 333 10387 20232 30/// 55110 59018;
0199763930999992012071009004+25733-100300FM-12+051599999V0200701N002012200019N0020001N1+02561+02051100921ADDAY101031AY201031GA1001+999999999GF100991001001999999001001IA1019MA1999999095461MD1710061-0201MW1041REMSYN088AAXX  10091 76393 31920 00702 10256 20205 39546 40092 57006 70400 90850 333 30/// 59020;
0245763930999992012071012004+25733-100300FM-12+051599999V0201101N001012200019N0020001N1+02461+01971101021ADDAA124000091GA1001+999999999GF100991001001999999001001IA1019KA1240M+03871KA2120N+02401MA1999999095501MD1210041-0211REMSYN100AAXX  10121 76393 32920 01101 10246 20197 39550 40102 52004 91149 333 10387 20240 30230 59021 70000;EQDQ01  00002PRCP24
0171763930999992012071015004+25733-100300FM-12+051599999V0200401N002012200019N0030001N1+02701+01991101121ADDGA1001+999999999GF100991001001999999001001IA1019MA1999999095561MD1210061-0171REMSYN082AAXX  10151 76393 32930 00402 10270 20199 39556 40112 52006 91450 333 30/// 59017;
0161763930999992012071018004+25733-100300FM-12+051599999V0200401N001010900019N0030001N1+03311+02071101081ADDAY121061AY221061GF107991011021017501001061MA1999999095531MD1710031+9999MW1041REMSYN072AAXX  10181 76393 31730 70401 10331 20207 39553 40108 57003 70422 81206;
0217763930999992012071021004+25733-100300FM-12+051599999V0200401N00201036001CN0030001N1+03411+01661100851ADDAY121031AY221031GA1031+021001081GF107991031021022501041061IA1019MA1999999095361MD1710171-0081MW1041REMSYN106AAXX  10211 76393 31830 70402 10341 20166 39536 40085 57017 70422 83246 92050 333 01551 30/// 59008 83857;
0161763930999992012071100004+25733-100300FM-12+051599999V0200201N006010360019N0030001N1+03161+01731100751ADDAY121061AY221061GF107991031051017501011081MA1999999095311MD1710051+9999MW1151REMSYN072AAXX  11001 76393 31730 70206 10316 20173 39531 40075 57005 71522 83518;
0217763930999992012071103004+25733-100300FM-12+051599999V0203401N001010114019N0020001N1+02841+01921100921ADDAY121031AY221031GA1071+011401061GF107991071051012501999999IA1019MA1999999095471MD1210161+0081MW1051REMSYN106AAXX  11031 76393 31620 73401 10284 20192 39547 40092 52016 70522 875// 90244 333 0/399 30/// 58008 87638;
0247763930999992012071106004+25733-100300FM-12+051599999V0200401N001012200019N0020001N1+02681+01871101071ADDAY101061AY201061GF102991021051008001001001GJ105709KA1240M+03731KA2240N+02401MA1999999095601MD1210131+0081MW1041REMSYN124AAXX  11061 76393 31520 20401 10268 20187 39560 40107 52013 70400 82500 90550 333 0/300 10373 20240 55095 30/// 58008 82633;
0217763930999992012071109004+25733-100300FM-12+051599999V0200401N002010090019N0020001N1+02661+01911101031ADDAY121031AY221031GA1061+009001061GF106991061051008001001001IA1019MA1999999095531MD1710071+0071MW1041REMSYN106AAXX  11091 76393 31520 60402 10266 20191 39553 40103 57007 70422 86500 90850 333 0/300 30/// 58007 86630;
0161763930999992012071112004+25733-100300FM-12+051599999V0201101N002012200019N0020001N1+02541+02001101081ADDAY101061AY201061GF103991021051008001031001MA1999999095541MD1210011+9999MW1041REMSYN072AAXX  11121 76393 31520 31102 10254 20200 39554 40108 52001 70400 82530;
0223763930999992012071115004+25733-100300FM-12+051599999V0200601N002010066019N0020001N1+02561+02021101311ADDAY121031AY221031GA1051+006601061GF108991051051008001031001IA1019MA1999999095741MD1210201+0181MW1041REMSYN112AAXX  11151 76393 31520 80602 10256 20202 39574 40131 52020 70422 85530 91450 333 0/350 30/// 58018 85622 83360;
0161763930999992012071118004+25733-100300FM-12+051599999V0200601N001010075019N0020001N1+02801+02101101301ADDAY121061AY221061GF108991071051008001031001MA1999999095731MD1710011+9999MW1041REMSYN072AAXX  11181 76393 31520 80601 10280 20210 39573 40130 57001 70422 87530;
0217763930999992012071121004+25733-100300FM-12+051599999V0201101N001010150019N0020001N1+03261+02061100961ADDAY121031AY221031GA1051+015001061GF106991051061012501031001IA1019MA1999999095431MD1710301+0071MW1041REMSYN106AAXX  11211 76393 31620 61101 10326 20206 39543 40096 57030 70422 85630 92049 333 0/350 30/// 58007 85650;
0363763930999992012071200004+25733-100300FM-12+051599999V0201601N002010111019N0030001N1+03101+02191100861ADDAA103999999AA206000091AA324000091AY121061AY221061GA1071+011101061GF107991071051012501001001IA1019KA1120M+03461KA2180N+02441MA1999999095361MD1710071+0051MW1041REMSYN142AAXX  12001 76393 01630 71602 10310 20219 39536 40086 57007 69901 70422 87500 92350 333 0/300 10346 20244 30/// 50821 58005 69907 79999 87637;EQDQ01  00002PRCP06Q02  00002PRCP24Q03  99992PRCP03
0217763930999992012071203004+25733-100300FM-12+051599999V0202901N001010081019N0010001N1+02721+02071101021ADDAY121031AY221031GA1071+008101061GF107991071051008001001001IA1019MA1999999095531MD1210171+0061MW1041REMSYN106AAXX  12031 76393 31510 72901 10272 20207 39553 40102 52017 70422 87500 90250 333 0/300 30/// 58006 87627;
0299763930999992012071206004+25733-100300FM-12+051599999V0202301N001010048019N0010001N1+02521+02131101141ADDAA106000091AY121061AY221061GA1061+004801061GF106991999999004501999999GJ101509IA1019KA1240M+03461KA2240N+02441MA1999999095641MD1210111+0041MW1041REMSYN124AAXX  12061 76393 11410 62301 10252 20213 39564 40114 52011 69901 70422 90550 333 0/300 10346 20244 30/// 55025 58004 86616;EQDQ01  00002PRCP06
0223763930999992012071209004+25733-100300FM-12+051599999V0200701N00101036001CN0010001N1+02461+02001101061ADDAY121031AY221031GA1021+005401061GF105991021051004501041001IA1019MA1999999095531MD1710111+0001MW1041REMSYN112AAXX  12091 76393 31410 50701 10246 20200 39553 40106 57011 70422 82540 90850 333 0/370 30/// 58000 82618 83360;
0161763930999992012071212004+25733-100300FM-12+051599999V0200201N001010042019N0010001N1+02471+02101101141ADDAY121061AY221061GF108991081071004501999999MA1999999095571MD1210041+9999MW1041REMSYN072AAXX  12121 76393 31410 80201 10247 20210 39557 40114 52004 70422 887//;
0253763930999992012071215004+25733-100300FM-12+051599999V0203401N001010048019N0010001N1+02481+02101101341ADDAA103000091AY121031AY221031GA1081+004801061GF108991081051004501999999IA1019MA1999999095751MD1210181+0011MW1051REMSYN112AAXX  12151 76393 21410 83401 10248 20210 39575 40134 52018 70522 885// 91450 333 0/3// 30/// 58001 69907 88616;EQDQ01  00002PRCP03
0161763930999992012071218004+25733-100300FM-12+051599999V0200201N004010075019N0010001N1+02741+02161101321ADDAY141061AY221061GF108991081051008001999999MA1999999095731MD1710041+9999MW1051REMSYN072AAXX  12181 76393 31510 80204 10274 20216 39573 40132 57004 70542 885//;
0217763930999992012071221004+25733-100300FM-12+051599999V0201601N005010066019N0010001N1+02701+02151101181ADDAY141031AY221031GA1081+006601061GF108991081051008001999999IA1019MA1999999095611MD1710121+0181MW1151REMSYN106AAXX  12211 76393 31510 81605 10270 20215 39561 40118 57012 71542 885// 92045 333 0/399 30/// 58018 88622;
0336763930999992012071300004+25733-100300FM-12+051599999V0202001N001010048019N0010001N1+02601+02211101091ADDAA103000191AA224000191AY121061AY221061GA1061+004801061GF106991061051004501001001IA1019KA1120M+03001KA2180N+02401MA1999999095531MD1710081+0171MW1051REMSYN142AAXX  13001 76393 01410 62001 10260 20221 39553 40109 57008 69911 70522 86500 92350 333 0/300 10300 20240 30/// 50131 58017 69917 70001 86616;EQDQ01  00002PRCP06Q02  00002PRCP06
0217763930999992012071303004+25733-100300FM-12+051599999V0201401N001010048019N0010001N1+02581+02191101211ADDAY121031AY221031GA1061+004801061GF106991061051004501001001IA1019MA1999999095651MD1210121+0121MW1051REMSYN106AAXX  13031 76393 31410 61401 10258 20219 39565 40121 52012 70522 86500 90250 333 0/300 30/// 58012 86616;
0305763930999992012071306004+25733-100300FM-12+051599999V0202601N001012200019N0010001N1+02501+02081101261ADDAA106000091AY101061AY201061GA1031+005101061GF103991031051004501001001GJ100009IA1019KA1240M+03001KA2240N+02401MA1999999095691MD1210041+0051MW1041REMSYN130AAXX  13061 76393 11410 32601 10250 20208 39569 40126 52004 69901 70400 83500 90550 333 0/300 10300 20240 30/// 55000 58005 83617;EQDQ01  00002PRCP06
0217763930999992012071309004+25733-100300FM-12+051599999V0201101N001010042019N0010001N1+02441+02101101201ADDAY121031AY221031GA1071+004201061GF107991071051004501001001IA1019MA1999999095621MD1710071+0091MW1041REMSYN106AAXX  13091 76393 31410 71101 10244 20210 39562 40120 57007 70422 87500 90850 333 0/300 30/// 58009 87614;
0161763930999992012071312004+25733-100300FM-12+051599999V0200901N001010042019N0010001N1+02421+02111101291ADDAY121061AY221061GF108991081051004501999999MA1999999095701MD1210081+9999MW1041REMSYN072AAXX  13121 76393 31410 80901 10242 20211 39570 40129 52008 70422 885//;
0217763930999992012071315004+25733-100300FM-12+051599999V0209999C000010063019N0010001N1+02621+02111101401ADDAY121031AY221031GA1081+006301061GF108991081051008001999999IA1019MA1999999095801MD1210101+0051MW1041REMSYN106AAXX  13151 76393 31510 80000 10262 20211 39580 40140 52010 70422 885// 91450 333 0/3// 30/// 58005 88621;
0161763930999992012071318004+25733-100300FM-12+051599999V0201301N002010120019N0010001N1+03051+02151101361ADDAY141061AY221061GF106991051041012501031001MA1999999095781MD1710021+9999MW1051REMSYN072AAXX  13181 76393 31610 61302 10305 20215 39578 40136 57002 70542 85430;
0223763930999992012071321004+25733-100300FM-12+051599999V0200701N00201036001CN0030001N1+03221+01911101071ADDAY141031AY221031GA1011+015001061GF106991031021017501021081IA1019MA1999999095541MD1710241-0071MW1041REMSYN112AAXX  13211 76393 31730 60702 10322 20191 39554 40107 57024 70442 83228 92049 333 02355 30/// 59007 81650 82856;
0161763930999992012071400004+25733-100300FM-12+051599999V0201201N005010120019N0030001N1+03121+02061100991ADDAY121061AY221061GF107991071051012501001001MA1999999095511MD1710031+9999MW1041REMSYN072AAXX  14001 76393 31630 71205 10312 20206 39551 40099 57003 70422 87500;
0231763930999992012071403004+25733-100300FM-12+051599999V0202001N001012200019N0010001N1+02701+01991101101ADDAA103000091GA1011+008701061GF101991011051008001001001IA1019MA1999999095611MD1210101-0041REMSYN112AAXX  14031 76393 22510 12001 10270 20199 39561 40110 52010 81500 90250 333 0/300 30/// 54315 59004 69907 81629;EQDQ01  00002PRCP03
0305763930999992012071406004+25733-100300FM-12+051599999V0202201N001012200019N0010001N1+02661+02081101111ADDAA106000091AY101061AY201061GA1031+006901061GF103991031051008001001001GJ102589IA1019KA1240M+03561KA2240N+02321MA1999999095611MD1410001-0081MW1041REMSYN130AAXX  14061 76393 11510 32201 10266 20208 39561 40111 54000 69901 70400 83500 90550 333 0/300 10356 20232 30/// 55043 59008 83623;EQDQ01  00002PRCP06
0217763930999992012071409004+25733-100300FM-12+051599999V0201201N001010045019N0010001N1+02461+02091101211ADDAY121031AY221031GA1051+004501061GF105991051051004501001001IA1019MA1999999095681MD1210071+0061MW1041REMSYN106AAXX  14091 76393 31410 51201 10246 20209 39568 40121 52007 70422 85500 90850 333 0/300 30/// 58006 85615;
0161763930999992012071412004+25733-100300FM-12+051599999V0201601N001012200019N0010001N1+02461+02091101271ADDAY101061AY201061GF103991031051004501001001MA1999999095691MD1210011+9999MW1041REMSYN072AAXX  14121 76393 31410 31601 10246 20209 39569 40127 52001 70400 83500;
0223763930999992012071415004+25733-100300FM-12+051599999V0200301N00101036001CN0020001N1+02601+02091101401ADDAY121031AY221031GA1031+006301061GF106991031051008001031001IA1019MA1999999095811MD1210121+0011MW1051REMSYN112AAXX  14151 76393 31520 60301 10260 20209 39581 40140 52012 70522 83530 91450 333 0/350 30/// 58001 83621 83360;
0161763930999992012071418004+25733-100300FM-12+051599999V0200601N001012200019N0020001N1+03261+02001101291ADDAY111061AY211061GF102991011021017501001021MA1999999095731MD1710081+9999MW1041REMSYN072AAXX  14181 76393 31720 20601 10326 20200 39573 40129 57008 70411 81202;
0217763930999992012071421004+25733-100300FM-12+051599999V0200601N001010210019N0050001N1+03501+01891100991ADDAY121031AY221031GA1051+021001061GF105991051041017501001001IA1019MA1999999095481MD1710251-0061MW1131REMSYN106AAXX  14211 76393 31750 50601 10350 20189 39548 40099 57025 71322 85400 92050 333 0/300 30/// 59006 85657;
0353763930999992012071500004+25733-100300FM-12+051599999V0202101N002010075019N0030001N1+02801+02011100991ADDAA103999999AA206000091AA324999999AY121061AY221061GF108991081051008001999999IA1019KA1120M+03661KA2180N+02381MA1999999095501MD1210021-0011MW1041REMSYN148AAXX  15001 76393 01530 82102 10280 20201 39550 40099 52002 69901 70422 885// 92350 333 0/300 10366 20238 30/// 50761 54116 59001 69907 79999 88632;EQDQ01  00002PRCP06Q02  99992PRCP03Q03  99992PRCP24
0217763930999992012071503004+25733-100300FM-12+051599999V0201201N001012200019N0010001N1+02621+01871101131ADDAY101031AY201031GA1031+009301061GF103991031051008001001001IA1019MA1999999095641MD1210141+0031MW1041REMSYN106AAXX  15031 76393 31510 31201 10262 20187 39564 40113 52014 70400 83500 90250 333 0/300 30/// 58003 83631;
0287763930999992012071506004+25733-100300FM-12+051599999V0201101N001012200019N0010001N1+02561+01891101251ADDAA106000091AY101061AY201061GA1001+999999999GF100991001001999999001001GJ103909IA1019KA1240M+03661KA2240N+02381MA1999999095731MD1210091+0121MW1041REMSYN112AAXX  15061 76393 11910 01101 10256 20189 39573 40125 52009 69901 70400 90550 333 10366 20238 30/// 55065 58012;EQDQ01  00002PRCP06
0199763930999992012071509004+25733-100300FM-12+051599999V0200601N001012200019N0010001N1+02361+01861101231ADDAY101031AY201031GA1001+999999999GF100991001001999999001001IA1019MA1999999095671MD1710061-0011MW1041REMSYN088AAXX  15091 76393 31910 00601 10236 20186 39567 40123 57006 70400 90850 333 30/// 59001;
0161763930999992012071512004+25733-100300FM-12+051599999V0209999C000012200019N0010001N1+02301+01891101301ADDAY141061AY201061GF103991011001999999011011MA1999999095711MD1710041+9999MW1051REMSYN072AAXX  15121 76393 31910 30000 10230 20189 39571 40130 57004 70540 81011;
0217763930999992012071515004+25733-100300FM-12+051599999V0203101N001010600019N0010001N1+02621+01961101431ADDAY141031AY241031GA1051+060001001GF106991011001999999011011IA1019MA1999999095821MD1210111+0011MW1051REMSYN106AAXX  15151 76393 31910 63101 10262 20196 39582 40143 52011 70544 81011 91445 333 0/035 30/// 58001 85070;
0161763930999992012071518004+25733-100300FM-12+051599999V0200601N001012200019N0020001N1+03061+01921101351ADDAY111061AY211061GF102991011021012501001011MA1999999095771MD1710051+9999MW1041REMSYN072AAXX  15181 76393 31620 20601 10306 20192 39577 40135 57005 70411 81201;
0217763930999992012071521004+25733-100300FM-12+051599999V0201201N00201036001CN0030001N1+03461+01721101071ADDAY121031AY221031GA1011+021001081GF107991011021022501041091IA1019MA1999999095541MD1710231+0061MW1041REMSYN106AAXX  15211 76393 31830 71202 10346 20172 39554 40107 57023 70422 81249 92048 333 01535 30/// 58006 81857;
0161763930999992012071600004+25733-100300FM-12+051599999V0201201N006012200019N0050001N1+03241+01381100871ADDAY101061AY201061GF102991001001999999001081MA1999999095401MD1710141+9999MW1041REMSYN072AAXX  16001 76393 31950 21206 10324 20138 39540 40087 57014 70400 80008;
0217763930999992012071603004+25733-100300FM-12+051599999V0201401N003012200019N0010001N1+02961+01441101011ADDAY101031AY201031GA1021+018001061GF102991021051017501001001IA1019MA1999999095561MD1210161-0081MW1041REMSYN106AAXX  16031 76393 31710 21403 10296 20144 39556 40101 52016 70400 82500 90250 333 0/500 30/// 59008 82656;
0217763930999992012071615004+25733-100300FM-12+051599999V0201201N001010360019N0020001N1+02621+01981101321ADDAY121031AY221031GA1041+007801061GF105991041051008001031001IA1019MA1999999095731MD1210121-0091MW1041REMSYN106AAXX  16151 76393 31520 51201 10262 20198 39573 40132 52012 70422 84530 91449 333 0/350 30/// 59009 84626;
0161763930999992012071618004+25733-100300FM-12+051599999V0200701N002012200019N0020001N1+03001+01951101291ADDAY141061AY211061GF104991021041012501011091MA1999999095711MD1710021+9999MW1051REMSYN072AAXX  16181 76393 31620 40702 10300 20195 39571 40129 57002 70541 82419;
0223763930999992012071621004+25733-100300FM-12+051599999V0201301N00601015001CN0040001N1+03421+01921100981ADDAY141031AY221031GA1021+018001081GF106991061041017501001001IA1019MA1999999095461MD1710251-0081MW1041REMSYN112AAXX  16211 76393 31740 61306 10342 20192 39546 40098 57025 70442 86400 92048 333 01300 30/// 59008 82856 84657;
0161763930999992012071700004+25733-100300FM-12+051599999V0201201N006012200019N0050001N1+03141+01851100841ADDAY101061AY201061GF104991041051017501001001MA1999999095371MD1710091+9999MW1041REMSYN072AAXX  17001 76393 31750 41206 10314 20185 39537 40084 57009 70400 84500;
0217763930999992012071703004+25733-100300FM-12+051599999V0201401N002012200019N0020001N1+02841+01861100951ADDAY101031AY201031GA1011+012001061GF101991011051012501001001IA1019MA1999999095491MD1210121-0071MW1041REMSYN106AAXX  17031 76393 31620 11402 10284 20186 39549 40095 52012 70400 81500 90250 333 0/300 30/// 59007 81640;
0251763930999992012071706004+25733-100300FM-12+051599999V0201101N003012200019N0010001N1+02581+01981101111ADDAY101061AY201061GA1001+999999999GF100991001001999999001001GJ105349IA1019KA1240M+03571KA2240N+02301MA1999999095631MD1210141-0121MW1041REMSYN106AAXX  17061 76393 31910 01103 10258 20198 39563 40111 52014 70400 90550 333 10357 20230 30/// 55089 59012;
0217763930999992012071709004+25733-100300FM-12+051599999V0201201N001012200019N0010001N1+02421+01991101051ADDAY101031AY201031GA1011+005101061GF101991011051004501001001IA1019MA1999999095531MD1710101-0141MW1041REMSYN106AAXX  17091 76393 31410 11201 10242 20199 39553 40105 57010 70400 81500 90850 333 0/300 30/// 59014 81617;
0161763930999992012071712004+25733-100300FM-12+051599999V0200601N001012200019N0010001N1+02381+02011101111ADDAY111061AY211061GF103991031051004501001001MA1999999095551MD1210021+9999MW1041REMSYN072AAXX  17121 76393 31410 30601 10238 20201 39555 40111 52002 70411 83500;
0217763930999992012071715004+25733-100300FM-12+051599999V0200601N001010060019N0010001N1+02591+02101101261ADDAY121031AY221031GA1081+006001061GF108991081051008001999999IA1019MA1999999095671MD1210121-0061MW1041REMSYN106AAXX  17151 76393 31510 80601 10259 20210 39567 40126 52012 70422 885// 91450 333 0/3// 30/// 59006 88620;
0223763930999992012071721004+25733-100300FM-12+051599999V0201101N00301015001CN0030001N1+03521+01951100931ADDAY141031AY221031GA1021+015001081GF105991051021017501021001IA1019MA1999999095411MD1710271-0051MW1051REMSYN112AAXX  17211 76393 31730 51103 10352 20195 39541 40093 57027 70542 85220 92046 333 02330 30/// 59005 82850 83656;
0161763930999992012071800004+25733-100300FM-12+051599999V0201201N006010120019N0020001N1+03221+02081100821ADDAY141061AY221061GF107991071051012501999999MA1999999095361MD1710051+9999MW1051REMSYN072AAXX  18001 76393 31620 71206 10322 20208 39536 40082 57005 70542 875//;
0161763930999992012071806004+25733-100300FM-12+051599999V0201101N003012200019N0010001N1+02461+02121101071ADDAY101061AY201061GF101991011051004501001001MA1999999095601MD1210091+9999MW1041REMSYN072AAXX  18061 76393 31410 11103 10246 20212 39560 40107 52009 70400 81500;
0217763930999992012071809004+25733-100300FM-12+051599999V0201201N001010030019N0010001N1+02381+02131101131ADDAY121031AY221031GA1051+003001061GF105991051051004501001001IA1019MA1999999095601MD1410001+0071MW1041REMSYN106AAXX  18091 76393 31410 51201 10238 20213 39560 40113 54000 70422 85500 90850 333 0/300 30/// 58007 85610;
0161763930999992012071812004+25733-100300FM-12+051599999V0200601N001012200019N0010001N1+02341+02111101241ADDAY111061AY211061GF103991031051002501001001MA1999999095661MD1210061+9999MW1041REMSYN072AAXX  18121 76393 31310 30601 10234 20211 39566 40124 52006 70411 83500;
0217763930999992012071815004+25733-100300FM-12+051599999V0201201N001010060019N0010001N1+02541+02061101431ADDAY121031AY221031GA1071+006001061GF107991071051008001999999IA1019MA1999999095791MD1210131+0111MW1041REMSYN106AAXX  18151 76393 31510 71201 10254 20206 39579 40143 52013 70422 875// 91450 333 0/3// 30/// 58011 87620;
0161763930999992012071818004+25733-100300FM-12+051599999V0200301N001019999999N0008001N1+02961+02141101361ADDAY141061AY241061GF108991081001999999011999MA1999999095771MD1710021+9999MW1051REMSYN072AAXX  18181 76393 31908 80301 10296 20214 39577 40136 57002 70544 8801/;
0262763930999992012071821004+25733-100300FM-12+051599999V0201201N00501036001CN0020001N1+02941+02161101181ADDAA103000021AY141031AY221031GA1011+008101081GA2031+009001061GF108991041021008001021999IA1019MA1999999095631MD1710141+0221MW1501REMSYN124AAXX  18211 76393 21520 81205 10294 20216 39563 40118 57014 75042 8422/ 92045 333 0235/ 30/// 58022 69907 81827 83630 84460;
0312763930999992012071900004+25733-100300FM-12+051599999V0201201N003010114019N0040001N1+02961+02031101051ADDAA103001091AA206001091AA324001091AY121061AY221061GA1051+011401061GF105991051051012501001001IA1099KA1120M+03121KA2180N+02281MA1999999095521MD1710111+0171MW1041REMSYN142AAXX  19001 76393 01640 51203 10296 20203 39552 40105 57011 60011 70422 85500 92350 333 0/300 10312 20228 31/// 50581 58017 60017 70010 85638;
0217763930999992012071903004+25733-100300FM-12+051599999V0200601N003012200019N0020001N1+02621+02111101241ADDAY101031AY201031GA1031+006301061GF103991031051008001001001IA1019MA1999999095711MD1210191+0201MW1041REMSYN106AAXX  19031 76393 31520 30603 10262 20211 39571 40124 52019 70400 83500 90250 333 0/300 30/// 58020 83621;
0161763930999992012071906004+25733-100300FM-12+051599999V0201201N003012200019N0010001N1+02381+02071101361ADDAY101061AY201061GF101991011051004501001001MA1999999095801MD1210091+9999MW1041REMSYN072AAXX  19061 76393 31410 11203 10238 20207 39580 40136 52009 70400 81500;
0217763930999992012071909004+25733-100300FM-12+051599999V0200501N001012200019N0010001N1+02281+01991101411ADDAY101031AY201031GA1031+030001041GF103991031001999999011001IA1019MA1999999095831MD1210031+0231MW1041REMSYN106AAXX  19091 76393 31910 30501 10228 20199 39583 40141 52003 70400 83010 90850 333 0/030 30/// 58023 83460;
0161763930999992012071912004+25733-100300FM-12+051599999V0200701N001010042019N0010001N1+02301+02041101601ADDAY121061AY221061GF108991081051004501999999MA1999999095951MD1210121+9999MW1041REMSYN072AAXX  19121 76393 31410 80701 10230 20204 39595 40160 52012 70422 885//;
0217763930999992012071915004+25733-100300FM-12+051599999V0201101N001010054019N0010001N1+02581+02131101731ADDAY121031AY221031GA1071+005401061GF107991071051004501999999IA1019MA1999999096091MD1210141+0311MW1041REMSYN106AAXX  19151 76393 31410 71101 10258 20213 39609 40173 52014 70422 875// 91448 333 0/3// 30/// 58031 87618;
0161763930999992012071918004+25733-100300FM-12+051599999V0201201N004010120019N0040001N1+03061+02051101661ADDAY141061AY221061GF107991061051012501031999MA1999999096051MD1710041+9999MW1051REMSYN072AAXX  19181 76393 31640 71204 10306 20205 39605 40166 57004 70542 8653/;
0161763930999992012072012004+25733-100300FM-12+051599999V0200701N001010021019N0010001N1+02291+02081101571ADDAY121061AY221061GF107991071071002501999999MA1999999095991MD1210031+9999MW1041REMSYN072AAXX  20121 76393 31310 70701 10229 20208 39599 40157 52003 70422 877//;
0217763930999992012072015004+25733-100300FM-12+051599999V0200701N001010069019N0010001N1+02661+02101101731ADDAY121031AY221031GA1071+006901061GF107991071051008001999999IA1019MA1999999096121MD1210131+0031MW1041REMSYN106AAXX  20151 76393 31510 70701 10266 20210 39612 40173 52013 70422 875// 91450 333 0/3// 30/// 58003 87623;
0217763930999992012072021004+25733-100300FM-12+051599999V0201201N005012200019N0040001N1+03561+01971101361ADDAY101031AY201031GA1011+018001061GF102991011041017501001081IA1019MA1999999095831MD1710231-0041MW1041REMSYN106AAXX  20211 76393 31740 21205 10356 20197 39583 40136 57023 70400 81408 92045 333 0/305 30/// 59004 81656;
0161763930999992012072100004+25733-100300FM-12+051599999V0201201N006012200019N0050001N1+03541+01571101131ADDAY101061AY201061GF101991001001999999001081MA1999999095661MD1710171+9999MW1041REMSYN072AAXX  21001 76393 31950 11206 10354 20157 39566 40113 57017 70400 80008;
0199763930999992012072103004+25733-100300FM-12+051599999V0201501N004012200019N0010001N1+03221+01441101171ADDAY141031AY241031GA1001+999999999GF100991001001999999001001IA1019MA1999999095731MD1210071-0171MW1051REMSYN088AAXX  21031 76393 31910 01504 10322 20144 39573 40117 52007 70544 90250 333 30/// 59017;
0251763930999992012072106004+25733-100300FM-12+051599999V0201201N003012200019N0010001N1+02701+01991101371ADDAY101061AY201061GA1001+999999999GF100991001001999999001001GJ105709IA1019KA1240M+03711KA2240N+02201MA1999999095911MD1210181-0131MW1041REMSYN106AAXX  21061 76393 31910 01203 10270 20199 39591 40137 52018 70400 90550 333 10371 20220 30/// 55095 59013;
0199763930999992012072109004+25733-100300FM-12+051599999V0201001N002012200019N0010001N1+02501+01981101391ADDAY101031AY201031GA1001+999999999GF100991001001999999001001IA1019MA1999999095891MD1710021-0071MW1041REMSYN088AAXX  21091 76393 31910 01002 10250 20198 39589 40139 57002 70400 90850 333 30/// 59007;
0161763930999992012072112004+25733-100300FM-12+051599999V0200301N001012200019N0010001N1+02321+02021101461ADDAY141061AY241061GF101991011051004501001001MA1999999095901MD1210011+9999MW1041REMSYN072AAXX  21121 76393 31410 10301 10232 20202 39590 40146 52001 70444 81500;
0161763930999992012072212004+25733-100300FM-12+051599999V0200701N001010042019N0010001N1+02411+01981101281ADDAY121061AY221061GF107991051051004501041091MA1999999095741MD1210071+9999MW1041REMSYN072AAXX  22121 76393 31410 70701 10241 20198 39574 40128 52007 70422 85549;
0217763930999992012072215004+25733-100300FM-12+051599999V0201101N001010360019N0010001N1+02601+02121101491ADDAY121031AY221031GA1041+006001061GF105991041051004501031001IA1019MA1999999095901MD1210161-0081MW1041REMSYN106AAXX  22151 76393 31410 51101 10260 20212 39590 40149 52016 70422 84530 91448 333 0/350 30/// 59008 84620;
0161763930999992012072218004+25733-100300FM-12+051599999V0200601N002010075019N0010001N1+02961+02161101501ADDAY141061AY221061GF107991061051008001031999MA1999999095921MD1210021+9999MW1051REMSYN072AAXX  22181 76393 31510 70602 10296 20216 39592 40150 52002 70542 8653/;
0223763930999992012072221004+25733-100300FM-12+051599999V0200601N00301036001CN0020001N1+03421+01751101281ADDAY121031AY221031GA1011+021001081GF106991011021022501031081IA1019MA1999999095741MD1710181+0051MW1041REMSYN112AAXX  22211 76393 31820 60603 10342 20175 39574 40128 57018 70422 81238 92045 333 02355 30/// 58005 81857 83365;
0161763930999992012072300004+25733-100300FM-12+051599999V0201401N003010360019N0050001N1+03541+01361101071ADDAY141061AY221061GF105991021021022501031001MA1999999095581MD1710161+9999MW1051REMSYN072AAXX  23001 76393 31850 51403 10354 20136 39558 40107 57016 70542 82230;
0217763930999992012072303004+25733-100300FM-12+051599999V0201201N005012200019N0010001N1+02901+01901101201ADDAY101031AY201031GA1011+012301061GF101991011051012501001001IA1019MA1999999095741MD1210161+0141MW1041REMSYN106AAXX  23031 76393 31610 11205 10290 20190 39574 40120 52016 70400 81500 90250 333 0/300 30/// 58014 81641;
0147763930999992012072312004+25733-100300FM-12+051599999V0200701N001012200019N0010001N1+02321+02031101521ADDAY141061AY241061GF101991011051004501001001MA1999999095871MW1041REMSYN072AAXX  23121 76393 31410 10701 10232 20203 39587 40152 5//// 70444 81500;
0217763930999992012072315004+25733-100300FM-12+051599999V0200701N001010075019N0010001N1+02731+02131101591ADDAY121031AY221031GA1071+007501061GF107991071051008001999999IA1019MA1999999095991MD1210121+0091MW1041REMSYN106AAXX  23151 76393 31510 70701 10273 20213 39599 40159 52012 70422 875// 91447 333 0/3// 30/// 58009 87625;
0161763930999992012072318004+25733-100300FM-12+051599999V0200601N003012200019N0010001N1+03161+02071101541ADDAY141061AY211061GF104991041041012501001001MA1999999095961MD1710031+9999MW1051REMSYN072AAXX  23181 76393 31610 40603 10316 20207 39596 40154 57003 70541 84400;
0223763930999992012072321004+25733-100300FM-12+051599999V0201401N00501015001CN0030001N1+03481+01931101261ADDAY141031AY221031GA1021+015001081GF106991061021017501001001IA1019MA1999999095741MD1710221+0001MW1041REMSYN112AAXX  23211 76393 31730 61405 10348 20193 39574 40126 57022 70442 86200 92045 333 03300 30/// 58000 82850 84656;
0161763930999992012072400004+25733-100300FM-12+051599999V0201201N005012200019N0050001N1+03661+01621101101ADDAY141061AY221061GF105991041041022501001081MA1999999095641MD1710101+9999MW1041REMSYN072AAXX  24001 76393 31850 51205 10366 20162 39564 40110 57010 70442 84408;
0199763930999992012072403004+25733-100300FM-12+051599999V0201201N002012200019N0010001N1+03261+01751101141ADDAY141031AY241031GA1001+999999999GF100991001001999999001001IA1019MA1999999095711MD1210071-0031MW1051REMSYN088AAXX  24031 76393 31910 01202 10326 20175 39571 40114 52007 70544 90250 333 30/// 59003;
0251763930999992012072406004+25733-100300FM-12+051599999V0201101N004012200019N0010001N1+02801+01981101341ADDAY101061AY201061GA1001+999999999GF100991001001999999001001GJ105829IA1019KA1240M+03701KA2240N+02281MA1999999095891MD1210181+0041MW1041REMSYN106AAXX  24061 76393 31910 01104 10280 20198 39589 40134 52018 70400 90550 333 10370 20228 30/// 55097 58004;
0199763930999992012072409004+25733-100300FM-12+051599999V0200501N002012200019N0010001N1+02561+02021101311ADDAY101031AY201031GA1001+999999999GF100991001001999999001001IA1019MA1999999095831MD1710061+0071MW1041REMSYN088AAXX  24091 76393 31910 00502 10256 20202 39583 40131 57006 70400 90850 333 30/// 58007;
0161763930999992012072412004+25733-100300FM-12+051599999V0200601N001012200019N0010001N1+02441+02061101411ADDAY111061AY211061GF104991011051004501001021MA1999999095871MD1210041+9999MW1041REMSYN072AAXX  24121 76393 31410 40601 10244 20206 39587 40141 52004 70411 81502;
0217763930999992012072415004+25733-100300FM-12+051599999V0200601N001010048019N0010001N1+02561+02171101561ADDAY121031AY221031GA1071+004801061GF107991071051004501999999IA1019MA1999999095971MD1210101-0031MW1041REMSYN106AAXX  24151 76393 31410 70601 10256 20217 39597 40156 52010 70422 875// 91450 333 0/3// 30/// 59003 87616;
0161763930999992012072418004+25733-100300FM-12+051599999V0201601N003012200019N0020001N1+03211+02131101461ADDAY141061AY201061GF102991011011012501001011MA1999999095881MD1710091+9999MW1041REMSYN072AAXX  24181 76393 31620 21603 10321 20213 39588 40146 57009 70440 81101;
0189763930999992012072421004+25733-100300FM-12+051599999V0201201N006012200019N0050001N1+03581+01851101101ADDGA1011+021001091GF103991011031022501021081IA1019MA1999999095591MD1710291-0151REMSYN100AAXX  24211 76393 32850 31206 10358 20185 39559 40110 57029 81328 92045 333 06573 30/// 59015 81957;
0250763930999992012072500004+25733-100300FM-12+051599999V0201401N006012200019N0050001N1+03661+01501100841ADDAA124000091GA1011+024001061GF103991011051022501001081IA1019KA1120M+03761KA2180N+02401MA1999999095401MD1710191-0241REMSYN124AAXX  25001 76393 32850 31406 10366 20150 39540 40084 57019 81508 92335 333 0/707 10376 20240 30/// 50991 59024 70000 81658;
0161763930999992012072506004+25733-100300FM-12+051599999V0201201N003012200019N0020001N1+02701+02051101141ADDAY101061AY201061GF102991021051008001001001MA1999999095701MD1210171+9999MW1041REMSYN072AAXX  25061 76393 31520 21203 10270 20205 39570 40114 52017 70400 82500;
0217763930999992012072509004+25733-100300FM-12+051599999V0201201N003012200019N0020001N1+02501+02081101111ADDAY101031AY201031GA1021+005101061GF102991021051004501001001IA1019MA1999999095631MD1710071-0201MW1041REMSYN106AAXX  25091 76393 31420 21203 10250 20208 39563 40111 57007 70400 82500 90850 333 0/300 30/// 59020 82617;
0161763930999992012072512004+25733-100300FM-12+051599999V0200201N001012200019N0010001N1+02361+02021101181ADDAY111061AY211061GF102991021051004501001001MA1999999095641MD1210011+9999MW1041REMSYN072AAXX  25121 76393 31410 20201 10236 20202 39564 40118 52001 70411 82500;
0217763930999992012072515004+25733-100300FM-12+051599999V0200601N001010069019N0010001N1+02721+02161101391ADDAY121031AY221031GA1051+006901061GF105991051051008001001001IA1019MA1999999095811MD1210171-0161MW1041REMSYN106AAXX  25151 76393 31510 50601 10272 20216 39581 40139 52017 70422 85500 91450 333 0/300 30/// 59016 85623;
0237763930999992012072518004+25733-100300FM-12+051599999V0200701N003012200019N0010001N1+03201+02181101241ADDAY141061AY241061GA1001+999999999GF100991001001999999001001IA1019KA1120M+03341KA2240N+02301MA1999999095681MD1710131-0201MW1051REMSYN100AAXX  25181 76393 31910 00703 10320 20218 39568 40124 57013 70544 91745 333 10334 20230 30/// 59020;
0150763930999992012072521004+25733-100300FM-12+051599999V0201201N005012200019N0030001N1+03701+01971999999ADDGF103991999999022501999999REMSYN112AAXX  25211 76393 31830 31205 10370 20197 27029 39539 40089 70400 82920 92045 333 06570 30/// 59020 81957 81658;
0161763930999992012072600004+25733-100300FM-12+051599999V0201201N003019999999N0040001N1+03621+01931100611ADDAY121061AY221061GF106991001001999999001081MA1999999095181MD1710211+9999MW1041REMSYN072AAXX  26001 76393 31940 61203 10362 20193 39518 40061 57021 70422 80008;
0171763930999992012072603004+25733-100300FM-12+051599999V0201201N006012200019N0020001N1+03301+01941100761ADDGA1001+999999999GF100991001001999999001001IA1019MA1999999095361MD1210181-0171REMSYN082AAXX  26031 76393 32920 01206 10330 20194 39536 40076 52018 90250 333 30/// 59017;
0251763930999992012072606004+25733-100300FM-12+051599999V0201101N002012200019N0010001N1+02721+02131100861ADDAY101061AY201061GA1001+999999999GF100991001001999999001001GJ105589IA1019KA1240M+03841KA2240N+02301MA1999999095441MD1210081-0261MW1041REMSYN106AAXX  26061 76393 31910 01102 10272 20213 39544 40086 52008 70400 90550 333 10384 20230 30/// 55093 59026;
0199763930999992012072609004+25733-100300FM-12+051599999V0201101N003012200019N0010001N1+02541+02121100831ADDAY101031AY201031GA1001+999999999GF100991001001999999001001IA1019MA1999999095371MD1710071-0261MW1041REMSYN088AAXX  26091 76393 31910 01103 10254 20212 39537 40083 57007 70400 90850 333 30/// 59026;
0161763930999992012072612004+25733-100300FM-12+051599999V0200901N001012200019N0010001N1+02501+02081101011ADDAY141061AY241061GF101991011051004501001001MA1999999095501MD1210131+9999MW1041REMSYN072AAXX  26121 76393 31410 10901 10250 20208 39550 40101 52013 70444 81500;
0217763930999992012072615004+25733-100300FM-12+051599999V0200701N001012200019N0010001N1+02761+02181101131ADDAY141031AY241031GA1011+007201061GF101991011051008001001001IA1019MA1999999095581MD1210081-0231MW1041REMSYN106AAXX  26151 76393 31510 10701 10276 20218 39558 40113 52008 70444 81500 91450 333 0/300 30/// 59023 81624;
0161763930999992012072618004+25733-100300FM-12+051599999V0201101N001012200019N0010001N1+03361+02091101011ADDAY141061AY201061GF102991011021017501001011MA1999999095471MD1710111+9999MW1051REMSYN072AAXX  26181 76393 31710 21101 10336 20209 39547 40101 57011 70540 81201;
0223763930999992012072621004+25733-100300FM-12+051599999V0201201N003012200019N0030001N1+03721+02001100721ADDAY141031AY221031GA1021+021001061GF105991041021022501001081IA1019MA1999999095251MD1710221-0141MW1041REMSYN112AAXX  26211 76393 31830 51203 10372 20200 39525 40072 57022 70442 84208 92045 333 05307 30/// 59014 82657 82858;
0161763930999992012072700004+25733-100300FM-12+051599999V0203001N005010150019N0030001N1+03221+01911100691ADDAY121061AY221061GF107991051051017501011001MA1999999095261MD1210011+9999MW1041REMSYN072AAXX  27001 76393 31730 73005 10322 20191 39526 40069 52001 70422 85510;
0240763930999992012072703004+25733-100300FM-12+051599999V0202201N002010087019N0010001N1+02781+02081100801ADDAA103001091AY121031AY221031GA1081+008701061GF108991081051008001999999IA1099MA1999999095371MD1210111+0011MW1051REMSYN118AAXX  27031 76393 21510 82202 10278 20208 39537 40080 52011 70522 885// 90250 333 0/3// 31/// 54117 58001 60017 88629;
0161763930999992012072712004+25733-100300FM-12+051599999V0200201N001010042019N0010001N1+02521+02101101091ADDAY121061AY221061GF107991071051004501999999MA1999999095551MD1210131+9999MW1041REMSYN072AAXX  27121 76393 31410 70201 10252 20210 39555 40109 52013 70422 875//;
0217763930999992012072715004+25733-100300FM-12+051599999V0200701N001010066019N0010001N1+02701+02171101251ADDAY121031AY221031GA1071+006601061GF107991071051008001999999IA1019MA1999999095691MD1210141+0121MW1041REMSYN106AAXX  27151 76393 31510 70701 10270 20217 39569 40125 52014 70422 875// 91450 333 0/3// 30/// 58012 87622;
0161763930999992012072718004+25733-100300FM-12+051599999V0200501N002010075019N0010001N1+02901+02241101351ADDAY141061AY221061GF108991051051008001021999MA1999999095791MD1210101+9999MW1051REMSYN072AAXX  27181 76393 31510 80502 10290 20224 39579 40135 52010 70542 8552/;
0343763930999992012072800004+25733-100300FM-12+051599999V0201201N00601008101CN0020001N1+02741+02091101161ADDAA103009092AA206008992AA324010491AY121061AY221061GA1061+008101061GF108991999051008001021011IA1099KA1120M+03571KA2180N+02461MA1999999095641MD1210061+0381MW1041REMSYN154AAXX  28001 76393 01520 81206 10274 20209 39564 40116 52006 60091 70422 88521 92350 333 0/35/ 10357 20246 31/// 50531 54118 58038 60097 70104 86627 82460;EQDQ01+000082SCOTLC
0217763930999992012072803004+25733-100300FM-12+051599999V0201201N003010087019N0010001N1+02801+02101101291ADDAY141031AY221031GA1051+008701061GF105991051051008001001001IA1019MA1999999095771MD1210131+0401MW1051REMSYN106AAXX  28031 76393 31510 51203 10280 20210 39577 40129 52013 70542 85500 90250 333 0/300 30/// 58040 85629;
0161763930999992012072806004+25733-100300FM-12+051599999V0201101N003012200019N0010001N1+02541+02121101501ADDAY101061AY201061GF101991011051004501001001MA1999999095971MD1210201+9999MW1041REMSYN072AAXX  28061 76393 31410 11103 10254 20212 39597 40150 52020 70400 81500;
0217763930999992012072809004+25733-100300FM-12+051599999V0201101N002012200019N0010001N1+02401+02091101491ADDAY101031AY201031GA1021+003601061GF102991021051004501001001IA1019MA1999999095921MD1710051+0551MW1041REMSYN106AAXX  28091 76393 31410 21102 10240 20209 39592 40149 57005 70400 82500 90850 333 0/300 30/// 58055 82612;
0161763930999992012072812004+25733-100300FM-12+051599999V0201101N001012200019N0010001N1+02331+02041101571ADDAY121061AY221061GF104991011051004501021011MA1999999095971MD1210051+9999MW1041REMSYN072AAXX  28121 76393 31410 41101 10233 20204 39597 40157 52005 70422 81521;
0217763930999992012072815004+25733-100300FM-12+051599999V0200601N001010060019N0010001N1+02661+02161101731ADDAY121031AY221031GA1051+006001061GF105991051051008001001001IA1019MA1999999096121MD1210151+0431MW1041REMSYN106AAXX  28151 76393 31510 50601 10266 20216 39612 40173 52015 70422 85500 91442 333 0/300 30/// 58043 85620;
0161763930999992012072818004+25733-100300FM-12+051599999V0201101N003012200019N0030001N1+03161+02041101641ADDAY101061AY201061GF103991021011012501001011MA1999999096051MD1710071+9999MW1041REMSYN072AAXX  28181 76393 31630 31103 10316 20204 39605 40164 57007 70400 82101;
0217763930999992012072821004+25733-100300FM-12+051599999V0201201N004012200019N0040001N1+03541+01871101361ADDAY121031AY221031GA1041+021001061GF106991041041022501001011IA1019MA1999999095831MD1710221+0251MW1041REMSYN106AAXX  28211 76393 31840 61204 10354 20187 39583 40136 57022 70422 84401 92050 333 0/305 30/// 58025 84657;
0161763930999992012072900004+25733-100300FM-12+051599999V0201201N005010150019N0050001N1+03201+01921101231ADDAY121061AY221061GF106991061051017501001001MA1999999095751MD1710081+9999MW1041REMSYN072AAXX  29001 76393 31750 61205 10320 20192 39575 40123 57008 70422 86500;
0189763930999992012072903004+25733-100300FM-12+051599999V0201201N004012200019N0010001N1+02901+01931101401ADDGA1011+012001061GF101991011051999999001001IA1019MA1999999095931MD1210181+0161REMSYN100AAXX  29031 76393 32910 11204 10290 20193 39593 40140 52018 81500 90250 333 0/300 30/// 58016 81640;
0161763930999992012072912004+25733-100300FM-12+051599999V0209999C000012200019N0020001N1+02341+02081101541ADDAY101061AY201061GF101991011051004501001001MA1999999095961MD1210041+9999MW1041REMSYN072AAXX  29121 76393 31420 10000 10234 20208 39596 40154 52004 70400 81500;
0217763930999992012072915004+25733-100300FM-12+051599999V0200301N001010057019N0010001N1+02661+02191101761ADDAY121031AY221031GA1071+005701061GF107991071051004501001001IA1019MA1999999096141MD1210181+0021MW1041REMSYN106AAXX  29151 76393 31410 70301 10266 20219 39614 40176 52018 70422 87500 91450 333 0/300 30/// 58002 87619;
0227763930999992012072918004+25733-100300FM-12+051599999V0201301N001012200019N0010001N1+03141+02131101631ADDGA1011+012601081GF101991011021012501001001IA1019KA1120M+03291KA2240N+02281MA1999999096041MD1710101-0011REMSYN112AAXX  29181 76393 32610 11301 10314 20213 39604 40163 57010 81200 91750 333 00500 10329 20228 30/// 59001 81842;
0217763930999992012072921004+25733-100300FM-12+051599999V0201201N002012200019N0030001N1+03541+01911101301ADDAY111031AY211031GA1021+021001081GF102991021081022501001001IA1019MA1999999095781MD1710261-0051MW1041REMSYN106AAXX  29211 76393 31830 21202 10354 20191 39578 40130 57026 70411 82800 92048 333 00500 30/// 59005 82857;
0161763930999992012073000004+25733-100300FM-12+051599999V0201201N004012200019N0050001N1+03521+01461101091ADDAY101061AY201061GF103991031051022501001001MA1999999095631MD1710141+9999MW1041REMSYN072AAXX  30001 76393 31850 31204 10352 20146 39563 40109 57014 70400 83500;
0171763930999992012073003004+25733-100300FM-12+051599999V0201201N005012200019N0010001N1+03101+01731101161ADDGA1001+999999999GF100991001001999999001001IA1019MA1999999095721MD1210091-0211REMSYN082AAXX  30031 76393 32910 01205 10310 20173 39572 40116 52009 90250 333 30/// 59021;
0245763930999992012073012004+25733-100300FM-12+051599999V0200901N001012200019N0020001N1+02381+02041101581ADDAA124000091GA1001+999999999GF100991001001999999001001IA1019KA1240M+03721KA2120N+02301MA1999999095821MD1999999-0141REMSYN100AAXX  30121 76393 32920 00901 10238 20204 39582 40158 5//// 91150 333 10372 20230 30220 59014 70000;EQDQ01  00002PRCP24
0171763930999992012073015004+25733-100300FM-12+051599999V0200501N001012200019N0030001N1+02741+02121101571ADDGA1001+999999999GF100991001001999999001001IA1019MA1999999095901MD1210081-0241REMSYN082AAXX  30151 76393 32930 00501 10274 20212 39590 40157 52008 91451 333 30/// 59024;
0161763930999992012073018004+25733-100300FM-12+051599999V0200601N002012200019N0030001N1+03381+02011101441ADDAY141061AY201061GF101991011021017501001001MA1999999095881MD1710021+9999MW1051REMSYN072AAXX  30181 76393 31730 10602 10338 20201 39588 40144 57002 70540 81200;
0242763930999992012073021004+25733-100300FM-12+051599999V0201201N005012200019N0050001N1+03691+01721101171ADDAY141031AY201031GA1011+018001091GF101991999091022501001001IA1019MA1999999095671MD1710211-0111MW1051REMSYN112AAXX  30211 76393 31850 11205 10369 20172 39567 40117 57021 70540 82900 92045 333 06500 30/// 59011 81956 81857;EQDQ01+000022SCOTLC
0161763930999992012073100004+25733-100300FM-12+051599999V0201201N004012200019N0050001N1+03681+01571100921ADDAY141061AY201061GF101991011041022501001001MA1999999095491MD1710181+9999MW1051REMSYN072AAXX  31001 76393 31850 11204 10368 20157 39549 40092 57018 70540 81400;
0171763930999992012073103004+25733-100300FM-12+051599999V0201201N006012200019N0010001N1+03101+01901101001ADDGA1001+999999999GF100991001001999999001001IA1019MA1999999095601MD1210111-0121REMSYN082AAXX  31031 76393 32910 01206 10310 20190 39560 40100 52011 90250 333 30/// 59012;
0251763930999992012073106004+25733-100300FM-12+051599999V0201101N003012200019N0010001N1+02861+01951101191ADDAY101061AY201061GA1001+999999999GF100991001001999999001001GJ106849IA1019KA1240M+03901KA2240N+02301MA1999999095771MD1210171-0081MW1041REMSYN106AAXX  31061 76393 31910 01103 10286 20195 39577 40119 52017 70400 90550 333 10390 20230 30/// 55114 59008;
0199763930999992012073109004+25733-100300FM-12+051599999V0200201N001012200019N0010001N1+02501+01951101171ADDAY101031AY201031GA1001+999999999GF100991001001999999001001IA1019MA1999999095701MD1710071-0151MW1041REMSYN088AAXX  31091 76393 31910 00201 10250 20195 39570 40117 57007 70400 90850 333 30/// 59015;
0199763930999992012073115004+25733-100300FM-12+051599999V0201201N001012200019N0010001N1+02801+02181101451ADDAY141031AY241031GA1001+999999999GF100991001001999999001001IA1019MA1999999095871MD1210061-0031MW1051REMSYN088AAXX  31151 76393 31910 01201 10280 20218 39587 40145 52006 70544 91445 333 30/// 59003;
0161763930999992012073118004+25733-100300FM-12+051599999V0201201N003012200019N0010001N1+03361+02021101371ADDAY141061AY201061GF101991001001999999001081MA1999999095821MD1710051+9999MW1051REMSYN072AAXX  31181 76393 31910 11203 10336 20202 39582 40137 57005 70540 80008;
0195763930999992012080115004+25733-100300FM-12+051599999V0200901N001012200019N0010001N1+02861+02231101371ADDAY141031AY211031GF104991001001999999001081IA1019MA1999999095821MD1210081-0051MW1051REMSYN100AAXX  01151 76393 31910 40901 10286 20223 39582 40137 52008 70541 80008 91445 333 0/005 30/// 59005;
0237763930999992012080118004+25733-100300FM-12+051599999V0201201N002012200019N0010001N1+03361+01921101271ADDAY141061AY241061GA1001+999999999GF100991001001999999001001IA1019KA1120M+03541KA2240N+02441MA1999999095731MD1710091-0091MW1051REMSYN100AAXX  01181 76393 31910 01202 10336 20192 39573 40127 57009 70544 91750 333 10354 20244 30/// 59009;
0199763930999992012080121004+25733-100300FM-12+051599999V0201101N002012200019N0020001N1+03881+01411100971ADDAY141031AY241031GA1001+999999999GF100991001001999999001001IA1019MA1999999095501MD1710231-0381MW1051REMSYN088AAXX  01211 76393 31920 01102 10388 20141 39550 40097 57023 70544 92045 333 30/// 59038;
0287763930999992012080212004+25733-100300FM-12+051599999V0200901N001012200019N0010001N1+02461+02121100961ADDAA124000091AY141061AY241061GA1001+999999999GF100991001001999999001001GJ106909IA1019KA1240M+04051KA2120N+02401MA1999999095471MD1999999-0271MW1051REMSYN112AAXX  02121 76393 31910 00901 10246 20212 39547 40096 5//// 70544 91145 333 10405 20240 30236 55115 59027 70000;EQDQ01  00002PRCP24
0199763930999992012080215004+25733-100300FM-12+051599999V0201401N001012200019N0010001N1+02881+02221101101ADDAY141031AY241031GA1001+999999999GF100991001001999999001001IA1019MA1999999095581MD1210111-0241MW1051REMSYN088AAXX  02151 76393 31910 01401 10288 20222 39558 40110 52011 70544 91445 333 30/// 59024;
0237763930999992012080218004+25733-100300FM-12+051599999V0200701N001012200019N0010001N1+03481+02101101041ADDAY141061AY241061GA1001+999999999GF100991001001999999001001IA1019KA1120M+03641KA2240N+02401MA1999999095531MD1710031-0201MW1051REMSYN100AAXX  02181 76393 31910 00701 10348 20210 39553 40104 57003 70544 91745 333 10364 20240 30/// 59020;
0199763930999992012080221004+25733-100300FM-12+051599999V0201101N004012200019N0030001N1+03861+01551100771ADDAY141031AY241031GA1001+999999999GF100991001001999999001001IA1019MA1999999095311MD1710221-0191MW1051REMSYN088AAXX  02211 76393 31930 01104 10386 20155 39531 40077 57022 70544 92043 333 30/// 59019;
0161763930999992012080312004+25733-100300FM-12+051599999V0200601N002012200019N0010001N1+02441+02101100821ADDAY141061AY211061GF103991031051004501001001MA1999999095341MD1710071+9999MW1051REMSYN072AAXX  03121 76393 31410 30602 10244 20210 39534 40082 57007 70541 83500;
0217763930999992012080315004+25733-100300FM-12+051599999V0201101N001010057019N0008001N1+02661+02191101021ADDAY141031AY221031GA1081+005701061GF108991081051004501999999IA1019MA1999999095481MD1210141-0101MW1051REMSYN106AAXX  03151 76393 31408 81101 10266 20219 39548 40102 52014 70542 885// 91445 333 0/399 30/// 59010 88619;
0161763930999992012080318004+25733-100300FM-12+051599999V0201201N001012200019N0010001N1+03281+02211101001ADDAY141061AY201061GF101991011051012501001001MA1999999095461MD1710021+9999MW1051REMSYN072AAXX  03181 76393 31610 11201 10328 20221 39546 40100 57002 70540 81500;
0161763930999992012080406004+25733-100300FM-12+051599999V0200201N005012200019N0010001N1+02661+02181100831ADDAY101061AY201061GF102991021051008001001001MA1999999095421MD1710051+9999MW1041REMSYN072AAXX  04061 76393 31510 20205 10266 20218 39542 40083 57005 70400 82500;
0217763930999992012080409004+25733-100300FM-12+051599999V0201101N002010057019N0010001N1+02641+02171100811ADDAY121031AY221031GA1051+005701061GF105991051051004501001001IA1019MA1999999095361MD1710061+0021MW1041REMSYN106AAXX  04091 76393 31410 51102 10264 20217 39536 40081 57006 70422 85500 90845 333 0/300 30/// 58002 85619;
0161763930999992012080412004+25733-100300FM-12+051599999V0201201N003010042019N0010001N1+02581+02191100921ADDAY121061AY221061GF106991061051004501001001MA1999999095421MD1210061+9999MW1041REMSYN072AAXX  04121 76393 31410 61203 10258 20219 39542 40092 52006 70422 86500;
0217763930999992012080415004+25733-100300FM-12+051599999V0201101N002010072019N0010001N1+02821+02241101101ADDAY121031AY221031GA1051+007201061GF105991051051008001001001IA1019MA1999999095561MD1210141+0081MW1051REMSYN106AAXX  04151 76393 31510 51102 10282 20224 39556 40110 52014 70522 85500 91440 333 0/300 30/// 58008 85624;
0161763930999992012080418004+25733-100300FM-12+051599999V0201101N001012200019N0020001N1+03201+02121101091ADDAY111061AY211061GF103991031051012501001001MA1999999095551MD1710011+9999MW1041REMSYN072AAXX  04181 76393 31620 31101 10320 20212 39555 40109 57001 70411 83500;
0217763930999992012080421004+25733-100300FM-12+051599999V0201201N002012200019N0020001N1+03661+02011100801ADDAY121031AY221031GA1041+021001081GF104991041011022501001001IA1019MA1999999095321MD1710201-0221MW1041REMSYN106AAXX  04211 76393 31820 41202 10366 20201 39532 40080 57020 70422 84100 92050 333 00300 30/// 59022 84857;
0161763930999992012080500004+25733-100300FM-12+051599999V0201201N004010210019N0030001N1+03541+01801100691ADDAY121061AY221061GF106991061051022501001001MA1999999095261MD1710061+9999MW1041REMSYN072AAXX  05001 76393 31830 61204 10354 20180 39526 40069 57006 70422 86500;
0189763930999992012080503004+25733-100300FM-12+051599999V0201201N007010111019N0010001N1+03021+02131100991ADDGA1051+011101061GF105991051051012501001001IA1019MA1999999095561MD1210301+0091REMSYN100AAXX  05031 76393 32610 51207 10302 20213 39556 40099 52030 85500 90250 333 0/300 30/// 58009 85637;
0161763930999992012080506004+25733-100300FM-12+051599999V0201101N004012200019N0010001N1+02661+02161101191ADDAY101061AY201061GF103991031051008001001001MA1999999095751MD1210191+9999MW1041REMSYN072AAXX  05061 76393 31510 31104 10266 20216 39575 40119 52019 70400 83500;
0217763930999992012080509004+25733-100300FM-12+051599999V0201201N004012200019N0010001N1+02581+02161101241ADDAY101031AY201031GA1031+005101061GF103991031051004501001001IA1019MA1999999095651MD1410001+0391MW1041REMSYN106AAXX  05091 76393 31410 31204 10258 20216 39565 40124 54000 70400 83500 90850 333 0/300 30/// 58039 83617;
0161763930999992012080512004+25733-100300FM-12+051599999V0201001N003012200019N0010001N1+02521+02181101301ADDAY101061AY201061GF103991031051004501001001MA1999999095761MD1210011+9999MW1041REMSYN072AAXX  05121 76393 31410 31003 10252 20218 39576 40130 52001 70400 83500;
0217763930999992012080515004+25733-100300FM-12+051599999V0201101N003010057019N0010001N1+02721+02251101541ADDAY121031AY221031GA1051+005701061GF105991051051004501001001IA1019MA1999999095961MD1210201+0401MW1041REMSYN106AAXX  05151 76393 31410 51103 10272 20225 39596 40154 52020 70422 85500 91450 333 0/300 30/// 58040 85619;
0312763930999992012080600004+25733-100300FM-12+051599999V0202001N007010048019N0020001N1+03621+02231101261ADDAA103001091AA206001091AA324001391AY121061AY221061GA1081+004801061GF108991081051004501999999IA1119KA1120M+03681KA2180N+02461MA1999999095771MD1999999+0511MW1501REMSYN142AAXX  06001 76393 01420 82007 10362 20223 39577 40126 5//// 60011 75022 885// 92350 333 0/300 10368 20246 32/// 51391 58051 60017 70013 88616;
0147763930999992012080612004+25733-100300FM-12+051599999V0201101N001012200019N0010001N1+02401+02061101731ADDAY101061AY201061GF102991011051004501031001MA1999999096071MW1041REMSYN072AAXX  06121 76393 31410 21101 10240 20206 39607 40173 5//// 70400 81530;
0217763930999992012080615004+25733-100300FM-12+051599999V0200601N001010069019N0020001N1+02861+02101101811ADDAY121031AY221031GA1051+006901061GF105991051051008001001001IA1019MA1999999096141MD1210071+0181MW1041REMSYN106AAXX  06151 76393 31520 50601 10286 20210 39614 40181 52007 70422 85500 91450 333 0/300 30/// 58018 85623;
0161763930999992012080618004+25733-100300FM-12+051599999V0200901N003012200019N0030001N1+03161+02071101741ADDAY141061AY201061GF101991011021012501001001MA1999999096051MD1710091+9999MW1051REMSYN072AAXX  06181 76393 31630 10903 10316 20207 39605 40174 57009 70540 81200;
0217763930999992012080621004+25733-100300FM-12+051599999V0201201N005012200019N0050001N1+03571+01741101321ADDAY141031AY201031GA1021+021001061GF103991021051022501001081IA1019MA1999999095791MD1710261-0031MW1051REMSYN106AAXX  06211 76393 31850 31205 10357 20174 39579 40132 57026 70540 82508 92045 333 0/303 30/// 59003 82657;
0161763930999992012080700004+25733-100300FM-12+051599999V0201201N003012200019N0050001N1+03561+01441101161ADDAY101061AY201061GF103991031051022501001001MA1999999095691MD1710101+9999MW1041REMSYN072AAXX  07001 76393 31850 31203 10356 20144 39569 40116 57010 70400 83500;
0177763930999992012080703004+25733-100300FM-12+051599999V0201201N002012200019N0020001N1+02921+01921101271ADDGA1001+999999999GF100991001001999999001001IA1019MA1999999095811MD1210121-0221REMSYN088AAXX  07031 76393 32920 01202 10292 20192 39581 40127 52012 90250 333 30/// 54115 59022;
0245763930999992012080712004+25733-100300FM-12+051599999V0203201N001012200019N0020001N1+02401+02001101271ADDAA124000091GA1001+999999999GF100991001001999999001001IA1019KA1240M+03681KA2120N+02341MA1999999095711MD1710041-0361REMSYN100AAXX  07121 76393 32920 03201 10240 20200 39571 40127 57004 91150 333 10368 20234 30230 59036 70000;EQDQ01  00002PRCP24
0195763930999992012080715004+25733-100300FM-12+051599999V0203601N002012200019N0030001N1+02661+02001101421ADDAY101031AY201031GF101991001001999999001011IA1019MA1999999095831MD1210121-0311MW1041REMSYN100AAXX  07151 76393 31930 13602 10266 20200 39583 40142 52012 70400 80001 91450 333 0/007 30/// 59031;
0161763930999992012080718004+25733-100300FM-12+051599999V0200601N001012200019N0040001N1+03321+01761101341ADDAY101061AY201061GF102991011021017501001081MA1999999095781MD1710051+9999MW1041REMSYN072AAXX  07181 76393 31740 20601 10332 20176 39578 40134 57005 70400 81208;
0195763930999992012080721004+25733-100300FM-12+051599999V0201101N003012200019N0050001N1+03681+01801101091ADDGA1021+021001081GF104991041021022501001001IA1019MA1999999095591MD1710191-0201REMSYN106AAXX  07211 76393 32850 41103 10368 20180 39559 40109 57019 84200 92045 333 02300 30/// 59020 82857 82658;
0245763930999992012080812004+25733-100300FM-12+051599999V0201001N001012200019N0020001N1+02521+02071101201ADDAA124000091GA1001+999999999GF100991001001999999001001IA1019KA1240M+03861KA2120N+02421MA1999999095661MD1210041-0051REMSYN100AAXX  08121 76393 32920 01001 10252 20207 39566 40120 52004 91150 333 10386 20242 30234 59005 70000;EQDQ01  00002PRCP24
0171763930999992012080815004+25733-100300FM-12+051599999V0201401N001012200019N0030001N1+02921+02111101361ADDGA1001+999999999GF100991001001999999001001IA1019MA1999999095791MD1210131-0041REMSYN082AAXX  08151 76393 32930 01401 10292 20211 39579 40136 52013 91450 333 30/// 59004;
0161763930999992012080818004+25733-100300FM-12+051599999V0201101N003012200019N0040001N1+03461+01971101261ADDAY101061AY201061GF102991021091017501001001MA1999999095721MD1710071+9999MW1041REMSYN072AAXX  08181 76393 31740 21103 10346 20197 39572 40126 57007 70400 82900;
0217763930999992012080821004+25733-100300FM-12+051599999V0201101N004012200019N0050001N1+03621+01991101021ADDAY101031AY201031GA1021+021001061GF103991021051022501001081IA1019MA1999999095541MD1710181-0051MW1041REMSYN106AAXX  08211 76393 31850 31104 10362 20199 39554 40102 57018 70400 82508 92045 333 0/307 30/// 59005 82657;
0161763930999992012080900004+25733-100300FM-12+051599999V0201201N003010210019N0050001N1+03561+01781100831ADDAY121061AY221061GF107991051051022501001081MA1999999095411MD1710131+9999MW1041REMSYN072AAXX  09001 76393 31850 71203 10356 20178 39541 40083 57013 70422 85508;
0217763930999992012080903004+25733-100300FM-12+051599999V0201201N005012200019N0010001N1+03161+01971100951ADDAY101031AY201031GA1021+014701061GF102991021051012501001001IA1019MA1999999095551MD1210141+0011MW1041REMSYN106AAXX  09031 76393 31610 21205 10316 20197 39555 40095 52014 70400 82500 90250 333 0/300 30/// 58001 82649;
0251763930999992012080906004+25733-100300FM-12+051599999V0201101N004012200019N0010001N1+02721+01951101051ADDAY101061AY201061GA1001+999999999GF100991001001999999001001GJ105829IA1019KA1240M+03821KA2240N+02421MA1999999095621MD1210071+0001MW1041REMSYN106AAXX  09061 76393 31910 01104 10272 20195 39562 40105 52007 70400 90550 333 10382 20242 30/// 55097 58000;
0199763930999992012080909004+25733-100300FM-12+051599999V0201101N002012200019N0020001N1+02561+02051101151ADDAY101031AY201031GA1001+999999999GF100991001001999999001001IA1019MA1999999095681MD1210061+0061MW1041REMSYN088AAXX  09091 76393 31920 01102 10256 20205 39568 40115 52006 70400 90850 333 30/// 58006;
0245763930999992012080912004+25733-100300FM-12+051599999V0201101N001012200019N0020001N1+02581+02121101241ADDAA124000091GA1001+999999999GF100991001001999999001001IA1019KA1240M+03821KA2120N+02481MA1999999095721MD1210041+0061REMSYN100AAXX  09121 76393 32920 01101 10258 20212 39572 40124 52004 91145 333 10382 20248 30240 58006 70000;EQDQ01  00002PRCP24
0217763930999992012080915004+25733-100300FM-12+051599999V0203201N001012200019N0010001N1+02761+02211101361ADDAY141031AY201031GA1011+006901061GF101991011051008001001001IA1019MA1999999095801MD1210081+0011MW1051REMSYN106AAXX  09151 76393 31510 13201 10276 20221 39580 40136 52008 70540 81500 91445 333 0/500 30/// 58001 81623;
0161763930999992012080918004+25733-100300FM-12+051599999V0201101N003012200019N0030001N1+03381+02111101301ADDAY101061AY201061GF102991021091017501001001MA1999999095751MD1710051+9999MW1041REMSYN072AAXX  09181 76393 31730 21103 10338 20211 39575 40130 57005 70400 82900;
0256763930999992012081000004+25733-100300FM-12+051599999V0201201N004012200019N0050001N1+03521+01881100831ADDAA124000091GA1021+021001061GF103991021041022501001081IA1019KA1120M+03801KA2180N+02481MA1999999095411MD1999999+0001REMSYN130AAXX  10001 76393 32850 31204 10352 20188 39541 40083 5//// 82408 92350 333 0/305 10380 20248 30/// 50921 58000 70000 82657 81271;
0171763930999992012081003004+25733-100300FM-12+051599999V0201201N003012200019N0010001N1+03041+02031100981ADDGA1001+999999999GF100991001001999999001001IA1019MA1999999095571MD1210161+0021REMSYN082AAXX  10031 76393 32910 01203 10304 20203 39557 40098 52016 90250 333 30/// 58002;
0251763930999992012081006004+25733-100300FM-12+051599999V0201501N003012200019N0010001N1+02821+02031101051ADDAY101061AY201061GA1001+999999999GF100991001001999999001001GJ106849IA1019KA1240M+03801KA2240N+02481MA1999999095621MD1210051+0001MW1041REMSYN106AAXX  10061 76393 31910 01503 10282 20203 39562 40105 52005 70400 90550 333 10380 20248 30/// 55114 58000;
0199763930999992012081009004+25733-100300FM-12+051599999V0201001N002012200019N0010001N1+02481+01991101031ADDAY101031AY201031GA1001+999999999GF100991001001999999001001IA1019MA1999999095551MD1710071-0131MW1041REMSYN088AAXX  10091 76393 31910 01002 10248 20199 39555 40103 57007 70400 90850 333 30/// 59013;
0245763930999992012081012004+25733-100300FM-12+051599999V0201001N001012200019N0010001N1+02461+02001101141ADDAA124000091GA1001+999999999GF100991001001999999001001IA1019KA1240M+03801KA2120N+02401MA1999999095611MD1210061-0111REMSYN100AAXX  10121 76393 32910 01001 10246 20200 39561 40114 52006 91150 333 10380 20240 30234 59011 70000;EQDQ01  00002PRCP24
0171763930999992012081015004+25733-100300FM-12+051599999V0200601N001012200019N0030001N1+02801+02101101261ADDGA1001+999999999GF100991001001999999001001IA1019MA1999999095701MD1210091-0101REMSYN082AAXX  10151 76393 32930 00601 10280 20210 39570 40126 52009 91450 333 30/// 59010;
0237763930999992012081018004+25733-100300FM-12+051599999V0201201N001012200019N0040001N1+03381+01911101241ADDAY141061AY241061GA1001+999999999GF100991001001999999001001IA1019KA1120M+03521KA2240N+02401MA1999999095681MD1710021-0071MW1041REMSYN100AAXX  10181 76393 31940 01201 10338 20191 39568 40124 57002 70444 91745 333 10352 20240 30/// 59007;
0189763930999992012081021004+25733-100300FM-12+051599999V0201201N005012200019N0050001N1+03701+01391100941ADDGA1011+024001081GF101991011011022501001001IA1019MA1999999095451MD1710231-0121REMSYN100AAXX  10211 76393 32850 11205 10370 20139 39545 40094 57023 81100 92044 333 00300 30/// 59012 81858;
0250763930999992012081100004+25733-100300FM-12+051599999V0201201N005012200019N0050001N1+03681+01531100721ADDAA124000091GA1021+021001081GF102991021021022501001001IA1019KA1120M+03901KA2180N+02401MA1999999095301MD1710151-0111REMSYN124AAXX  11001 76393 32850 21205 10368 20153 39530 40072 57015 82200 92335 333 01300 10390 20240 30/// 51091 59011 70000 82857;
0251763930999992012081106004+25733-100300FM-12+051599999V0201201N003012200019N0010001N1+02901+01931100931ADDAY101061AY201061GA1001+999999999GF100991001001999999001001GJ106669IA1019KA1240M+03901KA2240N+02401MA1999999095521MD1210031-0101MW1041REMSYN106AAXX  11061 76393 31910 01203 10290 20193 39552 40093 52003 70400 90550 333 10390 20240 30/// 55111 59010;
0199763930999992012081109004+25733-100300FM-12+051599999V0200701N002012200019N0010001N1+02621+02051100941ADDAY101031AY201031GA1001+999999999GF100991001001999999001001IA1019MA1999999095491MD1710031-0061MW1041REMSYN088AAXX  11091 76393 31910 00702 10262 20205 39549 40094 57003 70400 90850 333 30/// 59006;
0245763930999992012081112004+25733-100300FM-12+051599999V0200701N001012200019N0020001N1+02561+02141101061ADDAA124000091GA1001+999999999GF100991001001999999001001IA1019KA1240M+03901KA2120N+02501MA1999999095551MD1210061-0061REMSYN100AAXX  11121 76393 32920 00701 10256 20214 39555 40106 52006 91150 333 10390 20250 30242 59006 70000;EQDQ01  00002PRCP24
0171763930999992012081115004+25733-100300FM-12+051599999V0200601N001012200019N0030001N1+02841+02231101211ADDGA1001+999999999GF100991001001999999001001IA1019MA1999999095671MD1210121-0031REMSYN082AAXX  11151 76393 32930 00601 10284 20223 39567 40121 52012 91449 333 30/// 59003;
0237763930999992012081118004+25733-100300FM-12+051599999V0200701N003012200019N0040001N1+03441+02121101181ADDAY141061AY241061GA1001+999999999GF100991001001999999001001IA1019KA1120M+03541KA2240N+02501MA1999999095651MD1710021-0031MW1041REMSYN100AAXX  11181 76393 31940 00703 10344 20212 39565 40118 57002 70444 91745 333 10354 20250 30/// 59003;
0171763930999992012081121004+25733-100300FM-12+051599999V0201001N002012200019N0050001N1+03841+01301100951ADDGA1001+999999999GF100991001001999999001001IA1019MA1999999095481MD1710171+0031REMSYN082AAXX  11211 76393 32950 01002 10384 20130 39548 40095 57017 92050 333 30/// 58003;
0257763930999992012081206004+25733-100300FM-12+051599999V0201201N002012200019N0020001N1+02841+02081100971ADDAY101061AY201061GA1001+999999999GF100991001001999999001001GJ106729IA1019KA1240M+03941KA2240N+02501MA1999999095571MD1210091+9999MW1041REMSYN112AAXX  12061 76393 31920 01202 10284 20208 39557 40097 52009 70400 90550 333 10394 20250 30/// 51121 55112 58005;
0199763930999992012081209004+25733-100300FM-12+051599999V0201101N004012200019N0020001N1+02641+02141101001ADDAY101031AY201031GA1001+999999999GF100991001001999999001001IA1019MA1999999095561MD1710011+0071MW1041REMSYN088AAXX  12091 76393 31920 01104 10264 20214 39556 40100 57001 70400 90850 333 30/// 58007;
0195763930999992012081215004+25733-100300FM-12+051599999V0203301N001012200019N0030001N1+02601+02121101291ADDAY101031AY201031GF101991011001999999031001IA1019MA1999999095741MD1210141+0071MW1041REMSYN100AAXX  12151 76393 31930 13301 10260 20212 39574 40129 52014 70400 81030 91450 333 0/050 30/// 58007;
0161763930999992012081218004+25733-100300FM-12+051599999V0201201N003012200019N0040001N1+03301+02141101241ADDAY101061AY201061GF101991011011012501001001MA1999999095691MD1710051+9999MW1041REMSYN072AAXX  12181 76393 31640 11203 10330 20214 39569 40124 57005 70400 81100;
0259763930999992012081312004+25733-100300FM-12+051599999V0200601N002012200019N0020001N1+02421+01991101331ADDAA124000091GA1001+999999999GF100991001001999999001001GJ106609IA1019KA1240M+03841KA2120N+02341MA1999999095791MD1999999+0191REMSYN106AAXX  13121 76393 32920 00602 10242 20199 39579 40133 5//// 91150 333 10384 20234 30228 55110 58019 70000;EQDQ01  00002PRCP24
0217763930999992012081315004+25733-100300FM-12+051599999V0200701N001012200019N0030001N1+02721+02131101481ADDAY111031AY211031GA1041+007201061GF104991041051008001001001IA1019MA1999999095901MD1210111+0161MW1041REMSYN106AAXX  13151 76393 31530 40701 10272 20213 39590 40148 52011 70411 84500 91451 333 0/300 30/// 58016 84624;
0161763930999992012081318004+25733-100300FM-12+051599999V0200601N003012200019N0040001N1+03281+01951101411ADDAY101061AY201061GF105991011051017501001081MA1999999095841MD1710061+9999MW1041REMSYN072AAXX  13181 76393 31740 50603 10328 20195 39584 40141 57006 70400 81508;
0223763930999992012081321004+25733-100300FM-12+051599999V0201201N003010900019N0050001N1+03521+01771101131ADDAY121031AY221031GA1011+021001081GF106991041021022501001081IA1019MA1999999095621MD1710221+9999MW1041REMSYN112AAXX  13211 76393 31850 61203 10352 20177 39562 40113 57022 70422 84208 92045 333 02305 30/// 58/// 81857 83658;
0147763930999992012081412004+25733-100300FM-12+051599999V0200701N001012200019N0010001N1+02461+02061101251ADDAY101061AY201061GF101991011051004501001001MA1999999095681MW1041REMSYN072AAXX  14121 76393 31410 10701 10246 20206 39568 40125 5//// 70400 81500;
0217763930999992012081415004+25733-100300FM-12+051599999V0200601N001010600019N0030001N1+02601+02001101431ADDAY121031AY221031GA1061+060001021GF106991001001999999001081IA1019MA1999999095831MD1210151-0071MW1051REMSYN106AAXX  14151 76393 31930 60601 10260 20200 39583 40143 52015 70522 80008 91452 333 0/005 30/// 59007 86270;
0234763930999992012081418004+25733-100300FM-12+051599999V0201201N006010900019N0040001N1+03261+01931101311ADDAY121061AY221061GF106991021051017501001051KA1999M+03331KA2240N+02361MA1999999095741MD1710091-0101MW1041REMSYN119AAXX  14181 76393 31740 61206 10326 20193 39574 40131 57009 70422 82505 91745 333 0/305 103338 20236 30/// 59010 82656;
0179763930999992012081421004+25733-100300FM-12+051599999V0201201N007010150019N0050001N1+03421+01921101001ADDGF107991051051017501001051IA1019MA1999999095491MD1710251-0131REMSYN106AAXX  14211 76393 32750 71207 10342 20192 39549 40100 57025 85505 92045 333 0/307 30/// 30/// 59013 85656;
0161763930999992012081500004+25733-100300FM-12+051599999V0201101N006010360019N0050001N1+03141+02021100811ADDAY121061AY221061GF106991011051012501011051MA1999999095351MD1710141+9999MW1051REMSYN072AAXX  15001 76393 31650 61106 10314 20202 39535 40081 57014 70522 81515;
0217763930999992012081515004+25733-100300FM-12+051599999V0200601N001012200019N0020001N1+02681+02121101111ADDAY101031AY201031GA1011+006901061GF103991011051008001031001IA1019MA1999999095541MD1210101-0291MW1051REMSYN106AAXX  15151 76393 31520 30601 10268 20212 39554 40111 52010 70500 81530 91450 333 0/350 30/// 59029 81623;
0161763930999992012081518004+25733-100300FM-12+051599999V0201301N002012200019N0020001N1+03371+02241101041ADDAY141061AY221061GF105991011041012501001081MA1999999095501MD1710041+9999MW1051REMSYN072AAXX  15181 76393 31620 51302 10337 20224 39550 40104 57004 70542 81408;
0195763930999992012081521004+25733-100300FM-12+051599999V0201201N005012200019N0050001N1+03761+01981100731ADDGA1011+021001061GF104991021021022501001011IA1019MA1999999095251MD1710251-0241REMSYN106AAXX  15211 76393 32850 41205 10376 20198 39525 40073 57025 82201 92045 333 02355 30/// 59024 81657 81858;
0161763930999992012081600004+25733-100300FM-12+051599999V0201101N004010360019N0040001N1+03441+01851100511ADDAY121061AY221061GF106991011051017501021081MA1999999095101MD1710151+9999MW1051REMSYN072AAXX  16001 76393 31740 61104 10344 20185 39510 40051 57015 70522 81528;
0217763930999992012081603004+25733-100300FM-12+051599999V0201601N001012200019N0010001N1+03241+01651100631ADDAY101031AY201031GA1011+018001061GF103991011051017501011001IA1019MA1999999095241MD1210141-0171MW1051REMSYN106AAXX  16031 76393 31710 31601 10324 20165 39524 40063 52014 70500 81510 90250 333 0/350 30/// 59017 81656;
0147763930999992012081612004+25733-100300FM-12+051599999V0201101N002012200019N0010001N1+02501+02081101031ADDAY101061AY201061GF102991021001999999031001MA1999999095521MW1041REMSYN072AAXX  16121 76393 31910 21102 10250 20208 39552 40103 5//// 70400 82030;
0195763930999992012081615004+25733-100300FM-12+051599999V0201201N001019999999N0020001N1+02761+02151101191ADDAY121031AY221031GF105991021001999999031081IA1019MA1999999095631MD1210111+0091MW1051REMSYN100AAXX  16151 76393 31920 51201 10276 20215 39563 40119 52011 70522 82038 91450 333 0/055 30/// 58009;
0195763930999992012081618004+25733-100300FM-12+051599999V0201201N003012200019N0030001N1+03321+02131101181ADDAY141061AY201061GF103991001001999999001081IA1019MA1999999095631MD1410001+0131MW1051REMSYN100AAXX  16181 76393 31930 31203 10332 20213 39563 40118 54000 70540 80008 91745 333 0/005 30/// 58013;
0259763930999992012081712004+25733-100300FM-12+051599999V0200501N001012200019N0020001N1+02401+02061101231ADDAA124000091GA1001+999999999GF100991001001999999001001GJ106369IA1019KA1240M+03981KA2120N+02321MA1999999095701MD1999999+0181REMSYN106AAXX  17121 76393 32920 00501 10240 20206 39570 40123 5//// 91150 333 10398 20232 30226 55106 58018 70000;EQDQ01  00002PRCP24
0217763930999992012081715004+25733-100300FM-12+051599999V0200601N002010063019N0020001N1+02621+02111101421ADDAY121031AY221031GA1071+006301061GF107991071051008001001001IA1019MA1999999095851MD1210151+0221MW1041REMSYN106AAXX  17151 76393 31520 70602 10262 20211 39585 40142 52015 70422 87500 91450 333 0/300 30/// 58022 87621;
0161763930999992012081718004+25733-100300FM-12+051599999V0201201N002012200019N0030001N1+03181+02031999999ADDAY101061AY201061GF102991021011012501001001MA1999999095781MD1710071+9999MW1041REMSYN072AAXX  17181 76393 31630 21202 10318 20203 39578 4/134 57007 70400 82100;
0217763930999992012081721004+25733-100300FM-12+051599999V0201301N001012200019N0040001N1+03661+01901100961ADDAY101031AY201031GA1011+021001081GF102991021011022501001001IA1019MA1999999095461MD1710321-0091MW1041REMSYN106AAXX  17211 76393 31840 21301 10366 20190 39546 40096 57032 70400 82100 92045 333 00300 30/// 59009 81857;
0161763930999992012081800004+25733-100300FM-12+051599999V0201201N005012200019N0050001N1+03541+01681100721ADDAY101061AY201061GF102991021011022501001001MA1999999095281MD1710181+9999MW1051REMSYN072AAXX  18001 76393 31850 21205 10354 20168 39528 40072 57018 70500 82100;
0199763930999992012081803004+25733-100300FM-12+051599999V0201101N004012200019N0020001N1+03061+01851100901ADDAY101031AY201031GA1001+999999999GF100991001001999999001001IA1019MA1999999095481MD1210201-0021MW1041REMSYN088AAXX  18031 76393 31920 01104 10306 20185 39548 40090 52020 70400 90249 333 30/// 59002;
0147763930999992012081818004+25733-100300FM-12+051599999V0201201N002012200019N0030001N1+03201+02091101281ADDAY111061AY211061GF102991011011012501031001MA1999999095521MW1041REMSYN072AAXX  18181 76393 31630 21202 10320 20209 39552 40128 5//// 70411 81130;
0217763930999992012081821004+25733-100300FM-12+051599999V0201101N001012200019N0050001N1+03621+01941100921ADDAY101031AY201031GA1021+021001081GF102991021011022501001001IA1019MA1999999095161MD1710361-0301MW1041REMSYN106AAXX  18211 76393 31850 21101 10362 20194 39516 40092 57036 70400 82100 92050 333 00300 30/// 59030 82857;
0161763930999992012081900004+25733-100300FM-12+051599999V0201201N003012200019N0050001N1+03441+01851100421ADDAY101061AY201061GF102991021011017501001001MA1999999095001MD1710161+9999MW1051REMSYN072AAXX  19001 76393 31750 21203 10344 20185 39500 40042 57016 70500 82100;
0199763930999992012081903004+25733-100300FM-12+051599999V0201201N005012200019N0020001N1+03101+01901100481ADDAY101031AY201031GA1001+999999999GF100991001001999999001001IA1019MA1999999095081MD1210081-0401MW1041REMSYN088AAXX  19031 76393 31920 01205 10310 20190 39508 40048 52008 70400 90245 333 30/// 59040;
0251763930999992012081906004+25733-100300FM-12+051599999V0200901N005012200019N0010001N1+02821+01931100671ADDAY141061AY241061GA1001+999999999GF100991001001999999001001GJ105949IA1019KA1240M+03821KA2240N+02321MA1999999095251MD1210171+9999MW1041REMSYN106AAXX  19061 76393 31910 00905 10282 20193 39525 40067 52017 70444 90545 333 10382 20232 30/// 55099 58///;
0199763930999992012081909004+25733-100300FM-12+051599999V0201201N002012200019N0010001N1+02641+02221100691ADDAY141031AY241031GA1001+999999999GF100991001001999999001001IA1019MA1999999095241MD1710011+9999MW1051REMSYN088AAXX  19091 76393 31910 01202 10264 20222 39524 40069 57001 70544 90245 333 30/// 58///;
0161763930999992012081912004+25733-100300FM-12+051599999V0200601N001012200019N0010001N1+02461+02091100811ADDAY101061AY201061GF101991011051004501001001MA1999999095301MD1210061+9999MW1041REMSYN072AAXX  19121 76393 31410 10601 10246 20209 39530 40081 52006 70400 81500;
0217763930999992012081915004+25733-100300FM-12+051599999V0201101N001010057019N0010001N1+02641+02171101011ADDAY121031AY221031GA1071+005701061GF107991071051004501001001IA1019MA1999999095461MD1210161+9999MW1041REMSYN106AAXX  19151 76393 31410 71101 10264 20217 39546 40101 52016 70422 87500 91450 333 0/300 30/// 58/// 87619;
0161763930999992012081918004+25733-100300FM-12+051599999V0200601N001012200019N0020001N1+03201+02021100971ADDAY111061AY211061GF104991021021012501001021MA1999999095431MD1710031+9999MW1041REMSYN072AAXX  19181 76393 31620 40601 10320 20202 39543 40097 57003 70411 82202;
0161763930999992012082000004+25733-100300FM-12+051599999V0201101N003010360019N0050001N1+03321+01871100631ADDAY121061AY221061GF105991031051017501011001MA1999999095181MD1710041+9999MW1051REMSYN072AAXX  20001 76393 31750 51103 10332 20187 39518 40063 57004 70522 83510;
0234763930999992012082003004+25733-100300FM-12+051599999V0201101N001010129019N0020001N1+03021+01971100871ADDAA103000791AY121031AY221031GA1051+012901061GF105991051051012501001001IA1019MA1999999095431MD1210251+0351MW1041REMSYN112AAXX  20031 76393 21620 51101 10302 20197 39543 40087 52025 70422 85500 90250 333 0/500 30/// 58035 69977 85643;
0331763930999992012082006004+25733-100300FM-12+051599999V0202301N003010018019N0010001N1+02241+02101101161ADDAA103003091AA206003091AY151061AY251061GA1031+001501071GA2031+001801061GF108991081091001501999999GJ104269IA1119KA1240M+03701KA2240N+02201MA1999999095681MD1210251+0431MW1501REMSYN148AAXX  20061 76393 01210 82303 10224 20210 39568 40116 52025 60031 75055 889// 90552 333 065// 10370 20220 32/// 55071 58043 60037 83705 83606 82907;
0240763930999992012082009004+25733-100300FM-12+051599999V0201901N00101002101CN0010001N1+02241+02041101301ADDAA103002091AY151031AY251031GA1031+002401071GF108991081061002501999999IA1119MA1999999095751MD1210071+0511MW1501REMSYN118AAXX  20091 76393 21310 81901 10224 20204 39575 40130 52007 75055 886// 90845 333 0/399 32/// 58051 60027 83708 85611;
0306763930999992012082012004+25733-100300FM-12+051599999V0200701N001010018019N0010001N1+02261+02121101311ADDAA103003091AA206004191AA324007691AY151061AY251061GA1081+001801071GF108991081061001501999999IA1019KA1240M+03701KA2120N+02161MA1999999095711MD1710041+0411MW1501REMSYN136AAXX  20121 76393 01210 80701 10226 20212 39571 40131 57004 60041 75055 886// 91152 333 0/3// 10370 20216 30204 58041 60037 70076 88706;
0234763930999992012082015004+25733-100300FM-12+051599999V0203101N001012200019N0030001N1+02541+02151101411ADDAA103000191AY111031AY211031GA1031+004801061GF104991031051004501031001IA1019MA1999999095781MD1210071+0321MW1041REMSYN112AAXX  20151 76393 21430 43101 10254 20215 39578 40141 52007 70411 83530 91450 333 0/350 30/// 58032 69917 83616;
0211763930999992012082021004+25733-100300FM-12+051599999V0201101N001010126019N0030001N1+03161+99999101171ADDAY121031AY221031GA1061+012601061GF107991061051012501031001IA1019MA1999999095611MD1710161+0391MW1041REMSYN100AAXX  20211 76393 31630 71101 10316 39561 40117 57016 70422 86530 92045 333 0/350 30/// 58039 86642;
0161763930999992012082100004+25733-100300FM-12+051599999V0201401N002012200019N0050001N1+03001+01921101061ADDAY101061AY201061GF103991011091012501031001MA1999999095551MD1710061+9999MW1041REMSYN072AAXX  21001 76393 31650 31402 10300 20192 39555 40106 57006 70400 81930;
0217763930999992012082103004+25733-100300FM-12+051599999V0202501N001012200019N0020001N1+02681+01931101121ADDAY101031AY201031GA1011+009001061GF103991011051999999031001IA1019MA1999999095621MD1210071+0191MW1041REMSYN106AAXX  21031 76393 31920 32501 10268 20193 39562 40112 52007 70400 81530 90250 333 0/150 30/// 58019 81630;
0251763930999992012082106004+25733-100300FM-12+051599999V0209999C000012200019N0010001N1+02521+01911101191ADDAY141061AY241061GA1001+999999999GF100991001001999999001001GJ103429IA1019KA1240M+03341KA2240N+02161MA1999999095681MD1210061+0001MW1051REMSYN106AAXX  21061 76393 31910 00000 10252 20191 39568 40119 52006 70544 90545 333 10334 20216 30/// 55057 58000;
0199763930999992012082109004+25733-100300FM-12+051599999V0209999C000012200019N0010001N1+02381+01821101131ADDAY141031AY241031GA1001+999999999GF100991001001999999001001IA1019MA1999999095591MD1710091-0161MW1051REMSYN088AAXX  21091 76393 31910 00000 10238 20182 39559 40113 57009 70544 90845 333 30/// 59016;
0254763930999992012082112004+25733-100300FM-12+051599999V0202201N001012200019N0010001N1+02301+01631101241ADDAA124000021AY141061AY241061GA1001+999999999GF100991001001999999001001IA1019KA1240M+03341KA2120N+02221MA1999999095661MD1210071-0051MW1051REMSYN106AAXX  21121 76393 31910 02201 10230 20163 39566 40124 52007 70544 91150 333 10334 20222 30210 59005 70000;
0171763930999992012082115004+25733-100300FM-12+051599999V0202001N001012200019N0050001N1+02821+01591101381ADDGA1001+999999999GF100991001001999999001001IA1019MA1999999095781MD1210121+0001REMSYN082AAXX  21151 76393 32950 02001 10282 20159 39578 40138 52012 91450 333 30/// 58000;
0227763930999992012082118004+25733-100300FM-12+051599999V0201301N001012200019N0050001N1+03421+01351101311ADDGA1011+024001061GF101991011051022501001001IA1019KA1120M+03591KA2240N+02221MA1999999095741MD1710041-0031REMSYN112AAXX  21181 76393 32850 11301 10342 20135 39574 40131 57004 81500 91749 333 0/500 10359 20222 30/// 59003 81658;
0217763930999992012082121004+25733-100300FM-12+051599999V0201101N001012200019N0050001N1+03561+01391101131ADDAY121031AY221031GA1041+024001081GF104991041011022501001001IA1019MA1999999095621MD1710121+0011MW1041REMSYN106AAXX  21211 76393 31850 41101 10356 20139 39562 40113 57012 70422 84100 92048 333 00500 30/// 58001 84858;
0161763930999992012082200004+25733-100300FM-12+051599999V0201301N001012200019N0050001N1+03241+01461100971ADDAY111061AY211061GF103991031011022501001001MA1999999095521MD1710101+9999MW1041REMSYN072AAXX  22001 76393 31850 31301 10324 20146 39552 40097 57010 70411 83100;
0251763930999992012082206004+25733-100300FM-12+051599999V0201001N003012200019N0010001N1+02661+01581101291ADDAY141061AY241061GA1001+999999999GF100991001001999999001001GJ106609IA1019KA1240M+03691KA2240N+02221MA1999999095811MD1210091+0131MW1051REMSYN106AAXX  22061 76393 31910 01003 10266 20158 39581 40129 52009 70544 90545 333 10369 20222 30/// 55110 58013;
0161763930999992012082212004+25733-100300FM-12+051599999V0200701N001012200019N0010001N1+02341+01991101301ADDAY101061AY201061GF101991011051004501001001MA1999999095731MD1210031+9999MW1041REMSYN072AAXX  22121 76393 31410 10701 10234 20199 39573 40130 52003 70400 81500;
0217763930999992012082215004+25733-100300FM-12+051599999V0201201N001012200019N0030001N1+02661+02101101501ADDAY121031AY221031GA1011+006901061GF105991011051008001001061IA1019MA1999999095901MD1210171+0121MW1051REMSYN106AAXX  22151 76393 31530 51201 10266 20210 39590 40150 52017 70522 81506 91450 333 0/305 30/// 58012 81623;
0161763930999992012082218004+25733-100300FM-12+051599999V0200701N001010120019N0030001N1+02861+01911101471ADDAY121061AY221061GF107991051051012501001061MA1999999095881MD1710021+9999MW1041REMSYN072AAXX  22181 76393 31630 70701 10286 20191 39588 40147 57002 70422 85506;
0217763930999992012082221004+25733-100300FM-12+051599999V0201101N001010138019N0030001N1+03171+02051101231ADDAY121031AY221031GA1071+013801061GF107991071051012501999999IA1019MA1999999095681MD1710201+0061MW1041REMSYN106AAXX  22211 76393 31630 71101 10317 20205 39568 40123 57020 70422 875// 91750 333 0/3// 30/// 58006 87646;
0161763930999992012082300004+25733-100300FM-12+051599999V0201601N002012200019N0050001N1+03201+01991101061ADDAY101061AY201061GF103991031051012501001001MA1999999095561MD1710121+9999MW1051REMSYN072AAXX  23001 76393 31650 31602 10320 20199 39556 40106 57012 70500 83500;
0217763930999992012082303004+25733-100300FM-12+051599999V0202301N001010069019N0020001N1+02721+02161101171ADDAY121031AY221031GA1051+006901061GF105991051051008001001001IA1019MA1999999095681MD1210121-0041MW1041REMSYN106AAXX  23031 76393 31520 52301 10272 20216 39568 40117 52012 70422 85500 90250 333 0/300 30/// 59004 85623;
0147763930999992012082312004+25733-100300FM-12+051599999V0200701N001012200019N0010001N1+02361+02131101301ADDAY101061AY201061GF101991011051004501001001MA1999999095721MW1041REMSYN072AAXX  23121 76393 31410 10701 10236 20213 39572 40130 5//// 70400 81500;
0217763930999992012082315004+25733-100300FM-12+051599999V0200601N001012200019N0020001N1+02711+02111101441ADDAY111031AY211031GA1021+007501061GF102991021051008001001001IA1019MA1999999095801MD1210081-0101MW1041REMSYN106AAXX  23151 76393 31520 20601 10271 20211 39580 40144 52008 70411 82500 91450 333 0/300 30/// 59010 82625;
0217763930999992012082321004+25733-100300FM-12+051599999V0201201N005012200019N0040001N1+03361+02021101051ADDAY101031AY201031GA1031+018001061GF103991031051017501001001IA1019MA1999999095531MD1710231-0151MW1041REMSYN106AAXX  23211 76393 31740 31205 10336 20202 39553 40105 57023 70400 83500 92045 333 0/300 30/// 59015 83656;
0161763930999992012082400004+25733-100300FM-12+051599999V0201901N003010075019N0040001N1+02941+02201100901ADDAY121061AY221061GF105991051051008001001001MA1999999095421MD1710111+9999MW1051REMSYN072AAXX  24001 76393 31540 51903 10294 20220 39542 40090 57011 70522 85500;
0217763930999992012082403004+25733-100300FM-12+051599999V0201901N020010069019N0020001N1+02681+02121100981ADDAY121031AY221031GA1051+006901061GF105991051051008001001001IA1019MA1999999095501MD1210081-0181MW1041REMSYN106AAXX  24031 76393 31520 51920 10268 20212 39550 40098 52008 70422 85500 90250 333 0/300 30/// 59018 85623;
0169763930999992012082406004+25733-100300FM-12+051599999V0201201N004010075019N0010001N1+02681+02121101121ADDAA106000091GF108991081051008001999999MA1999999095621MD1210121+9999REMSYN072AAXX  24061 76393 02510 81204 10268 20212 39562 40112 52012 69901 885//;EQDQ01  00002PRCP06
0253763930999992012082409004+25733-100300FM-12+051599999V0201201N001010030019N0010001N1+02501+02251101021ADDAA103000091AY121031AY221031GA1081+003001061GF108991081051004501999999IA1019MA1999999095491MD1710131-0281MW1051REMSYN112AAXX  24091 76393 21410 81201 10250 20225 39549 40102 57013 70522 885// 90850 333 0/3// 30/// 59028 69907 88610;EQDQ01  00002PRCP03
0161763930999992012082412004+25733-100300FM-12+051599999V0200901N001010042019N0010001N1+02481+02231101021ADDAY121061AY221061GF107991071051004501001001MA1999999095461MD1710031+9999MW1041REMSYN072AAXX  24121 76393 31410 70901 10248 20223 39546 40102 57003 70422 87500;
0217763930999992012082415004+25733-100300FM-12+051599999V0203301N001010063019N0010001N1+02741+02241101101ADDAY121031AY221031GA1061+006301061GF106991061051008001001001IA1019MA1999999095531MD1210071-0271MW1051REMSYN106AAXX  24151 76393 31510 63301 10274 20224 39553 40110 52007 70522 86500 91450 333 0/300 30/// 59027 86621;
0161763930999992012082418004+25733-100300FM-12+051599999V0200801N003012200019N0020001N1+03101+02251101071ADDAY141061AY241061GF102991021021012501001001MA1999999095521MD1710011+9999MW1051REMSYN072AAXX  24181 76393 31620 20803 10310 20225 39552 40107 57001 70544 82200;
0223763930999992012082421004+25733-100300FM-12+051599999V0201201N004012200019N0040001N1+03341+02091100781ADDAY141031AY211031GA1021+014701061GF104991041031012501001001IA1019MA1999999095281MD1710241-0251MW1041REMSYN112AAXX  24211 76393 31640 41204 10334 20209 39528 40078 57024 70441 84300 92045 333 02300 30/// 59025 82649 82850;
0161763930999992012082500004+25733-100300FM-12+051599999V0201201N005012200019N0040001N1+03201+01991100581ADDAY101061AY201061GF103991011051012501041001MA1999999095121MD1710161+9999MW1051REMSYN072AAXX  25001 76393 31640 31205 10320 20199 39512 40058 57016 70500 81540;
0199763930999992012082503004+25733-100300FM-12+051599999V0201301N002012200019N0020001N1+03161+01801100641ADDAY101031AY201031GA1001+999999999GF100991001001999999001001IA1019MA1999999095211MD1210091-0291MW1041REMSYN088AAXX  25031 76393 31920 01302 10316 20180 39521 40064 52009 70400 90250 333 30/// 59029;
0223763930999992012082506004+25733-100300FM-12+051599999V0201201N003012200019N0010001N1+02701+02051100821ADDGA1001+999999999GF100991001001999999001001GJ105169IA1019KA1240M+03501KA2240N+02381MA1999999095371MD1210161-0251REMSYN100AAXX  25061 76393 32910 01203 10270 20205 39537 40082 52016 90550 333 10350 20238 30/// 55086 59025;
0199763930999992012082509004+25733-100300FM-12+051599999V0201101N003012200019N0010001N1+02441+02071100771ADDAY141031AY241031GA1001+999999999GF100991001001999999001001IA1019MA1999999095291MD1710081-0201MW1051REMSYN088AAXX  25091 76393 31910 01103 10244 20207 39529 40077 57008 70544 90850 333 30/// 59020;
0161763930999992012082512004+25733-100300FM-12+051599999V0200501N001010042019N0010001N1+02301+01981100821ADDAY121061AY221061GF105991051051004501001001MA1999999095291MD1410001+9999MW1041REMSYN072AAXX  25121 76393 31410 50501 10230 20198 39529 40082 54000 70422 85500;
0217763930999992012082515004+25733-100300FM-12+051599999V0201101N002010057019N0010001N1+02481+02021101001ADDAY121031AY221031GA1081+005701061GF108991081051004501999999IA1019MA1999999095431MD1210141-0101MW1041REMSYN106AAXX  25151 76393 31410 81102 10248 20202 39543 40100 52014 70422 885// 91450 333 0/3// 30/// 59010 88619;
0161763930999992012082518004+25733-100300FM-12+051599999V0201101N001010075019N0010001N1+02821+02151101051ADDAY121061AY221061GF107991071051008001999999MA1999999095471MD1210041+9999MW1041REMSYN072AAXX  25181 76393 31510 71101 10282 20215 39547 40105 52004 70422 875//;
0217763930999992012082521004+25733-100300FM-12+051599999V0201301N001012200019N0020001N1+03201+02121100731ADDAY141031AY211031GA1041+013201061GF104991041051012501001001IA1019MA1999999095201MD1710271-0081MW1051REMSYN106AAXX  25211 76393 31620 41301 10320 20212 39520 40073 57027 70541 84500 92050 333 0/300 30/// 59008 84644;
0161763930999992012082600004+25733-100300FM-12+051599999V0201101N003012200019N0030001N1+03261+02001100521ADDAY101061AY201061GF101991011011012501001001MA1999999095041MD1710161+9999MW1051REMSYN072AAXX  26001 76393 31630 11103 10326 20200 39504 40052 57016 70500 81100;
0217763930999992012082603004+25733-100300FM-12+051599999V0201101N004012200019N0010001N1+02921+02051100761ADDAY101031AY201031GA1021+010501061GF102991021051012501001001IA1019MA1999999095291MD1210251+0081MW1041REMSYN106AAXX  26031 76393 31610 21104 10292 20205 39529 40076 52025 70400 82500 90250 333 0/300 30/// 58008 82635;
0161763930999992012082606004+25733-100300FM-12+051599999V0201201N003012200019N0010001N1+02681+02121100881ADDAY101061AY201061GF102991021051008001001001MA1999999095411MD1210121+9999MW1041REMSYN072AAXX  26061 76393 31510 21203 10268 20212 39541 40088 52012 70400 82500;
0217763930999992012082609004+25733-100300FM-12+051599999V0201101N001012200019N0010001N1+02481+02171100901ADDAY121031AY221031GA1041+003901061GF104991041051004501001001IA1019MA1999999095401MD1710011+0111MW1041REMSYN106AAXX  26091 76393 31410 41101 10248 20217 39540 40090 57001 70422 84500 90850 333 0/300 30/// 58011 84613;
0161763930999992012082612004+25733-100300FM-12+051599999V0201101N003010042019N0010001N1+02441+02191101041ADDAY121061AY221061GF107991071051004501001001MA1999999095491MD1210091+9999MW1041REMSYN072AAXX  26121 76393 31410 71103 10244 20219 39549 40104 52009 70422 87500;
0217763930999992012082615004+25733-100300FM-12+051599999V0200601N002010051019N0010001N1+02581+02161101301ADDAY121031AY221031GA1061+005101061GF106991061051004501001001IA1019MA1999999095721MD1210231+0291MW1051REMSYN106AAXX  26151 76393 31410 60602 10258 20216 39572 40130 52023 70522 86500 91450 333 0/300 30/// 58029 86617;
0217763930999992012082621004+25733-100300FM-12+051599999V0201201N001012200019N0030001N1+03271+02021101021ADDAY111031AY211031GA1041+015001061GF104991041051017501001001IA1019MA1999999095491MD1710241+0291MW1041REMSYN106AAXX  26211 76393 31730 41201 10327 20202 39549 40102 57024 70411 84500 92051 333 0/300 30/// 58029 84650;
0161763930999992012082700004+25733-100300FM-12+051599999V0201101N002012200019N0040001N1+03221+01811100851ADDAY101061AY201061GF101991011051017501001001MA1999999095361MD1710131+9999MW1051REMSYN072AAXX  27001 76393 31740 11102 10322 20181 39536 40085 57013 70500 81500;
0147763930999992012082712004+25733-100300FM-12+051599999V0201101N001010042019N0010001N1+02481+02171101341ADDAY121061AY221061GF107991071051004501001001MA1999999095791MW1041REMSYN072AAXX  27121 76393 31410 71101 10248 20217 39579 40134 5//// 70422 87500;
0217763930999992012082715004+25733-100300FM-12+051599999V0201101N002012200019N0030001N1+02721+02161101501ADDAY101031AY201031GA1031+006901061GF103991031051008001001001IA1019MA1999999095921MD1210131+0201MW1051REMSYN106AAXX  27151 76393 31530 31102 10272 20216 39592 40150 52013 70500 83500 91452 333 0/300 30/// 58020 83623;
0161763930999992012082718004+25733-100300FM-12+051599999V0201101N001012200019N0030001N1+03101+01971101471ADDAY101061AY201061GF101991011051012501001001MA1999999095881MD1710041+9999MW1041REMSYN072AAXX  27181 76393 31630 11101 10310 20197 39588 40147 57004 70400 81500;
0217763930999992012082721004+25733-100300FM-12+051599999V0201101N001012200019N0030001N1+03501+01921101171ADDAY101031AY201031GA1011+018001061GF101991011051017501001001IA1019MA1999999095651MD1710231+0161MW1041REMSYN106AAXX  27211 76393 31730 11101 10350 20192 39565 40117 57023 70400 81500 92051 333 0/300 30/// 58016 81656;
0279763930999992012082800004+25733-100300FM-12+051599999V0201201N003012200019N0040001N1+03241+01501100991ADDAA124000091AY101061AY201061GA1001+999999999GF100991001001999999001001IA1019KA1120M+03661KA2180N+02401MA1999999095521MD1710131+0161MW1051REMSYN112AAXX  28001 76393 31940 01203 10324 20150 39552 40099 57013 70500 92350 333 10366 20240 30/// 50981 58016 70000;EQDQ01  00002PRCP24
0217763930999992012082803004+25733-100300FM-12+051599999V0201201N003012200019N0030001N1+02941+01671101131ADDAY101031AY201031GA1011+015001061GF101991011051017501001001IA1019MA1999999095671MD1210151+0111MW1041REMSYN106AAXX  28031 76393 31730 11203 10294 20167 39567 40113 52015 70400 81500 90250 333 0/300 30/// 58011 81650;
0161763930999992012082806004+25733-100300FM-12+051599999V0201201N004012200019N0010001N1+02781+02021101241ADDAY101061AY201061GF101991011041008001001001MA1999999095771MD1210101+9999MW1041REMSYN072AAXX  28061 76393 31510 11204 10278 20202 39577 40124 52010 70400 81400;
0199763930999992012082809004+25733-100300FM-12+051599999V0200601N001012200019N0010001N1+02601+02061101181ADDAY141031AY241031GA1001+999999999GF100991001001999999001001IA1019MA1999999095681MD1710091-0071MW1051REMSYN088AAXX  28091 76393 31910 00601 10260 20206 39568 40118 57009 70544 90850 333 30/// 59007;
0245763930999992012082812004+25733-100300FM-12+051599999V0209999C000012200019N0020001N1+02501+02051101231ADDAA124000091GA1001+999999999GF100991001001999999001001IA1019KA1240M+03661KA2120N+02421MA1999999095691MD1210011-0101REMSYN100AAXX  28121 76393 32920 00000 10250 20205 39569 40123 52001 91150 333 10366 20242 30232 59010 70000;EQDQ01  00002PRCP24
0195763930999992012082815004+25733-100300FM-12+051599999V0209999C000012200019N0030001N1+02901+02091101341ADDAY101031AY201031GF101991001001999999001061IA1019MA1999999095781MD1210091-0141MW1041REMSYN100AAXX  28151 76393 31930 10000 10290 20209 39578 40134 52009 70400 80006 91450 333 0/001 30/// 59014;
0161763930999992012082818004+25733-100300FM-12+051599999V0200601N001012200019N0040001N1+03481+01971101281ADDAY121061AY221061GF105991041021017501001011MA1999999095731MD1710051+9999MW1041REMSYN072AAXX  28181 76393 31740 50601 10348 20197 39573 40128 57005 70422 84201;
0217763930999992012082821004+25733-100300FM-12+051599999V0200601N001012200019N0040001N1+03501+01891100961ADDAY121031AY221031GA1031+021001061GF104991031051017501031001IA1019MA1999999095481MD1710251-0171MW1041REMSYN106AAXX  28211 76393 31740 40601 10350 20189 39548 40096 57025 70422 83530 92050 333 0/350 30/// 59017 83657;
0161763930999992012082900004+25733-100300FM-12+051599999V0201601N001012200019N0040001N1+03481+01791100761ADDAY111061AY211061GF104991031051022501031001MA1999999095331MD1710151+9999MW1041REMSYN072AAXX  29001 76393 31840 41601 10348 20179 39533 40076 57015 70411 83530;
0147763930999992012082906004+25733-100300FM-12+051599999V0203401N002012200019N0010001N1+02981+01821100931ADDAY101061AY201061GF102991021051012501001001MA1999999095501MW1041REMSYN072AAXX  29061 76393 31610 23402 10298 20182 39550 40093 5//// 70400 82500;
0199763930999992012082909004+25733-100300FM-12+051599999V0202101N002012200019N0010001N1+02781+01851100831ADDAY141031AY241031GA1001+999999999GF100991001001999999001001IA1019MA1999999095381MD1710121-0301MW1051REMSYN088AAXX  29091 76393 31910 02102 10278 20185 39538 40083 57012 70544 90850 333 30/// 59030;
0161763930999992012082912004+25733-100300FM-12+051599999V0209999C000012200019N0020001N1+02741+01971100881ADDAY101061AY201061GF103991031051008001001001MA1999999095401MD1210021+9999MW1041REMSYN072AAXX  29121 76393 31520 30000 10274 20197 39540 40088 52002 70400 83500;
0195763930999992012082915004+25733-100300FM-12+051599999V0202701N001012200019N0030001N1+03161+01941100961ADDAY101031AY201031GF101991011001999999031001IA1019MA1999999095461MD1210061-0321MW1041REMSYN100AAXX  29151 76393 31930 12701 10316 20194 39546 40096 52006 70400 81030 91450 333 0/050 30/// 59032;
0161763930999992012082918004+25733-100300FM-12+051599999V0200601N001012200019N0030001N1+03501+01671100851ADDAY111061AY211061GF104991021011022501031091MA1999999095371MD1710091+9999MW1041REMSYN072AAXX  29181 76393 31830 40601 10350 20167 39537 40085 57009 70411 82139;
0217763930999992012082921004+25733-100300FM-12+051599999V0201301N001010240019N0040001N1+03661+01531100551ADDAY121031AY221031GA1071+024001061GF107991071051999999999999IA1019MA1999999095131MD1710241-0351MW1041REMSYN106AAXX  29211 76393 31940 71301 10366 20153 39513 40055 57024 70422 875// 92050 333 0/3// 30/// 59035 87658;
0320763930999992012083000004+25733-100300FM-12+051599999V0202101N002012200019N0030001N1+02242+01971100421ADDAA106001092AA224000192AY111061AY211061GF104991021051017501011001IA1019KA1120M+03801KA2180N+99999MA1999999095021MD1710111-0311MW1051REMSYN142AAXX  30001 76393 11730 42102 10224 20197 39502 40042 57011 60011 70511 82510 92050 333 0/350 10380 20260 30/// 50881 54117 59031 70001 82650;EQDQ01+002243ATOT  Q02 +02602ATMN  
0195763930999992012083003004+25733-100300FM-12+051599999V0201901N003012200019N0020001N1+02861+01881100571ADDAY101031AY201031GF102991011051012501031001IA1019MA1999999095161MD1210141+9999MW1041REMSYN100AAXX  30031 76393 31620 21903 10286 20188 39516 40057 52014 70400 81530 90250 333 0/370 30/// 58///;
0161763930999992012083006004+25733-100300FM-12+051599999V0200401N002010120019N0010001N1+02941+02011100761ADDAY121061AY221061GF107991071051012501001001MA1999999095311MD1210151+9999MW1041REMSYN072AAXX  30061 76393 31610 70402 10294 20201 39531 40076 52015 70422 87500;
0217763930999992012083009004+25733-100300FM-12+051599999V0209999C000010090019N0010001N1+02821+02091100671ADDAY121031AY221031GA1051+009001061GF105991051051008001001001IA1019MA1999999095201MD1710111-0181MW1041REMSYN106AAXX  30091 76393 31510 50000 10282 20209 39520 40067 57011 70422 85500 90850 333 0/300 30/// 59018 85630;
0161763930999992012083012004+25733-100300FM-12+051599999V0202801N001012200019N0010001N1+02741+02091100731ADDAY101061AY201061GF101991011051008001001001MA1999999095231MD1210031+9999MW1041REMSYN072AAXX  30121 76393 31510 12801 10274 20209 39523 40073 52003 70400 81500;
0217763930999992012083015004+25733-100300FM-12+051599999V0202101N001012200019N0020001N1+03001+01851100821ADDAY111031AY211031GA1011+014101061GF103991011051012501031001IA1019MA1999999095331MD1210101-0131MW1041REMSYN106AAXX  30151 76393 31620 32101 10300 20185 39533 40082 52010 70411 81530 91448 333 0/570 30/// 59013 81647;
0147763930999992012083100004+25733-100300FM-12+051599999V0202201N002010120019N0030001N1+02861+02011100551ADDAY121061AY221061GF105991051051012501001001MA1999999095111MW1051REMSYN072AAXX  31001 76393 31630 52202 10286 20201 39511 40055 5//// 70522 85500;
0217763930999992012083103004+25733-100300FM-12+051599999V0201801N003010360019N0020001N1+02681+02001100691ADDAY121031AY221031GA1031+008101061GF105991031051008001011001IA1019MA1999999095241MD1210131+0081MW1041REMSYN106AAXX  31031 76393 31520 51803 10268 20200 39524 40069 52013 70422 83510 90250 333 0/350 30/// 58008 83627;
0161763930999992012083106004+25733-100300FM-12+051599999V0209999C000012200019N0020001N1+02681+02031100871ADDAY121061AY221061GF104991041001999999041001MA1999999095381MD1210141+9999MW1041REMSYN072AAXX  31061 76393 31920 40000 10268 20203 39538 40087 52014 70422 84040;
0217763930999992012083109004+25733-100300FM-12+051599999V0203201N001012200019N0010001N1+02581+02071100861ADDAY101031AY201031GA1021+006301061GF102991021051008001001001IA1019MA1999999095341MD1710041+0141MW1041REMSYN106AAXX  31091 76393 31510 23201 10258 20207 39534 40086 57004 70400 82500 90850 333 0/300 30/// 58014 82621;
0161763930999992012083112004+25733-100300FM-12+051599999V0201901N001012200019N0010001N1+02601+02061101001ADDAY101061AY201061GF103991021051008001031001MA1999999095461MD1210121+9999MW1041REMSYN072AAXX  31121 76393 31510 31901 10260 20206 39546 40100 52012 70400 82530;
0195763930999992012083115004+25733-100300FM-12+051599999V0200401N001012200019N0030001N1+02761+02121101181ADDAY101031AY201031GF101991001001999999001081IA1019MA1999999095631MD1210171+0301MW1051REMSYN100AAXX  31151 76393 31930 10401 10276 20212 39563 40118 52017 70500 80008 91451 333 0/005 30/// 58030;
0147763930999992012090100004+25733-100300FM-12+051599999V0201201N004010360019N0020001N1+03141+01881100881ADDAY121061AY221061GF105991041051017501011001MA1999999095441MW1051REMSYN072AAXX  01001 76393 31720 51204 10314 20188 39544 40088 5//// 70522 84510;
0217763930999992012090103004+25733-100300FM-12+051599999V0201201N006012200019N0020001N1+02961+01971101021ADDAY101031AY201031GA1021+012001061GF102991021051012501001001IA1019MA1999999095591MD1210151+0351MW1041REMSYN106AAXX  01031 76393 31620 21206 10296 20197 39559 40102 52015 70400 82500 90250 333 0/300 30/// 58035 82640;
0251763930999992012090106004+25733-100300FM-12+051599999V0201201N004012200019N0020001N1+02661+02131101171ADDAY101061AY201061GA1001+999999999GF100991001001999999001001GJ105949IA1019KA1240M+03821KA2240N+02501MA1999999095711MD1210121+0331MW1041REMSYN106AAXX  01061 76393 31920 01204 10266 20213 39571 40117 52012 70400 90550 333 10382 20250 30/// 55099 58033;
0217763930999992012090109004+25733-100300FM-12+051599999V0201201N003012200019N0010001N1+02501+02101101241ADDAY101031AY201031GA1031+004801061GF103991031051004501001001IA1019MA1999999095731MD1210021+0391MW1041REMSYN106AAXX  01091 76393 31410 31203 10250 20210 39573 40124 52002 70400 83500 90850 333 0/300 30/// 58039 83616;
0161763930999992012090112004+25733-100300FM-12+051599999V0200601N001012200019N0010001N1+02401+02181101341ADDAY101061AY201061GF103991031051002501001001MA1999999095791MD1210061+9999MW1041REMSYN072AAXX  01121 76393 31310 30601 10240 20218 39579 40134 52006 70400 83500;
0217763930999992012090115004+25733-100300FM-12+051599999V0201101N001010048019N0010001N1+02601+02211101501ADDAY121031AY221031GA1071+004801061GF107991071051004501001001IA1019MA1999999095911MD1210121+0281MW1041REMSYN106AAXX  01151 76393 31410 71101 10260 20221 39591 40150 52012 70422 87500 91450 333 0/300 30/// 58028 87616;
0161763930999992012090118004+25733-100300FM-12+051599999V0201201N002010900019N0030001N1+03201+02221101491ADDAY121061AY221061GF105991031051012501001091MA1999999095901MD1710011+9999MW1041REMSYN072AAXX  01181 76393 31630 51202 10320 20222 39590 40149 57001 70422 83509;
0217763930999992012090121004+25733-100300FM-12+051599999V0201201N001012200019N0030001N1+03381+01981101131ADDAY111031AY211031GA1031+018001061GF104991031051017501041001IA1019MA1999999095611MD1710291+9999MW1041REMSYN106AAXX  01211 76393 31730 41201 10338 20198 39561 40113 57029 70411 83540 92050 333 0/350 30/// 58/// 83656;
0147763930999992012090206004+25733-100300FM-12+051599999V0200601N002012200019N0010001N1+02621+02141101261ADDAY101061AY201061GF102991021051004501001001MA1999999095781MW1041REMSYN072AAXX  02061 76393 31410 20602 10262 20214 39578 40126 5//// 70400 82500;
0217763930999992012090209004+25733-100300FM-12+051599999V0201101N003012200019N0010001N1+02481+02171101261ADDAY101031AY201031GA1031+003901061GF103991031051004501001001IA1019MA1999999095751MD1710031+0021MW1041REMSYN106AAXX  02091 76393 31410 31103 10248 20217 39575 40126 57003 70400 83500 90855 333 0/300 30/// 58002 83613;
0161763930999992012090212004+25733-100300FM-12+051599999V0201101N001012200019N0010001N1+02461+02151101321ADDAY101061AY201061GF102991021051004501001001MA1999999095771MD1210021+9999MW1041REMSYN072AAXX  02121 76393 31410 21101 10246 20215 39577 40132 52002 70400 82500;
0217763930999992012090215004+25733-100300FM-12+051599999V0201201N002010054019N0020001N1+02621+02171101531ADDAY121031AY221031GA1071+005401061GF107991071051004501001001IA1019MA1999999095931MD1210161+0021MW1041REMSYN106AAXX  02151 76393 31420 71202 10262 20217 39593 40153 52016 70422 87500 91450 333 0/300 30/// 58002 87618;
0147763930999992012090312004+25733-100300FM-12+051599999V0201001N001010042019N0010001N1+02501+02191101241ADDAY121061AY221061GF108991081051004501999999MA1999999095691MW1041REMSYN072AAXX  03121 76393 31410 81001 10250 20219 39569 40124 5//// 70422 885//;
0217763930999992012090315004+25733-100300FM-12+051599999V0201101N002010054019N0020001N1+02641+02201101421ADDAY121031AY221031GA1051+005401061GF107991051051004501031001IA1019MA1999999095841MD1210151-0091MW1041REMSYN106AAXX  03151 76393 31420 71102 10264 20220 39584 40142 52015 70422 85530 91450 333 0/350 30/// 59009 85618;
0161763930999992012090318004+25733-100300FM-12+051599999V0201401N001012200019N0030001N1+03221+02181101341ADDAY101061AY201061GF101991011021017501001001MA1999999095781MD1710061+9999MW1041REMSYN072AAXX  03181 76393 31730 11401 10322 20218 39578 40134 57006 70400 81200;
0217763930999992012090321004+25733-100300FM-12+051599999V0201101N003012200019N0030001N1+03701+02111101001ADDAY101031AY201031GA1011+018001081GF101991011021017501001001IA1019MA1999999095501MD1710281+9999MW1041REMSYN106AAXX  03211 76393 31730 11103 10370 20211 39550 40100 57028 70400 81200 92049 333 01500 30/// 58/// 81856;
0161763930999992012090400004+25733-100300FM-12+051599999V0201301N004012200019N0030001N1+03601+02051100791ADDAY141061AY201061GF101991011051017501001001MA1999999095361MD1710141+9999MW1051REMSYN072AAXX  04001 76393 31730 11304 10360 20205 39536 40079 57014 70540 81500;
0237763930999992012090406004+25733-100300FM-12+051599999V0201201N003012200019N0010001N1+02841+02081101041ADDAY101061AY201061GA1001+999999999GF100991001001999999001001GJ105169IA1019KA1240M+03821KA2240N+02401MA1999999095621MW1041REMSYN106AAXX  04061 76393 31910 01203 10284 20208 39562 40104 5//// 70400 90550 333 10382 20240 30/// 55086 58///;
0199763930999992012090409004+25733-100300FM-12+051599999V0201201N002012200019N0010001N1+02641+02141101001ADDAY101031AY201031GA1001+999999999GF100991001001999999001001IA1019MA1999999095551MD1710071+9999MW1041REMSYN088AAXX  04091 76393 31910 01202 10264 20214 39555 40100 57007 70400 90850 333 30/// 58///;
0273763930999992012090412004+25733-100300FM-12+051599999V0200901N001012200019N0010001N1+02481+02171101151ADDAA124000091AY141061AY241061GA1001+999999999GF100991001001999999001001IA1019KA1240M+03821KA2120N+02461MA1999999095641MD1210091-0051MW1051REMSYN106AAXX  04121 76393 31910 00901 10248 20217 39564 40115 52009 70544 91150 333 10382 20246 30240 59005 70000;EQDQ01  00002PRCP24
0199763930999992012090415004+25733-100300FM-12+051599999V0201201N001012200019N0008001N1+02861+02291101261ADDAY141031AY241031GA1001+999999999GF100991001001999999001001IA1019MA1999999095711MD1210071-0131MW1051REMSYN088AAXX  04151 76393 31908 01201 10286 20229 39571 40126 52007 70544 91445 333 30/// 59013;
0161763930999992012090418004+25733-100300FM-12+051599999V0201201N002012200019N0008001N1+03441+02211101141ADDAY141061AY201061GF101991011021012501001001MA1999999095611MD1710101+9999MW1051REMSYN072AAXX  04181 76393 31608 11202 10344 20221 39561 40114 57010 70540 81200;
0223763930999992012090421004+25733-100300FM-12+051599999V0201301N003012200019N0030001N1+03861+02071100811ADDAY101031AY201031GA1011+021001061GF102991021091022501001001IA1019MA1999999095341MD1710271-0161MW1041REMSYN112AAXX  04211 76393 31830 21303 10386 20207 39534 40081 57027 70400 82900 92045 333 06300 30/// 59016 81657 81958;
0161763930999992012090500004+25733-100300FM-12+051599999V0201201N001010150019N0030001N1+03521+01981100751ADDAY121061AY221061GF105991051051017501001001MA1999999095331MD1710011+9999MW1041REMSYN072AAXX  05001 76393 31730 51201 10352 20198 39533 40075 57001 70422 85500;
0217763930999992012090503004+25733-100300FM-12+051599999V0202101N002012200019N0010001N1+03001+02171100771ADDAY101031AY201031GA1011+010201061GF101991011051012501001001IA1019MA1999999095371MD1210041+9999MW1041REMSYN106AAXX  05031 76393 31610 12102 10300 20217 39537 40077 52004 70400 81500 90249 333 0/300 30/// 58/// 81634;
0251763930999992012090506004+25733-100300FM-12+051599999V0201101N004012200019N0010001N1+02841+02171100851ADDAY101061AY201061GA1001+999999999GF100991001001999999001001GJ104989IA1019KA1240M+03961KA2240N+02461MA1999999095431MD1210061-0191MW1041REMSYN106AAXX  05061 76393 31910 01104 10284 20217 39543 40085 52006 70400 90550 333 10396 20246 30/// 55083 59019;
0199763930999992012090509004+25733-100300FM-12+051599999V0200601N001012200019N0010001N1+02561+02201100911ADDAY101031AY201031GA1001+999999999GF100991001001999999001001IA1019MA1999999095441MD1210011-0111MW1041REMSYN088AAXX  05091 76393 31910 00601 10256 20220 39544 40091 52001 70400 90850 333 30/// 59011;
0245763930999992012090512004+25733-100300FM-12+051599999V0200601N001012200019N0020001N1+02501+02221100981ADDAA124000091GA1001+999999999GF100991001001999999001001IA1019KA1240M+03961KA2120N+02401MA1999999095451MD1210011-0191REMSYN100AAXX  05121 76393 32920 00601 10250 20222 39545 40098 52001 91150 333 10396 20240 30230 59019 70000;EQDQ01  00002PRCP24
0199763930999992012090515004+25733-100300FM-12+051599999V0201201N001012200019N0020001N1+02781+02291101101ADDAY141031AY241031GA1001+999999999GF100991001001999999001001IA1019MA1999999095551MD1210101-0161MW1051REMSYN088AAXX  05151 76393 31920 01201 10278 20229 39555 40110 52010 70544 91450 333 30/// 59016;
0161763930999992012090518004+25733-100300FM-12+051599999V0201101N003012200019N0030001N1+03301+02301101051ADDAY141061AY201061GF101991011021012501001001MA1999999095511MD1710011+9999MW1041REMSYN072AAXX  05181 76393 31630 11103 10330 20230 39551 40105 57001 70440 81200;
0161763930999992012090600004+25733-100300FM-12+051599999V0201201N004012200019N0040001N1+03641+01761100531ADDAY101061AY201061GF101991011041022501001001MA1999999095121MD1710121+9999MW1041REMSYN072AAXX  06001 76393 31840 11204 10364 20176 39512 40053 57012 70400 81400;
0251763930999992012090606004+25733-100300FM-12+051599999V0201101N003012200019N0010001N1+02761+02211100841ADDAY101061AY201061GA1001+999999999GF100991001001999999001001GJ106009IA1019KA1240M+03921KA2240N+02401MA1999999095441MD1999999+0011MW1041REMSYN106AAXX  06061 76393 31910 01103 10276 20221 39544 40084 5//// 70400 90550 333 10392 20240 30/// 55100 58001;
0199763930999992012090609004+25733-100300FM-12+051599999V0200601N001012200019N0010001N1+02541+02241100891ADDAY141031AY241031GA1001+999999999GF100991001001999999001001IA1019MA1999999095431MD1710011-0011MW1051REMSYN088AAXX  06091 76393 31910 00601 10254 20224 39543 40089 57001 70544 90850 333 30/// 59001;
0161763930999992012090612004+25733-100300FM-12+051599999V0201201N001010042019N0010001N1+02601+02241101021ADDAY141061AY241061GF107991071051004501999999MA1999999095511MD1210081+9999MW1051REMSYN072AAXX  06121 76393 31410 71201 10260 20224 39551 40102 52008 70544 875//;
0217763930999992012090615004+25733-100300FM-12+051599999V0201301N001012200019N0008001N1+02781+02261101211ADDAY141031AY241031GA1011+006301061GF101991011051008001001001IA1019MA1999999095661MD1210151+0111MW1051REMSYN106AAXX  06151 76393 31508 11301 10278 20226 39566 40121 52015 70544 81500 91445 333 0/300 30/// 58011 81621;
0161763930999992012090618004+25733-100300FM-12+051599999V0200601N003012200019N0010001N1+03301+02141101171ADDAY141061AY201061GF101991011021012501001001MA1999999095631MD1710031+9999MW1051REMSYN072AAXX  06181 76393 31610 10603 10330 20214 39563 40117 57003 70540 81200;
0217763930999992012090621004+25733-100300FM-12+051599999V0201201N004012200019N0030001N1+03661+01951100851ADDAY141031AY221031GA1021+021001081GF102991021021022501001001IA1019MA1999999095371MD1710261+0131MW1041REMSYN106AAXX  06211 76393 31830 21204 10366 20195 39537 40085 57026 70442 82200 92045 333 02300 30/// 58013 82857;
0161763930999992012090700004+25733-100300FM-12+051599999V0201201N003012200019N0040001N1+03481+01861100691ADDAY111061AY211061GF104991041021022501001001MA1999999095261MD1710111+9999MW1041REMSYN072AAXX  07001 76393 31840 41203 10348 20186 39526 40069 57011 70411 84200;
0251763930999992012090706004+25733-100300FM-12+051599999V0201101N003012200019N0010001N1+02801+02221100941ADDAY141061AY241061GA1001+999999999GF100991001001999999001001GJ105409IA1019KA1240M+03851KA2240N+02501MA1999999095511MD1999999+0071MW1051REMSYN106AAXX  07061 76393 31910 01103 10280 20222 39551 40094 5//// 70544 90550 333 10385 20250 30/// 55090 58007;
0199763930999992012090709004+25733-100300FM-12+051599999V0200601N001012200019N0010001N1+02521+02131100951ADDAY141031AY241031GA1001+999999999GF100991001001999999001001IA1019MA1999999095481MD1710031+0041MW1051REMSYN088AAXX  07091 76393 31910 00601 10252 20213 39548 40095 57003 70544 90850 333 30/// 58004;
0273763930999992012090712004+25733-100300FM-12+051599999V0209999C000012200019N0010001N1+02561+02231101031ADDAA124000091AY141061AY241061GA1001+999999999GF100991001001999999001001IA1019KA1240M+03851KA2120N+02491MA1999999095511MD1210031+0001MW1051REMSYN106AAXX  07121 76393 31910 00000 10256 20223 39551 40103 52003 70544 91146 333 10385 20249 30244 58000 70000;EQDQ01  00002PRCP24
0199763930999992012090715004+25733-100300FM-12+051599999V0202901N001012200019N0010001N1+02971+02301101121ADDAY141031AY241031GA1001+999999999GF100991001001999999001001IA1019MA1999999095581MD1210071-0081MW1051REMSYN088AAXX  07151 76393 31910 02901 10297 20230 39558 40112 52007 70544 91445 333 30/// 59008;
0161763930999992012090718004+25733-100300FM-12+051599999V0201201N003012200019N0010001N1+03441+02081101031ADDAY141061AY201061GF101991011021017501001001MA1999999095511MD1710071+9999MW1051REMSYN072AAXX  07181 76393 31710 11203 10344 20208 39551 40103 57007 70540 81200;
0223763930999992012090721004+25733-100300FM-12+051599999V0201101N003019999999N0010001N1+03801+01851100701ADDAY141031AY211031GA1011+024001081GF105991031041022501001001IA1019MA1999999095251MD1710261-0121MW1041REMSYN112AAXX  07211 76393 31810 51103 10380 20185 39525 40070 57026 70441 83400 92045 333 01300 30/// 59012 81858 82658;
0161763930999992012090800004+25733-100300FM-12+051599999V0201201N006012200019N0040001N1+03581+01741100521ADDAY101061AY201061GF102991021051022501001001MA1999999095131MD1710121+9999MW1041REMSYN072AAXX  08001 76393 31840 21206 10358 20174 39513 40052 57012 70400 82500;
0251763930999992012090806004+25733-100300FM-12+051599999V0201201N004012200019N0010001N1+02861+02201100821ADDAY101061AY201061GA1001+999999999GF100991001001999999001001GJ105289IA1019KA1240M+03921KA2240N+02491MA1999999095421MD1999999-0101MW1041REMSYN106AAXX  08061 76393 31910 01204 10286 20220 39542 40082 5//// 70400 90550 333 10392 20249 30/// 55088 59010;
0199763930999992012090809004+25733-100300FM-12+051599999V0201001N001012200019N0010001N1+02621+02171100831ADDAY141031AY241031GA1001+999999999GF100991001001999999001001IA1019MA1999999095391MD1710031-0091MW1051REMSYN088AAXX  08091 76393 31910 01001 10262 20217 39539 40083 57003 70544 90850 333 30/// 59009;
0199763930999992012090815004+25733-100300FM-12+051599999V0209999C000012200019N0008001N1+02921+02291101191ADDAY141031AY241031GA1001+999999999GF100991001001999999001001IA1019MA1999999095651MD1210151+0071MW1051REMSYN088AAXX  08151 76393 31908 00000 10292 20229 39565 40119 52015 70544 91445 333 30/// 58007;
0161763930999992012090818004+25733-100300FM-12+051599999V0200701N003012200019N0010001N1+03401+02031101241ADDAY141061AY201061GF103991031021017501001001MA1999999095711MD1210061+9999MW1051REMSYN072AAXX  08181 76393 31710 30703 10340 20203 39571 40124 52006 70540 83200;
0223763930999992012090821004+25733-100300FM-12+051599999V0203101N004012200019N0030001N1+03561+01771101031ADDAY141031AY211031GA1011+021001081GF104991041041022501001001IA1019MA1999999095561MD1710151+0311MW1041REMSYN112AAXX  08211 76393 31830 43104 10356 20177 39556 40103 57015 70441 84400 92045 333 02300 30/// 58031 81857 83658;
0161763930999992012090900004+25733-100300FM-12+051599999V0201101N004012200019N0030001N1+03541+01571100911ADDAY111061AY211061GF103991031051022501001001MA1999999095491MD1710071+9999MW1041REMSYN072AAXX  09001 76393 31830 31104 10354 20157 39549 40091 57007 70411 83500;
0147763930999992012090906004+25733-100300FM-12+051599999V0201201N002010120019N0010001N1+02881+01971101381ADDAY121061AY221061GF107991071051012501001001MA1999999095941MW1041REMSYN072AAXX  09061 76393 31610 71202 10288 20197 39594 40138 5//// 70422 87500;
0234763930999992012090909004+25733-100300FM-12+051599999V0202001N001010030019N0010001N1+02361+02131101521ADDAA103001091AY121031AY221031GA1061+003001061GF106991061051002501001001IA1099MA1999999096011MD1210071+0621MW1051REMSYN112AAXX  09091 76393 21310 62001 10236 20213 39601 40152 52007 70522 86500 90850 333 0/300 31/// 58062 60017 86610;
0306763930999992012090912004+25733-100300FM-12+051599999V0200201N001010048019N0010001N1+02281+01901101701ADDAA103000591AA206002092AA324001992AY151061AY251061GA1081+004801061GF108991081051004501999999IA1019KA1240M+04021KA2120N+02251MA1999999096131MD1210121+0631MW1501REMSYN136AAXX  09121 76393 01410 80201 10228 20190 39613 40170 52012 60021 75055 885// 91150 333 0/3// 10402 20225 30220 58063 69957 70019 88616;
0240763930999992012090915004+25733-100300FM-12+051599999V0203201N003010012019N0020001N1+02381+01521102111ADDAA103005091AY161031AY211031GA1051+001201071GF108991081071000751999999IA1119MA1999999096471MD1210341+0821MW1501REMSYN118AAXX  09151 76393 21120 83203 10238 20152 39647 40211 52034 75061 887// 91760 333 0/3// 32/// 58082 60057 85704 83608;
0295763930999992012090918004+25733-100300FM-12+051599999V0200101N00101036001CN0040001N1+02641+01691101941ADDAA103000591AA206000591AY141061AY221061GA1031+011701061GF107991031051012501031001IA1099KA1120M+02811KA2240N+02201MA1999999096291MD1710181+0581MW1051REMSYN136AAXX  09181 76393 01640 70101 10264 20169 39629 40194 57018 69951 70542 83530 91752 333 0/350 10281 20220 31/// 58058 69957 83639 84360;
0223763930999992012090921004+25733-100300FM-12+051599999V0201101N00101036001CN0040001N1+03141+01781101641ADDAY121031AY221031GA1031+018001061GF107991031051017501031001IA1019MA1999999096031MD1710261+0471MW1041REMSYN112AAXX  09211 76393 31740 71101 10314 20178 39603 40164 57026 70422 83530 92052 333 0/350 30/// 58047 83656 84360;
0147763930999992012091012004+25733-100300FM-12+051599999V0209999C000012200019N0010001N1+02221+01771101621ADDAY101061AY201061GF101991011051004501001001MA1999999096011MW1041REMSYN072AAXX  10121 76393 31410 10000 10222 20177 39601 40162 5//// 70400 81500;
0171763930999992012091015004+25733-100300FM-12+051599999V0200901N001012200019N0030001N1+02501+01831101811ADDGA1001+999999999GF100991001001999999001001IA1019MA1999999096171MD1210161-0301REMSYN082AAXX  10151 76393 32930 00901 10250 20183 39617 40181 52016 91450 333 30/// 59030;
0161763930999992012091018004+25733-100300FM-12+051599999V0201201N005012200019N0030001N1+03121+01791101701ADDAY141061AY201061GF102991011011017501001081MA1999999096091MD1710101+9999MW1041REMSYN072AAXX  10181 76393 31730 21205 10312 20179 39609 40170 57010 70440 81108;
0223763930999992012091021004+25733-100300FM-12+051599999V0201701N004012200019N0040001N1+03241+01541101391ADDAY101031AY201031GA1011+021001081GF103991031041022501001001IA1019MA1999999095831MD1710261-0201MW1041REMSYN112AAXX  10211 76393 31840 31704 10324 20154 39583 40139 57026 70400 83400 92045 333 02300 30/// 59020 81857 82658;
0110763930999992012091100004+25733-100300FM-12+051599999V0201201N001012200019N0050001N1+03161+01701999999ADDGF102991999999017501999999REMSYN072AAXX  11001 76393 31750 21201 10316 20170 10123 39573 57010 70400 81530;
0217763930999992012091103004+25733-100300FM-12+051599999V0201301N001012200019N0040001N1+02881+01211101351ADDAY101031AY201031GA1021+021001061GF102991021051022501001001IA1019MA1999999095851MD1210021+9999MW1041REMSYN106AAXX  11031 76393 31840 21301 10288 20121 39585 40135 52002 70400 82500 90250 333 0/300 30/// 58/// 82657;
0251763930999992012091106004+25733-100300FM-12+051599999V0201101N004012200019N0010001N1+02461+01471101431ADDAY101061AY201061GA1001+999999999GF100991001001999999001001GJ106129IA1019KA1240M+03481KA2240N+02101MA1999999095921MD1210061+9999MW1041REMSYN106AAXX  11061 76393 31910 01104 10246 20147 39592 40143 52006 70400 90550 333 10348 20210 30/// 55102 58///;
0199763930999992012091109004+25733-100300FM-12+051599999V0201201N002012200019N0010001N1+02281+01781101421ADDAY101031AY201031GA1001+999999999GF100991001001999999001001IA1019MA1999999095871MD1710051+9999MW1041REMSYN088AAXX  11091 76393 31910 01202 10228 20178 39587 40142 57005 70400 90850 333 30/// 58///;
0245763930999992012091112004+25733-100300FM-12+051599999V0200901N001012200019N0010001N1+02241+01801101511ADDAA124000091GA1001+999999999GF100991001001999999001001IA1019KA1240M+03481KA2120N+02121MA1999999095911MD1210041-0101REMSYN100AAXX  11121 76393 32910 00901 10224 20180 39591 40151 52004 91150 333 10348 20212 30202 59010 70000;EQDQ01  00002PRCP24
0171763930999992012091115004+25733-100300FM-12+051599999V0200701N001012200019N0030001N1+02561+01831101611ADDGA1001+999999999GF100991001001999999001001IA1019MA1999999095981MD1210071-0191REMSYN082AAXX  11151 76393 32930 00701 10256 20183 39598 40161 52007 91450 333 30/// 59019;
0217763930999992012091121004+25733-100300FM-12+051599999V0201201N002012200019N0030001N1+03221+01811101181ADDAY101031AY201031GA1021+018001081GF102991021011017501001001IA1019MA1999999095631MD1710291-0201MW1041REMSYN106AAXX  11211 76393 31730 21202 10322 20181 39563 40118 57029 70400 82100 92050 333 00050 30/// 59020 82856;
0251763930999992012091206004+25733-100300FM-12+051599999V0201201N004012200019N0010001N1+02681+01971101191ADDAY101061AY201061GA1001+999999999GF100991001001999999001001GJ106009IA1019KA1240M+03501KA2240N+02121MA1999999095721MD1999999-0201MW1041REMSYN106AAXX  12061 76393 31910 01204 10268 20197 39572 40119 5//// 70400 90550 333 10350 20212 30/// 55100 59020;
0199763930999992012091209004+25733-100300FM-12+051599999V0200601N002012200019N0010001N1+02481+01991101111ADDAY101031AY201031GA1001+999999999GF100991001001999999001001IA1019MA1999999095611MD1710111-0261MW1041REMSYN088AAXX  12091 76393 31910 00602 10248 20199 39561 40111 57011 70400 90850 333 30/// 59026;
0245763930999992012091212004+25733-100300FM-12+051599999V0200701N001012200019N0010001N1+02401+02001101221ADDAA124000091GA1001+999999999GF100991001001999999001001IA1019KA1240M+03501KA2120N+02281MA1999999095671MD1210061-0241REMSYN100AAXX  12121 76393 32910 00701 10240 20200 39567 40122 52006 91150 333 10350 20228 30220 59024 70000;EQDQ01  00002PRCP24
0171763930999992012091215004+25733-100300FM-12+051599999V0200501N001012200019N0030001N1+02661+02071101361ADDGA1001+999999999GF100991001001999999001001IA1019MA1999999095781MD1210111-0201REMSYN082AAXX  12151 76393 32930 00501 10266 20207 39578 40136 52011 91449 333 30/// 59020;
0161763930999992012091218004+25733-100300FM-12+051599999V0201101N001012200019N0030001N1+03221+02081101291ADDAY101061AY201061GF101991011051012501001001MA1999999095711MD1710071+9999MW1041REMSYN072AAXX  12181 76393 31630 11101 10322 20208 39571 40129 57007 70400 81500;
0217763930999992012091221004+25733-100300FM-12+051599999V0201201N002012200019N0030001N1+03461+02041100951ADDAY111031AY211031GA1031+018001081GF104991031011017501001051IA1019MA1999999095441MD1710271-0191MW1041REMSYN106AAXX  12211 76393 31730 41202 10346 20204 39544 40095 57027 70411 83105 92050 333 00055 30/// 59019 83856;
0161763930999992012091300004+25733-100300FM-12+051599999V0201301N002012200019N0030001N1+03221+01881100851ADDAY121061AY221061GF104991021051017501041011MA1999999095381MD1710061+9999MW1051REMSYN072AAXX  13001 76393 31730 41302 10322 20188 39538 40085 57006 70522 82541;
0217763930999992012091303004+25733-100300FM-12+051599999V0201201N003012200019N0020001N1+02941+01941100981ADDAY101031AY201031GA1011+012301061GF101991011051012501001001IA1019MA1999999095531MD1210151+9999MW1041REMSYN106AAXX  13031 76393 31620 11203 10294 20194 39553 40098 52015 70400 81500 90250 333 0/300 30/// 58/// 81641;
0251763930999992012091306004+25733-100300FM-12+051599999V0201201N005012200019N0010001N1+02581+02011101151ADDAY101061AY201061GA1001+999999999GF100991001001999999001001GJ105889IA1019KA1240M+03581KA2240N+02281MA1999999095681MD1210151-0041MW1041REMSYN106AAXX  13061 76393 31910 01205 10258 20201 39568 40115 52015 70400 90550 333 10358 20228 30/// 55098 59004;
0199763930999992012091309004+25733-100300FM-12+051599999V0201201N003012200019N0010001N1+02421+02021101111ADDAY101031AY201031GA1001+999999999GF100991001001999999001001IA1019MA1999999095601MD1710081-0011MW1041REMSYN088AAXX  13091 76393 31910 01203 10242 20202 39560 40111 57008 70400 90850 333 30/// 59001;
0161763930999992012091312004+25733-100300FM-12+051599999V0200701N001010042019N0010001N1+02321+02001101281ADDAY121061AY221061GF105991051051004501001001MA1999999095711MD1210111+9999MW1041REMSYN072AAXX  13121 76393 31410 50701 10232 20200 39571 40128 52011 70422 85500;
0217763930999992012091315004+25733-100300FM-12+051599999V0201101N002010051019N0010001N1+02501+02081101561ADDAY121031AY221031GA1081+005101061GF108991081051004501999999IA1019MA1999999095951MD1210241+0171MW1041REMSYN106AAXX  13151 76393 31410 81102 10250 20208 39595 40156 52024 70422 885// 91450 333 0/3// 30/// 58017 88617;
0161763930999992012091318004+25733-100300FM-12+051599999V0201201N002010075019N0030001N1+02841+02081101521ADDAY121061AY221061GF105991051051008001001001MA1999999095921MD1710031+9999MW1041REMSYN072AAXX  13181 76393 31530 51202 10284 20208 39592 40152 57003 70422 85500;
0217763930999992012091321004+25733-100300FM-12+051599999V0200901N001012200019N0030001N1+03211+01951101091ADDAY111031AY211031GA1031+015001061GF103991031051017501001001IA1019MA1999999095541MD1710381+0101MW1041REMSYN106AAXX  13211 76393 31730 30901 10321 20195 39554 40109 57038 70411 83500 92050 333 0/300 30/// 58010 83650;
0161763930999992012091400004+25733-100300FM-12+051599999V0201201N004010120019N0030001N1+02941+02011101081ADDAY121061AY221061GF105991051051012501001001MA1999999095571MD1710031+9999MW1051REMSYN072AAXX  14001 76393 31630 51204 10294 20201 39557 40108 57003 70522 85500;
0217763930999992012091403004+25733-100300FM-12+051599999V0201301N004010072019N0020001N1+02581+01981101481ADDAY121031AY221031GA1071+007201061GF107991071051008001001001IA1019MA1999999095951MD1210381+0421MW1041REMSYN106AAXX  14031 76393 31520 71304 10258 20198 39595 40148 52038 70422 87500 90250 333 0/300 30/// 58042 87624;
0161763930999992012091406004+25733-100300FM-12+051599999V0201201N001010042019N0010001N1+02321+02001101621ADDAY121061AY221061GF106991061051004501001001MA1999999096071MD1210121+9999MW1041REMSYN072AAXX  14061 76393 31410 61201 10232 20200 39607 40162 52012 70422 86500;
0234763930999992012091409004+25733-100300FM-12+051599999V0200601N005010009019N0010001N1+02101+02041101571ADDAA103019091AY161031AY221031GA1081+000901071GF108991081071000751999999IA1119MA1999999095971MD1710101+0371MW1611REMSYN112AAXX  14091 76393 21110 80605 10210 20204 39597 40157 57010 76162 887// 90850 333 0/3// 32/// 58037 60197 88703;
0306763930999992012091412004+25733-100300FM-12+051599999V0200701N002010006019N0008001N1+02041+01981101751ADDAA103018091AA206037192AA324036992AY151061AY251061GA1081+000601071GF108991081061000751999999IA1019KA1240M+03411KA2120N+01921MA1999999096101MD1210131+0391MW1501REMSYN136AAXX  14121 76393 01108 80702 10204 20198 39610 40175 52013 60371 75055 886// 91152 333 0/3// 10341 20192 30182 58039 60187 70369 88702;
0234763930999992012091415004+25733-100300FM-12+051599999V0200501N001010024019N0020001N1+02141+01941101941ADDAA103016091AY121031AY221031GA1081+002401071GF108991081061002501999999IA1099MA1999999096251MD1210151+0301MW1041REMSYN112AAXX  14151 76393 21320 80501 10214 20194 39625 40194 52015 70422 886// 91450 333 0/3// 31/// 58030 60167 88708;
0161763930999992012091418004+25733-100300FM-12+051599999V0201101N003010042019N0020001N1+02421+01991102001ADDAY121061AY221061GF108991081051004501999999MA1999999096311MD1210061+9999MW1041REMSYN072AAXX  14181 76393 31420 81103 10242 20199 39631 40200 52006 70422 885//;
0312763930999992012091500004+25733-100300FM-12+051599999V0200101N001010018019N0005001N1+02101+01951101821ADDAA103024092AA206023992AA324007792AY121061AY221061GA1081+001801071GF108991081061001501001001IA1099KA1120M+02701KA2180N+01921MA1999999096151MD1999999+0581MW1501REMSYN142AAXX  15001 76393 01205 80101 10210 20195 39615 40182 5//// 60241 75022 88600 92350 333 0/300 10270 20192 31/// 50491 58058 60247 70077 88706;
0234763930999992012091503004+25733-100300FM-12+051599999V0200601N001010021019N0005001N1+02001+01821102041ADDAA103005091AY121031AY221031GA1081+002101071GF108991081061002501001001IA1119MA1999999096361MD1210211+0411MW1501REMSYN112AAXX  15031 76393 21305 80601 10200 20182 39636 40204 52021 75022 88600 90250 333 0/300 32/// 58041 60057 88707;
0303763930999992012091506004+25733-100300FM-12+051599999V0203101N001010012019N0007001N1+01941+01851102191ADDAA103009091AA206014091AY121061AY221061GA1081+001201071GF108991081061001501999999GJ100369IA1119KA1240M+02701KA2240N+01921MA1999999096481MD1210121+0411MW1501REMSYN136AAXX  15061 76393 01207 83101 10194 20185 39648 40219 52012 60141 75022 886// 90555 333 0/3// 10270 20192 32/// 55006 58041 60097 88704;
0234763930999992012091509004+25733-100300FM-12+051599999V0203001N001010015019N0005001N1+01901+01781102081ADDAA103000991AY121031AY221031GA1081+001501071GF108991081061001501999999IA1119MA1999999096351MD1710131+0381MW1501REMSYN112AAXX  15091 76393 21205 83001 10190 20178 39635 40208 57013 75022 886// 90855 333 0/3// 32/// 58038 69997 88705;
0306763930999992012091512004+25733-100300FM-12+051599999V0203501N001010006019N0005001N1+01921+01861102081ADDAA103003091AA206004191AA324057491AY151061AY251061GA1081+000601071GF108991081061000751999999IA1019KA1240M+02701KA2120N+01801MA1999999096341MD1710011+0241MW1501REMSYN136AAXX  15121 76393 01105 83501 10192 20186 39634 40208 57001 60041 75055 886// 91150 333 0/3// 10270 20180 30170 58024 60037 70574 88702;
0234763930999992012091515004+25733-100300FM-12+051599999V0201101N001010012019N0008001N1+01901+01811102191ADDAA103004091AY151031AY251031GA1081+001201071GF108991081061001501999999IA1099MA1999999096441MD1210101+0191MW1501REMSYN112AAXX  15151 76393 21208 81101 10190 20181 39644 40219 52010 75055 886// 91450 333 0/3// 31/// 58019 60047 88704;
0172763930999992012091518004+25733-100300FM-12+051599999V0203401N001019999999N0005001N1+01941+01851102191ADDAA106005191AY151061AY251061GF108991999999001501999999MA1999999096441MD1410001+9999MW1501REMSYN072AAXX  15181 76393 01205 83401 10194 20185 39644 40219 54000 60051 75055;
0234763930999992012091521004+25733-100300FM-12+051599999V0202201N001010015019N0005001N1+02061+01941101991ADDAA103001091AY151031AY221031GA1081+001501071GF108991081071001501999999IA1099MA1999999096251MD1710191+9999MW1501REMSYN112AAXX  15211 76393 21205 82201 10206 20194 39625 40199 57019 75052 887// 92045 333 0/399 31/// 58/// 60017 88705;
0312763930999992012091600004+25733-100300FM-12+051599999V0202101N001010012019N0005001N1+02061+01941101871ADDAA103001091AA206002091AA324024791AY121061AY221061GA1081+001201071GF108991081061001501001001IA1099KA1120M+02141KA2180N+01801MA1999999096151MD1710101+0001MW1501REMSYN142AAXX  16001 76393 01205 82101 10206 20194 39615 40187 57010 60021 75022 88600 92350 333 0/300 10214 20180 31/// 50371 58000 60017 70247 88704;
0234763930999992012091603004+25733-100300FM-12+051599999V0201501N001010018019N0005001N1+02121+01951101961ADDAA103000021AY121031AY221031GA1081+001801071GF108991081061002501001001IA1099MA1999999096241MD1210091-0111MW1041REMSYN112AAXX  16031 76393 21305 81501 10212 20195 39624 40196 52009 70422 88600 90250 333 0/300 31/// 59011 69907 88706;
0257763930999992012091606004+25733-100300FM-12+051599999V0201401N001010009019N0005001N1+02121+01911101901ADDAY121061AY221061GA1081+000901071GF108991081061000751999999GJ100009KA1240M+02141KA2240N+01801MA1999999096191MD1710051-0291MW1051REMSYN118AAXX  16061 76393 31105 81401 10212 20191 39619 40190 57005 70522 886// 90550 333 0/3// 10214 20180 55000 59029 88703;
0217763930999992012091609004+25733-100300FM-12+051599999V0209999C000010027019N0010001N1+02101+01891101751ADDAY121031AY221031GA1081+002701071GF108991081061002501999999IA1099MA1999999096061MD1710131-0291MW1051REMSYN106AAXX  16091 76393 31310 80000 10210 20189 39606 40175 57013 70522 886// 90850 333 0/3// 31/// 59029 88709;
0234763930999992012091615004+25733-100300FM-12+051599999V0200901N001010012019N0005001N1+02001+01891101771ADDAA103002091AY151031AY221031GA1081+001201071GF108991081071001501999999IA1099MA1999999096071MD1410001-0371MW1501REMSYN112AAXX  16151 76393 21205 80901 10200 20189 39607 40177 54000 75052 887// 91450 333 0/399 31/// 59037 60027 88704;
0289763930999992012091618004+25733-100300FM-12+051599999V0209999C000010039019N0005001N1+02401+02091101681ADDAA103001091AA206004191AY141061AY221061GA1081+003901061GF108991081051004501999999IA1099KA1120M+02471KA2240N+01971MA1999999095991MD1710081-0451MW1501REMSYN130AAXX  16181 76393 01405 80000 10240 20209 39599 40168 57008 60041 75042 885// 91750 333 0/3// 10247 20197 31/// 59045 60017 88613;
0217763930999992012091621004+25733-100300FM-12+051599999V0201201N002010078019N0007001N1+02651+02011101381ADDAY141031AY221031GA1081+007801061GF108991081051008001999999IA1099MA1999999095731MD1710261-0531MW1051REMSYN106AAXX  16211 76393 31507 81202 10265 20201 39573 40138 57026 70542 885// 92045 333 0/3// 31/// 59053 88626;
0161763930999992012091700004+25733-100300FM-12+051599999V0201301N002010075019N0010001N1+02561+02051101241ADDAY121061AY221061GF106991051051008001001011MA1999999095631MD1710101+9999MW1051REMSYN072AAXX  17001 76393 31510 61302 10256 20205 39563 40124 57010 70522 85501;
0217763930999992012091703004+25733-100300FM-12+051599999V0201201N001012200019N0010001N1+02401+01971101321ADDAY101031AY201031GA1021+004501061GF102991021051004501001001IA1019MA1999999095721MD1210091-0521MW1041REMSYN106AAXX  17031 76393 31410 21201 10240 20197 39572 40132 52009 70400 82500 90250 333 0/300 30/// 59052 82615;
0161763930999992012091706004+25733-100300FM-12+051599999V0209999C000012200019N0010001N1+02201+01941101361ADDAY141061AY201061GF102991021051004501001001MA1999999095771MD1210051+9999MW1051REMSYN072AAXX  17061 76393 31410 20000 10220 20194 39577 40136 52005 70540 82500;
0199763930999992012091709004+25733-100300FM-12+051599999V0202101N001012200019N0010001N1+02101+01981101261ADDAY141031AY241031GA1001+999999999GF100991001001999999001001IA1019MA1999999095651MD1710121-0411MW1051REMSYN088AAXX  17091 76393 31910 02101 10210 20198 39565 40126 57012 70544 90845 333 30/// 59041;
0254763930999992012091712004+25733-100300FM-12+051599999V0201901N001012200019N0010001N1+02081+01901101241ADDAA124003691AY141061AY241061GA1001+999999999GF100991001001999999001001IA1019KA1240M+02821KA2120N+01981MA1999999095611MD1710041-0461MW1051REMSYN106AAXX  17121 76393 31910 01901 10208 20190 39561 40124 57004 70544 91148 333 10282 20198 30188 59046 70036;
0199763930999992012091715004+25733-100300FM-12+051599999V0202501N001012200019N0020001N1+02461+01971101221ADDAY141031AY241031GA1001+999999999GF100991001001999999001001IA1019MA1999999095581MD1710031-0491MW1051REMSYN088AAXX  17151 76393 31920 02501 10246 20197 39558 40122 57003 70544 91449 333 30/// 59049;
0209763930999992012091718004+25733-100300FM-12+051599999V0203401N001012200019N0030001N1+03261+01661101021ADDGA1001+999999999GF100991001001999999001001IA1019KA1120M+03361KA2240N+01981MA1999999095421MD1710161-0571REMSYN094AAXX  17181 76393 32930 03401 10326 20166 39542 40102 57016 91750 333 10336 20198 30/// 59057;
0171763930999992012091721004+25733-100300FM-12+051599999V0203401N001012200019N0040001N1+03501+00831100671ADDGA1001+999999999GF100991001001999999001001IA1019MA1999999095151MD1710271-0581REMSYN082AAXX  17211 76393 32940 03401 10350 20083 39515 40067 57027 92050 333 30/// 59058;
0279763930999992012091800004+25733-100300FM-12+051599999V0203101N002012200019N0040001N1+03301+01131100611ADDAA124000091AY101061AY201061GA1001+999999999GF100991001001999999001001IA1019KA1120M+03641KA2180N+01981MA1999999095161MD1210011-0471MW1051REMSYN112AAXX  18001 76393 31940 03102 10330 20113 39516 40061 52001 70500 92350 333 10364 20198 30/// 50671 59047 70000;EQDQ01  00002PRCP24
0199763930999992012091803004+25733-100300FM-12+051599999V0201101N003012200019N0020001N1+02821+01661100791ADDAY101031AY201031GA1001+999999999GF100991001001999999001001IA1019MA1999999095351MD1210191-0371MW1041REMSYN088AAXX  18031 76393 31920 01103 10282 20166 39535 40079 52019 70400 90250 333 30/// 59037;
0270763930999992012091806004+25733-100300FM-12+051599999V0201201N002012200019N0020001N1+01722+01581100911ADDAY101061AY201061GA1001+999999999GF100991001001999999001001GJ106369IA1019KA1240M+03641KA2240N+99999MA1999999095451MD1210101-0321MW1041REMSYN106AAXX  18061 76393 31920 01202 10172 20158 39545 40091 52010 70400 90550 333 10364 20198 30/// 55106 59032;EQDQ01 +01982ATMN  
0199763930999992012091809004+25733-100300FM-12+051599999V0209999C000012200019N0020001N1+02341+01751100961ADDAY141031AY241031GA1001+999999999GF100991001001999999001001IA1019MA1999999095451MD1410001-0201MW1051REMSYN088AAXX  18091 76393 31920 00000 10234 20175 39545 40096 54000 70544 90850 333 30/// 59020;
0245763930999992012091812004+25733-100300FM-12+051599999V0202701N001012200019N0010001N1+02201+01491101071ADDAA124000091GA1001+999999999GF100991001001999999001001IA1019KA1240M+03641KA2120N+02101MA1999999095511MD1210061-0101REMSYN100AAXX  18121 76393 32910 02701 10220 20149 39551 40107 52006 91150 333 10364 20210 30200 59010 70000;EQDQ01  00002PRCP24
0171763930999992012091815004+25733-100300FM-12+051599999V0201801N001012200019N0030001N1+02721+01611101281ADDGA1001+999999999GF100991001001999999001001IA1019MA1999999095691MD1210181+0111REMSYN082AAXX  18151 76393 32930 01801 10272 20161 39569 40128 52018 91450 333 30/// 58011;
0209763930999992012091818004+25733-100300FM-12+051599999V0200601N001012200019N0030001N1+03101+01801101421ADDGA1001+999999999GF100991001001999999001001IA1019KA1120M+03281KA2240N+02101MA1999999095831MD1210141+0411REMSYN094AAXX  18181 76393 32930 00601 10310 20180 39583 40142 52014 91750 333 10328 20210 30/// 58041;
0242763930999992012091821004+25733-100300FM-12+051599999V0200701N001010126019N0030001N1+02631+01621101351ADDAY141031AY221031GA1081+012601061GF199999071051012501999999IA1019MA1999999095801MD1710031+0651MW1131REMSYN112AAXX  18211 76393 31630 70701 10263 20162 39580 40135 57003 71342 875// 92052 333 0/399 30/// 54116 58065 88642;EQDQ01+000072SCOTCV
0318763930999992012091900004+25733-100300FM-12+051599999V0201601N003012200019N0050001N1+02601+01811101331ADDAA103023091AA206023192AA324022692AY101061AY201061GA1011+009601061GF103991031021008001001001IA1099KA1120M+03481KA2180N+02101MA1999999095781MD1710021+0621MW1041REMSYN148AAXX  19001 76393 01550 31603 10260 20181 39578 40133 57002 60231 70400 83200 92347 333 03300 10348 20210 31/// 50901 58062 60237 70226 81632 82833;
0217763930999992012091903004+25733-100300FM-12+051599999V0201801N002012200019N0020001N1+02541+01641101491ADDAY141031AY211031GA1041+011101061GF104991041051012501001001IA1099MA1999999095931MD1210151+0581MW1041REMSYN106AAXX  19031 76393 31620 41802 10254 20164 39593 40149 52015 70441 84500 90245 333 0/300 31/// 58058 84637;
0303763930999992012091906004+25733-100300FM-12+051599999V0200601N001012200019N0010001N1+02301+02041101631ADDAA103005091AA206005191AY151061AY201061GA1031+003301061GF103991031051004501001001GJ105889IA1119KA1240M+03481KA2240N+02101MA1999999096041MD1210111+0591MW1501REMSYN136AAXX  19061 76393 01410 30601 10230 20204 39604 40163 52011 60051 75050 83500 90545 333 0/300 10348 20210 32/// 55098 58059 60057 83611;
0199763930999992012091909004+25733-100300FM-12+051599999V0209999C000012200019N0010001N1+02141+02001101611ADDAY141031AY241031GA1001+999999999GF100991001001999999001001IA1099MA1999999095971MD1710071+0521MW1051REMSYN088AAXX  19091 76393 31910 00000 10214 20200 39597 40161 57007 70544 90850 333 31/// 58052;
0161763930999992012091912004+25733-100300FM-12+051599999V0200501N001012200019N0010001N1+02141+01941101691ADDAY101061AY201061GF103991031051002501001001MA1999999096041MD1210071+9999MW1041REMSYN072AAXX  19121 76393 31310 30501 10214 20194 39604 40169 52007 70400 83500;
0217763930999992012091915004+25733-100300FM-12+051599999V0201201N001010048019N0020001N1+02481+02081101901ADDAY121031AY221031GA1051+004801061GF105991051051004501001001IA1019MA1999999096231MD1210191+0541MW1051REMSYN106AAXX  19151 76393 31420 51201 10248 20208 39623 40190 52019 70522 85500 91450 333 0/300 30/// 58054 85616;
0161763930999992012091918004+25733-100300FM-12+051599999V0201201N001012200019N0030001N1+02961+02061101801ADDAY101061AY201061GF102991021021012501001001MA1999999096151MD1710081+9999MW1041REMSYN072AAXX  19181 76393 31630 21201 10296 20206 39615 40180 57008 70400 82200;
0217763930999992012091921004+25733-100300FM-12+051599999V0201101N001012200019N0050001N1+03241+01731101491ADDAY111031AY211031GA1031+018001081GF103991031021017501001001IA1019MA1999999095911MD1710241+0111MW1041REMSYN106AAXX  19211 76393 31750 31101 10324 20173 39591 40149 57024 70411 83200 92048 333 01500 30/// 58011 83856;
0161763930999992012092000004+25733-100300FM-12+051599999V0201201N002012200019N0040001N1+03001+01781101381ADDAY101061AY201061GF101991011021017501001001MA1999999095851MD1710061+9999MW1051REMSYN072AAXX  20001 76393 31740 11202 10300 20178 39585 40138 57006 70500 81200;
0217763930999992012092003004+25733-100300FM-12+051599999V0201401N001012200019N0020001N1+02721+01681101421ADDAY101031AY201031GA1011+012601061GF101991011051012501001001IA1019MA1999999095911MD1210061-0021MW1041REMSYN106AAXX  20031 76393 31620 11401 10272 20168 39591 40142 52006 70400 81500 90250 333 0/300 30/// 59002 81642;
0161763930999992012092006004+25733-100300FM-12+051599999V0201201N006012200019N0020001N1+02441+01891101581ADDAY101061AY201061GF102991021051008001001001MA1999999096041MD1210131+9999MW1041REMSYN072AAXX  20061 76393 31520 21206 10244 20189 39604 40158 52013 70400 82500;
0171763930999992012092009004+25733-100300FM-12+051599999V0201201N002012200019N0010001N1+02281+01871101581ADDGA1001+999999999GF100991001001999999001001IA1019MA1999999096011MD1710031+0041REMSYN082AAXX  20091 76393 32910 01202 10228 20187 39601 40158 57003 90850 333 30/// 58004;
0245763930999992012092012004+25733-100300FM-12+051599999V0201801N001012200019N0010001N1+02201+01841101611ADDAA124000091GA1001+999999999GF100991001001999999001001IA1019KA1240M+03361KA2120N+02101MA1999999096001MD1710011-0041REMSYN100AAXX  20121 76393 32910 01801 10220 20184 39600 40161 57001 91150 333 10336 20210 30200 59004 70000;EQDQ01  00002PRCP24
0189763930999992012092015004+25733-100300FM-12+051599999V0200101N001012200019N0020001N1+02461+02001101721ADDGA1011+005701061GF101991011051004501001001IA1019MA1999999096081MD1710081-0071REMSYN100AAXX  20151 76393 32420 10101 10246 20200 39608 40172 57008 81500 91450 333 0/300 30/// 59007 81619;
0161763930999992012092018004+25733-100300FM-12+051599999V0201401N004012200019N0020001N1+02961+01971101621ADDAY141061AY201061GF103991031021012501001001MA1999999096001MD1710081+9999MW1051REMSYN072AAXX  20181 76393 31620 31404 10296 20197 39600 40162 57008 70540 83200;
0217763930999992012092021004+25733-100300FM-12+051599999V0201301N003012200019N0040001N1+03261+01651101291ADDAY111031AY211031GA1041+018001061GF104991041041017501001001IA1019MA1999999095731MD1710271-0181MW1041REMSYN106AAXX  20211 76393 31740 41303 10326 20165 39573 40129 57027 70411 84400 92045 333 0/300 30/// 59018 84656;
0161763930999992012092100004+25733-100300FM-12+051599999V0201801N002012200019N0040001N1+03021+01551101211ADDAY101061AY201061GF103991031051017501001001MA1999999095691MD1710041+9999MW1051REMSYN072AAXX  21001 76393 31740 31802 10302 20155 39569 40121 57004 70500 83500;
0217763930999992012092103004+25733-100300FM-12+051599999V0201201N002012200019N0020001N1+02741+01521101341ADDAY101031AY201031GA1011+015001061GF101991011051017501001001IA1019MA1999999095831MD1210141-0081MW1041REMSYN106AAXX  21031 76393 31720 11202 10274 20152 39583 40134 52014 70400 81500 90250 333 0/300 30/// 59008 81650;
0199763930999992012092109004+25733-100300FM-12+051599999V0201201N001012200019N0010001N1+02221+01801101411ADDAY141031AY241031GA1001+999999999GF100991001001999999001001IA1019MA1999999095841MD1710051-0131MW1051REMSYN088AAXX  21091 76393 31910 01201 10222 20180 39584 40141 57005 70544 90850 333 30/// 59013;
0161763930999992012092118004+25733-100300FM-12+051599999V0201401N001012200019N0010001N1+02981+01831101421ADDAY141061AY201061GF101991011021012501001001MA1999999095801MD1710071+9999MW1051REMSYN072AAXX  21181 76393 31610 11401 10298 20183 39580 40142 57007 70540 81200;
0223763930999992012092121004+25733-100300FM-12+051599999V0201101N003012200019N0050001N1+03181+01541101141ADDAY111031AY211031GA1021+021001061GF104991041041022501001001IA1019MA1999999095581MD1710221-0151MW1041REMSYN112AAXX  21211 76393 31850 41103 10318 20154 39558 40114 57022 70411 84400 92045 333 01300 30/// 59015 82657 82858;
0161763930999992012092200004+25733-100300FM-12+051599999V0201501N002010360019N0040001N1+02881+01701101081ADDAY121061AY221061GF106991021051012501031001MA1999999095551MD1710031+9999MW1041REMSYN072AAXX  22001 76393 31640 61502 10288 20170 39555 40108 57003 70422 82530;
0217763930999992012092203004+25733-100300FM-12+051599999V0201201N002012200019N0020001N1+02721+01611101231ADDAY101031AY201031GA1021+013501061GF102991021051012501001001IA1019MA1999999095711MD1210161-0121MW1041REMSYN106AAXX  22031 76393 31620 21202 10272 20161 39571 40123 52016 70400 82500 90250 333 0/300 30/// 59012 82645;
0161763930999992012092206004+25733-100300FM-12+051599999V0201201N001012200019N0010001N1+02621+01411101291ADDAY101061AY201061GF101991011001999999041001MA1999999095771MD1210061+9999MW1041REMSYN072AAXX  22061 76393 31910 11201 10262 20141 39577 40129 52006 70400 81040;
0217763930999992012092209004+25733-100300FM-12+051599999V0201201N002012200019N0010001N1+02221+01681101401ADDAY101031AY201031GA1021+006601061GF102991021051008001001001IA1019MA1999999095831MD1210061-0011MW1051REMSYN106AAXX  22091 76393 31510 21202 10222 20168 39583 40140 52006 70500 82500 90850 333 0/300 30/// 59001 82622;
0245763930999992012092212004+25733-100300FM-12+051599999V0200401N001012200019N0010001N1+02041+01741101521ADDAA124000091GA1001+999999999GF100991001001999999001001IA1019KA1240M+03321KA2120N+02041MA1999999095911MD1210081+0091REMSYN100AAXX  22121 76393 32910 00401 10204 20174 39591 40152 52008 91150 333 10332 20204 30190 58009 70000;EQDQ01  00002PRCP24
0171763930999992012092215004+25733-100300FM-12+051599999V0203201N001012200019N0010001N1+02461+01751101741ADDGA1001+999999999GF100991001001999999001001IA1019MA1999999096051MD1210141+0181REMSYN082AAXX  22151 76393 32910 03201 10246 20175 39605 40174 52014 91450 333 30/// 58018;
0161763930999992012092218004+25733-100300FM-12+051599999V0201101N001012200019N0030001N1+03001+01711101661ADDAY101061AY201061GF101991011011017501001001MA1999999096031MD1710021+9999MW1041REMSYN072AAXX  22181 76393 31730 11101 10300 20171 39603 40166 57002 70400 81100;
0161763930999992012092300004+25733-100300FM-12+051599999V0201101N003012200019N0050001N1+02941+01331101411ADDAY101061AY201061GF102991021051017501001001MA1999999095871MD1710081+9999MW1041REMSYN072AAXX  23001 76393 31750 21103 10294 20133 39587 40141 57008 70400 82500;
0199763930999992012092303004+25733-100300FM-12+051599999V0201201N003012200019N0020001N1+02741+01381101571ADDAY101031AY201031GA1001+999999999GF100991001001999999001001IA1019MA1999999096041MD1210171+0331MW1041REMSYN088AAXX  23031 76393 31920 01203 10274 20138 39604 40157 52017 70400 90250 333 30/// 58033;
0161763930999992012092306004+25733-100300FM-12+051599999V0201601N001012200019N0020001N1+02481+01901101661ADDAY101061AY201061GF101991011051008001001001MA1999999096121MD1210081+9999MW1041REMSYN072AAXX  23061 76393 31520 11601 10248 20190 39612 40166 52008 70400 81500;
0217763930999992012092309004+25733-100300FM-12+051599999V0201201N002012200019N0010001N1+02261+01911101661ADDAY101031AY201031GA1011+004201061GF101991011041004501001001IA1019MA1999999096081MD1710041+0251MW1051REMSYN106AAXX  23091 76393 31410 11202 10226 20191 39608 40166 57004 70500 81400 90850 333 0/300 30/// 58025 81614;
0147763930999992012092318004+25733-100300FM-12+051599999V0201201N002012200019N0030001N1+02911+01961101961ADDAY101061AY201061GF102991021011012501001001MA1999999096291MW1041REMSYN072AAXX  23181 76393 31630 21202 10291 20196 39629 40196 5//// 70400 82100;
0217763930999992012092321004+25733-100300FM-12+051599999V0201101N001012200019N0040001N1+03221+01851101611ADDAY111031AY211031GA1031+018001081GF103991031021017501001001IA1019MA1999999096031MD1710261+0081MW1041REMSYN106AAXX  23211 76393 31740 31101 10322 20185 39603 40161 57026 70411 83200 92050 333 01300 30/// 58008 83856;
0234763930999992012092403004+25733-100300FM-12+051599999V0201701N001012200019N0005001N1+02201+02061101881ADDAA118026091AY101031AY201031GA1021+001501061GF102991021051001501001001IA1019MA1999999096301MD1210071+0251MW1041REMSYN112AAXX  24031 76393 21205 21701 10220 20206 39630 40188 52007 70400 82500 90250 333 0/300 30/// 58025 60263 82605;
0147763930999992012092412004+25733-100300FM-12+051599999V0201101N001010021019N0010001N1+02081+01871101871ADDAY121061AY221061GF107991071051002501999999MA1999999096181MW1041REMSYN072AAXX  24121 76393 31310 71101 10208 20187 39618 40187 5//// 70422 875//;
0217763930999992012092415004+25733-100300FM-12+051599999V0201101N001010042019N0010001N1+02371+02031102011ADDAY121031AY221031GA1051+004201061GF105991051051004501001001IA1099MA1999999096321MD1210141+0101MW1041REMSYN106AAXX  24151 76393 31410 51101 10237 20203 39632 40201 52014 70422 85500 91450 333 0/300 31/// 58010 85614;
0227763930999992012092418004+25733-100300FM-12+051599999V0201101N006012200019N0050001N1+02801+01971101861ADDGA1031+010201061GF103991031041012501001001IA1019KA1120M+02901KA2240N+02041MA1999999096201MD1710121-0091REMSYN112AAXX  24181 76393 32650 31106 10280 20197 39620 40186 57012 83400 91745 333 0/300 10290 20204 30/// 59009 83634;
0189763930999992012092421004+25733-100300FM-12+051599999V0201201N005010147019N0070001N1+03041+01831101461ADDGA1051+014701061GF105991051041012501001001IA1019MA1999999095861MD1710341+0171REMSYN100AAXX  24211 76393 32657 51205 10304 20183 39586 40146 57034 85400 92045 333 0/300 30/// 58017 85649;
0161763930999992012092500004+25733-100300FM-12+051599999V0201201N005010360019N0040001N1+02941+01881101291ADDAY121061AY221061GF106991041051012501041001MA1999999095741MD1710121+9999MW1041REMSYN072AAXX  25001 76393 31640 61205 10294 20188 39574 40129 57012 70422 84540;
0223763930999992012092503004+25733-100300FM-12+051599999V0201201N00301036001CN0030001N1+02661+01811101411ADDAY121031AY221031GA1011+003001061GF105991011051012501021001IA1019MA1999999095881MD1210141-0421MW1041REMSYN112AAXX  25031 76393 31630 51203 10266 20181 39588 40141 52014 70422 81520 90250 333 0/350 30/// 59042 81610 84460;
0161763930999992012092506004+25733-100300FM-12+051599999V0201201N005019999999N0020001N1+02421+01931101441ADDAY121061AY221061GF106991061001999999041001MA1999999095891MD1210011+9999MW1041REMSYN072AAXX  25061 76393 31920 61205 10242 20193 39589 40144 52001 70422 86040;
0217763930999992012092509004+25733-100300FM-12+051599999V0201101N003012200019N0010001N1+02281+01931101361ADDAY101031AY201031GA1031+004201061GF103991031051004501001001IA1019MA1999999095791MD1710101-0381MW1051REMSYN106AAXX  25091 76393 31410 31103 10228 20193 39579 40136 57010 70500 83500 90850 333 0/300 30/// 59038 83614;
0161763930999992012092512004+25733-100300FM-12+051599999V0201201N001010042019N0010001N1+02281+01931101381ADDAY141061AY221061GF105991051051004501001001MA1999999095781MD1710011+9999MW1051REMSYN072AAXX  25121 76393 31410 51201 10228 20193 39578 40138 57001 70542 85500;
0223763930999992012092515004+25733-100300FM-12+051599999V0201101N00101036001CN0010001N1+02341+01931101541ADDAY141031AY221031GA1031+005101061GF106991031051004501031001IA1019MA1999999095911MD1210131-0411MW1041REMSYN112AAXX  25151 76393 31410 61101 10234 20193 39591 40154 52013 70442 83530 91450 333 0/350 30/// 59041 83617 83360;
0161763930999992012092518004+25733-100300FM-12+051599999V0201201N002010360019N0030001N1+02861+01931101411ADDAY121061AY221061GF106991021051012501031011MA1999999095801MD1710111+9999MW1041REMSYN072AAXX  25181 76393 31630 61202 10286 20193 39580 40141 57011 70422 82531;
0217763930999992012092521004+25733-100300FM-12+051599999V0201101N001010132019N0030001N1+03001+01921101111ADDAY121031AY221031GA1051+013201061GF107991051051012501031011IA1019MA1999999095531MD1710271-0331MW1041REMSYN106AAXX  25211 76393 31630 71101 10300 20192 39553 40111 57027 70422 85531 92047 333 0/355 30/// 59033 85644;
0217763930999992012092609004+25733-100300FM-12+051599999V0201201N002012200019N0010001N1+02321+02001101061ADDAY101031AY201031GA1011+003901061GF101991011051004501001001IA1019MA1999999095521MD1710061-0271MW1051REMSYN106AAXX  26091 76393 31410 11202 10232 20200 39552 40106 57006 70500 81500 90850 333 0/300 30/// 59027 81613;
0161763930999992012092612004+25733-100300FM-12+051599999V0200701N001010042019N0010001N1+02261+01971101141ADDAY121061AY221061GF107991071051004501999999MA1999999095571MD1210051+9999MW1041REMSYN072AAXX  26121 76393 31410 70701 10226 20197 39557 40114 52005 70422 875//;
0217763930999992012092615004+25733-100300FM-12+051599999V0201101N001010045019N0020001N1+02391+02031101341ADDAY121031AY221031GA1071+004501061GF107991071051004501999999IA1019MA1999999095741MD1210171-0171MW1041REMSYN106AAXX  26151 76393 31420 71101 10239 20203 39574 40134 52017 70422 875// 91450 333 0/3// 30/// 59017 87615;
0161763930999992012092618004+25733-100300FM-12+051599999V0201301N002010120019N0030001N1+02881+02061101331ADDAY121061AY221061GF105991051041012501001001MA1999999095721MD1710021+9999MW1041REMSYN072AAXX  26181 76393 31630 51302 10288 20206 39572 40133 57002 70422 85400;
0195763930999992012092621004+25733-100300FM-12+051599999V0201201N00501090001CN0050001N1+03081+02041101061ADDGA1031+012901061GF108991031051012501001071IA1019MA1999999095501MD1710221-0031REMSYN106AAXX  26211 76393 32650 81205 10308 20204 39550 40106 57022 83507 92045 333 0/305 30/// 59003 83643 85270;
0161763930999992012092700004+25733-100300FM-12+051599999V0201301N002010360019N0040001N1+02981+01991101011ADDAY121061AY221061GF107991031051012501041011MA1999999095481MD1710021+9999MW1041REMSYN072AAXX  27001 76393 31640 71302 10298 20199 39548 40101 57002 70422 83541;
0217763930999992012092703004+25733-100300FM-12+051599999V0201201N004012200019N0030001N1+02761+01931101181ADDAY101031AY201031GA1031+010201061GF103991031051012501001001IA1019MA1999999095671MD1210191+0121MW1041REMSYN106AAXX  27031 76393 31630 31204 10276 20193 39567 40118 52019 70400 83500 90250 333 0/300 30/// 58012 83634;
0161763930999992012092706004+25733-100300FM-12+051599999V0201201N003012200019N0020001N1+02541+02091101261ADDAY101061AY201061GF104991041051004501001001MA1999999095741MD1210071+9999MW1041REMSYN072AAXX  27061 76393 31420 41203 10254 20209 39574 40126 52007 70400 84500;
0217763930999992012092709004+25733-100300FM-12+051599999V0201101N002010027019N0010001N1+02381+02151101281ADDAY121031AY221031GA1061+002701061GF106991061051002501001001IA1019MA1999999095731MD1710011+0211MW1051REMSYN106AAXX  27091 76393 31310 61102 10238 20215 39573 40128 57001 70522 86500 90850 333 0/300 30/// 58021 86609;
0161763930999992012092712004+25733-100300FM-12+051599999V0201101N001010042019N0010001N1+02401+02151101381ADDAY121061AY221061GF107991071051004501999999MA1999999095761MD1210031+9999MW1041REMSYN072AAXX  27121 76393 31410 71101 10240 20215 39576 40138 52003 70422 875//;
0217763930999992012092715004+25733-100300FM-12+051599999V0200901N001010048019N0020001N1+02541+02161101461ADDAY121031AY221031GA1071+004801061GF107991071051004501999999IA1019MA1999999095861MD1210101+0121MW1041REMSYN106AAXX  27151 76393 31420 70901 10254 20216 39586 40146 52010 70422 875// 91446 333 0/3// 30/// 58012 87616;
0161763930999992012092718004+25733-100300FM-12+051599999V0201201N003010900019N0040001N1+02981+02181101431ADDAY121061AY221061GF108991031041008001001081MA1999999095841MD1710021+9999MW1041REMSYN072AAXX  27181 76393 31540 81203 10298 20218 39584 40143 57002 70422 83408;
0217763930999992012092721004+25733-100300FM-12+051599999V0201101N005010120019N0030001N1+03081+02111101131ADDAY141031AY221031GA1051+012001061GF108991051051012501001081IA1019MA1999999095581MD1710261+0081MW1041REMSYN106AAXX  27211 76393 31630 81105 10308 20211 39558 40113 57026 70442 85508 92047 333 0/305 30/// 58008 85640;
0161763930999992012092800004+25733-100300FM-12+051599999V0201401N001010360019N0020001N1+02961+02091101011ADDAY121061AY221061GF108991021051012501041081MA1999999095491MD1710091+9999MW1051REMSYN072AAXX  28001 76393 31620 81401 10296 20209 39549 40101 57009 70522 82548;
0217763930999992012092803004+25733-100300FM-12+051599999V0201201N003012200019N0020001N1+02601+02121101221ADDAY101031AY201031GA1031+005701061GF103991031051004501001001IA1019MA1999999095711MD1210221+0041MW1041REMSYN106AAXX  28031 76393 31420 31203 10260 20212 39571 40122 52022 70400 83500 90250 333 0/300 30/// 58004 83619;
0161763930999992012092806004+25733-100300FM-12+051599999V0201201N001012200019N0020001N1+02441+02131101251ADDAY101061AY201061GF104991021051004501041001MA1999999095721MD1210011+9999MW1041REMSYN072AAXX  28061 76393 31420 41201 10244 20213 39572 40125 52001 70400 82540;
0217763930999992012092809004+25733-100300FM-12+051599999V0201101N002012200019N0010001N1+02361+02131101151ADDAY101031AY201031GA1041+003001061GF104991041051002501001001IA1019MA1999999095601MD1710121-0131MW1051REMSYN106AAXX  28091 76393 31310 41102 10236 20213 39560 40115 57012 70500 84500 90850 333 0/300 30/// 59013 84610;
0161763930999992012092812004+25733-100300FM-12+051599999V0201401N001010042019N0010001N1+02421+02081101151ADDAY121061AY221061GF107991071051004501001001MA1999999095561MD1710041+9999MW1041REMSYN072AAXX  28121 76393 31410 71401 10242 20208 39556 40115 57004 70422 87500;
0217763930999992012092815004+25733-100300FM-12+051599999V0200601N002010036019N0010001N1+02461+02181101281ADDAY121031AY221031GA1081+003601061GF108991081051004501999999IA1019MA1999999095671MD1210111-0191MW1041REMSYN106AAXX  28151 76393 31410 80602 10246 20218 39567 40128 52011 70422 885// 91450 333 0/3// 30/// 59019 88612;
0161763930999992012092818004+25733-100300FM-12+051599999V0201101N003010075019N0010001N1+02721+02211101291ADDAY141061AY221061GF108991081051008001999999MA1999999095691MD1210021+9999MW1051REMSYN072AAXX  28181 76393 31510 81103 10272 20221 39569 40129 52002 70542 885//;
0223763930999992012092821004+25733-100300FM-12+051599999V0202701N00101090001CN0020001N1+02881+02161100941ADDAY141031AY221031GA1031+006301061GF108991031051008001001071IA1019MA1999999095381MD1710311-0201MW1051REMSYN112AAXX  28211 76393 31520 82701 10288 20216 39538 40094 57031 70542 83507 92047 333 0/305 30/// 59020 83621 85270;
0161763930999992012092900004+25733-100300FM-12+051599999V0200601N001010900019N0020001N1+02801+02131100761ADDAY121061AY221061GF107991031051008001001071MA1999999095241MD1710141+9999MW1051REMSYN072AAXX  29001 76393 31520 70601 10280 20213 39524 40076 57014 70522 83507;
0217763930999992012092903004+25733-100300FM-12+051599999V0209999C000010270019N0020001N1+02661+02161100931ADDAY121031AY221031GA1061+027001041GF106991061001999999021001IA1019MA1999999095411MD1210171-0301MW1041REMSYN106AAXX  29031 76393 31920 60000 10266 20216 39541 40093 52017 70422 86020 90250 333 0/050 30/// 59030 86459;
0303763930999992012092906004+25733-100300FM-12+051599999V0209999C000010027019N0010001N1+02481+02261100941ADDAA103000591AA206000591AY121061AY221061GA1081+002701071GF108991081061002501999999GJ100249IA1099KA1240M+03101KA2240N+02301MA1999999095411MD1410001-0311MW1501REMSYN136AAXX  29061 76393 01310 80000 10248 20226 39541 40094 54000 69951 75022 886// 90550 333 0/3// 10310 20230 31/// 55004 59031 69957 88709;
0234763930999992012092909004+25733-100300FM-12+051599999V0200601N001010027019N0010001N1+02461+02241100931ADDAA103000021AY121031AY221031GA1081+002701071GF108991081061002501999999IA1099MA1999999095391MD1710021-0211MW1051REMSYN112AAXX  29091 76393 21310 80601 10246 20224 39539 40093 57002 70522 886// 90850 333 0/3// 31/// 59021 69907 88709;
0325763930999992012092912004+25733-100300FM-12+051599999V0201101N001010024019N0008001N1+02421+02221100941ADDAA103999999AA206000021AA324000591AY121061AY221061GA1081+002401071GF108991081061002501999999IA1019KA1240M+03101KA2120N+02301MA1999999095381MD1710011-0181MW1041REMSYN136AAXX  29121 76393 01308 81101 10242 20222 39538 40094 57001 69901 70422 886// 91150 333 0/3// 10310 20230 30220 59018 69907 70005 88708;EQDQ01  99992PRCP03
0234763930999992012092915004+25733-100300FM-12+051599999V0200701N001010027019N0008001N1+02461+02241101051ADDAA103000291AY121031AY221031GA1081+002701071GF108991081061002501999999IA1019MA1999999095471MD1210091-0201MW1041REMSYN112AAXX  29151 76393 21308 80701 10246 20224 39547 40105 52009 70422 886// 91450 333 0/3// 30/// 59020 69927 88709;
0161763930999992012092918004+25733-100300FM-12+051599999V0201101N001012200019N0010001N1+03101+02341100891ADDAY141061AY211061GF104991041051008001001001MA1999999095331MD1710141+9999MW1051REMSYN072AAXX  29181 76393 31510 41101 10310 20234 39533 40089 57014 70541 84500;
0223763930999992012092921004+25733-100300FM-12+051599999V0201901N001012200019N0020001N1+03441+02311100561ADDAY141031AY201031GA1011+013801081GF103991031021012501001001IA1019MA1999999095061MD1710271-0321MW1051REMSYN112AAXX  29211 76393 31620 31901 10344 20231 39506 40056 57027 70540 83200 92048 333 05700 30/// 59032 81846 82647;
0332763930999992012093000004+25733-100300FM-12+051599999V0200301N005010360019N0030001N1+02861+02011100551ADDAA103000291AA224000991AY151061AY221061GA1021+010501061GF106991021051012501021001IA1099KA1120M+03591KA2180N+02301MA1999999095091MD1210031-0151MW1501REMSYN154AAXX  30001 76393 01630 60305 10286 20201 39509 40055 52003 69921 75052 82520 92348 333 0/310 10359 20230 31/// 50411 54115 59015 69927 70009 82635 84560;EQDQ01  00002PRCP06
0234763930999992012093003004+25733-100300FM-12+051599999V0202301N001010063019N0020001N1+02721+02191100861ADDAA103000191AY151031AY221031GA1071+006301071GF107991071061008001001001IA1099MA1999999095391MD1210301-0021MW1501REMSYN112AAXX  30031 76393 21520 72301 10272 20219 39539 40086 52030 75052 87600 90250 333 0/300 31/// 59002 69917 87721;
0303763930999992012093006004+25733-100300FM-12+051599999V0202001N001010021019N0020001N1+02301+02131101051ADDAA103029091AA206029091AY121061AY221061GA1071+002101071GF107991071061002501001001GJ104269IA1119KA1240M+03591KA2240N+02261MA1999999095551MD1210161+0141MW1051REMSYN136AAXX  30061 76393 01320 72001 10230 20213 39555 40105 52016 60291 70522 87600 90550 333 0/700 10359 20226 32/// 55071 58014 60297 87707;
0253763930999992012093009004+25733-100300FM-12+051599999V0203401N002010054019N0010001N1+02241+01801101011ADDAA103000091AY121031AY221031GA1061+005401061GF106991061051004501001001IA1099MA1999999095461MD1710091+0071MW1051REMSYN112AAXX  30091 76393 21410 63402 10224 20180 39546 40101 57009 70522 86500 90850 333 0/700 31/// 58007 69907 86618;EQDQ01  00002PRCP03
0161763930999992012093012004+25733-100300FM-12+051599999V0200501N001012200019N0010001N1+02201+01661101121ADDAY101061AY201061GF103991031051008001001001MA1999999095521MD1210061+9999MW1041REMSYN072AAXX  30121 76393 31510 30501 10220 20166 39552 40112 52006 70400 83500;
0217763930999992012093015004+25733-100300FM-12+051599999V0200401N002010075019N0030001N1+02301+01701101371ADDAY121031AY221031GA1071+007501061GF107991071051008001001001IA1019MA1999999095731MD1210211+0261MW1041REMSYN106AAXX  30151 76393 31530 70402 10230 20170 39573 40137 52021 70422 87500 91450 333 0/300 30/// 58026 87625;
0161763930999992012093018004+25733-100300FM-12+051599999V0203501N001010120019N0030001N1+02681+01701101201ADDAY121061AY221061GF107991071051012501999999MA1999999095581MD1710151+9999MW1041REMSYN072AAXX  30181 76393 31630 73501 10268 20170 39558 40120 57015 70422 875//;
0217763930999992012093021004+25733-100300FM-12+051599999V0202701N001010150019N0040001N1+02981+01681100881ADDAY121031AY221031GA1071+015001061GF107991071051017501999999IA1019MA1999999095291MD1710291+0231MW1041REMSYN106AAXX  30211 76393 31740 72701 10298 20168 39529 40088 57029 70422 875// 92050 333 0/7// 30/// 58023 87650;
0161763930999992012100100004+25733-100300FM-12+051599999V0200101N004010150019N0050001N1+02821+01371100841ADDAY121061AY221061GF105991051051017501001001MA1999999095301MD1410001+9999MW1051REMSYN072AAXX  01001 76393 31750 50104 10282 20137 39530 40084 54000 70522 85500;
0217763930999992012100103004+25733-100300FM-12+051599999V0200601N001012200019N0030001N1+02561+01421101091ADDAY101031AY201031GA1011+013801061GF101991011051012501001001IA1019MA1999999095551MD1210251+0161MW1041REMSYN106AAXX  01031 76393 31630 10601 10256 20142 39555 40109 52025 70400 81500 90250 333 0/500 30/// 58016 81646;
0251763930999992012100106004+25733-100300FM-12+051599999V0209999C000012200019N0010001N1+02261+01451101161ADDAY141061AY241061GA1001+999999999GF100991001001999999001001GJ104269IA1019KA1240M+03101KA2240N+02101MA1999999095611MD1210101+0061MW1051REMSYN106AAXX  01061 76393 31910 00000 10226 20145 39561 40116 52010 70544 90545 333 10310 20210 30/// 55071 58006;
0199763930999992012100109004+25733-100300FM-12+051599999V0202101N004012200019N0010001N1+02101+01481101101ADDAY141031AY241031GA1001+999999999GF100991001001999999001001IA1019MA1999999095511MD1710101+0051MW1051REMSYN088AAXX  01091 76393 31910 02104 10210 20148 39551 40110 57010 70544 90845 333 30/// 58005;
0273763930999992012100112004+25733-100300FM-12+051599999V0202001N001012200019N0010001N1+02101+01481101151ADDAA124000091AY141061AY241061GA1001+999999999GF100991001001999999001001IA1019KA1240M+03141KA2120N+02081MA1999999095531MD1210021+0011MW1051REMSYN106AAXX  01121 76393 31910 02001 10210 20148 39553 40115 52002 70544 91150 333 10314 20208 30192 58001 70000;EQDQ01  00002PRCP24
0217763930999992012100115004+25733-100300FM-12+051599999V0202101N001012200019N0030001N1+02581+01551101281ADDAY101031AY201031GA1021+030001031GF102991021001999999041001IA1019MA1999999095641MD1210111-0091MW1041REMSYN106AAXX  01151 76393 31930 22101 10258 20155 39564 40128 52011 70400 82040 91450 333 0/070 30/// 59009 82360;
0161763930999992012100118004+25733-100300FM-12+051599999V0201301N001012200019N0040001N1+03101+01661101151ADDAY111061AY211061GF104991041051017501001001MA1999999095541MD1710101+9999MW1041REMSYN072AAXX  01181 76393 31740 41301 10310 20166 39554 40115 57010 70411 84500;
0234763930999992012100121004+25733-100300FM-12+051599999V0200201N002010210019N0040001N1+03001+01331100861ADDAA101000021AY121031AY221031GA1071+021001061GF107991071051022501999999IA1019MA1999999095311MD1710231+0021MW1041REMSYN112AAXX  01211 76393 21840 70202 10300 20133 39531 40086 57023 70422 875// 92050 333 0/7// 30/// 58002 69905 87657;
0363763930999992012100200004+25733-100300FM-12+051599999V0201101N002012200019N0040001N1+02721+01541100921ADDAA103999999AA206000091AA324000091AY101061AY201061GA1031+014701061GF103991031051012501001001IA1019KA1120M+03331KA2180N+02081MA1999999095401MD1210091+0101MW1041REMSYN142AAXX  02001 76393 01640 31102 10272 20154 39540 40092 52009 69901 70400 83500 92350 333 0/700 10333 20208 30/// 50561 58010 69907 79999 83649;EQDQ01  00002PRCP06Q02  00002PRCP24Q03  99992PRCP03
0217763930999992012100203004+25733-100300FM-12+051599999V0202101N001012200019N0020001N1+02481+01771101161ADDAY101031AY201031GA1021+008701061GF102991021051008001001001IA1019MA1999999095641MD1210241+0091MW1041REMSYN106AAXX  02031 76393 31520 22101 10248 20177 39564 40116 52024 70400 82500 90250 333 0/700 30/// 58009 82629;
0251763930999992012100206004+25733-100300FM-12+051599999V0202301N001012200019N0010001N1+02301+01571101291ADDAY101061AY201061GA1001+999999999GF100991001001999999001001GJ104269IA1019KA1240M+03331KA2240N+02081MA1999999095741MD1210101+0131MW1041REMSYN106AAXX  02061 76393 31910 02301 10230 20157 39574 40129 52010 70400 90550 333 10333 20208 30/// 55071 58013;
0217763930999992012100209004+25733-100300FM-12+051599999V0202101N001012200019N0010001N1+02161+01541101331ADDAY101031AY201031GA1031+030001031GF103991031001999999031001IA1019MA1999999095731MD1710011+0221MW1041REMSYN106AAXX  02091 76393 31910 32101 10216 20154 39573 40133 57001 70400 83030 90850 333 0/070 30/// 58022 83360;
0273763930999992012100212004+25733-100300FM-12+051599999V0202501N001012200019N0010001N1+02221+01471101381ADDAA124000091AY101061AY201061GA1001+999999999GF100991001001999999001001IA1019KA1240M+03331KA2120N+02081MA1999999095751MD1210021+0221MW1041REMSYN106AAXX  02121 76393 31910 02501 10222 20147 39575 40138 52002 70400 91150 333 10333 20208 30198 58022 79999;EQDQ01  00002PRCP24
0195763930999992012100215004+25733-100300FM-12+051599999V0201301N001012200019N0030001N1+02561+01521101591ADDAY101031AY201031GF101991011041012501001001IA1019MA1999999095951MD1210201+0311MW1041REMSYN100AAXX  02151 76393 31630 11301 10256 20152 39595 40159 52020 70400 81400 91450 333 0/700 30/// 58031;
0161763930999992012100218004+25733-100300FM-12+051599999V0203301N003012200019N0030001N1+02961+01281101481ADDAY101061AY201061GF102991021041022501001001MA1999999095861MD1710091+9999MW1041REMSYN072AAXX  02181 76393 31830 23303 10296 20128 39586 40148 57009 70400 82400;
0217763930999992012100221004+25733-100300FM-12+051599999V0203401N002012200019N0040001N1+03201+01161101151ADDAY101031AY201031GA1021+024001061GF102991021041022501001001IA1019MA1999999095591MD1710271+0281MW1051REMSYN106AAXX  02211 76393 31840 23402 10320 20116 39559 40115 57027 70500 82400 92045 333 0/300 30/// 58028 82658;
0161763930999992012100300004+25733-100300FM-12+051599999V0200601N001012200019N0040001N1+02941+00991101091ADDAY101061AY201061GF101991011051022501001001MA1999999095571MD1710021+9999MW1041REMSYN072AAXX  03001 76393 31840 10601 10294 20099 39557 40109 57002 70400 81500;
0199763930999992012100303004+25733-100300FM-12+051599999V0201301N001012200019N0030001N1+02671+01271101281ADDAY101031AY201031GA1001+999999999GF100991001001999999001001IA1019MA1999999095771MD1210201+0131MW1041REMSYN088AAXX  03031 76393 31930 01301 10267 20127 39577 40128 52020 70400 90249 333 30/// 58013;
0251763930999992012100306004+25733-100300FM-12+051599999V0201201N003012200019N0020001N1+02461+01171101361ADDAY101061AY201061GA1001+999999999GF100991001001999999001001GJ105709IA1019KA1240M+03371KA2240N+02081MA1999999095841MD1210071+0101MW1041REMSYN106AAXX  03061 76393 31920 01203 10246 20117 39584 40136 52007 70400 90550 333 10337 20208 30/// 55095 58010;
0199763930999992012100309004+25733-100300FM-12+051599999V0200201N001012200019N0020001N1+02121+01051101331ADDAY101031AY201031GA1001+999999999GF100991001001999999001001IA1019MA1999999095761MD1710081+0031MW1041REMSYN088AAXX  03091 76393 31920 00201 10212 20105 39576 40133 57008 70400 90850 333 30/// 58003;
0273763930999992012100312004+25733-100300FM-12+051599999V0201801N001012200019N0020001N1+02121+01321101381ADDAA124000091AY101061AY201061GA1001+999999999GF100991001001999999001001IA1019KA1240M+03371KA2120N+02001MA1999999095761MD1410001+0011MW1041REMSYN106AAXX  03121 76393 31920 01801 10212 20132 39576 40138 54000 70400 91150 333 10337 20200 30188 58001 70000;EQDQ01  00002PRCP24
0199763930999992012100315004+25733-100300FM-12+051599999V0202501N001012200019N0020001N1+02561+01421101421ADDAY101031AY201031GA1001+999999999GF100991001001999999001001IA1019MA1999999095791MD1210031-0161MW1051REMSYN088AAXX  03151 76393 31920 02501 10256 20142 39579 40142 52003 70500 91450 333 30/// 59016;
0237763930999992012100318004+25733-100300FM-12+051599999V0202101N001012200019N0030001N1+03241+01221101311ADDAY141061AY221061GA1001+999999999GF100991001001999999001001IA1019KA1120M+03421KA2240N+02001MA1999999095701MD1710091-0161MW1051REMSYN100AAXX  03181 76393 31930 02101 10324 20122 39570 40131 57009 70542 91748 333 10342 20200 30/// 59016;
0199763930999992012100321004+25733-100300FM-12+051599999V0201101N001012200019N0030001N1+03521+01461101011ADDAY101031AY201031GA1001+999999999GF100991001001999999001001IA1019MA1999999095481MD1710221-0111MW1041REMSYN088AAXX  03211 76393 31930 01101 10352 20146 39548 40101 57022 70400 92050 333 30/// 59011;
0251763930999992012100400004+25733-100300FM-12+051599999V0201901N003012200019N0040001N1+03241+01341100981ADDAA124000091GA1001+999999999GF100991001001999999001001IA1019KA1120M+03671KA2180N+02001MA1999999095511MD1210031-0061REMSYN106AAXX  04001 76393 32940 01903 10324 20134 39551 40098 52003 92350 333 10367 20200 30/// 50811 59006 70000;EQDQ01  00002PRCP24
0171763930999992012100403004+25733-100300FM-12+051599999V0202501N002012200019N0020001N1+02841+01111101151ADDGA1001+999999999GF100991001001999999001001IA1019MA1999999095691MD1210181-0081REMSYN082AAXX  04031 76393 32920 02502 10284 20111 39569 40115 52018 90249 333 30/// 59008;
0251763930999992012100406004+25733-100300FM-12+051599999V0202401N002012200019N0020001N1+02621+01181101251ADDAY101061AY201061GA1001+999999999GF100991001001999999001001GJ106249IA1019KA1240M+03671KA2240N+02001MA1999999095771MD1210081-0071MW1041REMSYN106AAXX  04061 76393 31920 02402 10262 20118 39577 40125 52008 70400 90550 333 10367 20200 30/// 55104 59007;
0199763930999992012100409004+25733-100300FM-12+051599999V0203101N001012200019N0020001N1+02201+01341101311ADDAY101031AY201031GA1001+999999999GF100991001001999999001001IA1019MA1999999095781MD1210011+0021MW1041REMSYN088AAXX  04091 76393 31920 03101 10220 20134 39578 40131 52001 70400 90850 333 30/// 58002;
0273763930999992012100412004+25733-100300FM-12+051599999V0202401N001012200019N0020001N1+02301+01301101501ADDAA124000091AY101061AY201061GA1001+999999999GF100991001001999999001001IA1019KA1240M+03671KA2120N+02101MA1999999095871MD1210091+0111MW1041REMSYN106AAXX  04121 76393 31920 02401 10230 20130 39587 40150 52009 70400 91150 333 10367 20210 30200 58011 70000;EQDQ01  00002PRCP24
0187763930999992012100415004+25733-100300FM-12+051599999V0201701N001012200019N0020001N1+02801+01221101601ADDAY101031AY201031GA1001+999999999GF100991001001999999001001MA1999999095981MD1210111+0191MW1041REMSYN082AAXX  04151 76393 31920 01701 10280 20122 39598 40160 52011 70400 91450 333 58019;
0199763930999992012100421004+25733-100300FM-12+051599999V0201201N002012200019N0040001N1+03561+01351101311ADDAY101031AY201031GA1001+999999999GF100991001001999999001001IA1019MA1999999095791MD1999999+0311MW1041REMSYN088AAXX  04211 76393 31940 01202 10356 20135 39579 40131 5//// 70400 92050 333 30/// 58031;
0251763930999992012100500004+25733-100300FM-12+051599999V0201301N003012200019N0050001N1+03381+00931101261ADDAA124000091GA1001+999999999GF100991001001999999001001IA1019KA1120M+03721KA2180N+02101MA1999999095791MD1410001+0281REMSYN106AAXX  05001 76393 32950 01303 10338 20093 39579 40126 54000 92350 333 10372 20210 30/// 50931 58028 70000;EQDQ01  00002PRCP24
0171763930999992012100503004+25733-100300FM-12+051599999V0203501N001012200019N0020001N1+02901+01151101351ADDGA1001+999999999GF100991001001999999001001IA1019MA1999999095901MD1210111+0211REMSYN082AAXX  05031 76393 32920 03501 10290 20115 39590 40135 52011 90249 333 30/// 58021;
0251763930999992012100506004+25733-100300FM-12+051599999V0200101N001012200019N0020001N1+02221+01291101481ADDAY101061AY201061GA1001+999999999GF100991001001999999001001GJ106309IA1019KA1240M+03721KA2240N+02101MA1999999096001MD1210101+0231MW1041REMSYN106AAXX  05061 76393 31920 00101 10222 20129 39600 40148 52010 70400 90550 333 10372 20210 30/// 55105 58023;
0199763930999992012100509004+25733-100300FM-12+051599999V0209999C000012200019N0020001N1+02121+01171101491ADDAY101031AY201031GA1001+999999999GF100991001001999999001001IA1019MA1999999095941MD1710061+0161MW1041REMSYN088AAXX  05091 76393 31920 00000 10212 20117 39594 40149 57006 70400 90850 333 30/// 58016;
0273763930999992012100512004+25733-100300FM-12+051599999V0209999C000012200019N0020001N1+02021+01691101641ADDAA124000091AY101061AY201061GA1001+999999999GF100991001001999999001001IA1019KA1240M+03721KA2120N+01961MA1999999096021MD1210081+0151MW1041REMSYN106AAXX  05121 76393 31920 00000 10202 20169 39602 40164 52008 70400 91150 333 10372 20196 30186 58015 70000;EQDQ01  00002PRCP24
0199763930999992012100515004+25733-100300FM-12+051599999V0203401N001012200019N0020001N1+02361+01631101761ADDAY101031AY201031GA1001+999999999GF100991001001999999001001IA1019MA1999999096091MD1210071+0111MW1051REMSYN088AAXX  05151 76393 31920 03401 10236 20163 39609 40176 52007 70500 91450 333 30/// 58011;
0237763930999992012100518004+25733-100300FM-12+051599999V0201101N001012200019N0020001N1+02931+01781101691ADDAY101061AY201061GA1001+999999999GF100991001001999999001001IA1019KA1120M+03031KA2240N+01961MA1999999096031MD1710061+0091MW1041REMSYN100AAXX  05181 76393 31920 01101 10293 20178 39603 40169 57006 70400 91740 333 10303 20196 30/// 58009;
0199763930999992012100521004+25733-100300FM-12+051599999V0201101N001012200019N0030001N1+03221+01461101311ADDAY101031AY201031GA1001+999999999GF100991001001999999001001IA1019MA1999999095711MD1710321-0081MW1041REMSYN088AAXX  05211 76393 31930 01101 10322 20146 39571 40131 57032 70400 92050 333 30/// 59008;
0251763930999992012100600004+25733-100300FM-12+051599999V0201301N003012200019N0050001N1+03101+01231101211ADDAA124000091GA1001+999999999GF100991001001999999001001IA1019KA1120M+03361KA2180N+01961MA1999999095681MD1710031-0111REMSYN106AAXX  06001 76393 32950 01303 10310 20123 39568 40121 57003 92350 333 10336 20196 30/// 50751 59011 70000;EQDQ01  00002PRCP24
0171763930999992012100603004+25733-100300FM-12+051599999V0201201N002012200019N0020001N1+02761+01251101301ADDGA1001+999999999GF100991001001999999001001IA1019MA1999999095791MD1210111-0111REMSYN082AAXX  06031 76393 32920 01202 10276 20125 39579 40130 52011 90250 333 30/// 59011;
0251763930999992012100606004+25733-100300FM-12+051599999V0201101N002012200019N0020001N1+02361+01671101291ADDAY101061AY201061GA1001+999999999GF100991001001999999001001GJ106309IA1019KA1240M+03361KA2240N+01961MA1999999095771MD1710021-0231MW1041REMSYN106AAXX  06061 76393 31920 01102 10236 20167 39577 40129 57002 70400 90548 333 10336 20196 30/// 55105 59023;
0199763930999992012100609004+25733-100300FM-12+051599999V0200101N001012200019N0010001N1+02061+01631101251ADDAY141031AY241031GA1001+999999999GF100991001001999999001001IA1019MA1999999095701MD1710071-0241MW1041REMSYN088AAXX  06091 76393 31910 00101 10206 20163 39570 40125 57007 70444 90845 333 30/// 59024;
0273763930999992012100612004+25733-100300FM-12+051599999V0203101N001012200019N0010001N1+01981+01711101271ADDAA124000091AY141061AY241061GA1001+999999999GF100991001001999999001001IA1019KA1240M+03361KA2120N+01921MA1999999095661MD1710041-0361MW1041REMSYN106AAXX  06121 76393 31910 03101 10198 20171 39566 40127 57004 70444 91150 333 10336 20192 30178 59036 70000;EQDQ01  00002PRCP24
0199763930999992012100615004+25733-100300FM-12+051599999V0203401N001012200019N0020001N1+02381+01731101441ADDAY141031AY241031GA1001+999999999GF100991001001999999001001IA1019MA1999999095791MD1210131-0301MW1041REMSYN088AAXX  06151 76393 31920 03401 10238 20173 39579 40144 52013 70444 91450 333 30/// 59030;
0237763930999992012100618004+25733-100300FM-12+051599999V0201101N001012200019N0020001N1+03081+01631101311ADDAY101061AY201061GA1001+999999999GF100991001001999999001001IA1019KA1120M+03181KA2240N+01921MA1999999095691MD1710101-0351MW1041REMSYN100AAXX  06181 76393 31920 01101 10308 20163 39569 40131 57010 70400 91750 333 10318 20192 30/// 59035;
0199763930999992012100621004+25733-100300FM-12+051599999V0201201N002012200019N0020001N1+03241+01461101021ADDAY101031AY201031GA1001+999999999GF100991001001999999001001IA1019MA1999999095461MD1710231-0251MW1041REMSYN088AAXX  06211 76393 31920 01202 10324 20146 39546 40102 57023 70400 92050 333 30/// 59025;
0251763930999992012100700004+25733-100300FM-12+051599999V0201201N003012200019N0050001N1+02941+01491100941ADDAA124000091GA1001+999999999GF100991001001999999001001IA1019KA1120M+03361KA2180N+01921MA1999999095441MD1710021-0241REMSYN106AAXX  07001 76393 32950 01203 10294 20149 39544 40094 57002 92350 333 10336 20192 30/// 50741 59024 70000;EQDQ01  00002PRCP24
0171763930999992012100703004+25733-100300FM-12+051599999V0201101N001012200019N0020001N1+02761+01401101081ADDGA1001+999999999GF100991001001999999001001IA1019MA1999999095581MD1210141-0211REMSYN082AAXX  07031 76393 32920 01101 10276 20140 39558 40108 52014 90248 333 30/// 59021;
0161763930999992012100706004+25733-100300FM-12+051599999V0201101N005012200019N0020001N1+02421+02021101211ADDAY101061AY201061GF102991021051004501001001MA1999999095691MD1210111+9999MW1041REMSYN072AAXX  07061 76393 31420 21105 10242 20202 39569 40121 52011 70400 82500;
0217763930999992012100709004+25733-100300FM-12+051599999V0201001N002012200019N0020001N1+02281+02081101271ADDAY101031AY201031GA1021+002401071GF102991021061002501001001IA1019MA1999999095711MD1210021+0011MW1041REMSYN106AAXX  07091 76393 31320 21002 10228 20208 39571 40127 52002 70400 82600 90851 333 0/300 30/// 58001 82708;
0161763930999992012100712004+25733-100300FM-12+051599999V0201101N001012200019N0010001N1+02301+02101101391ADDAY101061AY201061GF104991041061002501001001MA1999999095791MD1210081+9999MW1051REMSYN072AAXX  07121 76393 31310 41101 10230 20210 39579 40139 52008 70500 84600;
0217763930999992012100715004+25733-100300FM-12+051599999V0200201N005010048019N0020001N1+02061+01661101681ADDAY121031AY221031GA1071+004801061GF107991071051004501001001IA1019MA1999999096031MD1210241+0241MW1051REMSYN106AAXX  07151 76393 31420 70205 10206 20166 39603 40168 52024 70522 87500 91450 333 0/100 30/// 58024 87616;
0289763930999992012100718004+25733-100300FM-12+051599999V0200201N001010042019N0020001N1+01861+01521101851ADDAA103999929AA206000021AY121061AY221061GA1081+004201061GF108991081051004501999999IA1019KA1120M+02321KA2240N+01841MA1999999096161MD1210131+0471MW1501REMSYN130AAXX  07181 76393 01420 80201 10186 20152 39616 40185 52013 69901 75022 885// 91746 333 0/1// 10232 20184 30/// 58047 69907 88614;
0234763930999992012100721004+25733-100300FM-12+051599999V0200101N001010045019N0010001N1+01701+01341101731ADDAA103000191AY121031AY221031GA1081+004501061GF108991081051004501999999IA1099MA1999999096031MD1710131+0571MW1041REMSYN112AAXX  07211 76393 21410 80101 10170 20134 39603 40173 57013 70422 885// 92050 333 0/1// 31/// 58057 69917 88615;
0336763930999992012100800004+25733-100300FM-12+051599999V0200301N001010027019N0010001N1+01641+01421101731ADDAA103999999AA224000191AY121061AY221061GA1081+002701061GF108991081051002501999999IA1019KA1120M+02321KA2180N+01601MA1999999096001MD1710031+0561MW1041REMSYN142AAXX  08001 76393 01310 80301 10164 20142 39600 40173 57003 69911 70422 885// 92348 333 0/1// 10232 20160 30/// 50271 58056 69907 70001 88609;EQDQ01  99992PRCP03Q02  00002PRCP06
0234763930999992012100803004+25733-100300FM-12+051599999V0200301N002010009019N0008001N1+01541+01471101981ADDAA103000291AY121031AY221031GA1081+000901071GF108991081061000751999999IA1099MA1999999096211MD1210211+0631MW1041REMSYN112AAXX  08031 76393 21108 80302 10154 20147 39621 40198 52021 70422 886// 90250 333 0/3// 31/// 58063 69927 88703;
0303763930999992012100806004+25733-100300FM-12+051599999V0200201N002010006019N0005001N1+01471+01421102011ADDAA103000591AA206000891AY151061AY251061GA1081+000601071GF108991081071000751999999GJ100009IA1099KA1240M+02321KA2240N+01421MA1999999096221MD1210011+0531MW1501REMSYN136AAXX  08061 76393 01105 80202 10147 20142 39622 40201 52001 69971 75055 887// 90548 333 0/8// 10232 20142 31/// 55000 58053 69957 88702;
0234763930999992012100809004+25733-100300FM-12+051599999V0203601N002010003019N0002001N1+01421+01391101991ADDAA103001091AY151031AY251031GA1081+000301071GF108991081071000251999999IA1119MA1999999096181MD1710041+0471MW1501REMSYN112AAXX  08091 76393 21002 83602 10142 20139 39618 40199 57004 75055 887// 90850 333 0/8// 32/// 58047 60017 88701;
0306763930999992012100812004+25733-100300FM-12+051599999V0200301N001010009019N0002001N1+01341+01271102101ADDAA103001091AA206003091AA324003491AY151061AY251061GA1081+000901071GF108991081071000751999999IA1019KA1240M+02321KA2120N+01101MA1999999096271MD1210091+0481MW1511REMSYN136AAXX  08121 76393 01102 80301 10134 20127 39627 40210 52009 60031 75155 887// 91155 333 0/8// 10232 20110 30102 58048 60017 70034 88703;
0234763930999992012100815004+25733-100300FM-12+051599999V0200301N001010012019N0003001N1+01401+01301102331ADDAA103000691AY151031AY251031GA1081+001201071GF108991081071001501999999IA1119MA1999999096481MD1210211+0451MW1511REMSYN112AAXX  08151 76393 21203 80301 10140 20130 39648 40233 52021 75155 887// 91450 333 0/8// 32/// 58045 69967 88704;
0161763930999992012100818004+25733-100300FM-12+051599999V0200601N001010042019N0010001N1+01581+01281102251ADDAY121061AY221061GF108991081051004501999999MA1999999096401MD1710081+9999MW1041REMSYN072AAXX  08181 76393 31410 80601 10158 20128 39640 40225 57008 70422 885//;
0217763930999992012100821004+25733-100300FM-12+051599999V0200601N001010042019N0010001N1+01801+01451101961ADDAY121031AY221031GA1081+004201061GF108991081051004501999999IA1099MA1999999096151MD1710251+0121MW1041REMSYN106AAXX  08211 76393 31410 80601 10180 20145 39615 40196 57025 70422 885// 92050 333 0/8// 31/// 58012 88614;
0161763930999992012100900004+25733-100300FM-12+051599999V0200601N001010042019N0010001N1+01701+01441101861ADDAY121061AY221061GF108991081051004501999999MA1999999096071MD1710081+9999MW1041REMSYN072AAXX  09001 76393 31410 80601 10170 20144 39607 40186 57008 70422 885//;
0217763930999992012100903004+25733-100300FM-12+051599999V0201101N001010021019N0008001N1+01641+01481101951ADDAY121031AY221031GA1081+002101071GF108991081061001501999999IA1019MA1999999096171MD1210101-0041MW1041REMSYN106AAXX  09031 76393 31208 81101 10164 20148 39617 40195 52010 70422 886// 90250 333 0/8// 30/// 59004 88707;
0162763930999992012100906004+25733-100300FM-12+051599999V0200901N001019999999N0005001N1+01601+01471101861ADDAY121061AY221061GF108991999999001501999999MA1999999096091MD1710081+9999MW1041REMSYN073AAXX  09061 76393 31205 80901 10160 20147 39609 40186 57008 70422 86// 9;
0217763930999992012100909004+25733-100300FM-12+051599999V0201101N001010015019N0005001N1+01601+01471101711ADDAY121031AY221031GA1081+001501071GF108991081061001501999999IA1019MA1999999095941MD1710151-0241MW1041REMSYN106AAXX  09091 76393 31205 81101 10160 20147 39594 40171 57015 70422 886// 90850 333 0/8// 30/// 59024 88705;
0161763930999992012100912004+25733-100300FM-12+051599999V0209999C000010012019N0003001N1+01661+01531101701ADDAY121061AY221061GF108991081061001501999999MA1999999095921MD1710021+9999MW1051REMSYN072AAXX  09121 76393 31203 80000 10166 20153 39592 40170 57002 70522 886//;
0217763930999992012100915004+25733-100300FM-12+051599999V0200401N001010039019N0010001N1+01901+01591101791ADDAY121031AY221031GA1051+003901061GF105991051051004501001001IA1019MA1999999096011MD1210091-0471MW1041REMSYN106AAXX  09151 76393 31410 50401 10190 20159 39601 40179 52009 70422 85500 91450 333 0/700 30/// 59047 85613;
0161763930999992012100918004+25733-100300FM-12+051599999V0201101N001012200019N0006001N1+02301+01641101621ADDAY101061AY201061GF102991021001999999011001MA1999999095891MD1710121+9999MW1041REMSYN072AAXX  09181 76393 31906 21101 10230 20164 39589 40162 57012 70400 82010;
0199763930999992012100921004+25733-100300FM-12+051599999V0200601N001012200019N0008001N1+02741+01871101311ADDAY101031AY201031GA1001+999999999GF100991001001999999001001IA1019MA1999999095641MD1710251-0511MW1041REMSYN088AAXX  09211 76393 31908 00601 10274 20187 39564 40131 57025 70400 92050 333 30/// 59051;
0161763930999992012101000004+25733-100300FM-12+051599999V0201101N002012200019N0008001N1+02761+01931101201ADDAY141061AY201061GF101991011051012501001001MA1999999095591MD1710051+9999MW1051REMSYN072AAXX  10001 76393 31608 11102 10276 20193 39559 40120 57005 70540 81500;
0217763930999992012101003004+25733-100300FM-12+051599999V0200901N003012200019N0010001N1+02501+01891101291ADDAY101031AY201031GA1011+007501061GF101991011051008001001001IA1019MA1999999095711MD1210121-0461MW1041REMSYN106AAXX  10031 76393 31510 10903 10250 20189 39571 40129 52012 70400 81500 90245 333 0/500 30/// 59046 81625;
0161763930999992012101006004+25733-100300FM-12+051599999V0201101N003012200019N0010001N1+02341+02031101371ADDAY101061AY201061GF102991021051004501001001MA1999999095791MD1710081+9999MW1041REMSYN072AAXX  10061 76393 31410 21103 10234 20203 39579 40137 57008 70400 82500;
0199763930999992012101009004+25733-100300FM-12+051599999V0202501N001012200019N0010001N1+02121+01881101301ADDAY101031AY201031GA1001+999999999GF100991001001999999001001IA1019MA1999999095711MD1710081-0231MW1041REMSYN088AAXX  10091 76393 31910 02501 10212 20188 39571 40130 57008 70400 90850 333 30/// 59023;
0161763930999992012101012004+25733-100300FM-12+051599999V0202401N001010021019N0010001N1+02201+01971101421ADDAY141061AY221061GF108991081061002501999999MA1999999095791MD1210081+9999MW1051REMSYN072AAXX  10121 76393 31310 82401 10220 20197 39579 40142 52008 70542 886//;
0217763930999992012101015004+25733-100300FM-12+051599999V0201501N001010069019N0010001N1+02441+01891101591ADDAY141031AY221031GA1061+006901061GF106991061051008001001001IA1019MA1999999095941MD1210151-0071MW1051REMSYN106AAXX  10151 76393 31510 61501 10244 20189 39594 40159 52015 70542 86500 91450 333 0/700 30/// 59007 86623;
0161763930999992012101018004+25733-100300FM-12+051599999V0201301N001010075019N0008001N1+02801+02101101551ADDAY141061AY221061GF105991051051008001001001MA1999999095921MD1710021+9999MW1051REMSYN072AAXX  10181 76393 31508 51301 10280 20210 39592 40155 57002 70542 85500;
0217763930999992012101021004+25733-100300FM-12+051599999V0201301N001012200019N0030001N1+03161+02101101241ADDAY111031AY211031GA1031+013201061GF103991031051012501001001IA1019MA1999999095661MD1710261+0021MW1041REMSYN106AAXX  10211 76393 31630 31301 10316 20210 39566 40124 57026 70411 83500 92045 333 0/300 30/// 58002 83644;
0161763930999992012101100004+25733-100300FM-12+051599999V0201201N002012200019N0030001N1+03081+02011101131ADDAY101061AY201061GF102991021051012501001001MA1999999095611MD1710051+9999MW1041REMSYN072AAXX  11001 76393 31630 21202 10308 20201 39561 40113 57005 70400 82500;
0217763930999992012101103004+25733-100300FM-12+051599999V0201101N003012200019N0020001N1+02841+02021101311ADDAY101031AY201031GA1031+010201061GF103991031051012501001001IA1019MA1999999095801MD1210191+0091MW1041REMSYN106AAXX  11031 76393 31620 31103 10284 20202 39580 40131 52019 70400 83500 90250 333 0/300 30/// 58009 83634;
0161763930999992012101106004+25733-100300FM-12+051599999V0201201N004012200019N0010001N1+02521+02161101371ADDAY101061AY201061GF101991011051004501001001MA1999999095861MD1210061+9999MW1041REMSYN072AAXX  11061 76393 31410 11204 10252 20216 39586 40137 52006 70400 81500;
0217763930999992012101109004+25733-100300FM-12+051599999V0201101N002012200019N0010001N1+02321+02121101331ADDAY101031AY201031GA1031+002401061GF103991031051002501001001IA1019MA1999999095781MD1710081+0071MW1041REMSYN106AAXX  11091 76393 31310 31102 10232 20212 39578 40133 57008 70400 83500 90850 333 0/300 30/// 58007 83608;
0217763930999992012101115004+25733-100300FM-12+051599999V0201101N001010042019N0010001N1+02441+02101101661ADDAY121031AY221031GA1071+004201061GF107991071051004501999999IA1019MA1999999096031MD1210181+0091MW1041REMSYN106AAXX  11151 76393 31410 71101 10244 20210 39603 40166 52018 70422 875// 91450 333 0/3// 30/// 58009 87614;
0161763930999992012101118004+25733-100300FM-12+051599999V0201101N005010075019N0020001N1+02861+02071101631ADDAY141061AY221061GF105991051051008001001001MA1999999096011MD1710011+9999MW1051REMSYN072AAXX  11181 76393 31520 51105 10286 20207 39601 40163 57001 70542 85500;
0223763930999992012101121004+25733-100300FM-12+051599999V0201501N00301012001CN0040001N1+03181+01971101311ADDAY141031AY221031GA1021+014701081GF105991051041012501001001IA1019MA1999999095741MD1710271+0081MW1041REMSYN112AAXX  11211 76393 31640 51503 10318 20197 39574 40131 57027 70442 85400 92044 333 01300 30/// 58008 82849 83650;
0161763930999992012101200004+25733-100300FM-12+051599999V0201301N003012200019N0050001N1+03121+01821101201ADDAY101061AY201061GF102991021051017501001001MA1999999095681MD1710061+9999MW1041REMSYN072AAXX  12001 76393 31750 21303 10312 20182 39568 40120 57006 70400 82500;
0217763930999992012101203004+25733-100300FM-12+051599999V0201201N004012200019N0020001N1+02761+01991101411ADDAY101031AY201031GA1011+009601061GF101991011051008001001001IA1019MA1999999095901MD1210221+0101MW1041REMSYN106AAXX  12031 76393 31520 11204 10276 20199 39590 40141 52022 70400 81500 90250 333 0/300 30/// 58010 81632;
0161763930999992012101206004+25733-100300FM-12+051599999V0201101N006010042019N0010001N1+02421+02051101511ADDAY121061AY221061GF105991051051004501001001MA1999999095991MD1210091+9999MW1041REMSYN072AAXX  12061 76393 31410 51106 10242 20205 39599 40151 52009 70422 85500;
0217763930999992012101209004+25733-100300FM-12+051599999V0201101N002010027019N0010001N1+02321+02091101491ADDAY121031AY221031GA1061+002701071GF106991061061002501001001IA1019MA1999999095931MD1710061+0151MW1041REMSYN106AAXX  12091 76393 31310 61102 10232 20209 39593 40149 57006 70422 86600 90850 333 0/300 30/// 58015 86709;
0161763930999992012101212004+25733-100300FM-12+051599999V0201101N003010021019N0010001N1+02321+02121101611ADDAY141061AY221061GF108991081061002501999999MA1999999096001MD1210071+9999MW1051REMSYN072AAXX  12121 76393 31310 81103 10232 20212 39600 40161 52007 70542 886//;
0217763930999992012101215004+25733-100300FM-12+051599999V0201201N002010036019N0020001N1+02401+02121101791ADDAY121031AY221031GA1071+003601061GF107991071051004501001001IA1019MA1999999096151MD1210151+0121MW1041REMSYN106AAXX  12151 76393 31420 71202 10240 20212 39615 40179 52015 70422 87500 91450 333 0/300 30/// 58012 87612;
0161763930999992012101218004+25733-100300FM-12+051599999V0201201N006012200019N0030001N1+02941+02041101671ADDAY121061AY221061GF105991041041012501001011MA1999999096051MD1710101+9999MW1041REMSYN072AAXX  12181 76393 31630 51206 10294 20204 39605 40167 57010 70422 84401;
0189763930999992012101221004+25733-100300FM-12+051599999V0201201N004010147019N0050001N1+03201+01991101331ADDGA1071+014701061GF107991071051012501999999IA1019MA1999999095771MD1710281+0031REMSYN100AAXX  12211 76393 32650 71204 10320 20199 39577 40133 57028 875// 92045 333 0/3// 30/// 58003 87649;
0161763930999992012101300004+25733-100300FM-12+051599999V0201201N003010120019N0050001N1+03101+01971101261ADDAY121061AY221061GF107991071051012501999999MA1999999095741MD1710031+9999MW1041REMSYN072AAXX  13001 76393 31650 71203 10310 20197 39574 40126 57003 70422 875//;
0217763930999992012101303004+25733-100300FM-12+051599999V0201201N006010090019N0020001N1+02821+02091101391ADDAY121031AY221031GA1061+009001061GF106991061051008001001001IA1019MA1999999095881MD1210141-0021MW1041REMSYN106AAXX  13031 76393 31520 61206 10282 20209 39588 40139 52014 70422 86500 90248 333 0/300 30/// 59002 86630;
0161763930999992012101306004+25733-100300FM-12+051599999V0201101N003010042019N0010001N1+02541+02181101441ADDAY121061AY221061GF106991061051004501001001MA1999999095921MD1210041+9999MW1041REMSYN072AAXX  13061 76393 31410 61103 10254 20218 39592 40144 52004 70422 86500;
0217763930999992012101309004+25733-100300FM-12+051599999V0201301N001010027019N0010001N1+02401+02181101431ADDAY121031AY221031GA1061+002701071GF106991061061002501001001IA1019MA1999999095881MD1710041-0051MW1041REMSYN106AAXX  13091 76393 31310 61301 10240 20218 39588 40143 57004 70422 86600 90849 333 0/300 30/// 59005 86709;
0161763930999992012101312004+25733-100300FM-12+051599999V0201201N003010021019N0010001N1+02361+02131101471ADDAY121061AY221061GF108991081061002501999999MA1999999095881MD1410001+9999MW1051REMSYN072AAXX  13121 76393 31310 81203 10236 20213 39588 40147 54000 70522 886//;
0217763930999992012101315004+25733-100300FM-12+051599999V0201101N001010051019N0020001N1+02601+02181101541ADDAY121031AY221031GA1061+005101061GF106991061051004501001001IA1019MA1999999095931MD1210051-0221MW1041REMSYN106AAXX  13151 76393 31420 61101 10260 20218 39593 40154 52005 70422 86500 91450 333 0/700 30/// 59022 86617;
0161763930999992012101318004+25733-100300FM-12+051599999V0201101N001012200019N0010001N1+03001+02141101391ADDAY101061AY201061GF101991011051012501001001MA1999999095791MD1710141+9999MW1041REMSYN072AAXX  13181 76393 31610 11101 10300 20214 39579 40139 57014 70400 81500;
0217763930999992012101321004+25733-100300FM-12+051599999V0201201N003012200019N0030001N1+03421+02131101011ADDAY101031AY201031GA1011+015001081GF101991011011017501001001IA1019MA1999999095471MD1710321-0301MW1041REMSYN106AAXX  13211 76393 31730 11203 10342 20213 39547 40101 57032 70400 81100 92045 333 00500 30/// 59030 81850;
0161763930999992012101400004+25733-100300FM-12+051599999V0201201N003012200019N0050001N1+03241+02001100831ADDAY101061AY201061GF102991011011017501001011MA1999999095351MD1710121+9999MW1041REMSYN072AAXX  14001 76393 31750 21203 10324 20200 39535 40083 57012 70400 81101;
0217763930999992012101403004+25733-100300FM-12+051599999V0200901N001012200019N0020001N1+02961+02031100921ADDAY101031AY201031GA1011+011401061GF101991011051012501001001IA1019MA1999999095461MD1210111-0421MW1041REMSYN106AAXX  14031 76393 31620 10901 10296 20203 39546 40092 52011 70400 81500 90248 333 0/300 30/// 59042 81638;
0251763930999992012101406004+25733-100300FM-12+051599999V0201201N003012200019N0010001N1+02561+02111101111ADDAY101061AY201061GA1001+999999999GF100991001001999999001001GJ105529IA1019KA1240M+03501KA2240N+02301MA1999999095631MD1210171-0291MW1041REMSYN106AAXX  14061 76393 31910 01203 10256 20211 39563 40111 52017 70400 90550 333 10350 20230 30/// 55092 59029;
0217763930999992012101409004+25733-100300FM-12+051599999V0201101N002012200019N0010001N1+02421+02051101031ADDAY101031AY201031GA1021+004501061GF102991021051004501001001IA1019MA1999999095521MD1710111-0361MW1041REMSYN106AAXX  14091 76393 31410 21102 10242 20205 39552 40103 57011 70400 82500 90849 333 0/300 30/// 59036 82615;
0161763930999992012101412004+25733-100300FM-12+051599999V0201201N001010042019N0010001N1+02381+02071101161ADDAY121061AY221061GF107991071051004501001001MA1999999095601MD1210081+9999MW1041REMSYN072AAXX  14121 76393 31410 71201 10238 20207 39560 40116 52008 70422 87500;
0217763930999992012101415004+25733-100300FM-12+051599999V0209999C000010045019N0020001N1+02521+02161101401ADDAY121031AY221031GA1051+004501061GF105991051051004501001001IA1019MA1999999095801MD1210201-0131MW1041REMSYN106AAXX  14151 76393 31420 50000 10252 20216 39580 40140 52020 70422 85500 91450 333 0/300 30/// 59013 85615;
0161763930999992012101418004+25733-100300FM-12+051599999V0202701N001010075019N0020001N1+02741+02121101551ADDAY121061AY221061GF108991081051008001999999MA1999999095941MD1210141+9999MW1041REMSYN072AAXX  14181 76393 31520 82701 10274 20212 39594 40155 52014 70422 885//;
0218763930999992012101421004+25733-100300FM-12+051599999V0200201N001010120019N0030001N1+02861+01881101361ADDAY121031AY221031GA1061+012001061GF108991999051012501021999MA1999999095781MD1710161+0311MW1041REMSYN094AAXX  14211 76393 31630 80201 10286 20188 39578 40136 57016 70422 8852/ 92050 333 58031 86640;EQDQ01+000082SCOTLC
0336763930999992012101500004+25733-100300FM-12+051599999V0200301N001010063019N0030001N1+02581+02071101421ADDAA103000191AA224000191AY121061AY221061GA1081+006301061GF108991081051008001999999IA1019KA1120M+02981KA2180N+02301MA1999999095851MD1210071+0501MW1041REMSYN142AAXX  15001 76393 01530 80301 10258 20207 39585 40142 52007 69911 70422 885// 92350 333 0/3// 10298 20230 30/// 50421 58050 69917 70001 88621;EQDQ01  00002PRCP06Q02  00002PRCP06
0234763930999992012101503004+25733-100300FM-12+051599999V0202301N003010018019N0008001N1+02161+02021101601ADDAA103003091AY151031AY251031GA1081+001801071GF108991081061001501999999IA1099MA1999999096011MD1210161+0551MW1501REMSYN112AAXX  15031 76393 21208 82303 10216 20202 39601 40160 52016 75055 886// 90251 333 0/3// 31/// 58055 60037 88706;
0303763930999992012101506004+25733-100300FM-12+051599999V0202201N002010018019N0008001N1+02181+02041101611ADDAA103000491AA206003091AY151061AY251061GA1081+001801061GF108991081071001501999999GJ100129IA1099KA1240M+02981KA2240N+02141MA1999999096001MD1710011+0371MW1501REMSYN136AAXX  15061 76393 01208 82202 10218 20204 39600 40161 57001 60031 75055 887// 90550 333 0/3// 10298 20214 31/// 55002 58037 69947 88606;
0234763930999992012101509004+25733-100300FM-12+051599999V0202101N001010012019N0006001N1+02181+02091101531ADDAA103001091AY151031AY251031GA1081+001201061GF108991081071001501999999IA1099MA1999999095901MD1710101+0381MW1501REMSYN112AAXX  15091 76393 21206 82101 10218 20209 39590 40153 57010 75055 887// 90848 333 0/3// 31/// 58038 60017 88604;
0306763930999992012101512004+25733-100300FM-12+051599999V0201201N002010018019N0008001N1+02301+02161101541ADDAA103000191AA206001091AA324004291AY151061AY251061GA1081+001801071GF108991081071001501999999IA1019KA1240M+02981KA2120N+02141MA1999999095891MD1710011+0291MW1501REMSYN136AAXX  15121 76393 01208 81202 10230 20216 39589 40154 57001 60011 75055 887// 91150 333 0/3// 10298 20214 30208 58029 69917 70042 88706;
0234763930999992012101515004+25733-100300FM-12+051599999V0202201N001010015019N0008001N1+02281+02171101781ADDAA103002091AY151031AY251031GA1081+001501071GF108991081071001501999999IA1119MA1999999096111MD1210221+0311MW1531REMSYN112AAXX  15151 76393 21208 82201 10228 20217 39611 40178 52022 75355 887// 91450 333 0/3// 32/// 58031 60027 88705;
0161763930999992012101518004+25733-100300FM-12+051599999V0201101N001010075019N0020001N1+02781+02141101641ADDAY121061AY221061GF107991061051008001031001MA1999999096001MD1710111+9999MW1041REMSYN072AAXX  15181 76393 21520 71101 10278 20214 39600 40164 57011 70422 86530;
0217763930999992012101521004+25733-100300FM-12+051599999V0201101N00101036001CN0050001N1+02961+01441101301ADDAY121031AY221031GA1041+018001061GF107991041061017501031091IA1019MA1999999095721MD1710281-0061MW1041REMSYN106AAXX  15211 76393 31750 71101 10296 20144 39572 40130 57028 70422 84639 92050 333 0/355 30/// 59006 84656;
0347763930999992012101600004+25733-100300FM-12+051599999V0201201N001010120019N0030001N1+02741+01771101301ADDAA103999999AA206000091AA324007191AY121061AY221061GA1081+012001061GF108991081051012501999999IA1019KA1120M+03161KA2180N+02141MA1999999095741MD1210021-0111MW1041REMSYN142AAXX  16001 76393 01630 81201 10274 20177 39574 40130 52002 69901 70422 885// 92350 333 0/3// 10316 20214 30/// 50301 59011 69907 70071 88640;EQDQ01  00002PRCP06Q02  99992PRCP03
0217763930999992012101603004+25733-100300FM-12+051599999V0209999C000010075019N0020001N1+02461+01851101371ADDAY121031AY221031GA1061+007501061GF106991061051008001001001IA1019MA1999999095811MD1210071-0201MW1041REMSYN106AAXX  16031 76393 31520 60000 10246 20185 39581 40137 52007 70422 86500 90250 333 0/300 30/// 59020 86625;
0161763930999992012101606004+25733-100300FM-12+051599999V0201201N001010042019N0010001N1+02361+01891101271ADDAY121061AY221061GF105991051051004501001001MA1999999095721MD1710091+9999MW1041REMSYN072AAXX  16061 76393 31410 51201 10236 20189 39572 40127 57009 70422 85500;
0217763930999992012101609004+25733-100300FM-12+051599999V0200501N001012200019N0010001N1+02261+01721101171ADDAY101031AY201031GA1031+030001031GF103991031001999999031001IA1019MA1999999095591MD1710131+0071MW1041REMSYN106AAXX  16091 76393 31910 30501 10226 20172 39559 40117 57013 70400 83030 90850 333 0/050 30/// 58007 83360;
0161763930999992012101612004+25733-100300FM-12+051599999V0209999C000012200019N0010001N1+02161+01871101141ADDAY101061AY201061GF104991041051004501001001MA1999999095521MD1710071+9999MW1041REMSYN072AAXX  16121 76393 31410 40000 10216 20187 39552 40114 57007 70400 84500;
0217763930999992012101615004+25733-100300FM-12+051599999V0203001N001012200019N0020001N1+02301+01891101251ADDAY101031AY201031GA1021+036001031GF102991021001999999031001IA1019MA1999999095611MD1210091+0501MW1041REMSYN106AAXX  16151 76393 31920 23001 10230 20189 39561 40125 52009 70400 82030 91450 333 0/070 30/// 58050 82362;
0180763930999992012101618004+25733-100300FM-12+051599999V0200601N001012200019N0015001N1+02781+01791101061ADDAY101061AY201061GF101991001001999999001011MA1999999095451MD1710161+9999MW1041REMSYN072AAXX  16181 76393 31915 10601 10278 20179 39545 40106 57016 70400 81001;EQDQ01+000012SCOTLC
0217763930999992012101621004+25733-100300FM-12+051599999V0201101N001012200019N0020001N1+03101+01971100711ADDAY111031AY211031GA1011+013801061GF104991011051012501001061IA1019MA1999999095161MD1710291-0551MW1041REMSYN106AAXX  16211 76393 31620 41101 10310 20197 39516 40071 57029 70411 81506 92050 333 0/507 30/// 59055 81646;
0161763930999992012101700004+25733-100300FM-12+051599999V0201801N001010360019N0020001N1+02941+01941100591ADDAY141061AY221061GF108991011041012501021071MA1999999095081MD1710081+9999MW1051REMSYN072AAXX  17001 76393 31620 81801 10294 20194 39508 40059 57008 70542 81427;
0161763930999992012101706004+25733-100300FM-12+051599999V0201401N001010360019N0010001N1+02421+01801100651ADDAY121061AY221061GF105991021051008001031001MA1999999095151MD1710041+9999MW1041REMSYN072AAXX  17061 76393 31510 51401 10242 20180 39515 40065 57004 70422 82530;
0217763930999992012101709004+25733-100300FM-12+051599999V0200301N001010300019N0010001N1+02361+01891100631ADDAY121031AY221031GA1061+030001041GF106991061001999999021001IA1019MA1999999095101MD1710051-0491MW1041REMSYN106AAXX  17091 76393 31910 60301 10236 20189 39510 40063 57005 70422 86020 90850 333 0/070 30/// 59049 86460;
0161763930999992012101712004+25733-100300FM-12+051599999V0202601N001012200019N0010001N1+02481+01741100691ADDAY121061AY221061GF104991041051008001001001MA1999999095101MD1410001+9999MW1041REMSYN072AAXX  17121 76393 31510 42601 10248 20174 39510 40069 54000 70422 84500;
0223763930999992012101715004+25733-100300FM-12+051599999V0202101N00101036001CN0030001N1+02581+01821100841ADDAY121031AY221031GA1011+009301061GF108991011051008001071999IA1019MA1999999095261MD1210161-0351MW1041REMSYN112AAXX  17151 76393 31530 82101 10258 20182 39526 40084 52016 70422 8157/ 91449 333 0/77/ 30/// 59035 81631 87360;
0289763930999992012101718004+25733-100300FM-12+051599999V0201901N001010300019N0030001N1+02981+01961100781ADDAA103999929AA206000021AY151061AY251061GA1071+030001031GF107991071001999999071999IA1019KA1120M+03021KA2240N+02441MA1999999095221MD1710041-0241MW1501REMSYN130AAXX  17181 76393 01930 71901 10298 20196 39522 40078 57004 69901 75055 8707/ 91747 333 0/07/ 10302 20244 30/// 59024 69907 87360;
0223763930999992012101721004+25733-100300FM-12+051599999V0201301N00301036001CN0020001N1+03401+02071100451ADDAY141031AY221031GA1031+018001061GF108991031051017501011071IA1019MA1999999094961MD1710261-0191MW1051REMSYN112AAXX  17211 76393 31720 81303 10340 20207 39496 40045 57026 70542 83517 92045 333 0/777 30/// 59019 83656 83465;
0161763930999992012101800004+25733-100300FM-12+051599999V0201801N003010360019N0030001N1+03101+01831100401ADDAY121061AY221061GF106991011051017501011071MA1999999094941MD1710021+9999MW1041REMSYN072AAXX  18001 76393 31730 61803 10310 20183 39494 40040 57002 70422 81517;
0217763930999992012101803004+25733-100300FM-12+051599999V0202201N002012200019N0020001N1+02801+01941100561ADDAY101031AY201031GA1021+010501061GF102991021051012501001001IA1019MA1999999095111MD1210171-0081MW1041REMSYN106AAXX  18031 76393 31620 22202 10280 20194 39511 40056 52017 70400 82500 90250 333 0/300 30/// 59008 82635;
0251763930999992012101806004+25733-100300FM-12+051599999V0202501N001012200019N0020001N1+02601+01781100521ADDAY101061AY201061GA1001+999999999GF100991001001999999001001GJ102349IA1019KA1240M+03501KA2240N+02441MA1999999095071MD1710041-0081MW1041REMSYN106AAXX  18061 76393 31920 02501 10260 20178 39507 40052 57004 70400 90550 333 10350 20244 30/// 55039 59008;
0199763930999992012101809004+25733-100300FM-12+051599999V0202101N001012200019N0010001N1+02401+01681100621ADDAY101031AY201031GA1001+999999999GF100991001001999999001001IA1019MA1999999095121MD1210051+0021MW1041REMSYN088AAXX  18091 76393 31910 02101 10240 20168 39512 40062 52005 70400 90850 333 30/// 58002;
0254763930999992012101812004+25733-100300FM-12+051599999V0201801N001012200019N0010001N1+02461+01721100721ADDAA124000021AY141061AY241061GA1001+999999999GF100991001001999999001001IA1019KA1240M+03501KA2120N+02401MA1999999095191MD1210091+0091MW1051REMSYN106AAXX  18121 76393 31910 01801 10246 20172 39519 40072 52009 70544 91150 333 10350 20240 30236 58009 79999;
0217763930999992012101815004+25733-100300FM-12+051599999V0202001N001010150019N0020001N1+03041+01761100911ADDAY121031AY221031GA1051+015001061GF105991051051017501001001IA1019MA1999999095361MD1210171+0091MW1041REMSYN106AAXX  18151 76393 31720 52001 10304 20176 39536 40091 52017 70422 85500 91450 333 0/700 30/// 58009 85650;
0161763930999992012101818004+25733-100300FM-12+051599999V0203001N001012200019N0030001N1+03521+01621100861ADDAY111061AY211061GF103991021011022501031001MA1999999095291MD1710071+9999MW1041REMSYN072AAXX  18181 76393 31830 33001 10352 20162 39529 40086 57007 70411 82130;
0217763930999992012101821004+25733-100300FM-12+051599999V0203201N001012200019N0040001N1+03701+01561100521ADDAY111031AY211031GA1031+024001061GF103991031041022501001001IA1019MA1999999095081MD1710211+0121MW1041REMSYN106AAXX  18211 76393 31840 33201 10370 20156 39508 40052 57021 70411 83400 92050 333 0/300 30/// 58012 83658;
0161763930999992012101900004+25733-100300FM-12+051599999V0201201N002010150019N0040001N1+03321+01901100491ADDAY121061AY221061GF106991061051017501001001MA1999999095091MD1210011+9999MW1041REMSYN072AAXX  19001 76393 31740 61202 10332 20190 39509 40049 52001 70422 86500;
0217763930999992012101903004+25733-100300FM-12+051599999V0200201N001012200019N0020001N1+02801+01641100851ADDAY101031AY201031GA1031+014401061GF103991031051012501001001IA1019MA1999999095441MD1210351+0331MW1041REMSYN106AAXX  19031 76393 31620 30201 10280 20164 39544 40085 52035 70400 83500 90248 333 0/300 30/// 58033 83648;
0161763930999992012101906004+25733-100300FM-12+051599999V0203501N004010075019N0010001N1+02541+01781101021ADDAY121061AY221061GF106991061051008001001001MA1999999095571MD1210131+9999MW1041REMSYN072AAXX  19061 76393 31510 63504 10254 20178 39557 40102 52013 70422 86500;
0217763930999992012101909004+25733-100300FM-12+051599999V0203601N001012200019N0010001N1+02401+01841101071ADDAY101031AY201031GA1021+006901061GF103991021051008001031001IA1019MA1999999095561MD1710011+0461MW1041REMSYN106AAXX  19091 76393 31510 33601 10240 20184 39556 40107 57001 70400 82530 90849 333 0/350 30/// 58046 82623;
0161763930999992012101912004+25733-100300FM-12+051599999V0200401N001010075019N0010001N1+02361+01861101261ADDAY121061AY221061GF108991081051008001999999MA1999999095691MD1210131+9999MW1041REMSYN072AAXX  19121 76393 31510 80401 10236 20186 39569 40126 52013 70422 885//;
0217763930999992012101915004+25733-100300FM-12+051599999V0200401N001010069019N0020001N1+02341+01781101491ADDAY121031AY221031GA1081+006901061GF108991081051008001999999IA1019MA1999999095881MD1210191+0521MW1041REMSYN106AAXX  19151 76393 31520 80401 10234 20178 39588 40149 52019 70422 885// 91450 333 0/8// 30/// 58052 88623;
0161763930999992012101918004+25733-100300FM-12+051599999V0203601N001010075019N0010001N1+02361+01771101471ADDAY121061AY221061GF108991081051008001999999MA1999999095861MD1710021+9999MW1041REMSYN072AAXX  19181 76393 31510 83601 10236 20177 39586 40147 57002 70422 885//;
0234763930999992012101921004+25733-100300FM-12+051599999V0200901N001010060019N0006001N1+02531+02091101181ADDAA103000191AY121031AY221031GA1081+006001061GF108991081051004501999999IA1019MA1999999095611MD1710251+0531MW1041REMSYN112AAXX  19211 76393 21406 80901 10253 20209 39561 40118 57025 70422 885// 92050 333 0/8// 30/// 58053 69917 88620;
0161763930999992012102000004+25733-100300FM-12+051599999V0201201N001012200019N0006001N1+02501+02021101161ADDAY121061AY221061GF103991031051004501001001MA1999999095571MD1710041+9999MW1041REMSYN072AAXX  20001 76393 31406 31201 10250 20202 39557 40116 57004 70422 83500;
0147763930999992012102006004+25733-100300FM-12+051599999V0201801N001012200019N0010001N1+02261+01971101231ADDAY101061AY201061GF102991021051004501001001MA1999999095621MW1041REMSYN072AAXX  20061 76393 31410 21801 10226 20197 39562 40123 5//// 70400 82500;
0217763930999992012102009004+25733-100300FM-12+051599999V0202101N001012200019N0010001N1+02181+01981101091ADDAY101031AY201031GA1031+002401071GF103991031061002501001001IA1019MA1999999095481MD1710141-0091MW1041REMSYN106AAXX  20091 76393 31310 32101 10218 20198 39548 40109 57014 70400 83600 90850 333 0/300 30/// 59009 83708;
0161763930999992012102012004+25733-100300FM-12+051599999V0201101N001010042019N0010001N1+02261+01971101081ADDAY121061AY221061GF108991081051004501999999MA1999999095461MD1710021+9999MW1041REMSYN072AAXX  20121 76393 31410 81101 10226 20197 39546 40108 57002 70422 885//;
0217763930999992012102015004+25733-100300FM-12+051599999V0200601N001010033019N0010001N1+02261+02001101241ADDAY141031AY221031GA1081+003301061GF108991081051004501999999IA1019MA1999999095601MD1210141-0281MW1051REMSYN106AAXX  20151 76393 31410 80601 10226 20200 39560 40124 52014 70542 885// 91450 333 0/7// 30/// 59028 88611;
0161763930999992012102018004+25733-100300FM-12+051599999V0203501N001012200019N0010001N1+02781+02081101121ADDAY141061AY241061GF104991041051008001001001MA1999999095501MD1710101+9999MW1051REMSYN072AAXX  20181 76393 31510 43501 10278 20208 39550 40112 57010 70544 84500;
0251763930999992012102100004+25733-100300FM-12+051599999V0201901N002012200019N0040001N1+02901+02091100721ADDAA124000091GA1001+999999999GF100991001001999999001001IA1019KA1120M+03161KA2180N+02161MA1999999095191MD1999999-0381REMSYN106AAXX  21001 76393 32940 01902 10290 20209 39519 40072 5//// 92350 333 10316 20216 30/// 50381 59038 70000;EQDQ01  00002PRCP24
0171763930999992012102103004+25733-100300FM-12+051599999V0201801N001012200019N0020001N1+02701+01991100781ADDGA1001+999999999GF100991001001999999001001IA1019MA1999999095271MD1210081-0331REMSYN082AAXX  21031 76393 32920 01801 10270 20199 39527 40078 52008 90250 333 30/// 59033;
0251763930999992012102106004+25733-100300FM-12+051599999V0201101N004012200019N0010001N1+02441+01981100841ADDAY101061AY201061GA1001+999999999GF100991001001999999001001GJ103909IA1019KA1240M+03161KA2240N+02161MA1999999095331MD1210061-0291MW1041REMSYN106AAXX  21061 76393 31910 01104 10244 20198 39533 40084 52006 70400 90550 333 10316 20216 30/// 55065 59029;
0199763930999992012102109004+25733-100300FM-12+051599999V0200701N001012200019N0010001N1+02221+02021100861ADDAY101031AY201031GA1001+999999999GF100991001001999999001001IA1019MA1999999095311MD1710021-0171MW1041REMSYN088AAXX  21091 76393 31910 00701 10222 20202 39531 40086 57002 70400 90850 333 30/// 59017;
0161763930999992012102112004+25733-100300FM-12+051599999V0201101N001010021019N0010001N1+02241+02071100961ADDAY121061AY221061GF108991081061002501999999MA1999999095381MD1210071+9999MW1051REMSYN072AAXX  21121 76393 31310 81101 10224 20207 39538 40096 52007 70522 886//;
0217763930999992012102115004+25733-100300FM-12+051599999V0201401N001010042019N0010001N1+02401+02061101161ADDAY121031AY221031GA1081+004201061GF108991081051004501999999IA1019MA1999999095551MD1210171-0051MW1041REMSYN106AAXX  21151 76393 31410 81401 10240 20206 39555 40116 52017 70422 885// 91450 333 0/7// 30/// 59005 88614;
0161763930999992012102118004+25733-100300FM-12+051599999V0201101N001012200019N0010001N1+02821+02181101141ADDAY111061AY211061GF103991031051008001001001MA1999999095521MD1710031+9999MW1041REMSYN072AAXX  21181 76393 31510 31101 10282 20218 39552 40114 57003 70411 83500;
0217763930999992012102121004+25733-100300FM-12+051599999V0201201N001012200019N0010001N1+03081+02231100821ADDAY101031AY201031GA1011+010501081GF101991011011012501001001IA1019MA1999999095261MD1710261-0041MW1041REMSYN106AAXX  21211 76393 31610 11201 10308 20223 39526 40082 57026 70400 81100 92050 333 00500 30/// 59004 81835;
0251763930999992012102200004+25733-100300FM-12+051599999V0202301N001012200019N0030001N1+02901+02121100791ADDAA124000091GA1001+999999999GF100991001001999999001001IA1019KA1120M+03181KA2180N+02181MA1999999095271MD1210011+0081REMSYN106AAXX  22001 76393 32930 02301 10290 20212 39527 40079 52001 92350 333 10318 20218 30/// 50251 58008 70000;EQDQ01  00002PRCP24
0171763930999992012102203004+25733-100300FM-12+051599999V0202901N001012200019N0020001N1+02701+01961100841ADDGA1001+999999999GF100991001001999999001001IA1019MA1999999095341MD1210071+0071REMSYN082AAXX  22031 76393 32920 02901 10270 20196 39534 40084 52007 90249 333 30/// 58007;
0251763930999992012102206004+25733-100300FM-12+051599999V0201201N001012200019N0010001N1+02471+01901100961ADDAY141061AY221061GA1001+999999999GF100991001001999999001001GJ103969IA1019KA1240M+03181KA2240N+02181MA1999999095451MD1210111+0121MW1051REMSYN106AAXX  22061 76393 31910 01201 10247 20190 39545 40096 52011 70542 90845 333 10318 20218 30/// 55066 58012;
0217763930999992012102209004+25733-100300FM-12+051599999V0201001N003012200019N0010001N1+02261+02051100931ADDAY141031AY201031GA1021+002701061GF102991021051002501001001IA1019MA1999999095391MD1710061+0081MW1051REMSYN106AAXX  22091 76393 31310 21003 10226 20205 39539 40093 57006 70540 82500 90845 333 0/300 30/// 58008 82609;
0161763930999992012102212004+25733-100300FM-12+051599999V0201201N002010042019N0010001N1+02321+02031100981ADDAY121061AY221061GF108991081051004501999999MA1999999095401MD1210011+9999MW1041REMSYN072AAXX  22121 76393 31410 81202 10232 20203 39540 40098 52001 70422 885//;
0217763930999992012102215004+25733-100300FM-12+051599999V0201101N001010042019N0010001N1+02401+02061101201ADDAY121031AY221031GA1081+004201061GF108991081051004501999999IA1019MA1999999095591MD1210191+0041MW1041REMSYN106AAXX  22151 76393 31410 81101 10240 20206 39559 40120 52019 70422 885// 91450 333 0/3// 30/// 58004 88614;
0161763930999992012102218004+25733-100300FM-12+051599999V0200701N001010075019N0010001N1+02611+02031101191ADDAY121061AY221061GF107991071051008001999999MA1999999095591MD1410001+9999MW1041REMSYN072AAXX  22181 76393 31510 70701 10261 20203 39559 40119 54000 70422 875//;
0217763930999992012102221004+25733-100300FM-12+051599999V0201201N001012200019N0020001N1+02941+02041100911ADDAY101031AY201031GA1011+010201061GF101991011051012501001001IA1019MA1999999095351MD1710241+0091MW1041REMSYN106AAXX  22211 76393 31620 11201 10294 20204 39535 40091 57024 70400 81500 92050 333 0/500 30/// 58009 81634;
0251763930999992012102300004+25733-100300FM-12+051599999V0201301N001012200019N0040001N1+02901+02031100871ADDAA124000091GA1001+999999999GF100991001001999999001001IA1019KA1120M+03191KA2180N+02201MA1999999095341MD1710011+0071REMSYN106AAXX  23001 76393 32940 01301 10290 20203 39534 40087 57001 92349 333 10319 20220 30/// 50371 58007 70000;EQDQ01  00002PRCP24
0171763930999992012102303004+25733-100300FM-12+051599999V0201201N003012200019N0020001N1+02701+01831100971ADDGA1001+999999999GF100991001001999999001001IA1019MA1999999095451MD1210111+0111REMSYN082AAXX  23031 76393 32920 01203 10270 20183 39545 40097 52011 90249 333 30/// 58011;
0251763930999992012102306004+25733-100300FM-12+051599999V0201101N002012200019N0010001N1+02461+01881101001ADDAY101061AY201061GA1001+999999999GF100991001001999999001001GJ103669IA1019KA1240M+03191KA2240N+02201MA1999999095481MD1210031+0031MW1041REMSYN106AAXX  23061 76393 31910 01102 10246 20188 39548 40100 52003 70400 90550 333 10319 20220 30/// 55061 58003;
0199763930999992012102309004+25733-100300FM-12+051599999V0200601N002012200019N0010001N1+02161+01801100991ADDAY101031AY201031GA1001+999999999GF100991001001999999001001IA1019MA1999999095441MD1210041+0051MW1041REMSYN088AAXX  23091 76393 31910 00602 10216 20180 39544 40099 52004 70400 90850 333 30/// 58005;
0273763930999992012102312004+25733-100300FM-12+051599999V0209999C000012200019N0010001N1+02061+01851101111ADDAA124000091AY101061AY201061GA1001+999999999GF100991001001999999001001IA1019KA1240M+03191KA2120N+02001MA1999999095511MD1210071+0111MW1041REMSYN106AAXX  23121 76393 31910 00000 10206 20185 39551 40111 52007 70400 91155 333 10319 20200 30186 58011 70000;EQDQ01  00002PRCP24
0217763930999992012102315004+25733-100300FM-12+051599999V0200401N001010042019N0010001N1+02241+01891101291ADDAY121031AY221031GA1081+004201061GF108991081051004501999999IA1019MA1999999095661MD1210151+0071MW1051REMSYN106AAXX  23151 76393 31410 80401 10224 20189 39566 40129 52015 70522 885// 91450 333 0/7// 30/// 58007 88614;
0161763930999992012102318004+25733-100300FM-12+051599999V0201101N001012200019N0010001N1+02801+02041101231ADDAY101061AY201061GF101991011051008001001001MA1999999095601MD1710061+9999MW1041REMSYN072AAXX  23181 76393 31510 11101 10280 20204 39560 40123 57006 70400 81500;
0217763930999992012102321004+25733-100300FM-12+051599999V0201201N001012200019N0010001N1+03041+02061100951ADDAY101031AY201031GA1011+012001061GF101991011051012501001001IA1019MA1999999095371MD1710231+0021MW1041REMSYN106AAXX  23211 76393 31610 11201 10304 20206 39537 40095 57023 70400 81500 92050 333 0/400 30/// 58002 81640;
0161763930999992012102400004+25733-100300FM-12+051599999V0201801N003012200019N0050001N1+02881+01901100951ADDAY141061AY201061GF101991011051012501001001MA1999999095411MD1210041+9999MW1051REMSYN072AAXX  24001 76393 31650 11803 10288 20190 39541 40095 52004 70540 81500;
0217763930999992012102403004+25733-100300FM-12+051599999V0201201N003012200019N0020001N1+02661+02001101101ADDAY101031AY201031GA1011+008101061GF101991011051008001001001IA1019MA1999999095571MD1210161+0121MW1041REMSYN106AAXX  24031 76393 31520 11203 10266 20200 39557 40110 52016 70400 81500 90248 333 0/400 30/// 58012 81627;
0161763930999992012102406004+25733-100300FM-12+051599999V0201201N003012200019N0010001N1+02421+02051101111ADDAY141061AY201061GF103991031051004501001001MA1999999095581MD1210011+9999MW1051REMSYN072AAXX  24061 76393 31410 31203 10242 20205 39558 40111 52001 70540 83500;
0147763930999992012102412004+25733-100300FM-12+051599999V0201101N001010042019N0010001N1+02301+02011101101ADDAY121061AY221061GF108991081051004501999999MA1999999095511MW1041REMSYN072AAXX  24121 76393 31410 81101 10230 20201 39551 40110 5//// 70422 885//;
0217763930999992012102415004+25733-100300FM-12+051599999V0201101N002010057019N0020001N1+02441+01981101281ADDAY121031AY221031GA1071+005701061GF107991071051004501001001IA1019MA1999999095671MD1210161+0011MW1041REMSYN106AAXX  24151 76393 31420 71102 10244 20198 39567 40128 52016 70422 87500 91450 333 0/700 30/// 58001 87619;
0161763930999992012102418004+25733-100300FM-12+051599999V0201101N001010120019N0020001N1+02801+01941101221ADDAY121061AY221061GF105991051051012501001001MA1999999095621MD1710051+9999MW1041REMSYN072AAXX  24181 76393 31620 51101 10280 20194 39562 40122 57005 70422 85500;
0217763930999992012102421004+25733-100300FM-12+051599999V0201101N001012200019N0030001N1+03081+01911100931ADDAY111031AY211031GA1031+014401061GF103991031051012501001001IA1019MA1999999095361MD1710261-0011MW1041REMSYN106AAXX  24211 76393 31630 31101 10308 20191 39536 40093 57026 70411 83500 92050 333 0/700 30/// 59001 83648;
0161763930999992012102500004+25733-100300FM-12+051599999V0202001N002012200019N0030001N1+02781+02021100831ADDAY101061AY201061GF101991011051008001001001MA1999999095311MD1710051+9999MW1041REMSYN072AAXX  25001 76393 31530 12002 10278 20202 39531 40083 57005 70400 81500;
0216763930999992012102503004+25733-100300FM-12+051599999V0202301N001012200019N0020001N1+02601+01841100881ADDAA124634292AY101031AY201031GA1001+999999999GF100991001001999999001001IA1019MA1999999095371MD1210061-0201MW1041REMSYN094AAXX  25031 76393 31920 02301 10260 20184 39537 40088 52006 70400 90247 333 30/// 59020 76342;
0245763930999992012102512004+25733-100300FM-12+051599999V0200101N001012200019N0010001N1+02021+01811100891ADDAA124000091GA1001+999999999GF100991001001999999001001IA1019KA1240M+03161KA2120N+02001MA1999999095291MD1999999-0221REMSYN100AAXX  25121 76393 32910 00101 10202 20181 39529 40089 5//// 91150 333 10316 20200 30186 59022 70000;EQDQ01  00002PRCP24
0211763930999992012102515004+25733-100300FM-12+051599999V0203201N001012200019N0010001N1+02281+01871100981ADDAY101031AY201031GA1011+005101061GF101991011051004501001001IA1019MA1999999095361MD1210071+9999MW1041REMSYN100AAXX  25151 76393 31410 13201 10228 20187 39536 40098 52007 70400 81500 91450 333 0/100 30/// 81617;
0237763930999992012102518004+25733-100300FM-12+051599999V0201101N001012200019N0010001N1+02841+02021100911ADDAY101061AY201061GA1001+999999999GF100991001001999999001001IA1019KA1120M+02941KA2240N+02001MA1999999095301MD1710061-0321MW1041REMSYN100AAXX  25181 76393 31910 01101 10284 20202 39530 40091 57006 70400 91750 333 10294 20200 30/// 59032;
0189763930999992012102521004+25733-100300FM-12+051599999V0201101N001012200019N0010001N1+03281+01981100641ADDAY101031AY201031GF101991001001999999001011IA1019MA1999999095091MD1710211-0281MW1041REMSYN094AAXX  25211 76393 31910 11101 10328 20198 39509 40064 57021 70400 80001 92050 333 30/// 59028;
0161763930999992012102600004+25733-100300FM-12+051599999V0201201N002012200019N0020001N1+02961+02091100671ADDAY101061AY201061GF102991001001999999001011MA1999999095161MD1210071+9999MW1041REMSYN072AAXX  26001 76393 31920 21202 10296 20209 39516 40067 52007 70400 80001;
0199763930999992012102603004+25733-100300FM-12+051599999V0201501N001012200019N0010001N1+02761+01991100831ADDAY101031AY201031GA1001+999999999GF100991001001999999001001IA1019MA1999999095341MD1210181-0021MW1041REMSYN088AAXX  26031 76393 31910 01501 10276 20199 39534 40083 52018 70400 90250 333 30/// 59002;
0147763930999992012102612004+25733-100300FM-12+051599999V0200701N001010042019N0010001N1+02301+01921101171ADDAY121061AY221061GF108991081051004501999999MA1999999095591MW1051REMSYN072AAXX  26121 76393 31410 80701 10230 20192 39559 40117 5//// 70522 885//;
0161763930999992012102618004+25733-100300FM-12+051599999V0200601N001012200019N0010001N1+02861+01981101471ADDAY101061AY201061GF103991031041012501001001MA1999999095861MD1210011+9999MW1041REMSYN072AAXX  26181 76393 31610 30601 10286 20198 39586 40147 52001 70400 83400;
0217763930999992012102621004+25733-100300FM-12+051599999V0200201N002010111019N0010001N1+02401+01481101301ADDAY121031AY221031GA1051+011101061GF105991051051012501001001IA1019MA1999999095711MD1710151+0621MW1041REMSYN106AAXX  26211 76393 31610 50202 10240 20148 39571 40130 57015 70422 85500 92050 333 0/300 30/// 58062 85637;
0161763930999992012102700004+25733-100300FM-12+051599999V0200201N002010075019N0010001N1+01861+01171101621ADDAY121061AY221061GF107991071051008001001001MA1999999095991MD1210281+9999MW1041REMSYN072AAXX  27001 76393 31510 70202 10186 20117 39599 40162 52028 70422 87500;
0217763930999992012102703004+25733-100300FM-12+051599999V0200301N001010090019N0010001N1+01641+00911102031ADDAY121031AY221031GA1081+009001061GF108991081051008001999999IA1019MA1999999096351MD1210361+1011MW1041REMSYN106AAXX  27031 76393 31510 80301 10164 20091 39635 40203 52036 70422 885// 90250 333 0/3// 30/// 58101 88630;
0147763930999992012102712004+25733-100300FM-12+051599999V0203401N001010075019N0010001N1+01281+00761102271ADDAY121061AY221061GF108991081051008001999999MA1999999096441MW1051REMSYN072AAXX  27121 76393 31510 83401 10128 20076 39644 40227 5//// 70522 885//;
0217763930999992012102715004+25733-100300FM-12+051599999V0200501N001010087019N0020001N1+01361+00651102451ADDAY121031AY221031GA1081+008701061GF108991081051008001999999IA1019MA1999999096591MD1210151+0741MW1041REMSYN106AAXX  27151 76393 31520 80501 10136 20065 39659 40245 52015 70422 885// 91450 333 0/8// 30/// 58074 88629;
0161763930999992012102718004+25733-100300FM-12+051599999V0203101N001010075019N0020001N1+01581+00781102281ADDAY121061AY221061GF108991081051008001999999MA1999999096431MD1710161+9999MW1041REMSYN072AAXX  27181 76393 31520 83101 10158 20078 39643 40228 57016 70422 885//;
0161763930999992012102800004+25733-100300FM-12+051599999V0200901N001010075019N0010001N1+01521+00841101961ADDAY121061AY221061GF107991071051008001001001MA1999999096151MD1210011+9999MW1041REMSYN072AAXX  28001 76393 31510 70901 10152 20084 39615 40196 52001 70422 87500;
0217763930999992012102803004+25733-100300FM-12+051599999V0200201N001012200019N0010001N1+01461+00551102111ADDAY101031AY201031GA1031+011101061GF103991031051012501001001IA1019MA1999999096311MD1210161-0041MW1041REMSYN106AAXX  28031 76393 31610 30201 10146 20055 39631 40211 52016 70400 83500 90250 333 0/100 30/// 59004 83637;
0217763930999992012102815004+25733-100300FM-12+051599999V0200601N001010090019N0020001N1+01461+00731102381ADDAY121031AY221031GA1071+009001061GF107991071051008001001001IA1019MA1999999096521MD1210131-0071MW1041REMSYN106AAXX  28151 76393 31520 70601 10146 20073 39652 40238 52013 70422 87500 91450 333 0/800 30/// 59007 87630;
0161763930999992012102818004+25733-100300FM-12+051599999V0201201N002012200019N0020001N1+01941+01031102281ADDAY101061AY201061GF104991001001999999001041MA1999999096441MD1710081+9999MW1041REMSYN072AAXX  28181 76393 31920 41202 10194 20103 39644 40228 57008 70400 80004;
0223763930999992012102821004+25733-100300FM-12+051599999V0201101N00101090001CN0020001N1+02221+00981101971ADDAY121031AY221031GA1011+015001061GF107991011051017501001061IA1019MA1999999096191MD1710251+0051MW1041REMSYN112AAXX  28211 76393 31720 71101 10222 20098 39619 40197 57025 70422 81506 92050 333 0/507 30/// 58005 81650 86270;
0161763930999992012102900004+25733-100300FM-12+051599999V0201601N001010360019N0040001N1+01971+00951101971ADDAY121061AY221061GF107991011051012501011061MA1999999096221MD1210031+9999MW1041REMSYN072AAXX  29001 76393 31640 71601 10197 20095 39622 40197 52003 70422 81516;
0195763930999992012102903004+25733-100300FM-12+051599999V0201201N003012200019N0010001N1+01801+00581102071ADDAY141031AY211031GF104991001001999999001061IA1019MA1999999096341MD1210121+0971MW1051REMSYN100AAXX  29031 76393 31910 41203 10180 20058 39634 40207 52012 70541 80006 90245 333 0/007 30/// 58097;
0251763930999992012102906004+25733-100300FM-12+051599999V0203101N001012200019N0010001N1+01601+00861102081ADDAY141061AY241061GA1001+999999999GF100991001001999999001001GJ104029IA1019KA1240M+02281KA2240N+01241MA1999999096341MD1410001-0971MW1051REMSYN106AAXX  29061 76393 31910 03101 10160 20086 39634 40208 54000 70544 90545 333 10228 20124 30/// 55067 59097;
0199763930999992012102915004+25733-100300FM-12+051599999V0200701N001012200019N0020001N1+01641+00741102431ADDAY101031AY201031GA1001+999999999GF100991001001999999001001IA1019MA1999999096591MD1210201+0071MW1041REMSYN088AAXX  29151 76393 31920 00701 10164 20074 39659 40243 52020 70400 91450 333 30/// 58007;
0209763930999992012102918004+25733-100300FM-12+051599999V0200601N002012200019N0030001N1+02021+01091102281ADDGA1001+999999999GF100991001001999999001001IA1019KA1120M+02181KA2240N+01301MA1999999096461MD1710131+0021REMSYN094AAXX  29181 76393 32930 00602 10202 20109 39646 40228 57013 91750 333 10218 20130 30/// 58002;
0199763930999992012102921004+25733-100300FM-12+051599999V0201101N001012200019N0030001N1+02381+01111101961ADDAY101031AY201031GA1001+999999999GF100991001001999999001001IA1019MA1999999096181MD1710281-0011MW1041REMSYN088AAXX  29211 76393 31930 01101 10238 20111 39618 40196 57028 70400 92050 333 30/// 59001;
0279763930999992012103000004+25733-100300FM-12+051599999V0201201N002012200019N0030001N1+02211+01101101851ADDAA124000091AY101061AY201061GA1001+999999999GF100991001001999999001001IA1019KA1120M+02501KA2180N+01301MA1999999096141MD1710041-0081MW1041REMSYN112AAXX  30001 76393 31930 01202 10221 20110 39614 40185 57004 70400 92350 333 10250 20130 30/// 50461 59008 70000;EQDQ01  00002PRCP24
0199763930999992012103003004+25733-100300FM-12+051599999V0202601N001012200019N0020001N1+01981+01161101871ADDAY101031AY201031GA1001+999999999GF100991001001999999001001IA1019MA1999999096181MD1210041-0161MW1041REMSYN088AAXX  30031 76393 31920 02601 10198 20116 39618 40187 52004 70400 90246 333 30/// 59016;
0251763930999992012103006004+25733-100300FM-12+051599999V0203201N001012200019N0010001N1+01661+01121101851ADDAY101061AY201061GA1001+999999999GF100991001001999999001001GJ106249IA1019KA1240M+02501KA2240N+01301MA1999999096161MD1710021-0181MW1041REMSYN106AAXX  30061 76393 31910 03201 10166 20112 39616 40185 57002 70400 90548 333 10250 20130 30/// 55104 59018;
0199763930999992012103009004+25733-100300FM-12+051599999V0209999C000012200019N0010001N1+01501+00781101791ADDAY141031AY241031GA1001+999999999GF100991001001999999001001IA1019MA1999999096071MD1710091-0221MW1051REMSYN088AAXX  30091 76393 31910 00000 10150 20078 39607 40179 57009 70544 90245 333 30/// 59022;
0273763930999992012103012004+25733-100300FM-12+051599999V0209999C000012200019N0010001N1+01361+00901101781ADDAA124000091AY141061AY241061GA1001+999999999GF100991001001999999001001IA1019KA1240M+02501KA2120N+01301MA1999999096011MD1710061-0381MW1051REMSYN106AAXX  30121 76393 31910 00000 10136 20090 39601 40178 57006 70544 91150 333 10250 20130 30118 59038 70000;EQDQ01  00002PRCP24
0199763930999992012103015004+25733-100300FM-12+051599999V0202501N001012200019N0010001N1+01881+01111101851ADDAY141031AY241031GA1001+999999999GF100991001001999999001001IA1019MA1999999096051MD1210041-0541MW1051REMSYN088AAXX  30151 76393 31910 02501 10188 20111 39605 40185 52004 70544 91450 333 30/// 59054;
0237763930999992012103018004+25733-100300FM-12+051599999V0201401N001012200019N0010001N1+02441+01261101711ADDAY101061AY201061GA1001+999999999GF100991001001999999001001IA1019KA1120M+02591KA2240N+01301MA1999999095941MD1710111-0521MW1041REMSYN100AAXX  30181 76393 31910 01401 10244 20126 39594 40171 57011 70400 91750 333 10259 20130 30/// 59052;
0199763930999992012103021004+25733-100300FM-12+051599999V0201101N001012200019N0020001N1+02841+01361101361ADDAY101031AY201031GA1001+999999999GF100991001001999999001001IA1019MA1999999095651MD1710291-0531MW1041REMSYN088AAXX  30211 76393 31920 01101 10284 20136 39565 40136 57029 70400 92050 333 30/// 59053;
0279763930999992012103100004+25733-100300FM-12+051599999V0202101N001012200019N0030001N1+02661+01391101291ADDAA124000091AY101061AY201061GA1001+999999999GF100991001001999999001001IA1019KA1120M+02941KA2180N+01301MA1999999095661MD1210011-0481MW1041REMSYN112AAXX  31001 76393 31930 02101 10266 20139 39566 40129 52001 70400 92350 333 10294 20130 30/// 50351 59048 70000;EQDQ01  00002PRCP24
0199763930999992012103103004+25733-100300FM-12+051599999V0202201N001012200019N0020001N1+02241+01461101341ADDAY101031AY201031GA1001+999999999GF100991001001999999001001IA1019MA1999999095751MD1210091-0431MW1041REMSYN088AAXX  31031 76393 31920 02201 10224 20146 39575 40134 52009 70400 90250 333 30/// 59043;
0251763930999992012103106004+25733-100300FM-12+051599999V0201401N001012200019N0010001N1+01961+01421101331ADDAY101061AY201061GA1001+999999999GF100991001001999999001001GJ106129IA1019KA1240M+02941KA2240N+01301MA1999999095731MD1710021-0421MW1041REMSYN106AAXX  31061 76393 31910 01401 10196 20142 39573 40133 57002 70400 90550 333 10294 20130 30/// 55102 59042;
0199763930999992012103109004+25733-100300FM-12+051599999V0202901N001012200019N0010001N1+01841+01461101361ADDAY141031AY241031GA1001+999999999GF100991001001999999001001IA1019MA1999999095721MD1710011-0351MW1051REMSYN088AAXX  31091 76393 31910 02901 10184 20146 39572 40136 57001 70544 90845 333 30/// 59035;
0273763930999992012103112004+25733-100300FM-12+051599999V0202201N001012200019N0010001N1+01761+01121101361ADDAA124000091AY141061AY241061GA1001+999999999GF100991001001999999001001IA1019KA1240M+02941KA2120N+01701MA1999999095681MD1710041-0331MW1051REMSYN106AAXX  31121 76393 31910 02201 10176 20112 39568 40136 57004 70544 91148 333 10294 20170 30158 59033 70000;EQDQ01  00002PRCP24
0199763930999992012103115004+25733-100300FM-12+051599999V0202001N001012200019N0010001N1+02281+01251101571ADDAY101031AY201031GA1001+999999999GF100991001001999999001001IA1019MA1999999095861MD1210181-0191MW1041REMSYN088AAXX  31151 76393 31910 02001 10228 20125 39586 40157 52018 70400 91450 333 30/// 59019;
0237763930999992012103118004+25733-100300FM-12+051599999V0200601N002012200019N0020001N1+02941+01491101521ADDAY101061AY201061GA1001+999999999GF100991001001999999001001IA1019KA1120M+03061KA2240N+01701MA1999999095841MD1710021-0101MW1041REMSYN100AAXX  31181 76393 31920 00602 10294 20149 39584 40152 57002 70400 91750 333 10306 20170 30/// 59010;
0217763930999992012103121004+25733-100300FM-12+051599999V0201101N001012200019N0020001N1+03161+01311101211ADDAY101031AY201031GA1011+024001081GF101991011021999999001001IA1019MA1999999095591MD1710251-0061MW1041REMSYN106AAXX  31211 76393 31920 11101 10316 20131 39559 40121 57025 70400 81200 92050 333 01100 30/// 59006 81858;
0279763930999992012110100004+25733-100300FM-12+051599999V0201601N001012200019N0030001N1+02931+01041101151ADDAA124000091AY101061AY201061GA1001+999999999GF100991001001999999001001IA1019KA1120M+03301KA2180N+01701MA1999999095611MD1210021-0061MW1041REMSYN112AAXX  01001 76393 31930 01601 10293 20104 39561 40115 52002 70400 92350 333 10330 20170 30/// 50441 59006 70000;EQDQ01  00002PRCP24
0199763930999992012110103004+25733-100300FM-12+051599999V0201801N001012200019N0020001N1+02581+01171101331ADDAY101031AY201031GA1001+999999999GF100991001001999999001001IA1019MA1999999095811MD1210201+0061MW1041REMSYN088AAXX  01031 76393 31920 01801 10258 20117 39581 40133 52020 70400 90250 333 30/// 58006;
0251763930999992012110106004+25733-100300FM-12+051599999V0202201N001012200019N0020001N1+02261+01191101361ADDAY101061AY201061GA1001+999999999GF100991001001999999001001GJ106129IA1019KA1240M+03301KA2240N+01701MA1999999095811MD1410001+0081MW1041REMSYN106AAXX  01061 76393 31920 02201 10226 20119 39581 40136 54000 70400 90550 333 10330 20170 30/// 55102 58008;
0273763930999992012110112004+25733-100300FM-12+051599999V0201101N001012200019N0010001N1+01741+01421101491ADDAA124000091AY101061AY201061GA1001+999999999GF100991001001999999001001IA1019KA1240M+03301KA2120N+01701MA1999999095841MD1710031+0161MW1041REMSYN106AAXX  01121 76393 31910 01101 10174 20142 39584 40149 57003 70400 91150 333 10330 20170 30160 58016 70000;EQDQ01  00002PRCP24
0195763930999992012110115004+25733-100300FM-12+051599999V0202401N001012200019N0010001N1+02261+01211101161ADDAY101031AY201031GF103991001001999999001011IA1019MA1999999096001MD1210161+0141MW1041REMSYN100AAXX  01151 76393 31910 32401 10226 20121 39600 40116 52016 70400 80001 91450 333 0/001 30/// 58014;
0161763930999992012110118004+25733-100300FM-12+051599999V0200701N001010360019N0030001N1+02841+01761101541ADDAY121061AY221061GF107991011011012501031041MA1999999095881MD1710121+9999MW1041REMSYN072AAXX  01181 76393 31630 70701 10284 20176 39588 40154 57012 70422 81134;
0217763930999992012110121004+25733-100300FM-12+051599999V0201301N004010900019N0040001N1+02961+01551101271ADDAY141031AY221031GA1031+018001061GF106991031041017501001081IA1019MA1999999095661MD1710221+0071MW1051REMSYN106AAXX  01211 76393 31740 61304 10296 20155 39566 40127 57022 70542 83408 92045 333 0/305 30/// 58007 83656;
0161763930999992012110200004+25733-100300FM-12+051599999V0201201N003012200019N0040001N1+02861+01421101181ADDAY141061AY211061GF103991021051017501011001MA1999999095621MD1710041+9999MW1041REMSYN072AAXX  02001 76393 31740 31203 10286 20142 39562 40118 57004 70441 82510;
0217763930999992012110203004+25733-100300FM-12+051599999V0201101N003012200019N0020001N1+02581+01481101301ADDAY101031AY201031GA1021+013501061GF102991021051012501001001IA1019MA1999999095761MD1210141-0051MW1041REMSYN106AAXX  02031 76393 31620 21103 10258 20148 39576 40130 52014 70400 82500 90250 333 0/300 30/// 59005 82645;
0251763930999992012110206004+25733-100300FM-12+051599999V0200701N001012200019N0020001N1+02201+01661101351ADDAY101061AY201061GA1001+999999999GF100991001001999999001001GJ105889IA1019KA1240M+03101KA2240N+01701MA1999999095791MD1210031-0021MW1041REMSYN106AAXX  02061 76393 31920 00701 10220 20166 39579 40135 52003 70400 90550 333 10310 20170 30/// 55098 59002;
0199763930999992012110209004+25733-100300FM-12+051599999V0200301N001012200019N0010001N1+01941+01761101331ADDAY101031AY201031GA1001+999999999GF100991001001999999001001IA1019MA1999999095731MD1710061-0081MW1041REMSYN088AAXX  02091 76393 31910 00301 10194 20176 39573 40133 57006 70400 90850 333 30/// 59008;
0161763930999992012110212004+25733-100300FM-12+051599999V0201001N001010021019N0010001N1+01941+01761101411ADDAY121061AY221061GF107991071061002501001001MA1999999095761MD1210031+9999MW1041REMSYN072AAXX  02121 76393 31310 71001 10194 20176 39576 40141 52003 70422 87600;
0161763930999992012110218004+25733-100300FM-12+051599999V0200601N001012200019N0010001N1+02601+01681101471ADDAY141061AY201061GF101991011041012501001001MA1999999095801MD1210041+9999MW1051REMSYN072AAXX  02181 76393 31610 10601 10260 20168 39580 40147 52004 70540 81400;
0217763930999992012110221004+25733-100300FM-12+051599999V0201101N006012200019N0030001N1+02961+01661101121ADDAY141031AY201031GA1011+018001061GF102991011041017501011001IA1019MA1999999095511MD1710291-0151MW1051REMSYN106AAXX  02211 76393 31730 21106 10296 20166 39551 40112 57029 70540 81410 92045 333 0/550 30/// 59015 81656;
0279763930999992012110300004+25733-100300FM-12+051599999V0201901N003012200019N0040001N1+02801+01491101071ADDAA124000091AY141061AY241061GA1001+999999999GF100991001001999999001001IA1019KA1120M+03061KA2180N+01801MA1999999095501MD1710011-0121MW1041REMSYN112AAXX  03001 76393 31940 01903 10280 20149 39550 40107 57001 70444 92345 333 10306 20180 30/// 50531 59012 70000;EQDQ01  00002PRCP24
0199763930999992012110303004+25733-100300FM-12+051599999V0202001N002012200019N0020001N1+02501+01451101161ADDAY101031AY201031GA1001+999999999GF100991001001999999001001IA1019MA1999999095611MD1210111-0151MW1041REMSYN088AAXX  03031 76393 31920 02002 10250 20145 39561 40116 52011 70400 90250 333 30/// 59015;
0251763930999992012110306004+25733-100300FM-12+051599999V0201101N003012200019N0020001N1+02201+01561101231ADDAY101061AY201061GA1001+999999999GF100991001001999999001001GJ105889IA1019KA1240M+03061KA2240N+01801MA1999999095671MD1210061-0121MW1041REMSYN106AAXX  03061 76393 31920 01103 10220 20156 39567 40123 52006 70400 90550 333 10306 20180 30/// 55098 59012;
0199763930999992012110309004+25733-100300FM-12+051599999V0203201N001012200019N0010001N1+01881+01571101251ADDAY101031AY201031GA1001+999999999GF100991001001999999001001IA1019MA1999999095651MD1710021-0081MW1041REMSYN088AAXX  03091 76393 31910 03201 10188 20157 39565 40125 57002 70400 90850 333 30/// 59008;
0273763930999992012110312004+25733-100300FM-12+051599999V0203201N001012200019N0010001N1+01821+01571101391ADDAA124000091AY101061AY201061GA1001+999999999GF100991001001999999001001IA1019KA1240M+03061KA2120N+01701MA1999999095731MD1210081-0031MW1041REMSYN106AAXX  03121 76393 31910 03201 10182 20157 39573 40139 52008 70400 91150 333 10306 20170 30164 59003 70000;EQDQ01  00002PRCP24
0199763930999992012110315004+25733-100300FM-12+051599999V0209999C000012200019N0010001N1+02121+01701101571ADDAY141031AY241031GA1001+999999999GF100991001001999999001001IA1019MA1999999095871MD1210151+0111MW1051REMSYN088AAXX  03151 76393 31910 00000 10212 20170 39587 40157 52015 70544 91445 333 30/// 58011;
0161763930999992012110318004+25733-100300FM-12+051599999V0200701N003010360019N0020001N1+02701+01731101511ADDAY141061AY221061GF107991011041012501031041MA1999999095831MD1710041+9999MW1051REMSYN072AAXX  03181 76393 31620 70703 10270 20173 39583 40151 57004 70542 81434;
0217763930999992012110321004+25733-100300FM-12+051599999V0201101N001010900019N0020001N1+02901+01731101251ADDAY121031AY221031GA1021+014401061GF106991021051012501031061IA1019MA1999999095601MD1710231+0091MW1041REMSYN106AAXX  03211 76393 31620 61101 10290 20173 39560 40125 57023 70422 82536 92050 333 0/577 30/// 58009 82648;
0161763930999992012110400004+25733-100300FM-12+051599999V0202101N001010360019N0030001N1+02691+01591101221ADDAY121061AY221061GF107991041051012501011061MA1999999095641MD1210041+9999MW1041REMSYN072AAXX  04001 76393 31630 72101 10269 20159 39564 40122 52004 70422 84516;
0217763930999992012110403004+25733-100300FM-12+051599999V0201801N001012200019N0020001N1+02421+01641101331ADDAY101031AY201031GA1011+009601061GF101991011051008001001001IA1019MA1999999095761MD1210121+0151MW1041REMSYN106AAXX  04031 76393 31520 11801 10242 20164 39576 40133 52012 70400 81500 90250 333 0/300 30/// 58015 81632;
0161763930999992012110406004+25733-100300FM-12+051599999V0209999C000012200019N0010001N1+02161+01711101341ADDAY101061AY201061GF103991011051004501011001MA1999999095771MD1210011+9999MW1041REMSYN072AAXX  04061 76393 31410 30000 10216 20171 39577 40134 52001 70400 81510;
0195763930999992012110409004+25733-100300FM-12+051599999V0200801N001012200019N0010001N1+02021+01561101411ADDAY101031AY201031GF102991021001999999011001IA1019MA1999999095791MD1210021+0141MW1041REMSYN100AAXX  04091 76393 31910 20801 10202 20156 39579 40141 52002 70400 82010 90850 333 0/050 30/// 58014;
0161763930999992012110412004+25733-100300FM-12+051599999V0203401N001019999999N0010001N1+02001+01541101631ADDAY121061AY221061GF105991051001999999011001MA1999999095971MD1210181+9999MW1041REMSYN072AAXX  04121 76393 31910 53401 10200 20154 39597 40163 52018 70422 85010;
0147763930999992012110418004+25733-100300FM-12+051599999V0203301N001010120019N0010001N1+02601+01761101721ADDAY141061AY221061GF107991051051012501031999MA1999999096041MW1041REMSYN072AAXX  04181 76393 31610 73301 10260 20176 39604 40172 5//// 70442 8553/;
0217763930999992012110421004+25733-100300FM-12+051599999V0201101N001010360019N0010001N1+02741+01741101491ADDAY141031AY221031GA1031+012301081GF106991031011012501031021IA1019MA1999999095851MD1710191+0251MW1041REMSYN106AAXX  04211 76393 31610 61101 10274 20174 39585 40149 57019 70442 83132 92050 333 00355 30/// 58025 83841;
0161763930999992012110500004+25733-100300FM-12+051599999V0201201N001010120019N0010001N1+02601+01781101531ADDAY121061AY221061GF107991051051012501011999MA1999999095921MD1210071+9999MW1041REMSYN072AAXX  05001 76393 31610 71201 10260 20178 39592 40153 52007 70422 8551/;
0217763930999992012110503004+25733-100300FM-12+051599999V0201101N001010090019N0010001N1+02501+01761101671ADDAY121031AY221031GA1061+009001061GF106991061051008001001001IA1019MA1999999096071MD1210151+0311MW1041REMSYN106AAXX  05031 76393 31510 61101 10250 20176 39607 40167 52015 70422 86500 90250 333 0/300 30/// 58031 86630;
0161763930999992012110506004+25733-100300FM-12+051599999V0200601N001012200019N0010001N1+02101+01801101711ADDAY101061AY201061GF103991031051004501001001MA1999999096101MD1210031+9999MW1041REMSYN072AAXX  05061 76393 31410 30601 10210 20180 39610 40171 52003 70400 83500;
0245763930999992012110512004+25733-100300FM-12+051599999V0202701N001012200019N0010001N1+02001+01761101861ADDAA124000091GA1001+999999999GF100991001001999999001001IA1019KA1240M+02841KA2120N+01961MA1999999096021MD1999999+0061REMSYN100AAXX  05121 76393 32910 02701 10200 20176 39602 40186 5//// 91150 333 10284 20196 30186 58006 70000;EQDQ01  00002PRCP24
0171763930999992012110515004+25733-100300FM-12+051599999V0202101N001012200019N0010001N1+02401+01711101841ADDGA1001+999999999GF100991001001999999001001IA1019MA1999999096111MD1210091+0091REMSYN082AAXX  05151 76393 32910 02101 10240 20171 39611 40184 52009 91450 333 30/// 58009;
0205763930999992012110518004+25733-100300FM-12+051599999V0200601N001012200019N0010001N1+02801+01671101691ADDGF101991001001999999001011IA1019KA1120M+02941KA2240N+01961MA1999999096041MD1710071+0001REMSYN106AAXX  05181 76393 32910 10601 10280 20167 39604 40169 57007 80001 91750 333 0/007 10294 20196 30/// 58000;
0217763930999992012110521004+25733-100300FM-12+051599999V0200701N002012200019N0020001N1+03121+01681101301ADDAY141031AY201031GA1011+018001081GF102991011041017501001011IA1019MA1999999095711MD1710331-0141MW1041REMSYN106AAXX  05211 76393 31720 20702 10312 20168 39571 40130 57033 70440 81401 92045 333 05705 30/// 59014 81856;
0161763930999992012110600004+25733-100300FM-12+051599999V0201201N001012200019N0020001N1+02921+01681101281ADDAY141061AY211061GF104991011051017501001011MA1999999095731MD1710021+9999MW1041REMSYN072AAXX  06001 76393 31720 41201 10292 20168 39573 40128 57002 70441 81501;
0217763930999992012110603004+25733-100300FM-12+051599999V0200601N001012200019N0020001N1+02501+01591101521ADDAY101031AY201031GA1011+011101061GF101991011051012501001001IA1019MA1999999095981MD1210251-0091MW1041REMSYN106AAXX  06031 76393 31620 10601 10250 20159 39598 40152 52025 70400 81500 90250 333 0/300 30/// 59009 81637;
0223763930999992012110606004+25733-100300FM-12+051599999V0209999C000012200019N0020001N1+02281+01711101531ADDGA1001+999999999GF100991001001999999001001GJ105649IA1019KA1240M+03241KA2240N+01961MA1999999095971MD1710011-0131REMSYN100AAXX  06061 76393 32920 00000 10228 20171 39597 40153 57001 90550 333 10324 20196 30/// 55094 59013;
0199763930999992012110609004+25733-100300FM-12+051599999V0202301N001012200019N0010001N1+02161+01611101511ADDAY101031AY201031GA1001+999999999GF100991001001999999001001IA1019MA1999999095921MD1710051-0111MW1041REMSYN088AAXX  06091 76393 31910 02301 10216 20161 39592 40151 57005 70400 90850 333 30/// 59011;
0273763930999992012110612004+25733-100300FM-12+051599999V0202401N001012200019N0010001N1+02021+01451101641ADDAA124000091AY101061AY201061GA1001+999999999GF100991001001999999001001IA1019KA1240M+03241KA2120N+01901MA1999999095991MD1210071-0031MW1041REMSYN106AAXX  06121 76393 31910 02401 10202 20145 39599 40164 52007 70400 91150 333 10324 20190 30180 59003 70000;EQDQ01  00002PRCP24
0171763930999992012110615004+25733-100300FM-12+051599999V0200601N001012200019N0020001N1+02481+01391101931ADDGA1001+999999999GF100991001001999999001001IA1019MA1999999096261MD1210251+0151REMSYN082AAXX  06151 76393 32920 00601 10248 20139 39626 40193 52025 91452 333 30/// 58015;
0209763930999992012110618004+25733-100300FM-12+051599999V0200601N001012200019N0030001N1+02881+01411101891ADDGA1001+999999999GF100991001001999999001001IA1019KA1120M+02981KA2240N+01901MA1999999096221MD1710041+0181REMSYN094AAXX  06181 76393 32930 00601 10288 20141 39622 40189 57004 91750 333 10298 20190 30/// 58018;
0217763930999992012110621004+25733-100300FM-12+051599999V0200601N001012200019N0030001N1+03181+01171101581ADDAY101031AY201031GA1011+024001081GF101991011011999999001001IA1019MA1999999095961MD1710261+0251MW1041REMSYN106AAXX  06211 76393 31930 10601 10318 20117 39596 40158 57026 70400 81100 92050 333 00300 30/// 58025 81858;
0161763930999992012110700004+25733-100300FM-12+051599999V0201101N001012200019N0030001N1+02801+01421101611ADDAY101061AY201061GF101991011011017501001001MA1999999096041MD1210081+9999MW1041REMSYN072AAXX  07001 76393 31730 11101 10280 20142 39604 40161 52008 70400 81100;
0217763930999992012110709004+25733-100300FM-12+051599999V0200901N001012200019N0010001N1+02061+01881101821ADDAY101031AY201031GA1021+002101071GF102991021061002501001001IA1019MA1999999096191MD1710031+0181MW1041REMSYN106AAXX  07091 76393 31310 20901 10206 20188 39619 40182 57003 70400 82600 90850 333 0/500 30/// 58018 82707;
0161763930999992012110712004+25733-100300FM-12+051599999V0201801N001010021019N0010001N1+02001+01791101921ADDAY121061AY221061GF105991051061002501001001MA1999999096241MD1210051+9999MW1041REMSYN072AAXX  07121 76393 31310 51801 10200 20179 39624 40192 52005 70422 85600;
0217763930999992012110715004+25733-100300FM-12+051599999V0201601N001010057019N0010001N1+02211+01751102061ADDAY141031AY221031GA1071+005701061GF107991071051004501999999IA1019MA1999999096351MD1210111+0101MW1051REMSYN106AAXX  07151 76393 31410 71601 10221 20175 39635 40206 52011 70542 875// 91450 333 0/3// 30/// 58010 87619;
0249763930999992012110718004+25733-100300FM-12+051599999V0200601N001012200019N0030001N1+02641+01861101921ADDAY111061AY211061GA1031+009601061GF103991031051012501001001IA1019KA1120M+02701KA2240N+01901MA1999999096231MD1710121+0001MW1041REMSYN112AAXX  07181 76393 31630 30601 10264 20186 39623 40192 57012 70411 83500 91748 333 10270 20190 30/// 58000 83632;
0189763930999992012110721004+25733-100300FM-12+051599999V0201201N003010180019N0050001N1+02961+01611101571ADDGA1051+018001061GF105991051041017501001001IA1019MA1999999095941MD1710291-0031REMSYN100AAXX  07211 76393 32750 51203 10296 20161 39594 40157 57029 85400 92045 333 0/300 30/// 59003 85656;
0247763930999992012110800004+25733-100300FM-12+051599999V0201301N003012200019N0030001N1+02761+01521101511ADDAA124000091GF101991001001999999001011IA1019KA1120M+03041KA2180N+01901MA1999999095921MD1710021-0131REMSYN118AAXX  08001 76393 32930 11303 10276 20152 39592 40151 57002 80001 92348 333 0/007 10304 20190 30/// 50651 59013 70000;EQDQ01  00002PRCP24
0217763930999992012110803004+25733-100300FM-12+051599999V0201201N003012200019N0020001N1+02501+01561101631ADDAY101031AY201031GA1011+011701061GF101991011051012501001001IA1019MA1999999096051MD1210131-0111MW1041REMSYN106AAXX  08031 76393 31620 11203 10250 20156 39605 40163 52013 70400 81500 90250 333 0/700 30/// 59011 81639;
0223763930999992012110806004+25733-100300FM-12+051599999V0200701N002012200019N0020001N1+02161+01681101671ADDGA1001+999999999GF100991001001999999001001GJ104329IA1019KA1240M+03041KA2240N+01901MA1999999096081MD1210031-0141REMSYN100AAXX  08061 76393 32920 00702 10216 20168 39608 40167 52003 90550 333 10304 20190 30/// 55072 59014;
0199763930999992012110809004+25733-100300FM-12+051599999V0200501N001012200019N0010001N1+01861+01651101621ADDAY101031AY201031GA1001+999999999GF100991001001999999001001IA1019MA1999999096001MD1710081-0191MW1041REMSYN088AAXX  08091 76393 31910 00501 10186 20165 39600 40162 57008 70400 90850 333 30/// 59019;
0161763930999992012110812004+25733-100300FM-12+051599999V0201001N001010021019N0010001N1+01941+01701101671ADDAY121061AY221061GF108991081061002501999999MA1999999095991MD1710011+9999MW1041REMSYN072AAXX  08121 76393 31310 81001 10194 20170 39599 40167 57001 70422 886//;
0217763930999992012110815004+25733-100300FM-12+051599999V0203401N001010048019N0010001N1+02121+01731101841ADDAY121031AY221031GA1071+004801061GF107991071051004501999999IA1019MA1999999096131MD1210141-0221MW1041REMSYN106AAXX  08151 76393 31410 73401 10212 20173 39613 40184 52014 70422 875// 91451 333 0/3// 30/// 59022 87616;
0161763930999992012110818004+25733-100300FM-12+051599999V0201101N001012200019N0010001N1+02581+01791101711ADDAY101061AY201061GF102991001001999999001041MA1999999096011MD1710121+9999MW1041REMSYN072AAXX  08181 76393 31910 21101 10258 20179 39601 40171 57012 70400 80004;
0195763930999992012110821004+25733-100300FM-12+051599999V0202501N001019999999N0020001N1+02801+01711101371ADDAY141031AY221031GF106991021001999999011011IA1019MA1999999095741MD1710271-0201MW1051REMSYN100AAXX  08211 76393 31920 62501 10280 20171 39574 40137 57027 70542 82011 92045 333 0/057 30/// 59020;
0161763930999992012110900004+25733-100300FM-12+051599999V0201201N003012200019N0040001N1+02771+01491101261ADDAY101061AY201061GF101991001001999999001011MA1999999095671MD1710071+9999MW1041REMSYN072AAXX  09001 76393 31940 11203 10277 20149 39567 40126 57007 70400 80001;
0171763930999992012110903004+25733-100300FM-12+051599999V0202601N001012200019N0020001N1+02441+01381101321ADDGA1001+999999999GF100991001001999999001001IA1019MA1999999095761MD1210091-0291REMSYN082AAXX  09031 76393 32920 02601 10244 20138 39576 40132 52009 90250 333 30/// 59029;
0223763930999992012110906004+25733-100300FM-12+051599999V0201001N002012200019N0020001N1+02141+01311101421ADDGA1001+999999999GF100991001001999999001001GJ104869IA1019KA1240M+03001KA2240N+01841MA1999999095841MD1210081-0241REMSYN100AAXX  09061 76393 32920 01002 10214 20131 39584 40142 52008 90549 333 10300 20184 30/// 55081 59024;
0199763930999992012110909004+25733-100300FM-12+051599999V0200701N001012200019N0010001N1+01861+01551101381ADDAY101031AY201031GA1001+999999999GF100991001001999999001001IA1019MA1999999095771MD1710071-0231MW1041REMSYN088AAXX  09091 76393 31910 00701 10186 20155 39577 40138 57007 70400 90850 333 30/// 59023;
0273763930999992012110912004+25733-100300FM-12+051599999V0200401N001012200019N0010001N1+01721+01561101431ADDAA124000091AY101061AY201061GA1001+999999999GF100991001001999999001001IA1019KA1240M+03001KA2120N+01681MA1999999095771MD1410001-0221MW1041REMSYN106AAXX  09121 76393 31910 00401 10172 20156 39577 40143 54000 70400 91150 333 10300 20168 30160 59022 70000;EQDQ01  00002PRCP24
0217763930999992012110915004+25733-100300FM-12+051599999V0203401N001010036019N0010001N1+01901+01621101581ADDAY121031AY221031GA1071+003601061GF107991071051004501001001IA1019MA1999999095871MD1210101-0261MW1051REMSYN106AAXX  09151 76393 31410 73401 10190 20162 39587 40158 52010 70522 87500 91450 333 0/800 30/// 59026 87612;
0237763930999992012110918004+25733-100300FM-12+051599999V0200401N002012200019N0010001N1+02321+01621101551ADDAY141061AY241061GA1001+999999999GF100991001001999999001001IA1019KA1120M+02481KA2240N+01681MA1999999095841MD1710031-0171MW1051REMSYN100AAXX  09181 76393 31910 00402 10232 20162 39584 40155 57003 70544 91750 333 10248 20168 30/// 59017;
0199763930999992012110921004+25733-100300FM-12+051599999V0201201N004012200019N0020001N1+02821+01661101201ADDAY141031AY241031GA1001+999999999GF100991001001999999001001IA1019MA1999999095551MD1710291-0191MW1051REMSYN088AAXX  09211 76393 31920 01204 10282 20166 39555 40120 57029 70544 92045 333 30/// 59019;
0251763930999992012111000004+25733-100300FM-12+051599999V0201201N001012200019N0030001N1+02741+01491101141ADDAA124000091GA1001+999999999GF100991001001999999001001IA1019KA1120M+02961KA2180N+01681MA1999999095551MD1410001-0121REMSYN106AAXX  10001 76393 32930 01201 10274 20149 39555 40114 54000 92345 333 10296 20168 30/// 50561 59012 70000;EQDQ01  00002PRCP24
0171763930999992012111003004+25733-100300FM-12+051599999V0202701N001012200019N0020001N1+02521+01441101211ADDGA1001+999999999GF100991001001999999001001IA1019MA1999999095641MD1210091-0121REMSYN082AAXX  10031 76393 32920 02701 10252 20144 39564 40121 52009 90249 333 30/// 59012;
0223763930999992012111006004+25733-100300FM-12+051599999V0201101N006012200019N0010001N1+02041+01341101311ADDGA1001+999999999GF100991001001999999001001GJ104749IA1019KA1240M+02961KA2240N+01681MA1999999095741MD1210101-0101REMSYN100AAXX  10061 76393 32910 01106 10204 20134 39574 40131 52010 90550 333 10296 20168 30/// 55079 59010;
0199763930999992012111009004+25733-100300FM-12+051599999V0200701N002012200019N0010001N1+01801+01491101231ADDAY101031AY201031GA1001+999999999GF100991001001999999001001IA1019MA1999999095621MD1710121-0151MW1041REMSYN088AAXX  10091 76393 31910 00702 10180 20149 39562 40123 57012 70400 90850 333 30/// 59015;
0161763930999992012111012004+25733-100300FM-12+051599999V0200701N001012200019N0010001N1+01761+01571101271ADDAY101061AY201061GF103991011061002501031001MA1999999095611MD1710011+9999MW1041REMSYN072AAXX  10121 76393 31310 30701 10176 20157 39561 40127 57001 70400 81630;
0217763930999992012111015004+25733-100300FM-12+051599999V0200601N001010039019N0010001N1+01901+01591101451ADDAY121031AY221031GA1081+003901061GF108991081051004501999999IA1019MA1999999095741MD1210131-0131MW1041REMSYN106AAXX  10151 76393 31410 80601 10190 20159 39574 40145 52013 70422 885// 91450 333 0/8// 30/// 59013 88613;
0161763930999992012111018004+25733-100300FM-12+051599999V0201201N002012200019N0010001N1+02361+01701101371ADDAY141061AY241061GF104991001001999999001081MA1999999095671MD1710071+9999MW1051REMSYN072AAXX  10181 76393 31910 41202 10236 20170 39567 40137 57007 70544 80008;
0217763930999992012111021004+25733-100300FM-12+051599999V0201101N002019999999N0020001N1+02621+01701101011ADDAY121031AY221031GA1031+030001041GF105991031001999999011011IA1019MA1999999095361MD1710311-0191MW1041REMSYN106AAXX  10211 76393 31920 51102 10262 20170 39536 40101 57031 70422 83011 92045 333 0/055 30/// 59019 83460;
0161763930999992012111100004+25733-100300FM-12+051599999V0200901N002012200019N0030001N1+02601+01541100951ADDAY111061AY211061GF104991021001999999031011MA1999999095341MD1710021+9999MW1041REMSYN072AAXX  11001 76393 31930 40902 10260 20154 39534 40095 57002 70411 82031;
0195763930999992012111103004+25733-100300FM-12+051599999V0202001N001012200019N0020001N1+02301+01531101031ADDAY101031AY201031GF102991021001999999041001IA1019MA1999999095441MD1210101-0201MW1041REMSYN100AAXX  11031 76393 31920 22001 10230 20153 39544 40103 52010 70400 82040 90249 333 0/050 30/// 59020;
0223763930999992012111106004+25733-100300FM-12+051599999V0201101N002012200019N0010001N1+02181+01431100941ADDGA1001+999999999GF100991001001999999001001GJ102589IA1019KA1240M+02821KA2240N+01701MA1999999095371MD1710071-0371REMSYN100AAXX  11061 76393 32910 01102 10218 20143 39537 40094 57007 90550 333 10282 20170 30/// 55043 59037;
0199763930999992012111109004+25733-100300FM-12+051599999V0200501N001012200019N0010001N1+01941+01471100831ADDAY101031AY201031GA1001+999999999GF100991001001999999001001IA1019MA1999999095231MD1710131-0391MW1041REMSYN088AAXX  11091 76393 31910 00501 10194 20147 39523 40083 57013 70400 90850 333 30/// 59039;
0273763930999992012111112004+25733-100300FM-12+051599999V0203601N001012200019N0010001N1+01721+01561100961ADDAA124000091AY101061AY201061GA1001+999999999GF100991001001999999001001IA1019KA1240M+02821KA2120N+01701MA1999999095311MD1210081-0301MW1041REMSYN106AAXX  11121 76393 31910 03601 10172 20156 39531 40096 52008 70400 91150 333 10282 20170 30164 59030 70000;EQDQ01  00002PRCP24
0195763930999992012111115004+25733-100300FM-12+051599999V0202501N001012200019N0010001N1+02041+01641101141ADDAY141031AY241031GF104991001001999999001081IA1019MA1999999095461MD1210151-0281MW1051REMSYN100AAXX  11151 76393 31910 42501 10204 20164 39546 40114 52015 70544 80008 91450 333 0/007 30/// 59028;
0161763930999992012111118004+25733-100300FM-12+051599999V0201201N002019999999N0020001N1+02581+01691101111ADDAY121061AY221061GF105991001001999999001081MA1999999095441MD1710021+9999MW1041REMSYN072AAXX  11181 76393 31920 51202 10258 20169 39544 40111 57002 70422 80008;
0217763930999992012111121004+25733-100300FM-12+051599999V0201201N001012200019N0020001N1+03031+01621100861ADDAY121031AY221031GA1011+018001061GF103991011051017501001011IA1019MA1999999095251MD1710191-0111MW1041REMSYN106AAXX  11211 76393 31720 31201 10303 20162 39525 40086 57019 70422 81501 92050 333 0/507 30/// 59011 81656;
0161763930999992012111200004+25733-100300FM-12+051599999V0201201N001012200019N0040001N1+02901+01661101011ADDAY121061AY221061GF103991011051017501001061MA1999999095441MD1210191+9999MW1041REMSYN072AAXX  12001 76393 31740 31201 10290 20166 39544 40101 52019 70422 81506;
0217763930999992012111203004+25733-100300FM-12+051599999V0200301N003010111019N0020001N1+02501+01591101361ADDAY121031AY221031GA1061+011101061GF106991061051012501001001IA1019MA1999999095811MD1210371+0361MW1041REMSYN106AAXX  12031 76393 31620 60303 10250 20159 39581 40136 52037 70422 86500 90249 333 0/300 30/// 58036 86637;
0161763930999992012111206004+25733-100300FM-12+051599999V0203301N001012200019N0010001N1+02221+01291101811ADDAY111061AY211061GF104991021051012501011001MA1999999096231MD1210421+9999MW1041REMSYN072AAXX  12061 76393 31610 43301 10222 20129 39623 40181 52042 70411 82510;
0217763930999992012111209004+25733-100300FM-12+051599999V0203601N003010210019N0010001N1+02101+00531101971ADDAY141031AY221031GA1081+021001061GF108991081051017501999999IA1019MA1999999096341MD1210111+1111MW1051REMSYN106AAXX  12091 76393 31710 83603 10210 20053 39634 40197 52011 70542 885// 90845 333 0/8// 30/// 58111 88657;
0180763930999992012111212004+25733-100300FM-12+051599999V0203601N006010150019N0010001N1+02081+00221999999ADDAY121061AY221061GF108991081051017501999999MA1999999096471MD1210121+9999MW1051REMSYN072AAXX  12121 76393 31710 83606 10208 20022 39647 49647 52012 70522 885//;EQDQ01+096473APOSLP
0253763930999992012111215004+25733-100300FM-12+051599999V0203401N002010210019N0020001N1+01961+00141102641ADDAA103000091AY121031AY221031GA1081+021001061GF108991081051022501999999IA1019MA1999999096911MD1210441+1451MW1041REMSYN112AAXX  12151 76393 21820 83402 10196 20014 39691 40264 52044 70422 885// 91450 333 0/8// 30/// 58145 69907 88657;EQDQ01  00002PRCP03
0161763930999992012111218004+25733-100300FM-12+051599999V0200201N002010210019N0020001N1+01921+00241102781ADDAY121061AY221061GF108991081051022501999999MA1999999097031MD1210121+9999MW1041REMSYN072AAXX  12181 76393 31820 80202 10192 20024 39703 40278 52012 70422 885//;
0217763930999992012111221004+25733-100300FM-12+051599999V0201201N001010210019N0020001N1+02021+00181102591ADDAY121031AY221031GA1081+021001061GF108991081051022501999999IA1019MA1999999096821MD1710211+1571MW1041REMSYN106AAXX  12211 76393 31820 81201 10202 20018 39682 40259 57021 70422 885// 92050 333 0/8// 30/// 58157 88657;
0161763930999992012111300004+25733-100300FM-12+051599999V0201601N001010210019N0030001N1+01881+00121102631ADDAY121061AY221061GF108991081051022501999999MA1999999096861MD1210041+9999MW1041REMSYN072AAXX  13001 76393 31830 81601 10188 20012 39686 40263 52004 70422 885//;
0217763930999992012111303004+25733-100300FM-12+051599999V0201801N001010180019N0020001N1+01721+00211102741ADDAY121031AY221031GA1081+018001061GF108991081051017501999999IA1019MA1999999096951MD1210091+1141MW1041REMSYN106AAXX  13031 76393 31720 81801 10172 20021 39695 40274 52009 70422 885// 90250 333 0/8// 30/// 58114 88656;
0161763930999992012111306004+25733-100300FM-12+051599999V0201301N003010120019N0010001N1+01601+00401102731ADDAY121061AY221061GF107991071051012501999999MA1999999096931MD1710021+9999MW1041REMSYN072AAXX  13061 76393 31610 71303 10160 20040 39693 40273 57002 70422 875//;
0147763930999992012111312004+25733-100300FM-12+051599999V0201101N002010120019N0010001N1+01421+00301102681ADDAY121061AY221061GF108991081051012501999999MA1999999096841MW1051REMSYN072AAXX  13121 76393 31610 81102 10142 20030 39684 40268 5//// 70522 885//;
0236763930999992012111315004+25733-100300FM-12+051599999V0201301N003010360019N0030001N1+01541+00211102841ADDAY121031AY221031GA1061+036001031GF106991999001999999041001IA1019MA1999999096981MD1210141+0071MW1041REMSYN106AAXX  13151 76393 31930 61303 10154 20021 39698 40284 52014 70422 88040 91450 333 0/070 30/// 58007 86362;EQDQ01+000082SCOTLC
0161763930999992012111318004+25733-100300FM-12+051599999V0201201N005010150019N0030001N1+01721+00321102751ADDAY121061AY221061GF108991081051017501999999MA1999999096901MD1710081+9999MW1041REMSYN072AAXX  13181 76393 31730 81205 10172 20032 39690 40275 57008 70422 885//;
0223763930999992012111321004+25733-100300FM-12+051599999V0201601N002010360019N0030001N1+01701+00441102391ADDAY121031AY221031GA1021+018001061GF108991021061017501021001IA1019MA1999999096571MD1710331-0251MW1041REMSYN112AAXX  13211 76393 31730 81602 10170 20044 39657 40239 57033 70422 82620 92050 333 0/770 30/// 59025 82656 86462;
0363763930999992012111400004+25733-100300FM-12+051599999V0201401N002010105019N0030001N1+01561+00701102321ADDAA103999999AA206000091AA324000091AY121061AY221061GA1081+010501061GF108991081051012501999999IA1019KA1120M+01821KA2180N+01401MA1999999096501MD1710071-0361MW1041REMSYN142AAXX  14001 76393 01630 81402 10156 20070 39650 40232 57007 69901 70422 885// 92350 333 0/3// 10182 20140 30/// 50531 59036 69907 79999 88635;EQDQ01  00002PRCP06Q02  00002PRCP24Q03  99992PRCP03
0217763930999992012111403004+25733-100300FM-12+051599999V0201001N002010063019N0020001N1+01441+00911102481ADDAY121031AY221031GA1081+006301061GF108991081051008001999999IA1019MA1999999096661MD1210161-0291MW1041REMSYN106AAXX  14031 76393 31520 81002 10144 20091 39666 40248 52016 70422 885// 90248 333 0/3// 30/// 59029 88621;
0161763930999992012111406004+25733-100300FM-12+051599999V0201101N001010042019N0010001N1+01321+01051102491ADDAY121061AY221061GF108991081051004501999999MA1999999096661MD1410001+9999MW1041REMSYN072AAXX  14061 76393 31410 81101 10132 20105 39666 40249 54000 70422 885//;
0234763930999992012111409004+25733-100300FM-12+051599999V0200701N001010009019N0008001N1+01201+01131102541ADDAA103000691AY121031AY221031GA1081+000901071GF108991081061000751999999IA1019MA1999999096681MD1210021-0201MW1041REMSYN112AAXX  14091 76393 21108 80701 10120 20113 39668 40254 52002 70422 886// 90850 333 0/3// 30/// 59020 69967 88703;
0306763930999992012111412004+25733-100300FM-12+051599999V0200301N001010009019N0005001N1+01161+01091102631ADDAA103000791AA206001091AA324001391AY121061AY221061GA1081+000901071GF108991081061000751999999IA1019KA1240M+01821KA2120N+01121MA1999999096741MD1210061-0101MW1041REMSYN136AAXX  14121 76393 01105 80301 10116 20109 39674 40263 52006 60011 70422 886// 91150 333 0/3// 10182 20112 30108 59010 69977 70013 88703;
0234763930999992012111415004+25733-100300FM-12+051599999V0200301N001010006019N0000001N1+01201+01161102811ADDAA103000491AY151031AY251031GA1081+000601071GF108991081071000251999999IA1099MA1999999096901MD1210161-0081MW1511REMSYN112AAXX  14151 76393 21000 80301 10120 20116 39690 40281 52016 75155 887// 91450 333 0/3// 31/// 59008 69947 88702;
0289763930999992012111418004+25733-100300FM-12+051599999V0200701N001010006019N0003001N1+01301+01261102821ADDAA103000491AA206000891AY151061AY221061GA1081+000601071GF108991081071000251999999IA1099KA1120M+01341KA2240N+01121MA1999999096891MD1710011-0011MW1511REMSYN130AAXX  14181 76393 01003 80701 10130 20126 39689 40282 57001 69981 75152 887// 91750 333 0/300 10134 20112 31/// 59001 69947 88702;
0234763930999992012111421004+25733-100300FM-12+051599999V0201101N002010021019N0006001N1+01381+01211102621ADDAA103000391AY121031AY221031GA1081+002101071GF108991081071002501999999IA1099MA1999999096711MD1710181+0141MW1041REMSYN112AAXX  14211 76393 21306 81102 10138 20121 39671 40262 57018 70422 887// 92050 333 0/300 31/// 58014 69937 88707;
0312763930999992012111500004+25733-100300FM-12+051599999V0200601N001010015019N0003001N1+01301+01181102531ADDAA103999929AA206000391AA324002791AY151061AY201061GA1081+001501071GF108991081071001501999999IA1099KA1120M+01421KA2180N+01121MA1999999096631MD1710081+0121MW1501REMSYN142AAXX  15001 76393 01203 80601 10130 20118 39663 40253 57008 69931 75050 887// 92350 333 0/300 10142 20112 31/// 50141 58012 69907 70027 88705;
0234763930999992012111503004+25733-100300FM-12+051599999V0201301N002010006019N0005001N1+01221+01151102601ADDAA103000021AY121031AY221031GA1081+000601071GF108991081061000751999999IA1099MA1999999096701MD1210071+0041MW1041REMSYN112AAXX  15031 76393 21105 81302 10122 20115 39670 40260 52007 70422 886// 90249 333 0/3// 31/// 58004 69907 88702;
0303763930999992012111506004+25733-100300FM-12+051599999V0201101N002010006019N0003001N1+01161+01091102561ADDAA103999929AA206000021AY151061AY201061GA1081+000601071GF108991081071000751999999GJ100009IA1099KA1240M+01421KA2240N+01121MA1999999096671MD1710031+0011MW1501REMSYN136AAXX  15061 76393 01103 81102 10116 20109 39667 40256 57003 69901 75050 887// 90550 333 0/3// 10142 20112 31/// 55000 58001 69907 88702;
0234763930999992012111509004+25733-100300FM-12+051599999V0201001N003010006019N0005001N1+01101+01061102381ADDAA103000021AY121031AY221031GA1081+000601071GF108991081061000251999999IA1099MA1999999096481MD1710191-0201MW1041REMSYN112AAXX  15091 76393 21005 81003 10110 20106 39648 40238 57019 70422 886// 90850 333 0/3// 31/// 59020 69907 88702;
0314763930999992012111512004+25733-100300FM-12+051599999V0209999C000010006019N0003001N1+01101+01061102341ADDAA103000191AA224001291AY121061AY221061GA1081+000601071GF108991081061000251999999IA1019KA1240M+01421KA2120N+01061MA1999999096441MD1710041-0301MW1041REMSYN136AAXX  15121 76393 01003 80000 10110 20106 39644 40234 57004 69911 70422 886// 91150 333 0/3// 10142 20106 30100 59030 69917 70012 88702;EQDQ01  00002PRCP06
0217763930999992012111515004+25733-100300FM-12+051599999V0209999C000010015019N0003001N1+01201+01091102471ADDAY151031AY201031GA1081+001501071GF108991081071001501999999IA1099MA1999999096551MD1210111-0351MW1501REMSYN106AAXX  15151 76393 21203 83600 10120 20109 39655 40247 52011 75050 887// 91450 333 0/300 31/// 59035 88705;
0289763930999992012111518004+25733-100300FM-12+051599999V0201501N001010021019N0003001N1+01421+01251102441ADDAA103999929AA206000021AY121061AY221061GA1081+002101071GF108991081071002501999999IA1099KA1120M+01461KA2240N+01061MA1999999096531MD1710021-0361MW1041REMSYN130AAXX  15181 76393 01303 81501 10142 20125 39653 40244 57002 69901 70422 887// 91750 333 0/300 10146 20106 31/// 59036 69907 88707;
0217763930999992012111521004+25733-100300FM-12+051599999V0201201N002010033019N0005001N1+01581+01321102151ADDAY141031AY221031GA1081+003301071GF108991081061004501999999IA1099MA1999999096281MD1710251-0611MW1051REMSYN106AAXX  15211 76393 31405 81202 10158 20132 39628 40215 57025 70542 886// 92050 333 0/300 31/// 59061 88711;
0312763930999992012111600004+25733-100300FM-12+051599999V0200601N001010009019N0003001N1+01421+01351102211ADDAA103999929AA206000021AA324000191AY141061AY221061GA1081+000901071GF108991081061000751999999IA1099KA1120M+01641KA2180N+01061MA1999999096351MD1210071-0361MW1501REMSYN142AAXX  16001 76393 01103 80601 10142 20135 39635 40221 52007 69901 75042 886// 92350 333 0/300 10164 20106 31/// 50041 59036 69907 70001 88703;
0234763930999992012111603004+25733-100300FM-12+051599999V0201201N002010006019N0003001N1+01421+01351102331ADDAA103000021AY121031AY221031GA1081+000601071GF108991081061000751999999IA1099MA1999999096481MD1210131-0221MW1501REMSYN112AAXX  16031 76393 21103 81202 10142 20135 39648 40233 52013 75022 886// 90250 333 0/3// 31/// 59022 69907 88702;
0303763930999992012111606004+25733-100300FM-12+051599999V0209999C000010003019N0002001N1+01401+01371102311ADDAA103000591AA206000591AY121061AY221061GA1081+000301071GF108991081061000251999999GJ100009IA1099KA1240M+01641KA2240N+01061MA1999999096471MD1710011-0201MW1501REMSYN136AAXX  16061 76393 01002 80000 10140 20137 39647 40231 57001 69951 75022 886// 90550 333 0/3// 10164 20106 31/// 55000 59020 69957 88701;
0234763930999992012111609004+25733-100300FM-12+051599999V0209999C000010003019N0003001N1+01401+01371102301ADDAA103000791AY121031AY221031GA1081+000301071GF108991081061000251999999IA1099MA1999999096451MD1710021-0031MW1501REMSYN112AAXX  16091 76393 21003 80000 10140 20137 39645 40230 57002 75022 886// 90850 333 0/3// 31/// 59003 69977 88701;
0306763930999992012111612004+25733-100300FM-12+051599999V0209999C000010003019N0003001N1+01421+01391102341ADDAA103000591AA206001091AA324001791AY121061AY221061GA1081+000301071GF108991081061000251999999IA1019KA1240M+01641KA2120N+01301MA1999999096491MD1210041+0051MW1501REMSYN136AAXX  16121 76393 01003 80000 10142 20139 39649 40234 52004 60011 75022 886// 91150 333 0/3// 10164 20130 30120 58005 69957 70017 88701;
0253763930999992012111615004+25733-100300FM-12+051599999V0200601N001012200019N0003001N1+01461+01411102461ADDAA103001091AY151031AY221031GA1081+000601071GF199999081071000751999999IA1099MA1999999096671MD1210181+0121MW1501REMSYN112AAXX  16151 76393 21103 20601 10146 20141 39667 40246 52018 75052 887// 91450 333 0/300 31/// 58012 60017 88702;EQDQ01+000022SCOTCV
0289763930999992012111618004+25733-100300FM-12+051599999V0200201N001010003019N0003001N1+01411+01381102611ADDAA103002091AA206003091AY151061AY221061GA1081+000301071GF108991081071000251999999IA1099KA1120M+01501KA2240N+01301MA1999999096741MD1210071+0211MW1501REMSYN130AAXX  16181 76393 01003 80201 10141 20138 39674 40261 52007 60031 75052 887// 91750 333 0/3// 10150 20130 31/// 58021 60027 88701;
0234763930999992012111621004+25733-100300FM-12+051599999V0200101N001010006019N0003001N1+01471+01421102431ADDAA103001091AY151031AY251031GA1081+000601071GF108991081071000751999999IA1119MA1999999096581MD1710161+0301MW1501REMSYN112AAXX  16211 76393 21103 80101 10147 20142 39658 40243 57016 75055 887// 92048 333 0/300 32/// 58030 60017 88702;
0312763930999992012111700004+25733-100300FM-12+051599999V0200501N004010003019N0002001N1+01441+01411102461ADDAA103001091AA206002091AA324006991AY151061AY251061GA1081+000301071GF108991081071000251999999IA1119KA1120M+01501KA2180N+01301MA1999999096601MD1210021+0251MW1501REMSYN142AAXX  17001 76393 01002 80504 10144 20141 39660 40246 52002 60021 75055 887// 92345 333 0/300 10150 20130 32/// 50031 58025 60017 70069 88701;
0234763930999992012111703004+25733-100300FM-12+051599999V0201101N003010003019N0002001N1+01361+01331102591ADDAA103001091AY151031AY221031GA1081+000301071GF108991081071000251999999IA1119MA1999999096731MD1210131+0251MW1501REMSYN112AAXX  17031 76393 21002 81103 10136 20133 39673 40259 52013 75052 887// 90250 333 0/3// 32/// 58025 60017 88701;
0303763930999992012111706004+25733-100300FM-12+051599999V0200701N003010006019N0002001N1+01261+01191102661ADDAA103000891AA206002091AY151061AY221061GA1081+000601071GF108991081071000251999999GJ100009IA1119KA1240M+01501KA2240N+01201MA1999999096791MD1210061+0321MW1501REMSYN136AAXX  17061 76393 01002 80703 10126 20119 39679 40266 52006 60021 75052 887// 90550 333 0/3// 10150 20120 32/// 55000 58032 69987 88702;
0234763930999992012111715004+25733-100300FM-12+051599999V0200601N002010003019N0003001N1+01241+01211102741ADDAA103000891AY151031AY251031GA1081+000301071GF108991081071000251999999IA1119MA1999999096831MD1210151+0151MW1501REMSYN112AAXX  17151 76393 21003 80602 10124 20121 39683 40274 52015 75055 887// 91452 333 0/300 32/// 58015 69987 88701;
0289763930999992012111718004+25733-100300FM-12+051599999V0201201N002010012019N0005001N1+01381+01281102701ADDAA103000191AA206001091AY121061AY221061GA1081+001201071GF108991081071001501999999IA1099KA1120M+01421KA2240N+01201MA1999999096801MD1710031+0061MW1501REMSYN130AAXX  17181 76393 21205 81202 10138 20128 39680 40270 57003 69991 75022 887// 91750 333 0/300 10142 20120 31/// 58006 69917 88704;
0234763930999992012111721004+25733-100300FM-12+051599999V0201101N002010018019N0005001N1+01401+01261102501ADDAA103000021AY121031AY221031GA1081+001801071GF108991081071001501999999IA1099MA1999999096611MD1710191+0031MW1501REMSYN112AAXX  17211 76393 21205 81102 10140 20126 39661 40250 57019 75022 887// 92050 333 0/300 31/// 58003 69907 88706;
0312763930999992012111800004+25733-100300FM-12+051599999V0201201N002010027019N0008001N1+01501+01271102471ADDAA103999929AA206000021AA324004691AY121061AY221061GA1081+002701071GF108991081071002501999999IA1099KA1120M+01521KA2180N+01201MA1999999096591MD1710021-0011MW1051REMSYN142AAXX  18001 76393 01308 81202 10150 20127 39659 40247 57002 69901 70522 887// 95350 333 0/300 10152 20120 31/// 50201 59001 69907 70046 88709;
0217763930999992012111803004+25733-100300FM-12+051599999V0200201N001010012019N0010001N1+01461+01261102511ADDAY121031AY221031GA1081+001201071GF108991081071001501999999IA1019MA1999999096651MD1210061-0081MW1041REMSYN106AAXX  18031 76393 31210 80201 10146 20126 39665 40251 52006 70422 887// 90250 333 0/3// 30/// 59008 88704;
0161763930999992012111806004+25733-100300FM-12+051599999V0200501N001010012019N0010001N1+01421+01291102421ADDAY121061AY221061GF108991081071001501999999MA1999999096561MD1710091+9999MW1041REMSYN072AAXX  18061 76393 31210 80501 10142 20129 39656 40242 57009 70422 887//;
0217763930999992012111809004+25733-100300FM-12+051599999V0200301N001010012019N0008001N1+01381+01281102331ADDAY121031AY221031GA1081+001201071GF108991081061001501999999IA1019MA1999999096481MD1710081-0241MW1041REMSYN106AAXX  18091 76393 31208 80301 10138 20128 39648 40233 57008 70422 886// 90850 333 0/3// 30/// 59024 88704;
0341763930999992012111812004+25733-100300FM-12+051599999V0209999C000010009019N0003001N1+01361+01291102271ADDAA103999999AA206000091AA324000991AY121061AY221061GA1081+000901071GF108991081061000751999999IA1019KA1240M+01521KA2120N+01301MA1999999096421MD1710061-0241MW1041REMSYN136AAXX  18121 76393 01103 80000 10136 20129 39642 40227 57006 69901 70422 886// 91150 333 0/3// 10152 20130 30120 59024 69907 70009 88703;EQDQ01  00002PRCP06Q02  99992PRCP03
0161763930999992012111818004+25733-100300FM-12+051599999V0200901N001010006019N0003001N1+01521+01451102271ADDAY121061AY221061GF108991081071000751999999MA1999999096421MD1710051+9999MW1101REMSYN072AAXX  18181 76393 31103 80901 10152 20145 39642 40227 57005 71022 887//;
0253763930999992012111821004+25733-100300FM-12+051599999V0200601N002010012019N0008001N1+01601+01501102061ADDAA103000091AY121031AY221031GA1081+001201071GF108991081071001501999999IA1099MA1999999096231MD1710191-0381MW1051REMSYN112AAXX  18211 76393 21208 80602 10160 20150 39623 40206 57019 70522 887// 92050 333 0/300 31/// 59038 69907 88704;EQDQ01  00002PRCP03
0312763930999992012111900004+25733-100300FM-12+051599999V0200601N002010009019N0005001N1+01601+01541102161ADDAA103999929AA206000021AA324000691AY121061AY221061GA1081+000901071GF108991081071000751999999IA1099KA1120M+01681KA2180N+01301MA1999999096341MD1210111-0251MW1501REMSYN142AAXX  19001 76393 01105 80602 10160 20154 39634 40216 52011 69901 75022 887// 92350 333 0/300 10168 20130 31/// 50211 59025 69907 70006 88703;
0217763930999992012111903004+25733-100300FM-12+051599999V0201901N001010012019N0005001N1+01661+01561102241ADDAY121031AY221031GA1081+001201071GF108991081071001501999999IA1019MA1999999096431MD1210091-0221MW1041REMSYN106AAXX  19031 76393 31205 81901 10166 20156 39643 40224 52009 70422 887// 90250 333 0/3// 30/// 59022 88704;
0303763930999992012111906004+25733-100300FM-12+051599999V0200601N001010009019N0005001N1+01681+01591102171ADDAA103999929AA206000021AY151061AY221061GA1081+000901071GF108991081071001501999999GJ100009IA1099KA1240M+01681KA2240N+01301MA1999999096371MD1710061-0191MW1501REMSYN136AAXX  19061 76393 01205 80601 10168 20159 39637 40217 57006 69901 75052 887// 90550 333 0/3// 10168 20130 31/// 55000 59019 69907 88703;
0234763930999992012111909004+25733-100300FM-12+051599999V0201101N001010003019N0003001N1+01641+01611102111ADDAA103000021AY121031AY221031GA1081+000301071GF108991081071000251999999IA1099MA1999999096321MD1710051-0161MW1041REMSYN112AAXX  19091 76393 21003 81101 10164 20161 39632 40211 57005 70422 887// 90850 333 0/3// 31/// 59016 69907 88701;
0325763930999992012111912004+25733-100300FM-12+051599999V0209999C000010003019N0001001N1+01641+01611102051ADDAA103999999AA206000021AA324000021AY151061AY251061GA1081+000301071GF108991081071000251999999IA1019KA1240M+01781KA2120N+01601MA1999999096261MD1710061-0161MW1101REMSYN136AAXX  19121 76393 01001 80000 10164 20161 39626 40205 57006 69901 71055 887// 91150 333 0/3// 10178 20160 30154 59016 69907 79999 88701;EQDQ01  99992PRCP03
0234763930999992012111915004+25733-100300FM-12+051599999V0209999C000010003019N0000001N1+01661+01631102251ADDAA103000191AY141031AY251031GA1081+000301071GF108991081071000251999999IA1099MA1999999096451MD1210191-0021MW1281REMSYN112AAXX  19151 76393 21000 80000 10166 20163 39645 40225 52019 72845 887// 91449 333 0/999 31/// 59002 69917 88701;
0329763930999992012111918004+25733-100300FM-12+051599999V0209999C000010012019N0003001N1+01761+01671102281ADDAA103999999AY151061AY221061GA1081+001201041GF108991081071001501999999IA1099KA1120M+01811KA2240N+01601MA1999999096481MD1210031+0061MW1101REMSYN130AAXX  19181 76393 01203 80000 10176 20167 39648 40228 52003 69911 71052 887// 91750 333 0/300 10181 20160 31/// 58006 69907 88404;EQDQ01  00002PRCP06Q02  99992PRCP03Q03  00002PRCP06
0253763930999992012111921004+25733-100300FM-12+051599999V0201201N001010027019N0005001N1+01941+01731102031ADDAA103000091AY121031AY221031GA1081+002701071GF108991081071002501999999IA1099MA1999999096261MD1710021+0031MW1051REMSYN112AAXX  19211 76393 21305 81201 10194 20173 39626 40203 57002 70522 887// 92050 333 0/300 31/// 58003 69907 88709;EQDQ01  00002PRCP03
0347763930999992012112000004+25733-100300FM-12+051599999V0201101N001010012019N0005001N1+01821+01731102041ADDAA103999999AA206000091AA324000191AY121061AY221061GA1081+001201071GF108991081071001501999999IA1099KA1120M+01981KA2180N+01601MA1999999096271MD1210011-0071MW1051REMSYN142AAXX  20001 76393 01205 81101 10182 20173 39627 40204 52001 69901 70522 887// 92350 333 0/300 10198 20160 31/// 50041 59007 69907 70001 88704;EQDQ01  00002PRCP06Q02  99992PRCP03
0217763930999992012112003004+25733-100300FM-12+051599999V0209999C000010009019N0005001N1+01801+01711102181ADDAY121031AY221031GA1081+000901071GF108991081071001501999999IA1019MA1999999096421MD1210151-0011MW1041REMSYN106AAXX  20031 76393 31205 80000 10180 20171 39642 40218 52015 70422 887// 90250 333 0/3// 30/// 59001 88703;
0161763930999992012112006004+25733-100300FM-12+051599999V0201901N001010012019N0005001N1+01821+01701102141ADDAY121061AY221061GF108991081071001501999999MA1999999096381MD1710041+9999MW1041REMSYN072AAXX  20061 76393 31205 81901 10182 20170 39638 40214 57004 70422 887//;
0253763930999992012112009004+25733-100300FM-12+051599999V0209999C000010006019N0005001N1+01781+01721102001ADDAA103000091AY121031AY221031GA1081+000601071GF108991081071000751999999IA1099MA1999999096241MD1710141-0081MW1041REMSYN112AAXX  20091 76393 21105 80000 10178 20172 39624 40200 57014 70422 887// 90848 333 0/3// 31/// 59008 69907 88702;EQDQ01  00002PRCP03
0341763930999992012112012004+25733-100300FM-12+051599999V0209999C000010006019N0005001N1+01761+01701102001ADDAA103999999AA206000091AA324000191AY121061AY221061GA1081+000601071GF108991081071000751999999IA1019KA1240M+01981KA2120N+01681MA1999999096241MD1410001-0021MW1051REMSYN136AAXX  20121 76393 01105 80000 10176 20170 39624 40200 54000 69901 70522 887// 91150 333 0/3// 10198 20168 30160 59002 69907 70001 88702;EQDQ01  00002PRCP06Q02  99992PRCP03
0253763930999992012112015004+25733-100300FM-12+051599999V0200401N001010006019N0005001N1+01801+01741102221ADDAA103000091AY121031AY221031GA1081+000601071GF108991081071000751999999IA1099MA1999999096451MD1210211+0001MW1051REMSYN112AAXX  20151 76393 21105 80401 10180 20174 39645 40222 52021 70522 887// 91450 333 0/300 31/// 58000 69907 88702;EQDQ01  00002PRCP03
0249763930999992012112018004+25733-100300FM-12+051599999V0201201N001010021019N0005001N1+01981+99999102231ADDAY121061AY221061GA1081+002101071GF108991081071002501999999IA1099KA1120M+02021KA2240N+01681MA1999999096461MD1210011-0021MW1101REMSYN112AAXX  20181 76393 31305 81201 10198 39646 40223 52001 71022 887// 91750 333 0/300 10202 20168 31/// 59002 88707;
0253763930999992012112021004+25733-100300FM-12+051599999V0201101N001010015019N0004001N1+01971+01841102021ADDAA103000091AY151031AY251031GA1081+001501071GF108991081071001501999999IA1099MA1999999096271MD1710191+0011MW1101REMSYN112AAXX  20211 76393 21204 81101 10197 20184 39627 40202 57019 71055 887// 92055 333 0/9// 31/// 58001 69907 88705;EQDQ01  00002PRCP03
0161763930999992012112100004+25733-100300FM-12+051599999V0201801N003010021019N0008001N1+01961+01721102021ADDAY141061AY221061GF107991071051002501999999MA1999999096281MD1210011+9999MW1101REMSYN072AAXX  21001 76393 31308 71803 10196 20172 39628 40202 52001 71042 875//;
0217763930999992012112103004+25733-100300FM-12+051599999V0200701N001010021019N0006001N1+01901+01721102171ADDAY141031AY221031GA1081+002101061GF108991081051002501999999IA1019MA1999999096431MD1210151+0191MW1101REMSYN106AAXX  21031 76393 31306 80701 10190 20172 39643 40217 52015 71042 885// 90245 333 0/3// 30/// 58019 88607;
0161763930999992012112106004+25733-100300FM-12+051599999V0209999C000012200019N0006001N1+01761+01671102121ADDAY141061AY221061GF103991031051001501001001MA1999999096371MD1710061+9999MW1101REMSYN072AAXX  21061 76393 31206 30000 10176 20167 39637 40212 57006 71042 83500;
0217763930999992012112109004+25733-100300FM-12+051599999V0209999C000010006019N0005001N1+01781+01721102101ADDAY121031AY221031GA1071+000601071GF107991071061000751999999IA1019MA1999999096351MD1710021+0111MW1041REMSYN106AAXX  21091 76393 31105 70000 10178 20172 39635 40210 57002 70422 876// 90850 333 0/3// 30/// 58011 87702;
0234763930999992012112115004+25733-100300FM-12+051599999V0201101N001010006019N0003001N1+01791+01741102311ADDAA103000191AY151031AY221031GA1081+000601071GF108991081071000751999999IA1099MA1999999096531MD1210181+0081MW1501REMSYN112AAXX  21151 76393 21103 81101 10179 20174 39653 40231 52018 75052 887// 91449 333 0/3// 31/// 58008 69917 88702;
0161763930999992012112118004+25733-100300FM-12+051599999V0201601N001010042019N0006001N1+02101+01681102231ADDAY141061AY221061GF108991081071004501999999MA1999999096461MD1710071+9999MW1041REMSYN072AAXX  21181 76393 31406 81601 10210 20168 39646 40223 57007 70442 887//;
0217763930999992012112121004+25733-100300FM-12+051599999V0201201N002010054019N0010001N1+02081+01651102031ADDAY121031AY221031GA1081+005401061GF108991081051004501999999IA1099MA1999999096291MD1710171+0021MW1051REMSYN106AAXX  21211 76393 31410 81202 10208 20165 39629 40203 57017 70522 885// 92050 333 0/300 31/// 58002 88618;
0161763930999992012112200004+25733-100300FM-12+051599999V0202001N002010042019N0020001N1+02001+01631101981ADDAY121061AY221061GF108991081051004501999999MA1999999096251MD1710041+9999MW1051REMSYN072AAXX  22001 76393 31420 82002 10200 20163 39625 40198 57004 70522 885//;
0217763930999992012112203004+25733-100300FM-12+051599999V0201401N001010054019N0010001N1+02001+01541102111ADDAY121031AY221031GA1081+005401061GF108991081051004501999999IA1019MA1999999096391MD1210141-0041MW1041REMSYN106AAXX  22031 76393 31410 81401 10200 20154 39639 40211 52014 70422 885// 90250 333 0/3// 30/// 59004 88618;
0161763930999992012112206004+25733-100300FM-12+051599999V0201201N006010042019N0010001N1+01901+01561101961ADDAY121061AY221061GF108991081051004501999999MA1999999096241MD1710151+9999MW1041REMSYN072AAXX  22061 76393 31410 81206 10190 20156 39624 40196 57015 70422 885//;
0217763930999992012112209004+25733-100300FM-12+051599999V0200601N001010021019N0010001N1+01801+01621101821ADDAY121031AY221031GA1081+002101061GF108991081051002501999999IA1019MA1999999096091MD1710151-0261MW1041REMSYN106AAXX  22091 76393 31310 80601 10180 20162 39609 40182 57015 70422 885// 90850 333 0/3// 30/// 59026 88607;
0306763930999992012112212004+25733-100300FM-12+051599999V0209999C000010003019N0005001N1+01721+01691101931ADDAA103999929AA206000021AA324000191AY151061AY251061GA1081+000301071GF108991081071000251999999IA1019KA1240M+02211KA2120N+01661MA1999999096191MD1210101-0161MW1501REMSYN136AAXX  22121 76393 01005 80000 10172 20169 39619 40193 52010 69901 75055 887// 91150 333 0/3// 10221 20166 30160 59016 69907 70001 88701;
0234763930999992012112215004+25733-100300FM-12+051599999V0201101N001010015019N0004001N1+01841+01721102051ADDAA103000391AY141031AY251031GA1081+001501071GF108991081071001501999999IA1099MA1999999096291MD1210101-0241MW1101REMSYN112AAXX  22151 76393 21204 81101 10184 20172 39629 40205 52010 71045 887// 91450 333 0/399 31/// 59024 69937 88705;
0217763930999992012112221004+25733-100300FM-12+051599999V0201201N003010066019N0020001N1+02301+01771101721ADDAY121031AY221031GA1051+006601061GF105991051051008001001001IA1019MA1999999096001MD1710271-0291MW1041REMSYN106AAXX  22211 76393 31520 51203 10230 20177 39600 40172 57027 70422 85500 92050 333 0/300 30/// 59029 85622;
0161763930999992012112300004+25733-100300FM-12+051599999V0200601N001010042019N0020001N1+02041+01771101691ADDAY121061AY221061GF105991051051004501001001MA1999999095991MD1710011+9999MW1041REMSYN072AAXX  23001 76393 31420 50601 10204 20177 39599 40169 57001 70422 85500;
0217763930999992012112303004+25733-100300FM-12+051599999V0203301N001012200019N0010001N1+01901+01691101821ADDAY101031AY201031GA1021+002401071GF102991021071002501001001IA1019MA1999999096121MD1210131-0271MW1041REMSYN106AAXX  23031 76393 31310 23301 10190 20169 39612 40182 52013 70400 82700 90245 333 0/300 30/// 59027 82708;
0161763930999992012112306004+25733-100300FM-12+051599999V0202601N001012200019N0010001N1+01841+01691101871ADDAY101061AY201061GF103991031071001501001001MA1999999096161MD1210041+9999MW1041REMSYN072AAXX  23061 76393 31210 32601 10184 20169 39616 40187 52004 70400 83700;
0217763930999992012112309004+25733-100300FM-12+051599999V0209999C000010021019N0008001N1+01841+01661101831ADDAY121031AY221031GA1081+002101071GF108991081061002501999999IA1019MA1999999096111MD1710051+0021MW1041REMSYN106AAXX  23091 76393 31308 80000 10184 20166 39611 40183 57005 70422 886// 90850 333 0/3// 30/// 58002 88707;
0161763930999992012112312004+25733-100300FM-12+051599999V0209999C000012200019N0008001N1+01801+01621101901ADDAY101061AY201061GF103991031061002501001001MA1999999096161MD1210051+9999MW1041REMSYN072AAXX  23121 76393 31308 30000 10180 20162 39616 40190 52005 70400 83600;
0223763930999992012112315004+25733-100300FM-12+051599999V0201801N001010360019N0010001N1+01961+01661102161ADDAY121031AY221031GA1031+003601061GF107991031051004501021001IA1019MA1999999096401MD1210241+0111MW1041REMSYN112AAXX  23151 76393 31410 71801 10196 20166 39640 40216 52024 70422 83520 91450 333 0/350 30/// 58011 83612 84462;
0161763930999992012112318004+25733-100300FM-12+051599999V0203001N001010360019N0020001N1+02121+02021102271ADDAY121061AY221061GF108991031051004501021001MA1999999096511MD1210111+9999MW1041REMSYN072AAXX  23181 76393 31420 83001 10212 20202 39651 40227 52011 70422 83520;
0253763930999992012112321004+25733-100300FM-12+051599999V0200501N002010066019N0020001N1+02281+01741102071ADDAA103000091AY141031AY221031GA1071+006601061GF107991071051008001999999IA1019MA1999999096351MD1710161+0351MW1051REMSYN112AAXX  23211 76393 21520 70502 10228 20174 39635 40207 57016 70542 875// 92048 333 0/3// 30/// 58035 69907 87622;EQDQ01  00002PRCP03
0161763930999992012112400004+25733-100300FM-12+051599999V0200401N001010042019N0020001N1+02201+01751102071ADDAY141061AY221061GF108991051051004501011001MA1999999096371MD1210021+9999MW1051REMSYN072AAXX  24001 76393 31420 80401 10220 20175 39637 40207 52002 70542 85510;
0234763930999992012112403004+25733-100300FM-12+051599999V0203601N002010033019N0005001N1+01721+01431102531ADDAA103000991AY121031AY221031GA1081+003301061GF108991081051004501999999IA1099MA1999999096801MD1210431-0681MW1041REMSYN112AAXX  24031 76393 21405 83602 10172 20143 39680 40253 52043 70422 885// 90250 333 0/1// 31/// 59068 69997 88611;
0303763930999992012112406004+25733-100300FM-12+051599999V0201801N001010012019N0005001N1+01541+01441102751ADDAA103011091AA206011991AY161061AY221061GA1081+001201071GF108991081071001501999999GJ100849IA1119KA1240M+02461KA2240N+01541MA1999999096981MD1210181+0821MW1611REMSYN136AAXX  24061 76393 01205 81801 10154 20144 39698 40275 52018 60121 76162 887// 90550 333 0/1// 10246 20154 32/// 55014 58082 60117 88704;
0234763930999992012112409004+25733-100300FM-12+051599999V0209999C000010015019N0005001N1+01441+01311102691ADDAA103006091AY151031AY251031GA1081+001501071GF108991081071001501999999IA1099MA1999999096891MD1710091+0781MW1501REMSYN112AAXX  24091 76393 21205 80000 10144 20131 39689 40269 57009 75055 887// 90850 333 0/3// 31/// 58078 60067 88705;
0306763930999992012112412004+25733-100300FM-12+051599999V0200501N001010024019N0005001N1+01361+01161102691ADDAA103999929AA206006191AA324017891AY141061AY221061GA1081+002401071GF108991081071002501999999IA1019KA1240M+02461KA2120N+01281MA1999999096841MD1710051+0681MW1051REMSYN136AAXX  24121 76393 01305 80501 10136 20116 39684 40269 57005 60061 70542 887// 91150 333 0/3// 10246 20128 30120 58068 69907 70178 88708;
0217763930999992012112415004+25733-100300FM-12+051599999V0201101N001010042019N0020001N1+01431+01091102851ADDAY141031AY221031GA1081+004201071GF108991081061004501999999IA1099MA1999999096981MD1210141+0581MW1051REMSYN106AAXX  24151 76393 31420 81101 10143 20109 39698 40285 52014 70542 886// 91449 333 0/700 31/// 58058 88714;
0161763930999992012112418004+25733-100300FM-12+051599999V0203201N001010075019N0020001N1+01541+01031102741ADDAY141061AY221061GF108991081061008001999999MA1999999096871MD1710111+9999MW1051REMSYN072AAXX  24181 76393 31520 83201 10154 20103 39687 40274 57011 70542 886//;
0217763930999992012112421004+25733-100300FM-12+051599999V0200501N001010072019N0020001N1+01701+01131102371ADDAY121031AY221031GA1081+007201061GF108991081051008001999999IA1099MA1999999096531MD1710341+0181MW1051REMSYN106AAXX  24211 76393 31520 80501 10170 20113 39653 40237 57034 70522 885// 92050 333 0/700 31/// 58018 88624;
0161763930999992012112500004+25733-100300FM-12+051599999V0201101N001010042019N0020001N1+01621+01261102241ADDAY121061AY221061GF106991061051004501001001MA1999999096421MD1710111+9999MW1051REMSYN072AAXX  25001 76393 31420 61101 10162 20126 39642 40224 57011 70522 86500;
0199763930999992012112503004+25733-100300FM-12+051599999V0202001N001012200019N0010001N1+01481+01281102251ADDAY101031AY201031GA1001+999999999GF100991001001999999001001IA1019MA1999999096431MD1210011-0371MW1041REMSYN088AAXX  25031 76393 31910 02001 10148 20128 39643 40225 52001 70400 90250 333 30/// 59037;
0251763930999992012112506004+25733-100300FM-12+051599999V0209999C000012200019N0010001N1+01401+01231102161ADDAY101061AY201061GA1001+999999999GF100991001001999999001001GJ100009IA1019KA1240M+01851KA2240N+01281MA1999999096351MD1710081-0631MW1041REMSYN106AAXX  25061 76393 31910 00000 10140 20123 39635 40216 57008 70400 90550 333 10185 20128 30/// 55000 59063;
0217763930999992012112509004+25733-100300FM-12+051599999V0209999C000010018019N0008001N1+01301+01161101941ADDAY121031AY221031GA1061+001801071GF106991061061001501001001IA1019MA1999999096121MD1710231-0771MW1041REMSYN106AAXX  25091 76393 31208 60000 10130 20116 39612 40194 57023 70422 86600 90850 333 0/300 30/// 59077 86706;
0161763930999992012112512004+25733-100300FM-12+051599999V0209999C000012200019N0008001N1+01261+01161101871ADDAY101061AY201061GF103991031061001501001001MA1999999096031MD1710091+9999MW1051REMSYN072AAXX  25121 76393 31208 30000 10126 20116 39603 40187 57009 70500 83600;
0199763930999992012112515004+25733-100300FM-12+051599999V0202101N001012200019N0008001N1+01461+01231101981ADDAY101031AY201031GA1001+999999999GF100991001001999999001001IA1019MA1999999096131MD1210101-0851MW1041REMSYN088AAXX  25151 76393 31908 02101 10146 20123 39613 40198 52010 70400 91440 333 30/// 59085;
0209763930999992012112518004+25733-100300FM-12+051599999V0201601N001012200019N0008001N1+02081+01361101811ADDGA1001+999999999GF100991001001999999001001IA1019KA1120M+02161KA2240N+01181MA1999999095991MD1710141-0881REMSYN094AAXX  25181 76393 32908 01601 10208 20136 39599 40181 57014 91748 333 10216 20118 30/// 59088;
0217763930999992012112521004+25733-100300FM-12+051599999V0201201N002012200019N0010001N1+02401+01621101381ADDAY101031AY201031GA1011+009601061GF101991011041008001001001IA1019MA1999999095641MD1710351-0891MW1041REMSYN106AAXX  25211 76393 31510 11202 10240 20162 39564 40138 57035 70400 81400 92050 333 0/500 30/// 59089 81632;
0161763930999992012112600004+25733-100300FM-12+051599999V0201201N001012200019N0020001N1+02201+01661101311ADDAY101061AY201061GF102991021051008001001001MA1999999095621MD1710021+9999MW1041REMSYN072AAXX  26001 76393 31520 21201 10220 20166 39562 40131 57002 70400 82500;
0199763930999992012112603004+25733-100300FM-12+051599999V0203201N001012200019N0010001N1+01861+01551101401ADDAY101031AY201031GA1001+999999999GF100991001001999999001001IA1019MA1999999095731MD1210111-0701MW1041REMSYN088AAXX  26031 76393 31910 03201 10186 20155 39573 40140 52011 70400 90250 333 30/// 59070;
0161763930999992012112606004+25733-100300FM-12+051599999V0209999C000019999999N0010001N1+01761+01541101391ADDAY121061AY221061GF105991001001999999001081MA1999999095711MD1710021+9999MW1041REMSYN072AAXX  26061 76393 31910 50000 10176 20154 39571 40139 57002 70422 80008;
0195763930999992012112609004+25733-100300FM-12+051599999V0202701N001012200019N0010001N1+01611+01461101301ADDAY141031AY211031GF104991001001999999001071IA1019MA1999999095591MD1710121-0531MW1051REMSYN100AAXX  26091 76393 31910 42701 10161 20146 39559 40130 57012 70541 80007 90845 333 0/001 30/// 59053;
0161763930999992012112612004+25733-100300FM-12+051599999V0202301N001010360019N0010001N1+01661+01451101321ADDAY141061AY221061GF107991041051002501031999MA1999999095591MD1410001+9999MW1051REMSYN072AAXX  26121 76393 31310 72301 10166 20145 39559 40132 54000 70542 8453/;
0217763930999992012112615004+25733-100300FM-12+051599999V0202601N001010360019N0030001N1+02041+01361101461ADDAY121031AY221031GA1031+008401061GF107991031051008001031021IA1019MA1999999095721MD1210131-0411MW1041REMSYN106AAXX  26151 76393 31530 72601 10204 20136 39572 40146 52013 70422 83532 91450 333 0/355 30/// 59041 83628;
0161763930999992012112618004+25733-100300FM-12+051599999V0200201N001010360019N0030001N1+02501+01491101491ADDAY121061AY221061GF107991011051012501011061MA1999999095761MD1210041+9999MW1041REMSYN072AAXX  26181 76393 31630 70201 10250 20149 39576 40149 52004 70422 81516;
0217763930999992012112621004+25733-100300FM-12+051599999V0203101N001010114019N0030001N1+02441+01521101391ADDAY121031AY221031GA1081+011401061GF108991081051012501999999IA1019MA1999999095711MD1710061+0071MW1041REMSYN106AAXX  26211 76393 31630 83101 10244 20152 39571 40139 57006 70422 885// 92050 333 0/700 30/// 58007 88638;
0363763930999992012112700004+25733-100300FM-12+051599999V0201201N001010114019N0020001N1+02401+01471101491ADDAA103999999AA206000091AA324000091AY121061AY221061GA1061+011401061GF106991061051012501001001IA1019KA1120M+02761KA2180N+01601MA1999999095851MD1210141+0231MW1041REMSYN142AAXX  27001 76393 01620 61201 10240 20147 39585 40149 52014 69901 70422 86500 92350 333 0/500 10276 20160 30/// 50131 58023 69907 79999 86638;EQDQ01  00002PRCP06Q02  00002PRCP24Q03  99992PRCP03
0253763930999992012112703004+25733-100300FM-12+051599999V0202801N001010033019N0010001N1+02001+01731101861ADDAA103000091AY121031AY221031GA1081+003301061GF108991081051004501999999IA1099MA1999999096211MD1210361+0481MW1041REMSYN112AAXX  27031 76393 21410 82801 10200 20173 39621 40186 52036 70422 885// 90250 333 0/5// 31/// 58048 69907 88611;EQDQ01  00002PRCP03
0338763930999992012112706004+25733-100300FM-12+051599999V0202501N001012200019N0010001N1+01781+01531101881ADDAA103999999AA206000091AY101061AY201061GA1011+003001061GF101991011051004501001001GJ102289IA1019KA1240M+02761KA2240N+01601MA1999999096211MD1410001+0501MW1041REMSYN136AAXX  27061 76393 01410 12501 10178 20153 39621 40188 54000 69901 70400 81500 90550 333 0/500 10276 20160 30/// 55038 58050 69907 81610;EQDQ01  00002PRCP06Q02  99992PRCP03
0171763930999992012112709004+25733-100300FM-12+051599999V0209999C000012200019N0010001N1+01621+01431101941ADDGA1001+999999999GF100991001001999999001001IA1019MA1999999096231MD1210021+0641REMSYN082AAXX  27091 76393 32910 00000 10162 20143 39623 40194 52002 90849 333 30/// 58064;
0245763930999992012112712004+25733-100300FM-12+051599999V0209999C000012200019N0010001N1+01561+01401102181ADDAA124000091GA1001+999999999GF100991001001999999001001IA1019KA1240M+02761KA2120N+01501MA1999999096411MD1210181+0821REMSYN100AAXX  27121 76393 32910 00000 10156 20140 39641 40218 52018 91150 333 10276 20150 30144 58082 79999;EQDQ01  00002PRCP24
0217763930999992012112715004+25733-100300FM-12+051599999V0200401N001010039019N0020001N1+01601+01271102671ADDAY121031AY221031GA1071+003901061GF107991071051004501999999IA1019MA1999999096851MD1210441+1131MW1041REMSYN106AAXX  27151 76393 31420 70401 10160 20127 39685 40267 52044 70422 875// 91448 333 0/800 30/// 58113 87613;
0161763930999992012112718004+25733-100300FM-12+051599999V0200401N001010075019N0030001N1+01751+01151102741ADDAY121061AY221061GF107991051051008001011001MA1999999096901MD1210051+9999MW1041REMSYN072AAXX  27181 76393 31530 70401 10175 20115 39690 40274 52005 70422 85510;
0217763930999992012112721004+25733-100300FM-12+051599999V0200701N001010081019N0030001N1+02021+01351102451ADDAY121031AY221031GA1051+008101061GF105991051051008001001001IA1019MA1999999096651MD1710251+0941MW1041REMSYN106AAXX  27211 76393 31530 50701 10202 20135 39665 40245 57025 70422 85500 92050 333 0/700 30/// 58094 85627;
0161763930999992012112800004+25733-100300FM-12+051599999V0201601N001012200019N0020001N1+01901+01321102441ADDAY141061AY211061GF103991031001999999021001MA1999999096661MD1210011+9999MW1051REMSYN072AAXX  28001 76393 31920 31601 10190 20132 39666 40244 52001 70541 83020;
0217763930999992012112803004+25733-100300FM-12+051599999V0201101N002010300019N0010001N1+01761+01371102591ADDAY141031AY221031GA1061+030001031GF106991061001999999031001IA1019MA1999999096811MD1210151+0601MW1051REMSYN106AAXX  28031 76393 31910 61102 10176 20137 39681 40259 52015 70542 86030 90245 333 0/050 30/// 58060 86360;
0161763930999992012112806004+25733-100300FM-12+051599999V0201201N005010360019N0010001N1+01641+00911102571ADDAY141061AY221061GF108991041051008001011001MA1999999096791MD1710021+9999MW1051REMSYN072AAXX  28061 76393 31510 81205 10164 20091 39679 40257 57002 70542 84510;
0217763930999992012112809004+25733-100300FM-12+051599999V0200501N001010063019N0008001N1+01501+00981102541ADDAY141031AY221031GA1071+006301061GF107991071051008001999999IA1019MA1999999096731MD1710061+0501MW1051REMSYN106AAXX  28091 76393 31508 70501 10150 20098 39673 40254 57006 70542 875// 90849 333 0/3// 30/// 58050 87621;
0161763930999992012112812004+25733-100300FM-12+051599999V0200301N001010075019N0008001N1+01461+00891102631ADDAY141061AY221061GF108991081051008001999999MA1999999096801MD1210071+9999MW1051REMSYN072AAXX  28121 76393 31508 80301 10146 20089 39680 40263 52007 70542 885//;
0217763930999992012112815004+25733-100300FM-12+051599999V0200601N001010087019N0020001N1+01561+00851102881ADDAY121031AY221031GA1081+008701061GF108991081051008001999999IA1019MA1999999097001MD1210201+0151MW1041REMSYN106AAXX  28151 76393 31520 80601 10156 20085 39700 40288 52020 70422 885// 91450 333 0/300 30/// 58015 88629;
0161763930999992012112818004+25733-100300FM-12+051599999V0201101N001010120019N0030001N1+01921+01081102751ADDAY121061AY221061GF106991061051012501001001MA1999999096911MD1710091+9999MW1041REMSYN072AAXX  28181 76393 31630 61101 10192 20108 39691 40275 57009 70422 86500;
0217763930999992012112821004+25733-100300FM-12+051599999V0201101N003010090019N0040001N1+01881+01151102421ADDAY121031AY221031GA1061+009001061GF106991061051008001001001IA1019MA1999999096621MD1710291-0031MW1041REMSYN106AAXX  28211 76393 31540 61103 10188 20115 39662 40242 57029 70422 86500 92050 333 0/300 30/// 59003 86630;
0161763930999992012112900004+25733-100300FM-12+051599999V0202301N001010075019N0030001N1+01721+01151102341ADDAY121061AY221061GF106991061051008001001001MA1999999096651MD1210031+9999MW1041REMSYN072AAXX  29001 76393 31530 62301 10172 20115 39665 40234 52003 70422 86500;
0217763930999992012112903004+25733-100300FM-12+051599999V0200701N003010063019N0010001N1+01721+01191102351ADDAY121031AY221031GA1081+006301061GF108991081051008001999999IA1019MA1999999096571MD1210021-0241MW1041REMSYN106AAXX  29031 76393 31510 80703 10172 20119 39657 40235 52002 70422 885// 90245 333 0/3// 30/// 59024 88621;
0161763930999992012112906004+25733-100300FM-12+051599999V0200901N001010075019N0010001N1+01661+01161102351ADDAY121061AY221061GF108991081051008001999999MA1999999096561MD1710011+9999MW1041REMSYN072AAXX  29061 76393 31510 80901 10166 20116 39656 40235 57001 70422 885//;
0217763930999992012112909004+25733-100300FM-12+051599999V0201001N001010057019N0008001N1+01601+01131102161ADDAY121031AY221031GA1081+005701061GF108991081051004501999999IA1019MA1999999096371MD1710191-0361MW1041REMSYN106AAXX  29091 76393 31408 81001 10160 20113 39637 40216 57019 70422 885// 90850 333 0/3// 30/// 59036 88619;
0217763930999992012112915004+25733-100300FM-12+051599999V0200701N001010033019N0010001N1+01601+01341102251ADDAY141031AY241031GA1081+003301071GF108991081071004501001001IA1019MA1999999096441MD1210121-0561MW1051REMSYN106AAXX  29151 76393 31410 80701 10160 20134 39644 40225 52012 70544 88700 91448 333 0/300 30/// 59056 88711;
0161763930999992012112918004+25733-100300FM-12+051599999V0201201N001010042019N0008001N1+01801+01451102241ADDAY141061AY241061GF108991081051004501001001MA1999999096431MD1710011+9999MW1051REMSYN072AAXX  29181 76393 31408 81201 10180 20145 39643 40224 57001 70544 88500;
0217763930999992012112921004+25733-100300FM-12+051599999V0201201N001010048019N0010001N1+01881+01501101951ADDAY141031AY241031GA1081+004801061GF108991081051004501999999IA1019MA1999999096171MD1710261-0451MW1051REMSYN106AAXX  29211 76393 31410 81201 10188 20150 39617 40195 57026 70544 885// 92050 333 0/300 30/// 59045 88616;
0161763930999992012113000004+25733-100300FM-12+051599999V0201201N001010042019N0008001N1+01801+01551101911ADDAY121061AY221061GF108991081051004501999999MA1999999096151MD1710021+9999MW1051REMSYN072AAXX  30001 76393 31408 81201 10180 20155 39615 40191 57002 70522 885//;
0217763930999992012113003004+25733-100300FM-12+051599999V0209999C000012200019N0010001N1+01681+01461102061ADDAY101031AY201031GA1011+002701071GF101991011061002501001001IA1019MA1999999096301MD1210151-0271MW1041REMSYN106AAXX  30031 76393 31310 10000 10168 20146 39630 40206 52015 70400 81600 90250 333 0/300 30/// 59027 81709;
0161763930999992012113006004+25733-100300FM-12+051599999V0201501N001010042019N0010001N1+01701+01441102021ADDAY121061AY221061GF108991081051004501999999MA1999999096251MD1710051+9999MW1041REMSYN072AAXX  30061 76393 31410 81501 10170 20144 39625 40202 57005 70422 885//;
0217763930999992012113009004+25733-100300FM-12+051599999V0209999C000010027019N0008001N1+01741+01521101921ADDAY121031AY221031GA1081+002701061GF108991081051002501999999IA1019MA1999999096151MD1710101-0221MW1051REMSYN106AAXX  30091 76393 31308 80000 10174 20152 39615 40192 57010 70522 885// 90849 333 0/3// 30/// 59022 88609;
0161763930999992012113012004+25733-100300FM-12+051599999V0209999C000010360019N0008001N1+01581+01421101961ADDAY141061AY221061GF105991021051001501011001MA1999999096181MD1210031+9999MW1051REMSYN072AAXX  30121 76393 31208 50000 10158 20142 39618 40196 52003 70542 82510;
0217763930999992012113015004+25733-100300FM-12+051599999V0203101N001010030019N0008001N1+01711+01471102141ADDAY121031AY221031GA1051+003001061GF105991051051002501001001IA1019MA1999999096321MD1210141-0121MW1041REMSYN106AAXX  30151 76393 31308 53101 10171 20147 39632 40214 52014 70422 85500 91449 333 0/300 30/// 59012 85610;
0237763930999992012113018004+25733-100300FM-12+051599999V0201401N001012200019N0008001N1+02381+01591101991ADDAY101061AY201061GA1001+999999999GF100991001001999999001001IA1019KA1120M+02421KA2240N+01501MA1999999096231MD1710091-0201MW1041REMSYN100AAXX  30181 76393 31908 01401 10238 20159 39623 40199 57009 70400 91750 333 10242 20150 30/// 59020;
0195763930999992012113021004+25733-100300FM-12+051599999V0201101N002012200019N0008001N1+02501+01701101691ADDAY141031AY241031GF103991001001999999001081IA1019MA1999999095981MD1710251-0191MW1051REMSYN100AAXX  30211 76393 31908 31102 10250 20170 39598 40169 57025 70544 80008 92050 333 0/007 30/// 59019;
0245763930999992012120100004+25733-100300FM-12+051599999V0201101N001012200019N0010001N1+02221+01681101671ADDAY141061AY241061GF104991001001999999001081IA1019KA1120M+02581KA2180N+01501MA1999999095991MD1210011-0161MW1051REMSYN124AAXX  01001 76393 31910 41101 10222 20168 39599 40167 52001 70544 80008 92352 333 10258 20150 30/// 50131 56007 59016 70000;
0199763930999992012120103004+25733-100300FM-12+051599999V0203201N001012200019N0010001N1+01881+01671101751ADDAY101031AY201031GA1001+999999999GF100991001001999999001001IA1019MA1999999096091MD1210101-0211MW1041REMSYN088AAXX  01031 76393 31910 03201 10188 20167 39609 40175 52010 70400 90250 333 30/// 59021;
0251763930999992012120106004+25733-100300FM-12+051599999V0203301N001012200019N0010001N1+01901+01661101741ADDAY101061AY201061GA1001+999999999GF100991001001999999001001GJ104689IA1019KA1240M+02581KA2240N+01501MA1999999096071MD1710021-0181MW1041REMSYN106AAXX  01061 76393 31910 03301 10190 20166 39607 40174 57002 70400 90550 333 10258 20150 30/// 55078 59018;
0217763930999992012120109004+25733-100300FM-12+051599999V0209999C000012200019N0010001N1+01741+01581101731ADDAY101031AY201031GA1011+001801061GF101991011051001501001001IA1019MA1999999096021MD1710051-0131MW1041REMSYN106AAXX  01091 76393 31210 10000 10174 20158 39602 40173 57005 70400 81500 90850 333 30/// 56300 59013 81606;
0273763930999992012120112004+25733-100300FM-12+051599999V0202701N001012200019N0010001N1+01601+01441101751ADDAA124000091AY141061AY241061GA1001+999999999GF100991001001999999001001IA1019KA1240M+02581KA2120N+01501MA1999999096011MD1710011-0171MW1051REMSYN106AAXX  01121 76393 31910 02701 10160 20144 39601 40175 57001 70544 91150 333 10258 20150 30140 59017 70000;EQDQ01  00002PRCP24
0211763930999992012120115004+25733-100300FM-12+051599999V0202801N001010360019N0100001N1+01721+01631101961ADDAY121031AY221031GA1081+036001041GF108991081001999999021999IA1019MA1999999096161MD1210151+9999MW1041REMSYN100AAXX  01151 76393 31960 82801 10172 20163 39616 40196 52015 70422 8802/ 91448 333 30/// 56/5/ 88462;
0233763930999992012120118004+25733-100300FM-12+051599999V0200601N001012200019N0006001N1+02311+01711101841ADDAY111061AY211061GF102991001001999999001021IA1019KA1120M+02411KA2240N+01501MA1999999096091MD1710071-0141MW1041REMSYN112AAXX  01181 76393 31906 20601 10231 20171 39609 40184 57007 70411 80002 91749 333 10241 20150 30/// 56007 59014;
0199763930999992012120121004+25733-100300FM-12+051599999V0201201N003012200019N0008001N1+02641+01821101531ADDAY141031AY241031GA1001+999999999GF100991001001999999001001IA1019MA1999999095831MD1710261-0151MW1051REMSYN088AAXX  01211 76393 31908 01203 10264 20182 39583 40153 57026 70544 92046 333 30/// 59015;
0125763930999992012120200004+25733-100300FM-12+051599999V0201201N001012200019N0010001N1+02361+01741101511ADDGF103991999999999999999999MA1999999095851REMSYN072AAXX  02001 76393 31910 31201 10236 20174 39585 40151 40151 52002 70544;
0199763930999992012120203004+25733-100300FM-12+051599999V0203201N002012200019N0010001N1+02021+01691101621ADDAY101031AY201031GA1001+999999999GF100991001001999999001001IA1019MA1999999095971MD1210121-0121MW1051REMSYN088AAXX  02031 76393 31910 03202 10202 20169 39597 40162 52012 70500 90250 333 30/// 59012;
0237763930999992012120206004+25733-100300FM-12+051599999V0200701N001012200019N0010001N1+01981+01681101611ADDAY101061AY201061GA1001+999999999GF100991001001999999001001IA1019KA1240M+02701KA2240N+01501MA1999999095961MD1710011-0111MW1051REMSYN100AAXX  02061 76393 31910 00701 10198 20168 39596 40161 57001 70500 90550 333 10270 20150 30/// 59011;
0199763930999992012120209004+25733-100300FM-12+051599999V0200401N001012200019N0010001N1+01801+01681101631ADDAY141031AY241031GA1001+999999999GF100991001001999999001001IA1019MA1999999095941MD1710021-0081MW1051REMSYN088AAXX  02091 76393 31910 00401 10180 20168 39594 40163 57002 70544 90849 333 30/// 59008;
0272763930999992012120212004+25733-100300FM-12+051599999V0203101N001010012019N0005001N1+01821+01731101721ADDAA124000091AY121061AY221061GA1081+001201071GF108991081061001501999999IA1019KA1240M+02701KA2120N+01701MA1999999096001MD1210061-0011MW1051REMSYN124AAXX  02121 76393 31205 83101 10182 20173 39600 40172 52006 70522 886// 91150 333 10270 20170 30160 563// 59001 70000 88704;
0217763930999992012120215004+25733-100300FM-12+051599999V0202701N001010033019N0004001N1+01841+01561101901ADDAY141031AY241031GA1081+003301071GF108991081071004501999999IA1019MA1999999096151MD1210151-0011MW1051REMSYN106AAXX  02151 76393 31404 82701 10184 20156 39615 40190 52015 70544 887// 91448 333 30/// 563// 59001 88711;
0255763930999992012120218004+25733-100300FM-12+051599999V0203401N001010051019N0006001N1+02141+01721101871ADDAY121061AY221061GA1061+005101061GF106991061051004501001001IA1019KA1120M+02191KA2240N+01701MA1999999096121MD1710031+0061MW1041REMSYN118AAXX  02181 76393 31406 63401 10214 20172 39612 40187 57003 70422 86500 91751 333 10219 20170 30/// 56300 58006 86617;
0217763930999992012120221004+25733-100300FM-12+051599999V0201201N002010075019N0010001N1+02361+01741101601ADDAY121031AY221031GA1051+007501061GF105991051051008001001001IA1019MA1999999095901MD1710221+0071MW1041REMSYN106AAXX  02211 76393 31510 51202 10236 20174 39590 40160 57022 70422 85500 92050 333 30/// 56300 58007 85625;
0262763930999992012120300004+25733-100300FM-12+051599999V0209999C000012200019N0010001N1+02341+01711101571ADDAA124000091AY101061AY201061GF103991031051008001001001IA1019KA1120M+02541KA2180N+01701MA1999999095901MD1410001+0051MW1041REMSYN130AAXX  03001 76393 31510 30000 10234 20171 39590 40157 54000 70400 83500 92350 333 10254 20170 30/// 50361 56300 58005 70000 83626;
0199763930999992012120303004+25733-100300FM-12+051599999V0203401N001012200019N0010001N1+02081+01691101621ADDAY101031AY201031GA1001+999999999GF100991001001999999001001IA1019MA1999999095961MD1210061-0011MW1051REMSYN088AAXX  03031 76393 31910 03401 10208 20169 39596 40162 52006 70500 90250 333 30/// 59001;
0251763930999992012120306004+25733-100300FM-12+051599999V0201201N001012200019N0010001N1+01941+01761101571ADDAY101061AY201061GA1001+999999999GF100991001001999999001001GJ102949IA1019KA1240M+02541KA2240N+01701MA1999999095911MD1710051-0051MW1041REMSYN106AAXX  03061 76393 31910 01201 10194 20176 39591 40157 57005 70400 90550 333 10254 20170 30/// 55049 59005;
0199763930999992012120309004+25733-100300FM-12+051599999V0209999C000012200019N0008001N1+01861+01741101511ADDAY141031AY241031GA1001+999999999GF100991001001999999001001IA1019MA1999999095841MD1710071-0101MW1051REMSYN088AAXX  03091 76393 31908 00000 10186 20174 39584 40151 57007 70544 90846 333 30/// 59010;
0279763930999992012120312004+25733-100300FM-12+051599999V0203001N001010003019N0004001N1+01861+01741101501ADDAA124000091AY141061AY241061GA1091+999999999GF109991091999999999999999IA1019KA1240M+02541KA2120N+01801MA1999999095791MD1710051-0211MW1101REMSYN112AAXX  03121 76393 31004 93001 10186 20174 39579 40150 57005 71044 89/// 91150 333 10254 20180 30174 59021 70000;EQDQ01  00002PRCP24
0157763930999992012120315004+25733-100300FM-12+051599999V0202501N001019999999N0006001N1+01901+01621101631ADDAY141031AY241031IA1019MA1999999095911MD1210121-0251MW1101REMSYN088AAXX  03151 76393 31906 /2501 10190 20162 39591 40163 52012 71044 91450 333 30/// 59025;
0255763930999992012120318004+25733-100300FM-12+051599999V0200601N001010063019N0006001N1+02201+01691101591ADDAY121061AY221061GA1051+006301061GF105991051051008001001001IA1019KA1120M+02351KA2240N+01801MA1999999095871MD1710041-0251MW1041REMSYN118AAXX  03181 76393 31506 50601 10220 20169 39587 40159 57004 70422 85500 91750 333 10235 20180 30/// 56300 59025 85621;
0199763930999992012120321004+25733-100300FM-12+051599999V0201201N002012200019N0010001N1+02381+01821101301ADDAY141031AY241031GA1001+999999999GF100991001001999999001001IA1019MA1999999095621MD1710251-0281MW1051REMSYN088AAXX  03211 76393 31910 01202 10238 20182 39562 40130 57025 70544 92050 333 30/// 59028;
0262763930999992012120400004+25733-100300FM-12+051599999V0209999C000012200019N0010001N1+02381+01761101321ADDAA124000091AY101061AY201061GF103991031051008001001001IA1019KA1120M+02501KA2180N+01801MA1999999095661MD1210041-0241MW1041REMSYN130AAXX  04001 76393 31510 30000 10238 20176 39566 40132 52004 70400 83500 92350 333 10250 20180 30/// 50221 56700 59024 70000 83625;
0199763930999992012120403004+25733-100300FM-12+051599999V0201801N001012200019N0010001N1+02081+01781101481ADDAY101031AY201031GA1001+999999999GF100991001001999999001001IA1019MA1999999095821MD1210161-0141MW1041REMSYN088AAXX  04031 76393 31910 01801 10208 20178 39582 40148 52016 70400 90250 333 30/// 59014;
0251763930999992012120406004+25733-100300FM-12+051599999V0201501N001012200019N0010001N1+02001+01701101461ADDAY101061AY201061GA1001+999999999GF100991001001999999001001GJ103189IA1019KA1240M+02501KA2240N+01801MA1999999095791MD1710031-0121MW1041REMSYN106AAXX  04061 76393 31910 01501 10200 20170 39579 40146 57003 70400 90550 333 10250 20180 30/// 55053 59012;
0199763930999992012120409004+25733-100300FM-12+051599999V0209999C000012200019N0010001N1+01781+01631101531ADDAY141031AY241031GA1001+999999999GF100991001001999999001001IA1019MA1999999095831MD1210041-0011MW1051REMSYN088AAXX  04091 76393 31910 00000 10178 20163 39583 40153 52004 70544 90849 333 30/// 59001;
0273763930999992012120412004+25733-100300FM-12+051599999V0209999C000012200019N0010001N1+01761+01601101631ADDAA124000091AY141061AY241061GA1001+999999999GF100991001001999999001001IA1019KA1240M+02501KA2120N+01661MA1999999095901MD1210071+0111MW1051REMSYN106AAXX  04121 76393 31910 00000 10176 20160 39590 40163 52007 70544 91150 333 10250 20166 30160 58011 70000;EQDQ01  00002PRCP24
0199763930999992012120415004+25733-100300FM-12+051599999V0203101N001012200019N0010001N1+02021+01721101891ADDAY141031AY221031GA1001+999999999GF100991001001999999001001IA1019MA1999999096161MD1210261+0251MW1051REMSYN088AAXX  04151 76393 31910 03101 10202 20172 39616 40189 52026 70542 91448 333 30/// 58025;
0237763930999992012120418004+25733-100300FM-12+051599999V0203001N001012200019N0010001N1+02501+01731101891ADDAY141061AY221061GA1001+999999999GF100991001001999999001001IA1019KA1120M+02631KA2240N+01661MA1999999096161MD1410001+0291MW1051REMSYN100AAXX  04181 76393 31910 03001 10250 20173 39616 40189 54000 70542 91749 333 10263 20166 30/// 58029;
0217763930999992012120421004+25733-100300FM-12+051599999V0200601N001012200019N0020001N1+02841+01541101621ADDAY101031AY201031GA1021+015001061GF102991021051017501001001IA1019MA1999999095961MD1710201+0331MW1041REMSYN106AAXX  04211 76393 31720 20601 10284 20154 39596 40162 57020 70400 82500 92050 333 30/// 56800 58033 82650;
0262763930999992012120500004+25733-100300FM-12+051599999V0201201N003012200019N0020001N1+02601+01841101701ADDAA124000091AY101061AY201061GF104991041051008001001001IA1019KA1120M+03021KA2180N+01661MA1999999096071MD1210111+0411MW1041REMSYN130AAXX  05001 76393 31520 41203 10260 20184 39607 40170 52011 70400 84500 92350 333 10302 20166 30/// 50211 56700 58041 70000 84632;
0217763930999992012120503004+25733-100300FM-12+051599999V0200401N002012200019N0010001N1+02301+01701101981ADDAY101031AY201031GA1031+007201061GF103991031051008001001001IA1019MA1999999096371MD1210301+0551MW1041REMSYN106AAXX  05031 76393 31510 30402 10230 20170 39637 40198 52030 70400 83500 90250 333 30/// 56500 58055 83624;
0253763930999992012120506004+25733-100300FM-12+051599999V0203501N001012200019N0010001N1+02181+01631102061ADDAY101061AY201061GF102991021051008001001001GJ104089IA1019KA1240M+03021KA2240N+01661MA1999999096431MD1210061+0641MW1041REMSYN124AAXX  05061 76393 31510 23501 10218 20163 39643 40206 52006 70400 82500 90550 333 10302 20166 30/// 55068 56500 58064 82622;
0217763930999992012120509004+25733-100300FM-12+051599999V0200301N001010075019N0010001N1+01981+01381102121ADDAY121031AY221031GA1071+007501061GF107991071051008001999999IA1019MA1999999096451MD1210021+0621MW1041REMSYN106AAXX  05091 76393 31510 70301 10198 20138 39645 40212 52002 70422 875// 90850 333 30/// 563// 58062 87625;
0278763930999992012120512004+25733-100300FM-12+051599999V0200401N00101036001CN0010001N1+01801+01091102231ADDAA124000091AY121061AY221061GA1041+008701061GF107991041051008001011999IA1019KA1240M+03021KA2120N+01701MA1999999096511MD1210061+0611MW1041REMSYN130AAXX  05121 76393 31510 70401 10180 20109 39651 40223 52006 70422 8451/ 91150 333 10302 20170 30160 5671/ 58061 70000 84629 83460;
0217763930999992012120515004+25733-100300FM-12+051599999V0200601N001012200019N0020001N1+01841+01141102441ADDAY101031AY201031GA1011+008701061GF101991011051008001001001IA1019MA1999999096681MD1210171+0521MW1041REMSYN106AAXX  05151 76393 31520 10601 10184 20114 39668 40244 52017 70400 81500 91452 333 30/// 56050 58052 81629;
0249763930999992012120518004+25733-100300FM-12+051599999V0201101N001012200019N0030001N1+02271+01261102241ADDAY141061AY221061GA1011+012301061GF101991011051012501001001IA1019KA1120M+02381KA2240N+01701MA1999999096491MD1710191+0331MW1051REMSYN112AAXX  05181 76393 31630 11101 10227 20126 39649 40224 57019 70542 81500 91751 333 10238 20170 30/// 58033 81641;
0217763930999992012120521004+25733-100300FM-12+051599999V0201101N001012200019N0030001N1+02461+01441101761ADDAY101031AY201031GA1011+012601061GF101991011051999999001001IA1019MA1999999096061MD1710431+0101MW1041REMSYN106AAXX  05211 76393 31930 11101 10246 20144 39606 40176 57043 70400 81500 92050 333 30/// 56500 58010 81642;
0262763930999992012120600004+25733-100300FM-12+051599999V0201201N001012200019N0040001N1+02381+01341101671ADDAA124000091AY101061AY201061GF102991021051012501001001IA1019KA1120M+02641KA2180N+01701MA1999999096011MD1710051-0061MW1041REMSYN130AAXX  06001 76393 31640 21201 10238 20134 39601 40167 57005 70400 82500 92350 333 10264 20170 30/// 50391 56300 59006 70000 82643;
0199763930999992012120603004+25733-100300FM-12+051599999V0201201N001012200019N0010001N1+02001+01021101701ADDAY101031AY201031GA1001+999999999GF100991001001999999001001IA1019MA1999999096041MD1210031-0331MW1041REMSYN088AAXX  06031 76393 31910 01201 10200 20102 39604 40170 52003 70400 90250 333 30/// 59033;
0251763930999992012120606004+25733-100300FM-12+051599999V0203501N001012200019N0010001N1+01681+01151101631ADDAY101061AY201061GA1001+999999999GF100991001001999999001001GJ105529IA1019KA1240M+02641KA2240N+01701MA1999999095961MD1710081-0471MW1041REMSYN106AAXX  06061 76393 31910 03501 10168 20115 39596 40163 57008 70400 90550 333 10264 20170 30/// 55092 59047;
0171763930999992012120609004+25733-100300FM-12+051599999V0202201N001012200019N0010001N1+01601+01201101501ADDGA1001+999999999GF100991001001999999001001IA1019MA1999999095801MD1710161-0651REMSYN082AAXX  06091 76393 32910 02201 10160 20120 39580 40150 57016 90849 333 30/// 59065;
0245763930999992012120612004+25733-100300FM-12+051599999V0209999C000012200019N0010001N1+01481+01141101451ADDAA124000091GA1001+999999999GF100991001001999999001001IA1019KA1240M+02641KA2120N+01401MA1999999095711MD1710091-0801REMSYN100AAXX  06121 76393 32910 00000 10148 20114 39571 40145 57009 91151 333 10264 20140 30132 59080 70000;EQDQ01  00002PRCP24
0199763930999992012120615004+25733-100300FM-12+051599999V0201801N001012200019N0020001N1+01741+01221101551ADDAY141031AY221031GA1001+999999999GF100991001001999999001001IA1019MA1999999095781MD1210071-0901MW1051REMSYN088AAXX  06151 76393 31920 01801 10174 20122 39578 40155 52007 70542 91440 333 30/// 59090;
0237763930999992012120618004+25733-100300FM-12+051599999V0200101N001012200019N0020001N1+02361+01321101371ADDAY141061AY221061GA1001+999999999GF100991001001999999001001IA1019KA1120M+02461KA2240N+01401MA1999999095641MD1710141-0851MW1051REMSYN100AAXX  06181 76393 31920 00101 10236 20132 39564 40137 57014 70542 91751 333 10246 20140 30/// 59085;
0199763930999992012120621004+25733-100300FM-12+051599999V0201201N002012200019N0020001N1+02721+01351100971ADDAY141031AY241031GA1001+999999999GF100991001001999999001001IA1019MA1999999095301MD1710331-0761MW1051REMSYN088AAXX  06211 76393 31920 01202 10272 20135 39530 40097 57033 70544 92050 333 30/// 59076;
0262763930999992012120700004+25733-100300FM-12+051599999V0201201N001012200019N0020001N1+02381+01411100921ADDAA124000091AY101061AY201061GF102991001001999999001081IA1019KA1120M+02781KA2180N+01401MA1999999095301MD1410001-0711MW1041REMSYN130AAXX  07001 76393 31920 21201 10238 20141 39530 40092 54000 70400 80008 92352 333 10278 20140 30/// 50401 56007 59071 70000 82270;
0199763930999992012120703004+25733-100300FM-12+051599999V0202501N001012200019N0010001N1+02041+01371100971ADDAY101031AY201031GA1001+999999999GF100991001001999999001001IA1019MA1999999095371MD1210071-0671MW1041REMSYN088AAXX  07031 76393 31910 02501 10204 20137 39537 40097 52007 70400 90250 333 30/// 59067;
0251763930999992012120706004+25733-100300FM-12+051599999V0201901N001012200019N0010001N1+01841+01361100931ADDAY101061AY201061GA1001+999999999GF100991001001999999001001GJ105589IA1019KA1240M+02781KA2240N+01401MA1999999095321MD1710051-0641MW1041REMSYN106AAXX  07061 76393 31910 01901 10184 20136 39532 40093 57005 70400 90550 333 10278 20140 30/// 55093 59064;
0199763930999992012120709004+25733-100300FM-12+051599999V0209999C000012200019N0010001N1+01621+01291100841ADDAY101031AY201031GA1001+999999999GF100991001001999999001001IA1019MA1999999095191MD1710131-0611MW1041REMSYN088AAXX  07091 76393 31910 00000 10162 20129 39519 40084 57013 70400 90850 333 30/// 59061;
0273763930999992012120712004+25733-100300FM-12+051599999V0202501N001012200019N0010001N1+01501+01131100841ADDAA124000091AY101061AY201061GA1001+999999999GF100991001001999999001001IA1019KA1240M+02781KA2120N+01421MA1999999095141MD1710051-0561MW1041REMSYN106AAXX  07121 76393 31910 02501 10150 20113 39514 40084 57005 70400 91149 333 10278 20142 30136 59056 70000;EQDQ01  00002PRCP24
0217763930999992012120715004+25733-100300FM-12+051599999V0202001N001010900019N0020001N1+01961+01121101001ADDAY141031AY221031GA1071+090001001GF107991001001999999001051IA1019MA1999999095281MD1210141-0501MW1051REMSYN106AAXX  07151 76393 31920 72001 10196 20112 39528 40100 52014 70542 80005 91452 333 30/// 56005 59050 87080;
0233763930999992012120718004+25733-100300FM-12+051599999V0200601N001012200019N0030001N1+02601+01211100901ADDAY141061AY221061GF103991001001999999001021IA1019KA1120M+02731KA2240N+01421MA1999999095211MD1710071-0431MW1051REMSYN112AAXX  07181 76393 31930 30601 10260 20121 39521 40090 57007 70542 80002 91750 333 10273 20142 30/// 56005 59043;
0195763930999992012120721004+25733-100300FM-12+051599999V0201201N003012200019N0020001N1+02881+01521100601ADDAY101031AY201031GF103991001001999999001081IA1019MA1999999094971MD1710231-0331MW1041REMSYN100AAXX  07211 76393 31920 31203 10288 20152 39497 40060 57023 70400 80008 92050 333 30/// 56007 59033;
0234763930999992012120800004+25733-100300FM-12+051599999V0201201N002019999999N0020001N1+02421+01531100641ADDAA124000091GF105991999999999999999999KA1120M+02981KA2180N+01421MA1999999095061MD1210091-0241REMSYN130AAXX  08001 76393 31920 51202 10242 20153 39506 40064 52009 52020 70422 92352 333 10298 20142 30/// 50421 56070 59024 70000 85450;
0273763930999992012120812004+25733-100300FM-12+051599999V0203601N001012200019N0010001N1+01701+01201100891ADDAA124000091AY141061AY241061GA1001+999999999GF100991001001999999001001IA1019KA1240M+02981KA2120N+01621MA1999999095221MD1210091+0081MW1051REMSYN106AAXX  08121 76393 31910 03601 10170 20120 39522 40089 52009 70544 91150 333 10298 20162 30154 58008 70000;EQDQ01  00002PRCP24
0195763930999992012120815004+25733-100300FM-12+051599999V0202501N001012200019N0010001N1+02001+01141101101ADDAY141031AY201031GF103991001001999999001081IA1019MA1999999095391MD1210171+0111MW1051REMSYN100AAXX  08151 76393 31910 32501 10200 20114 39539 40110 52017 70540 80008 91445 333 30/// 56007 58011;
0255763930999992012120818004+25733-100300FM-12+051599999V0200201N001010600019N0008001N1+02501+01301101081ADDAY141061AY241061GA1061+060001001GF106991001001999999001081IA1019KA1120M+02661KA2240N+01621MA1999999095391MD1410001+0181MW1051REMSYN118AAXX  08181 76393 31908 60201 10250 20130 39539 40108 54000 70544 80008 91744 333 10266 20162 30/// 56007 58018 86070;
0195763930999992012120821004+25733-100300FM-12+051599999V0201101N003012200019N0020001N1+02781+01651100751ADDAY141031AY201031GF102991001001999999001081IA1019MA1999999095131MD1710261+0161MW1051REMSYN100AAXX  08211 76393 31920 21103 10278 20165 39513 40075 57026 70540 80008 92045 333 30/// 56005 58016;
0262763930999992012120900004+25733-100300FM-12+051599999V0201201N006019999999N0020001N1+02401+01651100801ADDAA124000091AY141061AY221061GF106991021001999999021051IA1019KA1120M+02961KA2180N+01621MA1999999095211MD1210081+0151MW1051REMSYN130AAXX  09001 76393 31920 61206 10240 20165 39521 40080 52008 70542 82025 92345 333 10296 20162 30/// 50321 56035 58015 70000 84460;
0199763930999992012120903004+25733-100300FM-12+051599999V0200701N001012200019N0010001N1+02161+01651100891ADDAY101031AY201031GA1001+999999999GF100991001001999999001001IA1019MA1999999095321MD1210111+0141MW1041REMSYN088AAXX  09031 76393 31910 00701 10216 20165 39532 40089 52011 70400 90250 333 30/// 58014;
0253763930999992012120906004+25733-100300FM-12+051599999V0202401N001012200019N0010001N1+02021+01651100951ADDAY101061AY201061GF102991021001999999031001GJ104989IA1019KA1240M+02961KA2240N+01621MA1999999095361MD1210041+0161MW1041REMSYN124AAXX  09061 76393 31910 22401 10202 20165 39536 40095 52004 70400 82030 90550 333 10296 20162 30/// 55083 56070 58016 82359;
0217763930999992012120909004+25733-100300FM-12+051599999V0209999C000012200019N0010001N1+01881+01471100871ADDAY101031AY201031GA1031+030001031GF103991031001999999031001IA1019MA1999999095251MD1710111+0121MW1041REMSYN106AAXX  09091 76393 31910 30000 10188 20147 39525 40087 57011 70400 83030 90850 333 30/// 56070 58012 83360;
0272763930999992012120912004+25733-100300FM-12+051599999V0203101N001010330019N0010001N1+01861+01551100941ADDAA124000091AY121061AY221061GA1061+033001041GF106991061001999999021001IA1019KA1240M+02961KA2120N+01761MA1999999095291MD1210041+0071MW1051REMSYN124AAXX  09121 76393 31910 63101 10186 20155 39529 40094 52004 70522 86020 91150 333 10296 20176 30170 56070 58007 70000 86461;
0217763930999992012120915004+25733-100300FM-12+051599999V0201401N001010045019N0010001N1+01961+01591101121ADDAY121031AY221031GA1061+004501061GF107991061051999999031001IA1019MA1999999095431MD1210141+0041MW1041REMSYN106AAXX  09151 76393 31910 71401 10196 20159 39543 40112 52014 70422 86530 91449 333 30/// 56370 58004 86615;
0249763930999992012120918004+25733-100300FM-12+051599999V0201101N001010084019N0020001N1+02211+01521101081ADDAY121061AY221061GA1061+008401061GF107991061051008001031001IA1019KA1120M+02301KA2240N+01761MA1999999095411MD1710021+0021MW1041REMSYN112AAXX  09181 76393 31520 71101 10221 20152 39541 40108 57002 70422 86530 91751 333 10230 20176 30/// 58002 86628;
0217763930999992012120921004+25733-100300FM-12+051599999V0201501N001010111019N0020001N1+02361+01461100821ADDAY121031AY221031GA1061+011101061GF106991061051012501001001IA1019MA1999999095181MD1710231+0051MW1041REMSYN106AAXX  09211 76393 31620 61501 10236 20146 39518 40082 57023 70422 86500 92050 333 30/// 56700 58005 86637;
0262763930999992012121000004+25733-100300FM-12+051599999V0209999C000010360019N0020001N1+02241+01531100781ADDAA124000091AY121061AY221061GF106991041051008001011001IA1019KA1120M+02521KA2180N+01761MA1999999095161MD1710021-0051MW1041REMSYN130AAXX  10001 76393 31520 60000 10224 20153 39516 40078 57002 70422 84510 92350 333 10252 20176 30/// 50401 56770 59005 70000 84629;
0199763930999992012121003004+25733-100300FM-12+051599999V0201801N001012200019N0010001N1+02021+01391100911ADDAY101031AY201031GA1001+999999999GF100991001001999999001001IA1019MA1999999095291MD1210131-0031MW1041REMSYN088AAXX  10031 76393 31910 01801 10202 20139 39529 40091 52013 70400 90250 333 30/// 59003;
0251763930999992012121006004+25733-100300FM-12+051599999V0202101N001012200019N0010001N1+01841+01221100971ADDAY101061AY201061GA1001+999999999GF100991001001999999001001GJ100009IA1019KA1240M+02521KA2240N+01761MA1999999095341MD1210051-0021MW1041REMSYN106AAXX  10061 76393 31910 02101 10184 20122 39534 40097 52005 70400 90550 333 10252 20176 30/// 55000 59002;
0199763930999992012121009004+25733-100300FM-12+051599999V0202301N001012200019N0010001N1+01681+01031100931ADDAY141031AY241031GA1001+999999999GF100991001001999999001001IA1019MA1999999095271MD1710071+0021MW1051REMSYN088AAXX  10091 76393 31910 02301 10168 20103 39527 40093 57007 70544 90245 333 30/// 58002;
0269763930999992012121012004+25733-100300FM-12+051599999V0202701N001012200019N0010001N1+01761+00801101041ADDAA124000091AY141061AY211061GF104991021001999999011081IA1019KA1240M+02521KA2120N+01661MA1999999095341MD1210071+0051MW1051REMSYN118AAXX  10121 76393 31910 42701 10176 20080 39534 40104 52007 70541 82018 91150 333 10252 20166 30160 56055 58005 70000;EQDQ01  00002PRCP24
0217763930999992012121015004+25733-100300FM-12+051599999V0200601N001010360019N0020001N1+01421+00811101701ADDAY121031AY221031GA1031+007501061GF105991031051008001061001IA1019MA1999999095941MD1210601+0511MW1041REMSYN106AAXX  10151 76393 31520 50601 10142 20081 39594 40170 52060 70422 83560 91450 333 30/// 56170 58051 83625;
0255763930999992012121018004+25733-100300FM-12+051599999V0200201N001010360019N0020001N1+01381+00191101871ADDAY111061AY211061GA1031+014701061GF106991031051012501041001IA1019KA1120M+01481KA2240N+01261MA1999999096071MD1210131+0661MW1041REMSYN118AAXX  10181 76393 31620 60201 10138 20019 39607 40187 52013 70411 83540 91750 333 10148 20126 30/// 56350 58066 83649;
0217763930999992012121021004+25733-100300FM-12+051599999V0200301N001010144019N0030001N1+01421+00251101611ADDAY121031AY221031GA1081+014401061GF108991081051012501999999IA1019MA1999999095811MD1710261+0631MW1051REMSYN106AAXX  10211 76393 31630 80301 10142 20025 39581 40161 57026 70522 885// 92050 333 30/// 563// 58063 88648;
0262763930999992012121100004+25733-100300FM-12+051599999V0200601N001010150019N0020001N1+01421+00021101671ADDAA124000091AY121061AY221061GF108991081051017501999999IA1019KA1120M+01621KA2180N+01261MA1999999095861MD1210051+0701MW1041REMSYN130AAXX  11001 76393 31720 80601 10142 20002 39586 40167 52005 70422 885// 92350 333 10162 20126 30/// 50471 563// 58070 70000 88656;
0223763930999992012121103004+25733-100300FM-12+051599999V0202501N00201036001CN0010001N1+01221+00281101821ADDAY121031AY221031GA1021+010501061GF105991021051012501011001IA1019MA1999999095991MD1210131+0701MW1041REMSYN112AAXX  11031 76393 31610 52502 10122 20028 39599 40182 52013 70422 82510 90250 333 30/// 56350 58070 82635 83459;
0247763930999992012121106004+25733-100300FM-12+051599999V0201201N001012200019N0010001N1+01061+00061101841ADDAY101061AY201061GF101991011001999999011001GJ101509IA1019KA1240M+01621KA2240N+01061MA1999999095991MD1410001+9999MW1041REMSYN118AAXX  11061 76393 31910 11201 10106 20006 39599 40184 54000 70400 81010 90545 333 10162 20106 30/// 55025 56050 58065;
0199763930999992012121109004+25733-100300FM-12+051599999V0201801N001012200019N0010001N1+00861+00071101731ADDAY141031AY241031GA1001+999999999GF100991001001999999001001IA1019MA1999999095861MD1710131+0591MW1051REMSYN088AAXX  11091 76393 31910 01801 10086 20007 39586 40173 57013 70544 90850 333 30/// 58059;
0272763930999992012121112004+25733-100300FM-12+051599999V0209999C000010300019N0010001N1+00901+00061101801ADDAA124000091AY121061AY221061GA1071+030001041GF107991071999999999021999IA1019KA1240M+01621KA2120N+00781MA1999999095901MD1210041+0561MW1041REMSYN124AAXX  11121 76393 31910 70000 10090 20006 39590 40180 52004 70422 87/2/ 91150 333 10162 20078 30070 56/1/ 58056 70000 87460;
0195763930999992012121115004+25733-100300FM-12+051599999V0200901N001012200019N0030001N1+01071-00081102011ADDAY101031AY201031GF101991001001999999001041IA1019MA1999999096081MD1210181+0141MW1041REMSYN100AAXX  11151 76393 31930 10901 10107 21008 39608 40201 52018 70400 80004 91450 333 30/// 56001 58014;
0255763930999992012121118004+25733-100300FM-12+051599999V0201101N001012200019N0030001N1+01391+00151102021ADDAY101061AY201061GA1011+015001061GF101991011051017501001001IA1019KA1120M+01501KA2240N+00781MA1999999096091MD1210011+0021MW1041REMSYN118AAXX  11181 76393 31730 11101 10139 20015 39609 40202 52001 70400 81500 91750 333 10150 20078 30/// 56500 58002 81650;
0217763930999992012121121004+25733-100300FM-12+051599999V0201201N005012200019N0040001N1+01541+00261101711ADDAY101031AY201031GA1011+015001061GF101991011041017501001001IA1019MA1999999095831MD1710271+0021MW1041REMSYN106AAXX  11211 76393 31740 11205 10154 20026 39583 40171 57027 70400 81400 92050 333 30/// 56500 58002 81650;
0262763930999992012121200004+25733-100300FM-12+051599999V0201201N003012200019N0040001N1+01321+00271101781ADDAA124000091AY101061AY201061GF102991021051012501001001IA1019KA1120M+01661KA2180N+00781MA1999999095941MD1210111+0081MW1041REMSYN130AAXX  12001 76393 31640 21203 10132 20027 39594 40178 52011 70400 82500 92350 333 10166 20078 30/// 50411 56300 58008 70000 82643;
0217763930999992012121203004+25733-100300FM-12+051599999V0201101N004012200019N0010001N1+01081+00121102031ADDAY101031AY201031GA1031+011701061GF103991031051012501001001IA1019MA1999999096171MD1210231+0181MW1041REMSYN106AAXX  12031 76393 31610 31104 10108 20012 39617 40203 52023 70400 83500 90245 333 30/// 56300 58018 83639;
0191763930999992012121206004+25733-100300FM-12+051599999V0201001N003019999999N0010001N1+01041+00251102251ADDAA106000091AY121061AY221061GF106991999999008001999999MA1999999096371MD1210201+9999MW1041REMSYN072AAXX  12061 76393 01510 61003 10104 20025 39637 40225 52020 69901 70422;EQDQ01  00002PRCP06
0199763930999992012121209004+25733-100300FM-12+051599999V0209999C000012200019N0010001N1+00801+00191102301ADDAY141031AY241031GA1001+999999999GF100991001001999999001001IA1019MA1999999096401MD1210031+0541MW1051REMSYN088AAXX  12091 76393 31910 00000 10080 20019 39640 40230 52003 70544 90850 333 30/// 58054;
0273763930999992012121212004+25733-100300FM-12+051599999V0200801N001012200019N0010001N1+00781+00171102371ADDAA124000091AY141061AY241061GA1001+999999999GF100991001001999999001001IA1019KA1240M+01661KA2120N+00681MA1999999096431MD1210031+0531MW1051REMSYN106AAXX  12121 76393 31910 00801 10078 20017 39643 40237 52003 70544 91149 333 10166 20068 30060 58053 79999;EQDQ01  00002PRCP24
0199763930999992012121215004+25733-100300FM-12+051599999V0201301N001012200019N0030001N1+01011+00411102601ADDAY101031AY201031GA1001+999999999GF100991001001999999001001IA1019MA1999999096631MD1210201+0551MW1041REMSYN088AAXX  12151 76393 31930 01301 10101 20041 39663 40260 52020 70400 91449 333 30/// 58055;
0237763930999992012121218004+25733-100300FM-12+051599999V0201301N001012200019N0030001N1+01511+00551102521ADDAY101061AY201061GA1001+999999999GF100991001001999999001001IA1019KA1120M+01591KA2240N+00681MA1999999096571MD1710061+0471MW1041REMSYN100AAXX  12181 76393 31930 01301 10151 20055 39657 40252 57006 70400 91755 333 10159 20068 30/// 58047;
0199763930999992012121221004+25733-100300FM-12+051599999V0201201N002012200019N0030001N1+01741+00601102211ADDAY101031AY201031GA1001+999999999GF100991001001999999001001IA1019MA1999999096321MD1710241-0491MW1041REMSYN088AAXX  12211 76393 31930 01202 10174 20060 39632 40221 57024 70400 92050 333 30/// 59049;
0279763930999992012121300004+25733-100300FM-12+051599999V0201201N005012200019N0040001N1+01541+00521102171ADDAA124000091AY141061AY241061GA1001+999999999GF100991001001999999001001IA1019KA1120M+01921KA2180N+00681MA1999999096331MD1210011+0391MW1051REMSYN112AAXX  13001 76393 31940 01205 10154 20052 39633 40217 52001 70544 92350 333 10192 20068 30/// 50431 58039 79999;EQDQ01  00002PRCP24
0251763930999992012121306004+25733-100300FM-12+051599999V0202501N001012200019N0010001N1+01221+00571102181ADDAY101061AY201061GA1001+999999999GF100991001001999999001001GJ105589IA1019KA1240M+01921KA2240N+00681MA1999999096361MD1999999-0011MW1041REMSYN106AAXX  13061 76393 31910 02501 10122 20057 39636 40218 5//// 70400 90550 333 10192 20068 30/// 55093 59001;
0199763930999992012121309004+25733-100300FM-12+051599999V0209999C000012200019N0010001N1+01001+00531102171ADDAY101031AY201031GA1001+999999999GF100991001001999999001001IA1019MA1999999096321MD1710041-0081MW1041REMSYN088AAXX  13091 76393 31910 00000 10100 20053 39632 40217 57004 70400 90849 333 30/// 59008;
0272763930999992012121312004+25733-100300FM-12+051599999V0209999C000012200019N0010001N1+00941+00461102191ADDAA124000091AY101061AY201061GA1021+006001061GF102991021051004501001001IA1019KA1240M+01921KA2120N+00841MA1999999096301MD1710021-0131MW1041REMSYN124AAXX  13121 76393 31410 20000 10094 20046 39630 40219 57002 70400 82500 91150 333 10192 20084 30076 56300 59013 70000 82620;
0177763930999992012121315004+25733-100300FM-12+051599999V0202901N001019999999N0020001N1+01141+00561102381ADDGA1041+007201071GF106991999999008001999999IA1019MA1999999096461MD1999999-0171REMSYN088AAXX  13151 76393 31520 62901 10114 20056 39646 40238 91450 333 30/// 56306 59017 84724;
0255763930999992012121318004+25733-100300FM-12+051599999V0200901N001010093019N0020001N1+01561+00811102321ADDAY121061AY221061GA1051+009301061GF107991051051008001001041IA1019KA1120M+01661KA2240N+00841MA1999999096401MD1710061-0171MW1041REMSYN118AAXX  13181 76393 31520 70901 10156 20081 39640 40232 57006 70422 85504 91752 333 10166 20084 30/// 56505 59017 85631;
0217763930999992012121321004+25733-100300FM-12+051599999V0200601N002010048019N0020001N1+01621+01221101991ADDAY121031AY221031GA1051+004801061GF106991051051004501021001IA1019MA1999999096131MD1710271-0191MW1041REMSYN106AAXX  13211 76393 31420 60602 10162 20122 39613 40199 57027 70422 85520 92050 333 30/// 56370 59019 85616;
0262763930999992012121400004+25733-100300FM-12+051599999V0200601N001010075019N0020001N1+01501+01011101931ADDAA124000091AY141061AY221061GF108991081051008001001001IA1019KA1120M+01841KA2180N+00841MA1999999096101MD1710031-0231MW1051REMSYN130AAXX  14001 76393 31520 80601 10150 20101 39610 40193 57003 70542 88500 92345 333 10184 20084 30/// 50091 56300 59023 70000 88620;
0217763930999992012121403004+25733-100300FM-12+051599999V0200201N001010018019N0010001N1+01401+01231101971ADDAY121031AY221031GA1081+001801071GF108991081071002501999999IA1019MA1999999096161MD1210061-0261MW1041REMSYN106AAXX  14031 76393 31310 80201 10140 20123 39616 40197 52006 70422 887// 90250 333 30/// 563// 59026 88706;
0253763930999992012121406004+25733-100300FM-12+051599999V0201201N001010021019N0010001N1+01541+01211101911ADDAY121061AY221061GF108991081071002501999999GJ103189IA1019KA1240M+01841KA2240N+00841MA1999999096101MD1710061-0261MW1041REMSYN124AAXX  14061 76393 31310 81201 10154 20121 39610 40191 57006 70422 887// 90550 333 10184 20084 30/// 55053 563// 59026 88709;
0217763930999992012121409004+25733-100300FM-12+051599999V0209999C000010036019N0010001N1+01521+01221101811ADDAY121031AY221031GA1081+003601061GF108991081051004501999999IA1019MA1999999096011MD1710091-0311MW1041REMSYN106AAXX  14091 76393 31410 80000 10152 20122 39601 40181 57009 70422 885// 90849 333 30/// 563// 59031 88612;
0272763930999992012121412004+25733-100300FM-12+051599999V0209999C000010012019N0008001N1+01561+01461101711ADDAA124000091AY121061AY221061GA1081+001201071GF108991081061001501999999IA1019KA1240M+01841KA2120N+01481MA1999999095911MD1710101-0391MW1041REMSYN124AAXX  14121 76393 31208 80000 10156 20146 39591 40171 57010 70422 886// 91149 333 10184 20148 30140 563// 59039 70000 88704;
0253763930999992012121415004+25733-100300FM-12+051599999V0202101N001010033019N0008001N1+01661+01401101891ADDAA103000091AY121031AY221031GA1081+003301061GF108991081051004501999999IA1019MA1999999096081MD1210171-0381MW1041REMSYN112AAXX  14151 76393 21408 82101 10166 20140 39608 40189 52017 70422 885// 91450 333 30/// 563// 59038 69907 88611;EQDQ01  00002PRCP03
0255763930999992012121418004+25733-100300FM-12+051599999V0200401N001010360019N0008001N1+02181+01601101711ADDAY121061AY221061GA1031+007201061GF105991031051008001031001IA1019KA1120M+02281KA2240N+01481MA1999999095951MD1710131-0451MW1041REMSYN118AAXX  14181 76393 31508 50401 10218 20160 39595 40171 57013 70422 83530 91750 333 10228 20148 30/// 56350 59045 83624;
0211763930999992012121421004+25733-100300FM-12+051599999V0200301N001010054019N0010001N1+02141+01691101281ADDAY141031AY241031GA1061+005401061GF106991061051004501001001IA1019MA1999999095571MD1710381-0561MW1051REMSYN100AAXX  14211 76393 31410 60301 10214 20169 39557 40128 57038 70544 86500 92045 333 30/// 59056 86618;
0303763930999992012121500004+25733-100300FM-12+051599999V0201101N001010360019N0010001N1+02081+01751101191ADDAA124999999AY141061AY241061GA1011+004201061GF108991011051004501021081IA1019KA1120M+02341KA2180N+01481MA1999999095511MD1710061-0591MW1051REMSYN136AAXX  15001 76393 31410 81101 10208 20175 39551 40119 57006 70544 81528 92350 333 10234 20148 30/// 50241 56335 59059 79999 81614 84460;EQDQ01  99992PRCP24
0217763930999992012121503004+25733-100300FM-12+051599999V0201501N001010270019N0010001N1+01981+01771101181ADDAY121031AY221031GA1051+027001041GF105991051001999999011001IA1019MA1999999095521MD1210011-0641MW1041REMSYN106AAXX  15031 76393 31910 51501 10198 20177 39552 40118 52001 70422 85010 90250 333 30/// 56030 59064 85459;
0253763930999992012121506004+25733-100300FM-12+051599999V0202501N001019999999N0010001N1+01821+01641101161ADDAY121061AY221061GF106991061001999999011001GJ102529IA1019KA1240M+02341KA2240N+01481MA1999999095491MD1710031-0611MW1041REMSYN124AAXX  15061 76393 31910 62501 10182 20164 39549 40116 57003 70422 86010 90550 333 10234 20148 30/// 55042 56030 59061 86460;
0217763930999992012121509004+25733-100300FM-12+051599999V0209999C000010330019N0010001N1+01781+01561101111ADDAY121031AY221031GA1051+033001041GF105991051001999999011001IA1019MA1999999095431MD1710061-0581MW1041REMSYN106AAXX  15091 76393 31910 50000 10178 20156 39543 40111 57006 70422 85010 90850 333 30/// 56050 59058 85461;
0291763930999992012121512004+25733-100300FM-12+051599999V0202401N001012200019N0010001N1+01701+01441101061ADDAA124000091AY111061AY211061GA1041+030001041GF104991041001999999011001IA1019KA1240M+02341KA2120N+01601MA1999999095361MD1710071-0551MW1041REMSYN124AAXX  15121 76393 31910 42401 10170 20144 39536 40106 57007 70411 84010 91149 333 10234 20160 30152 56050 59055 79999 84460;EQDQ01  00002PRCP24
0217763930999992012121515004+25733-100300FM-12+051599999V0200201N001010300019N0010001N1+01861+01281101251ADDAY141031AY241031GA1061+030001041GF108991061001999999021081IA1019MA1999999095531MD1210101-0561MW1051REMSYN106AAXX  15151 76393 31910 80201 10186 20128 39553 40125 52010 70544 86028 91450 333 30/// 56055 59056 86460;
0255763930999992012121518004+25733-100300FM-12+051599999V0200601N001010300019N0010001N1+02341+01711101251ADDAY141061AY241061GA1051+030001041GF108991051001999999021081IA1019KA1120M+02461KA2240N+01601MA1999999095551MD1210021-0401MW1051REMSYN118AAXX  15181 76393 31910 80601 10234 20171 39555 40125 52002 70544 85028 92045 333 10246 20160 30/// 56055 59040 85460;
0217763930999992012121521004+25733-100300FM-12+051599999V0201201N001010300019N0020001N1+02741+01671100941ADDAY141031AY241031GA1051+030001041GF105991051001999999021001IA1019MA1999999095301MD1710251-0271MW1051REMSYN106AAXX  15211 76393 31920 51201 10274 20167 39530 40094 57025 70544 85020 92050 333 30/// 56050 59027 85460;
0262763930999992012121600004+25733-100300FM-12+051599999V0201201N003010360019N0020001N1+02401+01841100951ADDAA124000091AY141061AY241061GF105991031051008001021001IA1019KA1120M+02801KA2180N+01601MA1999999095351MD1210051-0161MW1051REMSYN130AAXX  16001 76393 31520 51203 10240 20184 39535 40095 52005 70544 83520 92350 333 10280 20160 30/// 50241 56350 59016 70000 83623;
0217763930999992012121603004+25733-100300FM-12+051599999V0200701N001010270019N0010001N1+02001+01731101001ADDAY121031AY221031GA1051+027001041GF105991051001999999011001IA1019MA1999999095411MD1210061-0111MW1041REMSYN106AAXX  16031 76393 31910 50701 10200 20173 39541 40100 52006 70422 85010 90250 333 30/// 56050 59011 85459;
0251763930999992012121606004+25733-100300FM-12+051599999V0203401N001012200019N0010001N1+01801+01621100951ADDAY101061AY201061GA1001+999999999GF100991001001999999001001GJ102709IA1019KA1240M+02801KA2240N+01601MA1999999095331MD1710081-0161MW1041REMSYN106AAXX  16061 76393 31910 03401 10180 20162 39533 40095 57008 70400 90550 333 10280 20160 30/// 55045 59016;
0199763930999992012121609004+25733-100300FM-12+051599999V0202301N001012200019N0010001N1+01741+01551100881ADDAY141031AY241031GA1001+999999999GF100991001001999999001001IA1019MA1999999095231MD1710101-0201MW1051REMSYN088AAXX  16091 76393 31910 02301 10174 20155 39523 40088 57010 70544 90849 333 30/// 59020;
0269763930999992012121612004+25733-100300FM-12+051599999V0201801N001012200019N0010001N1+01661+01501100881ADDAA124000091AY101061AY201061GF102991021001999999011001IA1019KA1240M+02801KA2120N+01601MA1999999095191MD1710041-0171MW1041REMSYN118AAXX  16121 76393 31910 21801 10166 20150 39519 40088 57004 70400 82010 91152 333 10280 20160 30154 56050 59017 70000;EQDQ01  00002PRCP24
0217763930999992012121615004+25733-100300FM-12+051599999V0202001N001012200019N0010001N1+01861+01521101091ADDAY141031AY241031GA1031+033001041GF103991031001999999011001IA1019MA1999999095371MD1210181-0161MW1051REMSYN106AAXX  16151 76393 31910 32001 10186 20152 39537 40109 52018 70544 83010 91450 333 30/// 56050 59016 83461;
0233763930999992012121618004+25733-100300FM-12+051599999V0201201N001012200019N0010001N1+02701+01511100941ADDAY141061AY241061GF102991021001999999011001IA1019KA1120M+02821KA2240N+01601MA1999999095261MD1710111-0291MW1051REMSYN112AAXX  16181 76393 31910 21201 10270 20151 39526 40094 57011 70544 82010 91750 333 10282 20160 30/// 56050 59029;
0217763930999992012121621004+25733-100300FM-12+051599999V0201101N00101036001CN0030001N1+02901+01661100581ADDAY121031AY221031GA1031+015001061GF106991031051017501031061IA1019MA1999999094981MD1710281-0321MW1041REMSYN106AAXX  16211 76393 31730 61101 10290 20166 39498 40058 57028 70422 83536 92050 333 30/// 56555 59032 83650;
0262763930999992012121700004+25733-100300FM-12+051599999V0201101N001010360019N0030001N1+02421+01671100671ADDAA124000091AY141061AY221061GF106991031051008001041061IA1019KA1120M+03051KA2180N+01601MA1999999095101MD1210121-0251MW1051REMSYN130AAXX  17001 76393 31530 61101 10242 20167 39510 40067 52012 70542 83546 92350 333 10305 20160 30/// 50311 56755 59025 70000 83631;
0217763930999992012121703004+25733-100300FM-12+051599999V0203401N001010300019N0010001N1+02021+01281101011ADDAY121031AY221031GA1051+030001041GF105991051001999999011001IA1019MA1999999095441MD1210341+0031MW1041REMSYN106AAXX  17031 76393 31910 53401 10202 20128 39544 40101 52034 70422 85010 90250 333 30/// 56050 58003 85460;
0253763930999992012121706004+25733-100300FM-12+051599999V0201301N001019999999N0010001N1+01941+01301101091ADDAY121061AY221061GF105991051001999999011001GJ104929IA1019KA1240M+03051KA2240N+01601MA1999999095501MD1210061+0171MW1041REMSYN124AAXX  17061 76393 31910 51301 10194 20130 39550 40109 52006 70422 85010 90550 333 10305 20160 30/// 55082 56070 58017 85460;
0217763930999992012121715004+25733-100300FM-12+051599999V0201301N001010900019N0020001N1+02041+00911101661ADDAY141031AY221031GA1011+014101061GF105991011051012501021021IA1019MA1999999095961MD1999999+0591MW1051REMSYN106AAXX  17151 76393 31620 51301 10204 20091 39596 40166 5//// 70542 81522 91450 333 30/// 56355 58059 81647;
0255763930999992012121718004+25733-100300FM-12+051599999V0201601N001012200019N0030001N1+02481+00851101621ADDAY101061AY201061GA1011+018001061GF101991011051022501001001IA1019KA1120M+02581KA2240N+01801MA1999999095921MD1710041+0661MW1041REMSYN118AAXX  17181 76393 31830 11601 10248 20085 39592 40162 57004 70400 81500 91750 333 10258 20180 30/// 56700 58066 81656;
0199763930999992012121721004+25733-100300FM-12+051599999V0201201N001012200019N0030001N1+02601+00751101221ADDAY101031AY201031GA1001+999999999GF100991001001999999001001IA1019MA1999999095581MD1710341+0601MW1041REMSYN088AAXX  17211 76393 31930 01201 10260 20075 39558 40122 57034 70400 92050 333 30/// 58060;
0279763930999992012121800004+25733-100300FM-12+051599999V0209999C000012200019N0040001N1+02361+01081101161ADDAA124000091AY101061AY201061GA1001+999999999GF100991001001999999001001IA1019KA1120M+02761KA2180N+01801MA1999999095551MD1710031+0451MW1041REMSYN112AAXX  18001 76393 31940 00000 10236 20108 39555 40116 57003 70400 92350 333 10276 20180 30/// 50481 58045 70000;EQDQ01  00002PRCP24
0199763930999992012121803004+25733-100300FM-12+051599999V0201801N001012200019N0020001N1+01961+01091101281ADDAY101031AY201031GA1001+999999999GF100991001001999999001001IA1019MA1999999095671MD1210121+0231MW1041REMSYN088AAXX  18031 76393 31920 01801 10196 20109 39567 40128 52012 70400 90250 333 30/// 58023;
0251763930999992012121806004+25733-100300FM-12+051599999V0202201N001012200019N0010001N1+01741+00941101381ADDAY101061AY201061GA1001+999999999GF100991001001999999001001GJ105229IA1019KA1240M+02761KA2240N+01701MA1999999095741MD1210071+0241MW1041REMSYN106AAXX  18061 76393 31910 02201 10174 20094 39574 40138 52007 70400 90550 333 10276 20170 30/// 55087 58024;
0199763930999992012121809004+25733-100300FM-12+051599999V0202501N001012200019N0010001N1+01501+00821101351ADDAY101031AY201031GA1001+999999999GF100991001001999999001001IA1019MA1999999095661MD1710081+9999MW1041REMSYN088AAXX  18091 76393 31910 02501 10150 20082 39566 40135 57008 70400 90849 333 30/// 58///;
0273763930999992012121812004+25733-100300FM-12+051599999V0202301N001012200019N0010001N1+01501+00691101311ADDAA124000091AY101061AY201061GA1001+999999999GF100991001001999999001001IA1019KA1240M+02761KA2120N+01401MA1999999095581MD1710081+9999MW1041REMSYN106AAXX  18121 76393 31910 02301 10150 20069 39558 40131 57008 70400 91149 333 10276 20140 30130 58/// 70000;EQDQ01  00002PRCP24
0199763930999992012121815004+25733-100300FM-12+051599999V0202001N001012200019N0030001N1+01901+00681101451ADDAY101031AY201031GA1001+999999999GF100991001001999999001001IA1019MA1999999095691MD1210111-0271MW1041REMSYN088AAXX  18151 76393 31930 02001 10190 20068 39569 40145 52011 70400 91450 333 30/// 59027;
0237763930999992012121818004+25733-100300FM-12+051599999V0201101N001012200019N0030001N1+02521+01001101271ADDAY101061AY201061GA1001+999999999GF100991001001999999001001IA1019KA1120M+02711KA2240N+01401MA1999999095551MD1710141-0371MW1041REMSYN100AAXX  18181 76393 31930 01101 10252 20100 39555 40127 57014 70400 91750 333 10271 20140 30/// 59037;
0199763930999992012121821004+25733-100300FM-12+051599999V0201201N002012200019N0030001N1+02881+01211100801ADDAY141031AY241031GA1001+999999999GF100991001001999999001001IA1019MA1999999095171MD1710381-0411MW1051REMSYN088AAXX  18211 76393 31930 01202 10288 20121 39517 40080 57038 70544 92050 333 30/// 59041;
0279763930999992012121900004+25733-100300FM-12+051599999V0201301N001012200019N0040001N1+02681+01141100671ADDAA124000091AY141061AY241061GA1001+999999999GF100991001001999999001001IA1019KA1120M+03001KA2180N+01401MA1999999095101MD1710071-0451MW1051REMSYN112AAXX  19001 76393 31940 01301 10268 20114 39510 40067 57007 70544 92350 333 10300 20140 30/// 50461 59045 70000;EQDQ01  00002PRCP24
0199763930999992012121903004+25733-100300FM-12+051599999V0202801N001012200019N0020001N1+02121+01171100741ADDAY141031AY241031GA1001+999999999GF100991001001999999001001IA1019MA1999999095191MD1210091-0481MW1051REMSYN088AAXX  19031 76393 31920 02801 10212 20117 39519 40074 52009 70544 90245 333 30/// 59048;
0195763930999992012121915004+25733-100300FM-12+051599999V0201801N001012200019N0030001N1+01821+00881100841ADDAY101031AY201031GF101991001001999999001021IA1019MA1999999095141MD1999999-0551MW1041REMSYN100AAXX  19151 76393 31930 11801 10182 20088 39514 40084 5//// 70400 80002 91450 333 30/// 56001 59055;
0233763930999992012121918004+25733-100300FM-12+051599999V0201101N001012200019N0030001N1+02701+01361100751ADDAY101061AY201061GF102991001001999999001021IA1019KA1120M+02801KA2240N+01501MA1999999095071MD1710071-0481MW1041REMSYN112AAXX  19181 76393 31930 21101 10270 20136 39507 40075 57007 70400 80002 91750 333 10280 20150 30/// 56001 59048;
0195763930999992012121921004+25733-100300FM-12+051599999V0201201N002012200019N0030001N1+03181+00991100411ADDAY141031AY241031GF102991001001999999001081IA1019MA1999999094821MD1710251-0351MW1051REMSYN100AAXX  19211 76393 31930 21202 10318 20099 39482 40041 57025 70544 80008 92050 333 30/// 56007 59035;
0262763930999992012122000004+25733-100300FM-12+051599999V0202001N002019999999N0040001N1+02781+01231100431ADDAA124000091AY121061AY221061GF105991001001999999001081IA1019KA1120M+03261KA2180N+01501MA1999999094891MD1210071-0211MW1041REMSYN130AAXX  20001 76393 31940 52002 10278 20123 39489 40043 52007 70422 80008 92350 333 10326 20150 30/// 50481 56007 59021 70000 85271;
0199763930999992012122003004+25733-100300FM-12+051599999V0202201N001012200019N0010001N1+02341+00921100621ADDAY141031AY241031GA1001+999999999GF100991001001999999001001IA1019MA1999999095111MD1210221-0081MW1051REMSYN088AAXX  20031 76393 31910 02201 10234 20092 39511 40062 52022 70544 90248 333 30/// 59008;
0251763930999992012122006004+25733-100300FM-12+051599999V0202301N001012200019N0010001N1+01841+00861100871ADDAY141061AY241061GA1001+999999999GF100991001001999999001001GJ105169IA1019KA1240M+03261KA2240N+01501MA1999999095321MD1210211+0111MW1051REMSYN106AAXX  20061 76393 31910 02301 10184 20086 39532 40087 52021 70544 90549 333 10326 20150 30/// 55086 58011;
0245763930999992012122012004+25733-100300FM-12+051599999V0200201N006012200019N0010001N1+01601-00501100751ADDAA124000091GA1001+999999999GF100991001001999999001001IA1019KA1240M+03261KA2120N+01501MA1999999096281MD1210481+1161REMSYN100AAXX  20121 76393 32910 00206 10160 21050 39628 40075 52048 91158 333 10326 20150 30142 58116 70000;EQDQ01  00002PRCP24
0242763930999992012122015004+25733-100300FM-12+051599999V0200101N003019999999N0010001N1+01351-00421102722ADDAY141031AY221031GA1031+030001041GF108991031001999999011081IA1019MA1999999096901MD1210621+1771MW1051REMSYN112AAXX  20151 76393 31910 80103 10135 21042 39690 40272 52062 70542 83018 91450 333 30/// 56077 58177 83460 85270;EQDQ01+102723APOSLP
0255763930999992012122018004+25733-100300FM-12+051599999V0200301N003010600019N0008001N1+01521-00301103081ADDAY141061AY241061GA1051+060001021GF105991001001999999001081IA1019KA1120M+01861KA2240N+01221MA1999999097211MD1210311+2141MW1071REMSYN118AAXX  20181 76393 31908 50303 10152 21030 39721 40308 52031 70744 80008 91755 333 10186 20122 30/// 56007 58214 85270;
0195763930999992012122021004+25733-100300FM-12+051599999V0200601N002012200019N0020001N1+01501-00561102841ADDAY101031AY201031GF102991001001999999001081IA1019MA1999999096971MD1710241+9999MW1041REMSYN100AAXX  20211 76393 31920 20602 10150 21056 39697 40284 57024 70400 80008 92050 333 30/// 56007 58215;
0245763930999992012122100004+25733-100300FM-12+051599999V0200301N001012200019N0030001N1+01281-00251102951ADDAY101061AY201061GF103991001001999999001081IA1019KA1120M+01861KA2180N+01221MA1999999097071MD1210101+2181MW1041REMSYN124AAXX  21001 76393 31930 30301 10128 21025 39707 40295 52010 70400 80008 92350 333 10186 20122 30/// 50481 56007 58218 70000;
0195763930999992012122103004+25733-100300FM-12+051599999V0200401N001012200019N0010001N1+01041-00501103191ADDAY101031AY201031GF102991001001999999001081IA1019MA1999999097281MD1210211+9999MW1041REMSYN100AAXX  21031 76393 31910 20401 10104 21050 39728 40319 52021 70400 80008 90250 333 30/// 56007 58217;
0241763930999992012122106004+25733-100300FM-12+051599999V0200401N002012200019N0010001N1+00921+99999103241ADDAY101061AY201061GF102991021001999999011001GJ104929IA1019KA1240M+01861KA2240N+00901MA1999999097311MD1210031+9999MW1041REMSYN112AAXX  21061 76393 31910 20402 10092 39731 40324 52003 70400 82010 90550 333 10186 20090 30/// 55082 56070 58199;
0195763930999992012122115004+25733-100300FM-12+051599999V0201601N001012200019N0030001N1+01001-00301103351ADDAY101031AY201031GF101991001001999999001011IA1019MA1999999097331MD1210101+0431MW1041REMSYN100AAXX  21151 76393 31930 11601 10100 21030 39733 40335 52010 70400 80001 91450 333 30/// 56007 58043;
0233763930999992012122118004+25733-100300FM-12+051599999V0201001N002012200019N0040001N1+01301-00271103181ADDAY101061AY201061GF101991001001999999001081IA1019KA1120M+01481KA2240N+00701MA1999999097181MD1710151-0031MW1041REMSYN112AAXX  21181 76393 31940 11002 10130 21027 39718 40318 57015 70400 80008 91750 333 10148 20070 30/// 56007 59003;
0189763930999992012122121004+25733-100300FM-12+051599999V0201101N006010600019N0050001N1+01581-00301102771ADDGA1051+060001021GF105991001001999999001081IA1019MA1999999096831MD1710351-0141REMSYN100AAXX  21211 76393 32950 51106 10158 21030 39683 40277 57035 80008 92045 333 30/// 56007 59014 85270;
0234763930999992012122200004+25733-100300FM-12+051599999V0201201N005019999999N0050001N1+01501-00401102621ADDAA124000091GF108991021001999999011081IA1019KA1120M+01721KA2180N+00701MA1999999096721MD1710111-0351REMSYN124AAXX  22001 76393 32950 81205 10150 21040 39672 40262 57011 82018 92345 333 10172 20070 30/// 50571 56077 59035 70000 86270;
0195763930999992012122215004+25733-100300FM-12+051599999V0202001N001012200019N0010001N1+01141+00281102611ADDAY101031AY201031GF102991001001999999001081IA1019MA1999999096661MD1210041-0671MW1041REMSYN100AAXX  22151 76393 31910 22001 10114 20028 39666 40261 52004 70400 80008 91450 333 30/// 56007 59067;
0233763930999992012122218004+25733-100300FM-12+051599999V0200301N001012200019N0010001N1+01601+00451102451ADDAY101061AY201061GF104991001001999999001081IA1019KA1120M+01721KA2240N+00801MA1999999096531MD1710131-0651MW1041REMSYN112AAXX  22181 76393 31910 40301 10160 20045 39653 40245 57013 70400 80008 91750 333 10172 20080 30/// 56007 59065;
0195763930999992012122221004+25733-100300FM-12+051599999V0200701N001012200019N0020001N1+01941+00491102041ADDAY141031AY241031GF101991001001999999001081IA1019MA1999999096181MD1710351-0651MW1051REMSYN100AAXX  22211 76393 31920 10701 10194 20049 39618 40204 57035 70544 80008 92030 333 30/// 56007 59065;
0199763930999992012122303004+25733-100300FM-12+051599999V0203201N001012200019N0010001N1+01561+00851101861ADDAY141031AY241031GA1001+999999999GF100991001001999999001001IA1019MA1999999096101MD1710021+9999MW1051REMSYN088AAXX  23031 76393 31910 03201 10156 20085 39610 40186 57002 70544 90248 333 30/// 58///;
0251763930999992012122306004+25733-100300FM-12+051599999V0202001N001012200019N0010001N1+01461+00731101851ADDAY141061AY241061GA1001+999999999GF100991001001999999001001GJ105469IA1019KA1240M+02181KA2240N+00801MA1999999096091MD1710011+9999MW1051REMSYN106AAXX  23061 76393 31910 02001 10146 20073 39609 40185 57001 70544 90549 333 10218 20080 30/// 55091 58///;
0199763930999992012122315004+25733-100300FM-12+051599999V0202001N001012200019N0010001N1+01541+00831101791ADDAY101031AY201031GA1001+999999999GF100991001001999999001001IA1019MA1999999095951MD1210121-0711MW1041REMSYN088AAXX  23151 76393 31910 02001 10154 20083 39595 40179 52012 70400 91450 333 30/// 59071;
0233763930999992012122318004+25733-100300FM-12+051599999V0200601N001012200019N0010001N1+02241+00881101641ADDAY101061AY201061GF104991001001999999001081IA1019KA1120M+02441KA2240N+01021MA1999999095841MD1710111-0691MW1041REMSYN112AAXX  23181 76393 31910 40601 10224 20088 39584 40164 57011 70400 80008 91750 333 10244 20102 30/// 56007 59069;
0217763930999992012122321004+25733-100300FM-12+051599999V0200901N002010600019N0030001N1+02601+00921101231ADDAY121031AY221031GA1051+060001021GF105991001001999999001081IA1019MA1999999095511MD1710331-0671MW1051REMSYN106AAXX  23211 76393 31930 50902 10260 20092 39551 40123 57033 70522 80008 92050 333 30/// 56007 59067 85270;
0245763930999992012122400004+25733-100300FM-12+051599999V0201101N001012200019N0030001N1+02481+01201101191ADDAY111061AY211061GF104991001001999999001081IA1019KA1120M+02801KA2180N+01021MA1999999095541MD1210031-0581MW1051REMSYN124AAXX  24001 76393 31930 41101 10248 20120 39554 40119 52003 70511 80008 92350 333 10280 20102 30/// 50331 56007 59058 70000;
0217763930999992012122415004+25733-100300FM-12+051599999V0201801N001010300019N0020001N1+01801+01091101371ADDAY121031AY221031GA1071+030001031GF107991071001999999041001IA1019MA1999999095611MD1210101-0341MW1041REMSYN106AAXX  24151 76393 31920 71801 10180 20109 39561 40137 52010 70422 87040 91450 333 30/// 56070 59034 87360;
0255763930999992012122418004+25733-100300FM-12+051599999V0201201N001010360019N0020001N1+02401+01131101251ADDAY121061AY221061GA1051+036001031GF105991051001999999041001IA1019KA1120M+02501KA2240N+01281MA1999999095521MD1710091-0321MW1041REMSYN118AAXX  24181 76393 31920 51201 10240 20113 39552 40125 57009 70422 85040 91750 333 10250 20128 30/// 56070 59032 85362;
0199763930999992012122603004+25733-100300FM-12+051599999V0203401N003012200019N0010001N1+01741+00451101361ADDAY141031AY241031GA1001+999999999GF100991001001999999001001IA1019MA1999999095781MD1210471+9999MW1051REMSYN088AAXX  26031 76393 31910 03403 10174 20045 39578 40136 52047 70544 90250 333 30/// 58///;
0251763930999992012122606004+25733-100300FM-12+051599999V0200301N003012200019N0010001N1+01201-00121101831ADDAY101061AY201061GA1001+999999999GF100991001001999999001001GJ105589IA1019KA1240M+03361KA2240N+01181MA1999999096151MD1210371+9999MW1041REMSYN106AAXX  26061 76393 31910 00303 10120 21012 39615 40183 52037 70400 90550 333 10336 20118 30/// 55093 58///;
0199763930999992012122621004+25733-100300FM-12+051599999V0201201N002012200019N0020001N1+01341-00151101861ADDAY141031AY241031GA1001+999999999GF100991001001999999001001IA1019MA1999999095941MD1710371+0261MW1051REMSYN088AAXX  26211 76393 31920 01202 10134 21015 39594 40186 57037 70544 92050 333 30/// 58026;
0243763930999992012122700004+25733-100300FM-12+051599999V0201201N003012200019N0030001N1+01281-00131101761ADDAY101061AY201061GA1001+999999999GF100991001001999999001001IA1019KA1120M+01541KA2180N+00601MA1999999095881MD1710061-0571MW1041REMSYN106AAXX  27001 76393 31930 01203 10128 21013 39588 40176 57006 70400 92350 333 10154 20060 30/// 50411 59057;
0199763930999992012122703004+25733-100300FM-12+051599999V0200601N002012200019N0020001N1+00901-00211101851ADDAY101031AY201031GA1001+999999999GF100991001001999999001001IA1019MA1999999095971MD1210091+0191MW1041REMSYN088AAXX  27031 76393 31920 00602 10090 21021 39597 40185 52009 70400 90250 333 30/// 58019;
0251763930999992012122706004+25733-100300FM-12+051599999V0202901N002012200019N0020001N1+00781-00191101761ADDAY101061AY201061GA1001+999999999GF100991001001999999001001GJ105529IA1019KA1240M+01541KA2240N+00601MA1999999095881MD1710091-0271MW1041REMSYN106AAXX  27061 76393 31920 02902 10078 21019 39588 40176 57009 70400 90550 333 10154 20060 30/// 55092 59027;
0199763930999992012122709004+25733-100300FM-12+051599999V0209999C000012200019N0010001N1+00701-00191101641ADDAY101031AY201031GA1001+999999999GF100991001001999999001001IA1019MA1999999095731MD1710151+9999MW1041REMSYN088AAXX  27091 76393 31910 00000 10070 21019 39573 40164 57015 70400 90850 333 30/// 58///;
0285763930999992012122712004+25733-100300FM-12+051599999V0209999C000012200019N0010001N1+00561-00041101481ADDAA124000091AY101061AY201061GA1001+999999999GF100991001001999999001001IA1019IA2999+00449KA1240M+01541KA2120N+00501MA1999999095551MD1710181+9999MW1041REMSYN106AAXX  27121 76393 31910 00000 10056 21004 39555 40148 57018 70400 91150 333 10154 20050 30044 58/// 70000;EQDQ01  00002PRCP24
0217763930999992012122715004+25733-100300FM-12+051599999V0202301N001010630019N0010001N1+00781-00031101541ADDAY101031AY201031GA1061+063001021GF106991001001999999001081IA1019MA1999999095591MD1210041+9999MW1041REMSYN106AAXX  27151 76393 31910 62301 10078 21003 39559 40154 52004 70400 80008 91450 333 30/// 56007 58/// 86271;
0255763930999992012122718004+25733-100300FM-12+051599999V0201201N001010330019N0010001N1+01321+00211101391ADDAY121061AY221061GA1051+033001041GF105991051001999999021001IA1019KA1120M+01421KA2240N+00501MA1999999095471MD1710121-0841MW1041REMSYN118AAXX  27181 76393 31910 51201 10132 20021 39547 40139 57012 70422 85020 91750 333 10142 20050 30/// 56070 59084 85461;
0217763930999992012122721004+25733-100300FM-12+051599999V0201101N004010300019N0010001N1+01741+00241100941ADDAY141031AY241031GA1051+030001041GF107991051001999999011081IA1019MA1999999095091MD1710381-0851MW1051REMSYN106AAXX  27211 76393 31910 71104 10174 20024 39509 40094 57038 70544 85018 92050 333 30/// 56077 59085 85460;
0262763930999992012122800004+25733-100300FM-12+051599999V0201001N001019999999N0010001N1+01631+00391100861ADDAA124000091AY141061AY241061GF107991031001999999011081IA1019KA1120M+01881KA2180N+00501MA1999999095061MD1710031-0821MW1051REMSYN130AAXX  28001 76393 31910 71001 10163 20039 39506 40086 57003 70544 83018 92345 333 10188 20050 30/// 50371 56077 59082 70000 83460;
0199763930999992012122803004+25733-100300FM-12+051599999V0200801N001012200019N0010001N1+01281+00411100911ADDAY101031AY201031GA1001+999999999GF100991001001999999001001IA1019MA1999999095141MD1210081-0831MW1041REMSYN088AAXX  28031 76393 31910 00801 10128 20041 39514 40091 52008 70400 90250 333 30/// 59083;
0253763930999992012122806004+25733-100300FM-12+051599999V0201801N001019999999N0010001N1+01161+00591100921ADDAY121061AY221061GF106991061001999999011001GJ103429IA1019KA1240M+01881KA2240N+00501MA1999999095161MD1210021-0721MW1041REMSYN124AAXX  28061 76393 31910 61801 10116 20059 39516 40092 52002 70422 86010 90550 333 10188 20050 30/// 55057 56070 59072 86460;
0217763930999992012122809004+25733-100300FM-12+051599999V0209999C000012200019N0010001N1+01021+00461100871ADDAY111031AY211031GA1041+030001041GF104991041001999999011001IA1019MA1999999095091MD1710071-0641MW1041REMSYN106AAXX  28091 76393 31910 40000 10102 20046 39509 40087 57007 70411 84010 90850 333 30/// 56070 59064 84460;
0269763930999992012122812004+25733-100300FM-12+051599999V0202701N001012200019N0010001N1+00981+00321100941ADDAA124000091AY101061AY201061GF102991021001999999011001IA1019KA1240M+01881KA2120N+00901MA1999999095121MD1210031-0431MW1041REMSYN118AAXX  28121 76393 31910 22701 10098 20032 39512 40094 52003 70400 82010 91151 333 10188 20090 30080 56070 59043 70000;EQDQ01  00002PRCP24
0195763930999992012122815004+25733-100300FM-12+051599999V0201601N001012200019N0010001N1+01521+00391101211ADDAY101031AY201031GF102991021001999999021001IA1019MA1999999095361MD1210241-0231MW1041REMSYN100AAXX  28151 76393 31910 21601 10152 20039 39536 40121 52024 70400 82020 91455 333 30/// 56030 59023;
0233763930999992012122818004+25733-100300FM-12+051599999V0200501N002012200019N0020001N1+01721+00091101551ADDAY101061AY201061GF102991001001999999001081IA1019KA1120M+01841KA2240N+00901MA1999999095701MD1210341+0231MW1041REMSYN112AAXX  28181 76393 31920 20502 10172 20009 39570 40155 52034 70400 80008 91750 333 10184 20090 30/// 56007 58023;
0199763930999992012122903004+25733-100300FM-12+051599999V0202001N002012200019N0020001N1+01561+00351101811ADDAY101031AY201031GA1001+999999999GF100991001001999999001001IA1019MA1999999096061MD1210361+0921MW1041REMSYN088AAXX  29031 76393 31920 02002 10156 20035 39606 40181 52036 70400 90250 333 30/// 58092;
0276763930999992012122906004+25733-100300FM-12+051599999V0201401N001012200019N0020001N1+01321+00421101951ADDAA124000091AY101061AY201061GF102991021001999999011001GJ105529IA1019KA1240M+02201KA2240N+00901MA1999999096181MD1210121+1021MW1041REMSYN136AAXX  29061 76393 31920 21401 10132 20042 39618 40195 52012 70400 82010 90550 333 10220 20090 30/// 50341 55092 56070 58102 70000 82460;
0217763930999992012122909004+25733-100300FM-12+051599999V0209999C000012200019N0010001N1+01121+00251102221ADDAY101031AY201031GA1031+030001041GF103991031001999999011001IA1019MA1999999096391MD1210211+1301MW1041REMSYN106AAXX  29091 76393 31910 30000 10112 20025 39639 40222 52021 70400 83010 90850 333 30/// 56070 58130 83460;
0272763930999992012122912004+25733-100300FM-12+051599999V0201201N003010102019N0010001N1+01061+00231102531ADDAA124000091AY121061AY221061GA1051+010201061GF105991051051012501001001IA1019KA1240M+02201KA2120N+00961MA1999999096641MD1210251+1521MW1041REMSYN124AAXX  29121 76393 31610 51203 10106 20023 39664 40253 52025 70422 85500 91150 333 10220 20096 30090 56300 58152 70000 85634;
0217763930999992012122915004+25733-100300FM-12+051599999V0201201N005010330019N0030001N1+00921+00151102821ADDAY121031AY221031GA1081+033001031GF108991081001999999071001IA1019MA1999999096891MD1210251+1531MW1041REMSYN106AAXX  29151 76393 31930 81205 10092 20015 39689 40282 52025 70422 88070 91455 333 30/// 56070 58153 88361;
0255763930999992012122918004+25733-100300FM-12+051599999V0201201N004010330019N0030001N1+01061+00121103021ADDAY121061AY221061GA1051+033001031GF105991051001999999041001IA1019KA1120M+01161KA2240N+00921MA1999999097051MD1210161+1351MW1041REMSYN118AAXX  29181 76393 31930 51204 10106 20012 39705 40302 52016 70422 85040 91755 333 10116 20092 30/// 56070 58135 85361;
0217763930999992012123003004+25733-100300FM-12+051599999V0201101N004010300019N0020001N1+00901-00151102961ADDAY121031AY221031GA1061+030001031GF106991061001999999031001IA1019MA1999999097001MD1210091+0941MW1041REMSYN106AAXX  30031 76393 31920 61104 10090 21015 39700 40296 52009 70422 86030 90250 333 30/// 56070 58094 86360;
0276763930999992012123006004+25733-100300FM-12+051599999V0201101N002019999999N0020001N1+00841-00341102861ADDAA124000091AY121061AY221061GF108991081999999999031999GJ102229IA1019KA1240M+01461KA2240N+00801MA1999999096901MD1710101+0721MW1041REMSYN136AAXX  30061 76393 31920 81102 10084 21034 39690 40286 57010 70422 88/3/ 90550 333 10146 20080 30/// 50351 55037 56/7/ 58072 70000 88360;
0217763930999992012123009004+25733-100300FM-12+051599999V0200801N003010300019N0010001N1+00721-00271102791ADDAY121031AY221031GA1061+030001031GF106991061001999999031001IA1019MA1999999096821MD1710081+0431MW1041REMSYN106AAXX  30091 76393 31910 60803 10072 21027 39682 40279 57008 70422 86030 90850 333 30/// 56070 58043 86360;
0284763930999992012123012004+25733-100300FM-12+051599999V0201201N003010330019N0010001N1+00621-00171102741ADDAA124000091AY121061AY221061GA1051+033001031GF105991051001999999031001IA1019IA2999+00509KA1240M+01461KA2120N+00561MA1999999096731MD1710091+0091MW1041REMSYN124AAXX  30121 76393 31910 51203 10062 21017 39673 40274 57009 70422 85030 91149 333 10146 20056 30050 56070 58009 70000 85361;
0217763930999992012123015004+25733-100300FM-12+051599999V0200601N001010330019N0030001N1+00741+00121102881ADDAY121031AY221031GA1051+033001031GF106991061001999999041001IA1019MA1999999096861MD1210131-0031MW1041REMSYN106AAXX  30151 76393 31930 60601 10074 20012 39686 40288 52013 70422 86040 91450 333 30/// 56070 59003 85361;
0255763930999992012123018004+25733-100300FM-12+051599999V0200601N001010330019N0030001N1+01121+00041102741ADDAY121061AY221061GA1051+033001041GF106991061001999999021001IA1019KA1120M+01201KA2240N+00561MA1999999096731MD1710131-0321MW1041REMSYN118AAXX  30181 76393 31930 60601 10112 20004 39673 40274 57013 70422 86020 91750 333 10120 20056 30/// 56070 59032 85461;
0189763930999992012123021004+25733-100300FM-12+051599999V0201101N001010300019N0040001N1+01281+00101102281ADDGA1081+030001041GF108991081001999999011001IA1019MA1999999096321MD1710411-0711REMSYN100AAXX  30211 76393 32940 81101 10128 20010 39632 40228 57041 88010 92050 333 30/// 56070 59071 88460;
0217763930999992012123103004+25733-100300FM-12+051599999V0202101N003012200019N0020001N1+01041+00301102101ADDAY101031AY201031GA1021+030001041GF102991021001999999011001IA1019MA1999999096201MD1710011-0801MW1041REMSYN106AAXX  31031 76393 31920 22103 10104 20030 39620 40210 57001 70400 82010 90250 333 30/// 56050 59080 82460;
0253763930999992012123106004+25733-100300FM-12+051599999V0202501N001019999999N0020001N1+01001+00391102011ADDAY121061AY221061GF105991051001999999011001GJ101929IA1019KA1240M+01461KA2240N+00561MA1999999096121MD1710081-0781MW1041REMSYN124AAXX  31061 76393 31920 52501 10100 20039 39612 40201 57008 70422 85010 90550 333 10146 20056 30/// 55032 56010 59078 85460;
0217763930999992012123109004+25733-100300FM-12+051599999V0209999C000010300019N0010001N1+00961+00431101841ADDAY121031AY221031GA1061+030001041GF106991061001999999011001IA1019MA1999999095941MD1710181-0881MW1041REMSYN106AAXX  31091 76393 31910 60000 10096 20043 39594 40184 57018 70422 86010 90850 333 30/// 56010 59088 86460;
0272763930999992012123112004+25733-100300FM-12+051599999V0209999C000010330019N0010001N1+01021+00371101731ADDAA124000091AY121061AY221061GA1061+033001041GF106991061001999999011001IA1019KA1240M+01461KA2120N+00921MA1999999095831MD1710111-0901MW1041REMSYN124AAXX  31121 76393 31910 60000 10102 20037 39583 40173 57011 70422 86010 91150 333 10146 20092 30084 56010 59090 70000 86461;
0217763930999992012123115004+25733-100300FM-12+051599999V0202501N001010330019N0020001N1+01201+00501101781ADDAY121031AY221031GA1081+033001041GF108991081001999999021001IA1019MA1999999095881MD1210051-0981MW1041REMSYN106AAXX  31151 76393 31920 82501 10120 20050 39588 40178 52005 70422 88020 91450 333 30/// 56070 59098 88461;
0255763930999992012123118004+25733-100300FM-12+051599999V0202101N001010330019N0020001N1+01621+00711101671ADDAY121061AY221061GA1081+033001041GF108991081001999999021001IA1019KA1120M+01681KA2240N+00921MA1999999095801MD1710081-0931MW1041REMSYN118AAXX  31181 76393 31920 82101 10162 20071 39580 40167 57008 70422 88020 91750 333 10168 20092 30/// 56050 59093 88461;
